{
"type": "FeatureCollection",
"name": "02_aomori_region",
"crs": { "type": "name", "properties": { "name": "urn:ogc:def:crs:OGC:1.3:CRS84" } },
"features": [
{ "type": "Feature", "properties": { "code": "020011", "name": "東青津軽", "PrefCode": "02", "regioncode": "020011" }, "geometry": { "type": "MultiPolygon", "coordinates": [ [ [ [ 140.770583838873108, 40.834852999666282 ], [ 140.766941387635029, 40.834991360363063 ], [ 140.770520752330867, 40.83486261341892 ], [ 140.770583838873108, 40.834852999666282 ] ] ], [ [ [ 140.757454720858732, 40.837443639812193 ], [ 140.750447976892701, 40.835669918631879 ], [ 140.757624863596675, 40.837570197806428 ], [ 140.757454720858732, 40.837443639812193 ] ] ], [ [ [ 140.726524501404697, 40.845818721157116 ], [ 140.73591036317282, 40.841104558628558 ], [ 140.726447030206373, 40.845716972760158 ], [ 140.726878910733262, 40.84977819780562 ], [ 140.726488222753346, 40.845889467225163 ], [ 140.726524501404697, 40.845818721157116 ] ] ], [ [ [ 140.850528301440022, 40.896920225088365 ], [ 140.850345615857577, 40.894007667220137 ], [ 140.847085524877116, 40.895728224977631 ], [ 140.850387223891289, 40.897086468365899 ], [ 140.850528301440022, 40.896920225088365 ] ] ], [ [ [ 140.852946446221608, 40.909833414080822 ], [ 140.851218390816143, 40.907706747668328 ], [ 140.852932282798633, 40.909880640179438 ], [ 140.852946446221608, 40.909833414080822 ] ] ], [ [ [ 140.855277497958241, 40.935140721367247 ], [ 140.858000000299853, 40.933328775402742 ], [ 140.85332916980542, 40.93137627889223 ], [ 140.85523306065727, 40.935140721367247 ], [ 140.855277497958241, 40.935140721367247 ] ] ], [ [ [ 140.982084227605128, 40.944842360286771 ], [ 140.983989026772178, 40.94208905436642 ], [ 140.981417808385231, 40.944637721353786 ], [ 140.982084227605128, 40.944842360286771 ] ] ], [ [ [ 140.872003359167707, 41.017289360215841 ], [ 140.878051970821843, 41.009959053667444 ], [ 140.871392528842193, 41.012555999859558 ], [ 140.871958911074898, 41.017322972377315 ], [ 140.872003359167707, 41.017289360215841 ] ] ], [ [ [ 140.346137497447558, 41.262877559152059 ], [ 140.346009532913627, 41.259184000341406 ], [ 140.361718209627725, 41.250025432327902 ], [ 140.374942502894214, 41.247595748345191 ], [ 140.38535228328135, 41.239351279138248 ], [ 140.393842750342742, 41.23885902712243 ], [ 140.390301439559835, 41.238006386185816 ], [ 140.396997172781312, 41.234934505323224 ], [ 140.402342555064934, 41.222398973134148 ], [ 140.424812087607847, 41.208984639629477 ], [ 140.431993022160327, 41.198578864822821 ], [ 140.436717249901221, 41.198250107756337 ], [ 140.430852502840821, 41.196753559429283 ], [ 140.43659061006872, 41.197266504845402 ], [ 140.446786912985658, 41.189082586092525 ], [ 140.459268949002876, 41.187744359814417 ], [ 140.463858975411426, 41.18229491877554 ], [ 140.482176419905954, 41.183273026828772 ], [ 140.499372775832967, 41.190361359988799 ], [ 140.519445771605092, 41.205352467642342 ], [ 140.520815473255539, 41.215688586359249 ], [ 140.526922113664682, 41.221191359893396 ], [ 140.536869052564839, 41.221188838194394 ], [ 140.538631284006669, 41.217859440960467 ], [ 140.550155694030082, 41.229614667383032 ], [ 140.555002633364893, 41.224364108716713 ], [ 140.563431802635591, 41.226636863700378 ], [ 140.570431192845376, 41.223045297002898 ], [ 140.57878600526999, 41.224155540645711 ], [ 140.575886004635436, 41.223097134824968 ], [ 140.588024306276793, 41.217127668007549 ], [ 140.604155135551082, 41.214374307228525 ], [ 140.617688443966586, 41.196962026776191 ], [ 140.622276082675171, 41.197580225247236 ], [ 140.619046109090732, 41.1968305045242 ], [ 140.632359026947597, 41.191562748122408 ], [ 140.639255576983373, 41.184321387222269 ], [ 140.644388444071524, 41.171896585858804 ], [ 140.63362124522439, 41.132418081029641 ], [ 140.631559274241226, 41.097515360045861 ], [ 140.638694254336428, 41.06209417090929 ], [ 140.644286419582613, 41.049967613514582 ], [ 140.649212088267291, 41.047326748031026 ], [ 140.645536252396141, 41.04890844057212 ], [ 140.645080388748966, 41.046343252139422 ], [ 140.647682996173444, 41.04763130613992 ], [ 140.644954916236429, 41.045104802045046 ], [ 140.647047730368513, 41.024399072059566 ], [ 140.648839455076882, 41.014712585817222 ], [ 140.654410012312269, 41.007889153361816 ], [ 140.649972762732887, 41.006147901304644 ], [ 140.652382865776644, 40.998099324224484 ], [ 140.655757549271584, 40.997812622154868 ], [ 140.652679157317266, 40.997282801859853 ], [ 140.653981997071583, 40.990829882892854 ], [ 140.658974280338839, 40.983204792966887 ], [ 140.655639856793982, 40.986062981421526 ], [ 140.657914318690928, 40.982954694203841 ], [ 140.654227821356926, 40.982527287804146 ], [ 140.66147260687535, 40.944051332802815 ], [ 140.664389467999627, 40.935396279015094 ], [ 140.668845668093127, 40.933045072572099 ], [ 140.664868144749107, 40.934816198308965 ], [ 140.667835292364884, 40.932998747594183 ], [ 140.675965446947885, 40.895052414137638 ], [ 140.679942049386113, 40.891480369023839 ], [ 140.676886394091866, 40.892799161851883 ], [ 140.677491634231615, 40.887608026789053 ], [ 140.683035227094138, 40.874734801869636 ], [ 140.687300207938279, 40.873769784348099 ], [ 140.684356563204915, 40.872621297035266 ], [ 140.687904358099672, 40.865866305685529 ], [ 140.70389491561798, 40.850057639648412 ], [ 140.706793022280181, 40.85172280186589 ], [ 140.703948858752938, 40.850060774685062 ], [ 140.714453191161851, 40.845813972736721 ], [ 140.72049496796842, 40.848471613274398 ], [ 140.716093113006878, 40.845537720789252 ], [ 140.734429585357134, 40.833220505322117 ], [ 140.732941114740697, 40.830213441297303 ], [ 140.741440388862884, 40.835258801652401 ], [ 140.734977562064955, 40.829816504827875 ], [ 140.745408781390211, 40.829970332964535 ], [ 140.742946899879598, 40.837135252390055 ], [ 140.749266497950543, 40.829679531785018 ], [ 140.756647833830584, 40.830409559153907 ], [ 140.759775940307463, 40.836610026731421 ], [ 140.776939051895738, 40.831519613039745 ], [ 140.797584136998353, 40.837034558897813 ], [ 140.819391166868968, 40.852883639568347 ], [ 140.822643386083428, 40.861173001133125 ], [ 140.834718054394784, 40.866155441320586 ], [ 140.834889389633645, 40.872118135343726 ], [ 140.845169196401343, 40.872960640021574 ], [ 140.850194669148777, 40.883826170741258 ], [ 140.859938003336197, 40.888387360388435 ], [ 140.859863774193855, 40.896630135272574 ], [ 140.854912827365183, 40.903314504660727 ], [ 140.865373890692581, 40.904018919337716 ], [ 140.867800660871922, 40.909886332887993 ], [ 140.86498691331542, 40.908025125659094 ], [ 140.868853969335305, 40.909815748697895 ], [ 140.869416083385659, 40.917282864612559 ], [ 140.865098340216264, 40.920312586156967 ], [ 140.865602878769892, 40.925685540755183 ], [ 140.868784903200776, 40.925611081386364 ], [ 140.866819389902957, 40.940552387282878 ], [ 140.871772335025298, 40.943710639934125 ], [ 140.861861335732101, 40.947390467895843 ], [ 140.857002750176889, 40.94379825098855 ], [ 140.837907782418256, 40.953304999626084 ], [ 140.862719363607766, 40.957521080733329 ], [ 140.863455771666622, 40.962712278748711 ], [ 140.859523307055042, 40.962325224929259 ], [ 140.860040272440642, 40.959504801705293 ], [ 140.859187976843714, 40.962748613157999 ], [ 140.8600109986088, 40.971755026673179 ], [ 140.873160660735948, 40.979115586415219 ], [ 140.87116399492254, 40.983371440939322 ], [ 140.863375965828254, 40.984928667424128 ], [ 140.871230116676657, 40.986925054447738 ], [ 140.876161750564393, 40.992542306282473 ], [ 140.880755887774058, 41.004385413556065 ], [ 140.87892586273847, 41.009897945633725 ], [ 140.902911672935375, 41.008044864678823 ], [ 140.91635333323984, 40.995210612779601 ], [ 140.921849078572222, 40.994873305858448 ], [ 140.916785836097574, 40.995013666647424 ], [ 140.920428417737298, 40.993048414153066 ], [ 140.939743943328381, 40.995177252428334 ], [ 140.948939948320003, 40.992207000352835 ], [ 140.950334941604297, 40.985545026781608 ], [ 140.962001089278942, 40.972647504878523 ], [ 140.984480725704998, 40.959610080840605 ], [ 140.984751632981556, 40.95712538712695 ], [ 140.982027197996899, 40.960288586049444 ], [ 140.980286472043076, 40.947163279361916 ], [ 140.977770856040252, 40.948957133664862 ], [ 140.981486718937049, 40.941339946081712 ], [ 140.979817302026959, 40.943525413766906 ], [ 140.977951025319612, 40.940066999792236 ], [ 140.972639221922577, 40.940620531612296 ], [ 140.972378949129279, 40.934380838305117 ], [ 140.998530830433538, 40.937168413791312 ], [ 141.018428029430083, 40.930776306081725 ], [ 141.034785005823437, 40.917418747677118 ], [ 141.043339688975493, 40.914830134603108 ], [ 141.054771608223177, 40.917061000964452 ], [ 141.064245135904343, 40.913336054015758 ], [ 141.071909415587129, 40.902199559362202 ], [ 141.082104578163808, 40.896076506325755 ], [ 141.078067418976275, 40.897251108152147 ], [ 141.084124954602999, 40.886198585896068 ], [ 141.04390425367842, 40.874647748394921 ], [ 141.041577328031281, 40.864011864955671 ], [ 141.04677736728172, 40.854245973073262 ], [ 141.039066834566825, 40.846397334169694 ], [ 141.039400725862833, 40.840387027339489 ], [ 141.018068806929932, 40.837155864851354 ], [ 141.020142723607819, 40.825955531822387 ], [ 141.016733307396294, 40.819851027303116 ], [ 140.990034163445898, 40.813231251720936 ], [ 140.988058637995778, 40.808317332678826 ], [ 140.980609195558031, 40.806184279281126 ], [ 140.975317613417246, 40.791295305833728 ], [ 140.957946278198278, 40.779909135098535 ], [ 140.961355473176582, 40.773023278001915 ], [ 140.954703839110948, 40.766409359704255 ], [ 140.939543086944013, 40.759497666883874 ], [ 140.920258391911375, 40.761696838438411 ], [ 140.905707951161048, 40.75104680236808 ], [ 140.901233839270276, 40.738358441189177 ], [ 140.90915358127279, 40.72937535968515 ], [ 140.925518274748697, 40.727136467773846 ], [ 140.9319429963723, 40.720569774675425 ], [ 140.953169636169832, 40.718696440988026 ], [ 140.978966615317063, 40.697616387086669 ], [ 140.970234163176201, 40.692358864969719 ], [ 140.968147030061459, 40.673628225162531 ], [ 140.959744033760217, 40.665251801129784 ], [ 140.961115446820486, 40.658856505323513 ], [ 140.956214358405987, 40.655982585927632 ], [ 140.954996082803063, 40.646991171305558 ], [ 140.935732282618801, 40.642811748363556 ], [ 140.919726471699391, 40.64574733337281 ], [ 140.910825642189707, 40.652929586331425 ], [ 140.887327664740042, 40.653089081096255 ], [ 140.877598494874746, 40.657395224809818 ], [ 140.876316913295, 40.645719359960538 ], [ 140.883875837400069, 40.640011837776171 ], [ 140.876635421687411, 40.625428775018008 ], [ 140.876686057115876, 40.613885440560693 ], [ 140.844267107141377, 40.605921693831135 ], [ 140.843899857292627, 40.61207613500568 ], [ 140.8278145777806, 40.620441467699607 ], [ 140.811579222103433, 40.640999000203749 ], [ 140.803518949340059, 40.646327918598615 ], [ 140.786199273877401, 40.649263838155662 ], [ 140.766400921165655, 40.665938919145844 ], [ 140.760945693888743, 40.660925892116268 ], [ 140.738503838881115, 40.661296532409096 ], [ 140.728488832993321, 40.666383775091219 ], [ 140.705542555444595, 40.661763026942197 ], [ 140.70180622577675, 40.656844414338309 ], [ 140.695462049234266, 40.660519171022997 ], [ 140.668202671716017, 40.656674775220779 ], [ 140.640836550066751, 40.677070892008089 ], [ 140.634402244368175, 40.689849531630614 ], [ 140.618177497093825, 40.687247864897074 ], [ 140.598516278403622, 40.692103694030322 ], [ 140.578735447183249, 40.687313667391891 ], [ 140.559181024784493, 40.688063666904782 ], [ 140.554610803246078, 40.684213946216687 ], [ 140.556221114912546, 40.678606999713338 ], [ 140.55032924789657, 40.669712801804394 ], [ 140.540076056564772, 40.687263468134574 ], [ 140.545348300583669, 40.68672727884092 ], [ 140.547064189061189, 40.700283775375965 ], [ 140.521125939910235, 40.721957026595533 ], [ 140.520238690363385, 40.729689000047358 ], [ 140.527566640687951, 40.730607054072323 ], [ 140.523934772671737, 40.736927054140267 ], [ 140.536576692860194, 40.738005666828087 ], [ 140.544605006415964, 40.746440667303034 ], [ 140.54592138816156, 40.7429515046083 ], [ 140.555931115928274, 40.748606504586576 ], [ 140.558086354701572, 40.757427891583973 ], [ 140.571822477325554, 40.759869837822805 ], [ 140.577815253671133, 40.765762053775802 ], [ 140.572040532344772, 40.779636748437269 ], [ 140.576608028937471, 40.78721702694429 ], [ 140.572866354598659, 40.793618973237074 ], [ 140.577557471100477, 40.797631467618203 ], [ 140.573491361837, 40.809667865279835 ], [ 140.577472191088759, 40.814772865075724 ], [ 140.577198029165743, 40.828973413792085 ], [ 140.581986082691628, 40.83289372136818 ], [ 140.57968413661365, 40.840702053556981 ], [ 140.588870246364877, 40.849226559058479 ], [ 140.592259104973778, 40.868016892265814 ], [ 140.584228689702286, 40.894332837790273 ], [ 140.575261439863652, 40.897052838217974 ], [ 140.573760583783951, 40.901014225026529 ], [ 140.579605278660779, 40.907286775064676 ], [ 140.578797444646398, 40.91189097209076 ], [ 140.58346830122116, 40.913843775270038 ], [ 140.586049636981215, 40.922605225151074 ], [ 140.582863190583794, 40.927651054952264 ], [ 140.587822048748649, 40.933950838260614 ], [ 140.566904942109431, 40.944333639885599 ], [ 140.562193748242976, 40.95323810805229 ], [ 140.555061218800233, 40.955891440837377 ], [ 140.553596108973352, 40.96926399993373 ], [ 140.547769441906325, 40.970555973179671 ], [ 140.550816640875382, 40.978433775298527 ], [ 140.527452192065084, 40.988744668032041 ], [ 140.52769552522841, 40.993581918970449 ], [ 140.521766355233126, 40.995271918664173 ], [ 140.522523307404754, 41.006031413918663 ], [ 140.515877755454085, 41.009486693755946 ], [ 140.519308832736556, 41.028975080735449 ], [ 140.511531894081713, 41.031411774933531 ], [ 140.515110506045062, 41.037274837563757 ], [ 140.50526885887075, 41.04019180121071 ], [ 140.494974136846963, 41.051555441230676 ], [ 140.497674668751074, 41.062017973151001 ], [ 140.494304942319332, 41.063599081132736 ], [ 140.494794112358477, 41.070916612811459 ], [ 140.46407555104588, 41.086591639592541 ], [ 140.455191920171046, 41.099355801928766 ], [ 140.458883528352203, 41.10815913503609 ], [ 140.464592943609546, 41.111867225092396 ], [ 140.461462361299027, 41.117315838755019 ], [ 140.443069364759481, 41.115914107749916 ], [ 140.426953255588387, 41.121401558635057 ], [ 140.399644331720651, 41.121930639687321 ], [ 140.371229999864681, 41.149269081103284 ], [ 140.363194137399546, 41.152799386882236 ], [ 140.370662917060031, 41.173752468201883 ], [ 140.36922092070904, 41.186583360233953 ], [ 140.373452023192385, 41.189146973054392 ], [ 140.371030610274488, 41.193063640174898 ], [ 140.376574188747895, 41.199312000248653 ], [ 140.37136527858479, 41.203046171543633 ], [ 140.372462191576915, 41.210147864132693 ], [ 140.361961050861851, 41.219642333426975 ], [ 140.362019338621622, 41.23500708061232 ], [ 140.354612387351835, 41.239575721142671 ], [ 140.352926808725329, 41.246624333046611 ], [ 140.342183178411005, 41.248992837949174 ], [ 140.338087250326453, 41.255160919141133 ], [ 140.339168365827504, 41.260245640124253 ], [ 140.34613705588049, 41.26293864020613 ], [ 140.346137497447558, 41.262877559152059 ] ] ] ] } },
{ "type": "Feature", "properties": { "code": "020012", "name": "北五津軽", "PrefCode": "02", "regioncode": "020012" }, "geometry": { "type": "Polygon", "coordinates": [ [ [ 140.343261802790039, 41.248594919420043 ], [ 140.352926808725329, 41.246624333046611 ], [ 140.354612387351835, 41.239575721142671 ], [ 140.362019338621622, 41.23500708061232 ], [ 140.361961050861851, 41.219642333426975 ], [ 140.372462191576915, 41.210147864132693 ], [ 140.37136527858479, 41.203046171543633 ], [ 140.376574188747895, 41.199312000248653 ], [ 140.371030610274488, 41.193063640174898 ], [ 140.373452023192385, 41.189146973054392 ], [ 140.36922092070904, 41.186583360233953 ], [ 140.370662917060031, 41.173752468201883 ], [ 140.363194137399546, 41.152799386882236 ], [ 140.371229999864681, 41.149269081103284 ], [ 140.399644331720651, 41.121930639687321 ], [ 140.426953255588387, 41.121401558635057 ], [ 140.443069364759481, 41.115914107749916 ], [ 140.461462361299027, 41.117315838755019 ], [ 140.464592943609546, 41.111867225092396 ], [ 140.458883528352203, 41.10815913503609 ], [ 140.455191920171046, 41.099355801928766 ], [ 140.46407555104588, 41.086591639592541 ], [ 140.494794112358477, 41.070916612811459 ], [ 140.494304942319332, 41.063599081132736 ], [ 140.497674668751074, 41.062017973151001 ], [ 140.494974136846963, 41.051555441230676 ], [ 140.50526885887075, 41.04019180121071 ], [ 140.515110506045062, 41.037274837563757 ], [ 140.511531894081713, 41.031411774933531 ], [ 140.519308832736556, 41.028975080735449 ], [ 140.515877755454085, 41.009486693755946 ], [ 140.522523307404754, 41.006031413918663 ], [ 140.521766355233126, 40.995271918664173 ], [ 140.52769552522841, 40.993581918970449 ], [ 140.527452192065084, 40.988744668032041 ], [ 140.550816640875382, 40.978433775298527 ], [ 140.547769441906325, 40.970555973179671 ], [ 140.553596108973352, 40.96926399993373 ], [ 140.555061218800233, 40.955891440837377 ], [ 140.562193748242976, 40.95323810805229 ], [ 140.566904942109431, 40.944333639885599 ], [ 140.587822048748649, 40.933950838260614 ], [ 140.582863190583794, 40.927651054952264 ], [ 140.586049636981215, 40.922605225151074 ], [ 140.58346830122116, 40.913843775270038 ], [ 140.578797444646398, 40.91189097209076 ], [ 140.579605278660779, 40.907286775064676 ], [ 140.573760583783951, 40.901014225026529 ], [ 140.575261439863652, 40.897052838217974 ], [ 140.584228689702286, 40.894332837790273 ], [ 140.592259104973778, 40.868016892265814 ], [ 140.588870246364877, 40.849226559058479 ], [ 140.57968413661365, 40.840702053556981 ], [ 140.581986082691628, 40.83289372136818 ], [ 140.577198029165743, 40.828973413792085 ], [ 140.577472191088759, 40.814772865075724 ], [ 140.573491361837, 40.809667865279835 ], [ 140.577557471100477, 40.797631467618203 ], [ 140.572866354598659, 40.793618973237074 ], [ 140.576608028937471, 40.78721702694429 ], [ 140.572040532344772, 40.779636748437269 ], [ 140.577577756208598, 40.765073999565459 ], [ 140.571822477325554, 40.759869837822805 ], [ 140.558086354701572, 40.757427891583973 ], [ 140.555931115928274, 40.748606504586576 ], [ 140.54592138816156, 40.7429515046083 ], [ 140.544021673761335, 40.746242053827757 ], [ 140.536576692860194, 40.738005666828087 ], [ 140.523934772671737, 40.736927054140267 ], [ 140.527566640687951, 40.730607054072323 ], [ 140.520238690363385, 40.729689000047358 ], [ 140.520489027446729, 40.719346197568996 ], [ 140.52860269835594, 40.700020080662227 ], [ 140.520407198133739, 40.69434564003933 ], [ 140.536204137011396, 40.688136440944049 ], [ 140.518437224198578, 40.69168061336967 ], [ 140.51832386465469, 40.696049802256596 ], [ 140.510014968016435, 40.698669253083608 ], [ 140.51092632928669, 40.701631747607109 ], [ 140.502663799894549, 40.709459134631402 ], [ 140.500717470934546, 40.702594252422841 ], [ 140.494785524732265, 40.701461747861401 ], [ 140.491521971361976, 40.69611953209079 ], [ 140.492068144929021, 40.684578413562974 ], [ 140.488174280118983, 40.680819251906996 ], [ 140.482357328428066, 40.683706467779302 ], [ 140.474649026931161, 40.680004252094591 ], [ 140.47915321664766, 40.672469775160039 ], [ 140.475266614762518, 40.66633117104675 ], [ 140.463395161757376, 40.674155918560871 ], [ 140.467504552693072, 40.683022027044956 ], [ 140.456081479176987, 40.687570665753697 ], [ 140.453634501231363, 40.69464094592297 ], [ 140.43577192033797, 40.708072080562147 ], [ 140.426343970298035, 40.722268387176371 ], [ 140.419037833928996, 40.724882000503953 ], [ 140.420437781578471, 40.736654332931153 ], [ 140.408943281207485, 40.73849889191041 ], [ 140.405012243820011, 40.73400019795082 ], [ 140.401373645277545, 40.7458724684397 ], [ 140.395930272863893, 40.748101665659419 ], [ 140.386948884783237, 40.741342441200743 ], [ 140.383171478580948, 40.747737918670055 ], [ 140.377994059977937, 40.744825838341796 ], [ 140.356838301146695, 40.748735891847957 ], [ 140.354348832932374, 40.751473386787438 ], [ 140.356379467938154, 40.755579639988468 ], [ 140.339622411944788, 40.759221747685558 ], [ 140.374811802622617, 40.774358388129144 ], [ 140.373887367008479, 40.778111748258652 ], [ 140.360967612965055, 40.783705945972656 ], [ 140.362037587664645, 40.787206504876337 ], [ 140.372188170847494, 40.781590360107089 ], [ 140.37099452677603, 40.785513414212744 ], [ 140.377926199834292, 40.789817027234051 ], [ 140.38423678400045, 40.783572559426148 ], [ 140.387084837994962, 40.785208667246252 ], [ 140.397485966004638, 40.778820306112266 ], [ 140.400982113733676, 40.769856134652969 ], [ 140.407606834687726, 40.772327774707094 ], [ 140.41458800283408, 40.76173941414271 ], [ 140.422382437799342, 40.764579973187267 ], [ 140.41464189380838, 40.776484414224399 ], [ 140.417153645424492, 40.77996627892071 ], [ 140.424625720200879, 40.787833026572969 ], [ 140.437323450516942, 40.789046387380949 ], [ 140.437534500716652, 40.809093918849328 ], [ 140.427429195700938, 40.811144504415381 ], [ 140.422899468835453, 40.806501170692513 ], [ 140.418709999566886, 40.815234532048066 ], [ 140.423872502913696, 40.816323414094313 ], [ 140.425084137023418, 40.821024252267478 ], [ 140.411243800061357, 40.834826532618422 ], [ 140.40744072630855, 40.846377108416846 ], [ 140.40071291786694, 40.84885544122568 ], [ 140.39924955901995, 40.857124360301043 ], [ 140.399957276007513, 40.867376892429718 ], [ 140.407308948649074, 40.872224134836017 ], [ 140.403432217722752, 40.88098861273437 ], [ 140.421798339821635, 40.887642531977349 ], [ 140.41931000025636, 40.892277251993619 ], [ 140.425320272012982, 40.894228946308885 ], [ 140.420483864638754, 40.897622838423331 ], [ 140.427975810835051, 40.899478945596911 ], [ 140.429129105024231, 40.909250666884816 ], [ 140.417335720367305, 40.911092640313143 ], [ 140.417317302251718, 40.928509081029347 ], [ 140.408829728309342, 40.936568586671001 ], [ 140.41441391656906, 40.935324972669378 ], [ 140.413926977747906, 40.937718865433339 ], [ 140.405945278751688, 40.936848864883245 ], [ 140.394388806997881, 40.941916414211221 ], [ 140.38554433170566, 40.938437775383079 ], [ 140.379565940016164, 40.94283225230663 ], [ 140.376748339764163, 40.957662080940338 ], [ 140.392457781801227, 40.980618000120671 ], [ 140.377872387101092, 41.006981748209171 ], [ 140.362975305366149, 41.010793441064493 ], [ 140.359743838907093, 41.005132892269216 ], [ 140.366549999882636, 40.999493413690118 ], [ 140.357980143368991, 40.993172613225568 ], [ 140.338297950689935, 41.008090386562117 ], [ 140.328418807182288, 41.008183135443403 ], [ 140.318948962224908, 40.999812072269378 ], [ 140.324113644629051, 41.055926721041374 ], [ 140.319244578374651, 41.093069387042647 ], [ 140.312295615850076, 41.095615694208959 ], [ 140.306266783885007, 41.106286134997163 ], [ 140.286977470833676, 41.120203360396829 ], [ 140.266722892047937, 41.119893972928537 ], [ 140.275368469679165, 41.118189684806168 ], [ 140.247950999439126, 41.124182559177825 ], [ 140.248672387021088, 41.133764802303858 ], [ 140.257117108267948, 41.140740640168474 ], [ 140.264841024693624, 41.135578108043319 ], [ 140.278025745991499, 41.13992505399807 ], [ 140.284104669295061, 41.135950305961899 ], [ 140.28774328132738, 41.137994197873979 ], [ 140.290585498721839, 41.133811135375652 ], [ 140.296992826557812, 41.136943027099051 ], [ 140.291228067921111, 41.133184621772955 ], [ 140.303364968418578, 41.131305865173601 ], [ 140.296872918150711, 41.135015837510934 ], [ 140.306410531520896, 41.132664441310965 ], [ 140.312498559560936, 41.138012224784404 ], [ 140.310303281171514, 41.145049197662388 ], [ 140.321732166106699, 41.148011387315705 ], [ 140.336092283332277, 41.191914505350212 ], [ 140.33057169782569, 41.199650918754969 ], [ 140.334898612281222, 41.207447027358455 ], [ 140.328711335959497, 41.219620387271107 ], [ 140.329934085689615, 41.229827358845569 ], [ 140.332842672151628, 41.238341279326619 ], [ 140.340643217110824, 41.239438775079464 ], [ 140.34315014296476, 41.24864825191537 ], [ 140.343261802790039, 41.248594919420043 ] ], [ [ 140.41152641920894, 40.936787198370553 ], [ 140.413697250427845, 40.934604694850862 ], [ 140.411985863057225, 40.936612748779396 ], [ 140.41152641920894, 40.936787198370553 ] ] ] } },
{ "type": "Feature", "properties": { "code": "020013", "name": "西津軽", "PrefCode": "02", "regioncode": "020013" }, "geometry": { "type": "MultiPolygon", "coordinates": [ [ [ [ 139.919863527679695, 40.645622747591801 ], [ 139.922819079436977, 40.648101917669408 ], [ 139.919740218935999, 40.645714748237083 ], [ 139.919863527679695, 40.645622747591801 ] ] ], [ [ [ 139.993862114445051, 40.735363802197753 ], [ 139.992686550344047, 40.73326658588428 ], [ 139.993832387354814, 40.735422972192453 ], [ 139.993862114445051, 40.735363802197753 ] ] ], [ [ [ 139.995440117067801, 40.744625505362819 ], [ 139.997867639080368, 40.7433952247099 ], [ 139.99539566807573, 40.744631054179877 ], [ 139.995440117067801, 40.744625505362819 ] ] ], [ [ [ 140.100139222047574, 40.752401945793224 ], [ 140.097431581902015, 40.752540667118126 ], [ 140.100005304900947, 40.75241327904962 ], [ 140.100139222047574, 40.752401945793224 ] ] ], [ [ [ 140.030303943272429, 40.760215225152592 ], [ 140.030622826682134, 40.757377972915151 ], [ 140.030237275629815, 40.760226613267662 ], [ 140.030303943272429, 40.760215225152592 ] ] ], [ [ [ 140.411985863057225, 40.936612748779396 ], [ 140.413697250427845, 40.934604694850862 ], [ 140.41152641920894, 40.936787198370553 ], [ 140.411985863057225, 40.936612748779396 ] ] ], [ [ [ 140.36858233460714, 41.011580918924324 ], [ 140.37906686124677, 41.005858387054957 ], [ 140.392088054320311, 40.983535532139172 ], [ 140.391699999555385, 40.977728837216091 ], [ 140.376748339764163, 40.957662080940338 ], [ 140.375657808361211, 40.951285080941773 ], [ 140.380231192815359, 40.947853386724489 ], [ 140.379935693577409, 40.942186972550815 ], [ 140.38554433170566, 40.938437775383079 ], [ 140.394388806997881, 40.941916414211221 ], [ 140.405945278751688, 40.936848864883245 ], [ 140.413926977747906, 40.937718865433339 ], [ 140.41441391656906, 40.935324972669378 ], [ 140.408829728309342, 40.936568586671001 ], [ 140.417317302251718, 40.928509081029347 ], [ 140.417335720367305, 40.911092640313143 ], [ 140.429129105024231, 40.909250666884816 ], [ 140.427975810835051, 40.899478945596911 ], [ 140.420483864638754, 40.897622838423331 ], [ 140.425320272012982, 40.894228946308885 ], [ 140.41931000025636, 40.892277251993619 ], [ 140.421798339821635, 40.887642531977349 ], [ 140.403432217722752, 40.88098861273437 ], [ 140.407308948649074, 40.872224134836017 ], [ 140.399957276007513, 40.867376892429718 ], [ 140.39923094665096, 40.857580467664491 ], [ 140.40071291786694, 40.84885544122568 ], [ 140.40744072630855, 40.846377108416846 ], [ 140.411243800061357, 40.834826532618422 ], [ 140.425084137023418, 40.821024252267478 ], [ 140.423872502913696, 40.816323414094313 ], [ 140.418709999566886, 40.815234532048066 ], [ 140.422899468835453, 40.806501170692513 ], [ 140.427429195700938, 40.811144504415381 ], [ 140.438083670824767, 40.807797531730785 ], [ 140.437323450516942, 40.789046387380949 ], [ 140.423979559109398, 40.787487441392386 ], [ 140.41464189380838, 40.776484414224399 ], [ 140.422382437799342, 40.764579973187267 ], [ 140.41458800283408, 40.76173941414271 ], [ 140.407606834687726, 40.772327774707094 ], [ 140.400982113733676, 40.769856134652969 ], [ 140.397485966004638, 40.778820306112266 ], [ 140.387084837994962, 40.785208667246252 ], [ 140.38423678400045, 40.783572559426148 ], [ 140.377926199834292, 40.789817027234051 ], [ 140.37099452677603, 40.785513414212744 ], [ 140.372188170847494, 40.781590360107089 ], [ 140.362037587664645, 40.787206504876337 ], [ 140.360967612965055, 40.783705945972656 ], [ 140.373887367008479, 40.778111748258652 ], [ 140.374811802622617, 40.774358388129144 ], [ 140.339622411944788, 40.759221747685558 ], [ 140.332851855129093, 40.761368999579702 ], [ 140.316305227004705, 40.748442333347043 ], [ 140.316916640990257, 40.744143440867163 ], [ 140.308298301125774, 40.743813199019996 ], [ 140.301722218205896, 40.733381225163441 ], [ 140.288198637756977, 40.726935972916863 ], [ 140.292311529753306, 40.692974225180421 ], [ 140.309258974921818, 40.703882837922663 ], [ 140.337131245810383, 40.699436107690246 ], [ 140.332169883033771, 40.692898333191579 ], [ 140.27817525378498, 40.662355558762101 ], [ 140.279551698552154, 40.654578054433728 ], [ 140.221757419269579, 40.642323919213538 ], [ 140.214351634420495, 40.633989999838661 ], [ 140.21913058410928, 40.624625531143408 ], [ 140.208200920935838, 40.619444973906468 ], [ 140.2047226328433, 40.609083279369884 ], [ 140.189391828769999, 40.605706360160468 ], [ 140.193048806757133, 40.601351612586882 ], [ 140.190610220385452, 40.593198251897832 ], [ 140.182418832763005, 40.595980774992825 ], [ 140.15476700369436, 40.585802197713292 ], [ 140.157252581441526, 40.581949946332998 ], [ 140.155053139191068, 40.571436585629954 ], [ 140.161927886063154, 40.56567322543907 ], [ 140.160170661147163, 40.559395972845948 ], [ 140.163580143009312, 40.550156505418443 ], [ 140.158230972781212, 40.543343972746186 ], [ 140.139485135330801, 40.541613440607875 ], [ 140.133711283648836, 40.526308694390764 ], [ 140.136479363631793, 40.518918665663932 ], [ 140.119441024883486, 40.511975359875009 ], [ 140.120858558775581, 40.503774225400207 ], [ 140.132845811185348, 40.493948333448884 ], [ 140.131525279068455, 40.485568892190656 ], [ 140.149561167414049, 40.474273560176698 ], [ 140.153130635970115, 40.46248880091747 ], [ 140.14998208790314, 40.451659081201683 ], [ 140.151798222909747, 40.443194054162348 ], [ 140.147244085746024, 40.438126027294402 ], [ 140.107616030855183, 40.435896134898769 ], [ 140.099174306149393, 40.443969224799957 ], [ 140.099501218706337, 40.453073945905942 ], [ 140.093582309076396, 40.458924802038041 ], [ 140.068149170447896, 40.468859865390527 ], [ 140.053619727968112, 40.467790441076033 ], [ 140.048688079691146, 40.460100170986152 ], [ 140.036171673384047, 40.461617695100585 ], [ 140.022722243836597, 40.451268305987583 ], [ 140.020066978408408, 40.446828306281361 ], [ 140.026038975018764, 40.438946918565478 ], [ 140.017368469978919, 40.427043892161919 ], [ 140.019443216731133, 40.419841640079653 ], [ 139.995054501264235, 40.435046747709293 ], [ 139.981208417634434, 40.427377081087457 ], [ 139.969846719250768, 40.427450721173898 ], [ 139.959544476196697, 40.434862721237664 ], [ 139.936309778873238, 40.428203837736987 ], [ 139.940073358898417, 40.43068855932961 ], [ 139.938429416184704, 40.446024387015882 ], [ 139.942200219564597, 40.44956161307806 ], [ 139.947146783097651, 40.478435720632035 ], [ 139.945614695361996, 40.488611197948501 ], [ 139.950009078756011, 40.495797414219339 ], [ 139.948453527708239, 40.51009291875323 ], [ 139.945200336326479, 40.512704306258797 ], [ 139.947509637060193, 40.524050135205641 ], [ 139.940072866069954, 40.553016280277177 ], [ 139.92919450112538, 40.557129640820335 ], [ 139.93206978029616, 40.5574979455738 ], [ 139.929945577126773, 40.559238252443436 ], [ 139.933323358786083, 40.565751559087232 ], [ 139.918430505663423, 40.585794109210838 ], [ 139.910891607661597, 40.586259413940866 ], [ 139.913368029411117, 40.584618504640332 ], [ 139.910132996240804, 40.582922748386181 ], [ 139.910589105403005, 40.586002467739775 ], [ 139.907013553832485, 40.586397467968823 ], [ 139.896659662713319, 40.581845839014306 ], [ 139.869134111949734, 40.583983387223611 ], [ 139.865383800522068, 40.593854532161004 ], [ 139.861270169282989, 40.595807586251169 ], [ 139.865450168690359, 40.597074533163209 ], [ 139.859726834625803, 40.602929278863201 ], [ 139.863118196047935, 40.609104279439009 ], [ 139.860783216971981, 40.615791414242437 ], [ 139.893400635630883, 40.632666196887556 ], [ 139.892424228195637, 40.635667333480683 ], [ 139.902398365292356, 40.645814000116047 ], [ 139.912002827068932, 40.642113135213094 ], [ 139.917428105123008, 40.64502536033217 ], [ 139.928751309825202, 40.642543973425688 ], [ 139.927449780383085, 40.654375946192999 ], [ 139.937214189283509, 40.655787585928408 ], [ 139.935504188667437, 40.663410360100102 ], [ 139.939423890999819, 40.667492333404539 ], [ 139.936469441811369, 40.67168344123786 ], [ 139.942242776383068, 40.667755919300305 ], [ 139.950488611660148, 40.670295081352947 ], [ 139.96434999995256, 40.68301705379406 ], [ 139.967817717413823, 40.698877641290153 ], [ 139.979118832967856, 40.702775134864623 ], [ 139.986827173135566, 40.713092946082668 ], [ 139.984405745828553, 40.720508774560358 ], [ 139.989767976910684, 40.723063531756623 ], [ 139.993995162846545, 40.734887972701813 ], [ 139.999966004727412, 40.737331027804714 ], [ 139.997063191013467, 40.742557170776877 ], [ 139.999716226123041, 40.74767494634176 ], [ 140.004979584840044, 40.743486612916911 ], [ 140.025963994942458, 40.750268252078229 ], [ 140.039855550093648, 40.765655973344565 ], [ 140.043325577013889, 40.763658251727009 ], [ 140.056392776705366, 40.769140467658531 ], [ 140.090396109093263, 40.756587054249223 ], [ 140.092963917251041, 40.753837639695348 ], [ 140.089167496682649, 40.756288440659034 ], [ 140.088800311585146, 40.752565946161553 ], [ 140.095903022206812, 40.747047117030888 ], [ 140.115955058379313, 40.741253946112749 ], [ 140.142646393516316, 40.750380305806516 ], [ 140.162857419034708, 40.763866225346078 ], [ 140.167586278284148, 40.771294747754439 ], [ 140.183822802180657, 40.775182251659658 ], [ 140.195484060241256, 40.78425694620114 ], [ 140.211599001193008, 40.785675694177996 ], [ 140.205625771612176, 40.783973360282403 ], [ 140.219610220435356, 40.779187135078246 ], [ 140.236109584689643, 40.786685414300507 ], [ 140.240960894729596, 40.792092775161507 ], [ 140.235179584969956, 40.798544641022431 ], [ 140.241254812059992, 40.792165197565851 ], [ 140.243407613670456, 40.794793360125539 ], [ 140.238190168941173, 40.79707110814519 ], [ 140.245143412238804, 40.795738802104097 ], [ 140.254291414117574, 40.805850081316237 ], [ 140.284790895183733, 40.863966279220449 ], [ 140.312242386776802, 40.959123972992984 ], [ 140.313846161271385, 40.971726775370428 ], [ 140.30855487680617, 40.975479936749707 ], [ 140.31401306105397, 40.973810107950158 ], [ 140.314758948866483, 40.977653440753727 ], [ 140.309688948885992, 40.975089720913957 ], [ 140.315586445658028, 40.978920721314296 ], [ 140.318948962224908, 40.999812072269378 ], [ 140.328418807182288, 41.008183135443403 ], [ 140.338297950689935, 41.008090386562117 ], [ 140.357980143368991, 40.993172613225568 ], [ 140.366460557808523, 40.999180358786589 ], [ 140.35969275111961, 41.005783441152914 ], [ 140.367007302445131, 41.012064801849192 ], [ 140.36858233460714, 41.011580918924324 ] ] ] ] } },
{ "type": "Feature", "properties": { "code": "020014", "name": "中南津軽", "PrefCode": "02", "regioncode": "020014" }, "geometry": { "type": "Polygon", "coordinates": [ [ [ 140.335715187705773, 40.759689558826153 ], [ 140.356379467938154, 40.755579639988468 ], [ 140.354348832932374, 40.751473386787438 ], [ 140.356838301146695, 40.748735891847957 ], [ 140.377994059977937, 40.744825838341796 ], [ 140.383171478580948, 40.747737918670055 ], [ 140.386948884783237, 40.741342441200743 ], [ 140.395930272863893, 40.748101665659419 ], [ 140.401373645277545, 40.7458724684397 ], [ 140.405012243820011, 40.73400019795082 ], [ 140.408943281207485, 40.73849889191041 ], [ 140.420437781578471, 40.736654332931153 ], [ 140.419037833928996, 40.724882000503953 ], [ 140.426343970298035, 40.722268387176371 ], [ 140.43577192033797, 40.708072080562147 ], [ 140.453634501231363, 40.69464094592297 ], [ 140.456081479176987, 40.687570665753697 ], [ 140.467504552693072, 40.683022027044956 ], [ 140.463395161757376, 40.674155918560871 ], [ 140.472157172815287, 40.666167837975422 ], [ 140.479135746417683, 40.671116999649882 ], [ 140.474649026931161, 40.680004252094591 ], [ 140.482357328428066, 40.683706467779302 ], [ 140.488174280118983, 40.680819251906996 ], [ 140.492068144929021, 40.684578413562974 ], [ 140.491521971361976, 40.69611953209079 ], [ 140.494785524732265, 40.701461747861401 ], [ 140.500717470934546, 40.702594252422841 ], [ 140.502663799894549, 40.709459134631402 ], [ 140.51092632928669, 40.701631747607109 ], [ 140.510014968016435, 40.698669253083608 ], [ 140.51832386465469, 40.696049802256596 ], [ 140.518437224198578, 40.69168061336967 ], [ 140.536204137011396, 40.688136440944049 ], [ 140.520407198133739, 40.69434564003933 ], [ 140.52860269835594, 40.700020080662227 ], [ 140.521125939910235, 40.721957026595533 ], [ 140.547064189061189, 40.700283775375965 ], [ 140.545348300583669, 40.68672727884092 ], [ 140.540076056564772, 40.687263468134574 ], [ 140.55032924789657, 40.669712801804394 ], [ 140.556221114912546, 40.678606999713338 ], [ 140.554610803246078, 40.684213946216687 ], [ 140.559181024784493, 40.688063666904782 ], [ 140.578735447183249, 40.687313667391891 ], [ 140.598516278403622, 40.692103694030322 ], [ 140.618177497093825, 40.687247864897074 ], [ 140.634402244368175, 40.689849531630614 ], [ 140.640836550066751, 40.677070892008089 ], [ 140.668202671716017, 40.656674775220779 ], [ 140.695462049234266, 40.660519171022997 ], [ 140.70180622577675, 40.656844414338309 ], [ 140.705542555444595, 40.661763026942197 ], [ 140.728488832993321, 40.666383775091219 ], [ 140.738503838881115, 40.661296532409096 ], [ 140.760945693888743, 40.660925892116268 ], [ 140.766400921165655, 40.665938919145844 ], [ 140.786199273877401, 40.649263838155662 ], [ 140.803518949340059, 40.646327918598615 ], [ 140.811579222103433, 40.640999000203749 ], [ 140.8278145777806, 40.620441467699607 ], [ 140.843899857292627, 40.61207613500568 ], [ 140.844267107141377, 40.605921693831135 ], [ 140.862916446436884, 40.609639946226594 ], [ 140.858088715721692, 40.60513661266458 ], [ 140.863060142811378, 40.597427695132069 ], [ 140.858760531773214, 40.588525225258991 ], [ 140.866616056785688, 40.584885441410051 ], [ 140.864428222984202, 40.558729279332852 ], [ 140.851449247684741, 40.544952359863544 ], [ 140.860736720023624, 40.539695080563547 ], [ 140.880061505034519, 40.510246171323786 ], [ 140.852587301962444, 40.505217441231991 ], [ 140.845020946759405, 40.507359693794911 ], [ 140.826944695041675, 40.49607997311233 ], [ 140.820025551338176, 40.495330279368943 ], [ 140.81062897504728, 40.487129667400268 ], [ 140.811395135377211, 40.476986803098555 ], [ 140.803648663954732, 40.44864572102324 ], [ 140.793214501148327, 40.449404613032527 ], [ 140.787140025891517, 40.457194973169521 ], [ 140.772412580576201, 40.451227774442316 ], [ 140.769046743712352, 40.453822531684523 ], [ 140.762413969329259, 40.451034747555582 ], [ 140.752059921728119, 40.438755026623255 ], [ 140.733891582130923, 40.439505080994763 ], [ 140.735479104976775, 40.433974225230372 ], [ 140.73120192033241, 40.431107836757292 ], [ 140.735858340090431, 40.427859747229604 ], [ 140.733569780421135, 40.415802774878216 ], [ 140.723016445752478, 40.416610866098665 ], [ 140.715549442253064, 40.427882054013651 ], [ 140.699228053831689, 40.429415999748642 ], [ 140.687522503260993, 40.427022946052148 ], [ 140.6847203632542, 40.41642791881344 ], [ 140.666025383364854, 40.411500467672511 ], [ 140.661480414789366, 40.404448531874323 ], [ 140.652649585809854, 40.403348559388576 ], [ 140.641037911870171, 40.40518413503986 ], [ 140.634052361327463, 40.402335531559572 ], [ 140.63629121906456, 40.409484720943169 ], [ 140.625781414280937, 40.423998667204785 ], [ 140.611237808378178, 40.423860080778184 ], [ 140.589730507257173, 40.436112919175912 ], [ 140.587217495690993, 40.429292918533406 ], [ 140.562082724238394, 40.427046027152471 ], [ 140.553367173056699, 40.420563532181291 ], [ 140.565969780281193, 40.406474612713282 ], [ 140.569369248192288, 40.400735973986059 ], [ 140.567069533332415, 40.398640693912967 ], [ 140.558786472417864, 40.397075720667999 ], [ 140.547703358823014, 40.404010197812454 ], [ 140.54051944211858, 40.402701586209275 ], [ 140.532345772039776, 40.411233837571615 ], [ 140.523606304287568, 40.410559667095015 ], [ 140.524269027293826, 40.419665801935253 ], [ 140.52982267097957, 40.420285774768729 ], [ 140.52965260738199, 40.43053525190038 ], [ 140.508362827082919, 40.428548332939272 ], [ 140.498133580200602, 40.436397505140803 ], [ 140.481211582248761, 40.44183030602386 ], [ 140.48432155569526, 40.44622227923486 ], [ 140.481011803252159, 40.451635613392909 ], [ 140.464382022912105, 40.45644758618721 ], [ 140.440121166758559, 40.449997279750733 ], [ 140.437019415813438, 40.465470387148684 ], [ 140.433460220213078, 40.467701776016213 ], [ 140.435736588672739, 40.479971559439946 ], [ 140.427076835027947, 40.482591584933743 ], [ 140.402237107756378, 40.474907108276454 ], [ 140.394132607234155, 40.485023558590399 ], [ 140.387976497817135, 40.487088278801082 ], [ 140.377947912166519, 40.476540197971815 ], [ 140.361301220075347, 40.478391613382314 ], [ 140.347808470184759, 40.467547694270706 ], [ 140.347927392934935, 40.462493505271084 ], [ 140.343090999050446, 40.461037946244289 ], [ 140.34066719843247, 40.443228721228536 ], [ 140.33521608285605, 40.439383441392749 ], [ 140.317611633470165, 40.439683467817815 ], [ 140.310726640622079, 40.436287332794222 ], [ 140.306442723652822, 40.442530694436073 ], [ 140.291041284128028, 40.446583466753623 ], [ 140.266867108230485, 40.440742639861014 ], [ 140.250054305062235, 40.442993748163019 ], [ 140.245381283819256, 40.43809708081568 ], [ 140.220821894115147, 40.431189107591308 ], [ 140.209203217154823, 40.438638586002014 ], [ 140.194051582314728, 40.434779747987022 ], [ 140.185467108220564, 40.443305613263476 ], [ 140.149539921829955, 40.435719080870911 ], [ 140.147153800107844, 40.439391585653198 ], [ 140.151798222909747, 40.443194054162348 ], [ 140.14998208790314, 40.451659081201683 ], [ 140.153130635970115, 40.46248880091747 ], [ 140.149561167414049, 40.474273560176698 ], [ 140.131525279068455, 40.485568892190656 ], [ 140.132845811185348, 40.493948333448884 ], [ 140.120858558775581, 40.503774225400207 ], [ 140.119414085691574, 40.511378135392704 ], [ 140.136479363631793, 40.518918665663932 ], [ 140.133711283648836, 40.526308694390764 ], [ 140.139485135330801, 40.541613440607875 ], [ 140.158230972781212, 40.543343972746186 ], [ 140.163580143009312, 40.550156505418443 ], [ 140.160170661147163, 40.559395972845948 ], [ 140.161927886063154, 40.56567322543907 ], [ 140.155053139191068, 40.571436585629954 ], [ 140.157252581441526, 40.581949946332998 ], [ 140.15476700369436, 40.585802197713292 ], [ 140.182418832763005, 40.595980774992825 ], [ 140.190610220385452, 40.593198251897832 ], [ 140.193048806757133, 40.601351612586882 ], [ 140.189391828769999, 40.605706360160468 ], [ 140.2047226328433, 40.609083279369884 ], [ 140.208200920935838, 40.619444973906468 ], [ 140.21913058410928, 40.624625531143408 ], [ 140.214351634420495, 40.633989999838661 ], [ 140.221757419269579, 40.642323919213538 ], [ 140.279551698552154, 40.654578054433728 ], [ 140.27817525378498, 40.662355558762101 ], [ 140.332169883033771, 40.692898333191579 ], [ 140.337131245810383, 40.699436107690246 ], [ 140.309258974921818, 40.703882837922663 ], [ 140.292311529753306, 40.692974225180421 ], [ 140.286804475446274, 40.720271504626282 ], [ 140.288245031982683, 40.727006531925952 ], [ 140.301722218205896, 40.733381225163441 ], [ 140.307956083006843, 40.743544306224805 ], [ 140.316916640990257, 40.744143440867163 ], [ 140.316305227004705, 40.748442333347043 ], [ 140.320933282145347, 40.752407332732275 ], [ 140.332851855129093, 40.761368999579702 ], [ 140.335287417979998, 40.759836776046427 ], [ 140.335715187705773, 40.759689558826153 ] ] ] } },
{ "type": "Feature", "properties": { "code": "020020", "name": "下北", "PrefCode": "02", "regioncode": "020020" }, "geometry": { "type": "MultiPolygon", "coordinates": [ [ [ [ 141.239764359137894, 41.36970618858976 ], [ 141.235403501570431, 41.369670630295388 ], [ 141.24223179036494, 41.370035666912543 ], [ 141.239943709134877, 41.369731757214879 ], [ 141.239764359137894, 41.36970618858976 ] ] ], [ [ [ 141.185952671778409, 41.403199386842289 ], [ 141.185152802160133, 41.408023027440834 ], [ 141.185877755554088, 41.403761107888897 ], [ 141.185952671778409, 41.403199386842289 ] ] ], [ [ [ 141.182208028777609, 41.404381134681671 ], [ 141.177675253210396, 41.410525972895414 ], [ 141.181918832887845, 41.404609666802742 ], [ 141.182208028777609, 41.404381134681671 ] ] ], [ [ [ 141.175868560186018, 41.412843089636908 ], [ 141.179088962285846, 41.411974485733992 ], [ 141.175860467186908, 41.412826098745541 ], [ 141.175868560186018, 41.412843089636908 ] ] ], [ [ [ 141.43159105108623, 41.411769441206786 ], [ 141.4290749161745, 41.410745531581085 ], [ 141.435723605859835, 41.414323081445104 ], [ 141.433333332867051, 41.413003305658094 ], [ 141.43159105108623, 41.411769441206786 ] ] ], [ [ [ 140.904761413808274, 41.535909639618239 ], [ 140.904536394439106, 41.531471801882219 ], [ 140.904415914962556, 41.536068081276994 ], [ 140.904761413808274, 41.535909639618239 ] ] ], [ [ [ 140.918620415299984, 41.546808721345485 ], [ 140.924824642943008, 41.534068640155681 ], [ 140.952584111867282, 41.521979466679113 ], [ 140.963240920732005, 41.514039918907201 ], [ 140.973286667245929, 41.498941387235277 ], [ 141.001416109166144, 41.487131802190959 ], [ 140.998201725329409, 41.490018721287015 ], [ 141.001756693216862, 41.485811639695441 ], [ 141.0663562782197, 41.482386441281278 ], [ 141.09410111517434, 41.467958999907978 ], [ 141.093680700104301, 41.47145466739903 ], [ 141.094606199616464, 41.467345945558975 ], [ 141.112655667724994, 41.462945197662805 ], [ 141.111590856033217, 41.459600666637527 ], [ 141.119803918216348, 41.455783972652284 ], [ 141.121680856386433, 41.4480397756152 ], [ 141.13492000015799, 41.435010837580137 ], [ 141.143551633800939, 41.433069721090817 ], [ 141.159291413567985, 41.41579261233926 ], [ 141.176700194758268, 41.408748801915749 ], [ 141.167725693685838, 41.410904639637465 ], [ 141.177001284181983, 41.4032827477007 ], [ 141.179540414758435, 41.404983279354894 ], [ 141.178247951381877, 41.400656360402763 ], [ 141.184011556188466, 41.403507440615954 ], [ 141.178713527707146, 41.399348252419941 ], [ 141.193164616753734, 41.386712053718384 ], [ 141.21335709465427, 41.37472725196119 ], [ 141.228972399256918, 41.371415198152931 ], [ 141.222260585257914, 41.371227990779175 ], [ 141.23121853520729, 41.366561090322136 ], [ 141.235930934165367, 41.368918675656403 ], [ 141.23373128417154, 41.365906269658694 ], [ 141.238118184306813, 41.364032215614316 ], [ 141.239972178972948, 41.368543640376743 ], [ 141.242798663627468, 41.362069784293169 ], [ 141.271936860697679, 41.354181720010445 ], [ 141.309666057342724, 41.35113983783333 ], [ 141.357087834036406, 41.363726946141696 ], [ 141.40265671863267, 41.383214531825217 ], [ 141.460853359095267, 41.430931775381168 ], [ 141.465048080404699, 41.429587865387703 ], [ 141.463674474797244, 41.424178413602931 ], [ 141.469014474638357, 41.418565081013753 ], [ 141.461122776195225, 41.415450360046123 ], [ 141.463700830329117, 41.402332559100387 ], [ 141.455188781337256, 41.401370639743277 ], [ 141.456030699657163, 41.394561639608014 ], [ 141.452779389657167, 41.396215134920567 ], [ 141.46074477225352, 41.389201198176806 ], [ 141.460397366845086, 41.380957639983137 ], [ 141.452081828713517, 41.371810441198932 ], [ 141.452482476684963, 41.374488026900963 ], [ 141.450049196313444, 41.373233801798563 ], [ 141.441900219819331, 41.355961802095521 ], [ 141.404991673427048, 41.238789360240844 ], [ 141.403620025643704, 41.227119081080787 ], [ 141.407911945679757, 41.225143972916044 ], [ 141.403044331830529, 41.225562946372918 ], [ 141.402368274576247, 41.222582387167506 ], [ 141.408904384429889, 41.224970946052395 ], [ 141.403540467118887, 41.222738999605212 ], [ 141.400081051299594, 41.212589973148795 ], [ 141.402874720591967, 41.210927838049315 ], [ 141.399058053586373, 41.208317358859063 ], [ 141.404994916382293, 41.206650279287032 ], [ 141.398937418527112, 41.205107864636318 ], [ 141.394008365693594, 41.191055748124313 ], [ 141.40036302203589, 41.182724532111536 ], [ 141.393693916840903, 41.187733080517319 ], [ 141.392801336112825, 41.18448944083508 ], [ 141.396956614955911, 41.184121000283994 ], [ 141.391092892223242, 41.179387612948005 ], [ 141.389618690250472, 41.167384081010596 ], [ 141.392707223859361, 41.167477838031857 ], [ 141.389861803079839, 41.166106693868869 ], [ 141.388670026000909, 41.150002106811826 ], [ 141.391627392590181, 41.137379333189756 ], [ 141.394551996877226, 41.137098224903184 ], [ 141.391495253403264, 41.133151252428434 ], [ 141.395824462029395, 41.132364090230624 ], [ 141.37429383878964, 41.122590558607442 ], [ 141.368452191715392, 41.112062720618098 ], [ 141.361554968087376, 41.108060467716484 ], [ 141.345983606158597, 41.106516559291833 ], [ 141.328343022012973, 41.112352386853217 ], [ 141.325313021678653, 41.117501278960901 ], [ 141.334111049685248, 41.125740775816212 ], [ 141.326357444840255, 41.136289107556308 ], [ 141.324473216765568, 41.152923333245269 ], [ 141.310877978336066, 41.151648305924653 ], [ 141.287971853718091, 41.157830251964583 ], [ 141.276326822125156, 41.150699558937561 ], [ 141.279052437919745, 41.158466640123379 ], [ 141.273849727682887, 41.17492705384052 ], [ 141.262673839126478, 41.19961702690432 ], [ 141.257170894721071, 41.201127864559339 ], [ 141.262153554343172, 41.19993172127198 ], [ 141.248002918000338, 41.223704919146769 ], [ 141.225903476264534, 41.249394252143077 ], [ 141.19641204887705, 41.270235054004615 ], [ 141.197984473904398, 41.272332532020812 ], [ 141.187892969884729, 41.276994279362555 ], [ 141.180590830102801, 41.275101197462334 ], [ 141.184011414095494, 41.27438666721099 ], [ 141.187848832957343, 41.279429468095543 ], [ 141.175731802980408, 41.275221224579923 ], [ 141.177408339823046, 41.277415386910604 ], [ 141.171111841738139, 41.27961728790757 ], [ 141.159124643287669, 41.277782640356634 ], [ 141.146132283378279, 41.254117558978237 ], [ 141.141118689775794, 41.253508387002512 ], [ 141.143494916257396, 41.251607721119512 ], [ 141.133230336810698, 41.243862667028509 ], [ 141.134183360074076, 41.239914000230954 ], [ 141.144229948353541, 41.240808504608879 ], [ 141.154246615289139, 41.25018738583924 ], [ 141.152364280287316, 41.252545053911149 ], [ 141.157596277845983, 41.253056467781789 ], [ 141.156494837666742, 41.262787170991203 ], [ 141.159386200312952, 41.25672064034535 ], [ 141.154404617179352, 41.242872532341551 ], [ 141.113912283225318, 41.213552612862827 ], [ 141.098810219915777, 41.212905666663232 ], [ 141.074479078146965, 41.20059789227895 ], [ 141.05559208760485, 41.182555080952284 ], [ 141.034435966346791, 41.185066251606258 ], [ 141.010607107631927, 41.197301251951274 ], [ 140.996927588337599, 41.195146720944479 ], [ 140.984242528569894, 41.198668775443707 ], [ 140.985945643077002, 41.195327640258427 ], [ 140.980322503380876, 41.1991367754419 ], [ 140.963969441736367, 41.191281441085664 ], [ 140.945378495421323, 41.173891252479393 ], [ 140.916466109123689, 41.176076305577112 ], [ 140.892005913741968, 41.163490171234457 ], [ 140.876713165380352, 41.166942666770694 ], [ 140.854550661383996, 41.161427945743128 ], [ 140.832750077853916, 41.149724279252155 ], [ 140.826260467446673, 41.141940027310454 ], [ 140.82547450134723, 41.145383972992022 ], [ 140.811313164870739, 41.127576694109223 ], [ 140.798902633050147, 41.128817801700222 ], [ 140.792380843101455, 41.133256152949173 ], [ 140.783051529804311, 41.131309467857704 ], [ 140.777414331905902, 41.135429774764361 ], [ 140.779216523823607, 41.138600332839133 ], [ 140.773628196883806, 41.142170612583755 ], [ 140.76917600506863, 41.140689504716931 ], [ 140.764102672200579, 41.14644394633109 ], [ 140.769082361361939, 41.171943720226579 ], [ 140.764027613883286, 41.194594585771597 ], [ 140.779512049141772, 41.208941865175007 ], [ 140.785592891598753, 41.234714945738233 ], [ 140.779685084099469, 41.252918000065677 ], [ 140.785319532770245, 41.256006891604841 ], [ 140.791576446296062, 41.27110410756859 ], [ 140.789362554638274, 41.274876332776614 ], [ 140.795782803033944, 41.278939946421417 ], [ 140.798575642252104, 41.293936387054657 ], [ 140.802076109425002, 41.292618531320215 ], [ 140.798374695036159, 41.298974080689334 ], [ 140.806254112337456, 41.314154919214218 ], [ 140.798741854952709, 41.321359360246333 ], [ 140.807033500795455, 41.328034080808209 ], [ 140.800957664864427, 41.327930747805794 ], [ 140.814049026641328, 41.335727107320224 ], [ 140.820298444317814, 41.345924892319999 ], [ 140.824141167381072, 41.369057441048142 ], [ 140.827618391575584, 41.37088744090272 ], [ 140.827505550940487, 41.388998026937429 ], [ 140.839008274712228, 41.413414466704353 ], [ 140.83522105061104, 41.415728387255342 ], [ 140.837610751634998, 41.4202522793193 ], [ 140.847422697799288, 41.420693108100522 ], [ 140.854022555196821, 41.433002973408577 ], [ 140.860549804929633, 41.43672889162508 ], [ 140.855559611686772, 41.432061468661914 ], [ 140.861206809147006, 41.435748251080952 ], [ 140.864261699118174, 41.433865386378557 ], [ 140.867274864143724, 41.442692612673966 ], [ 140.865134034308312, 41.445889027156909 ], [ 140.879124552656094, 41.453240973192408 ], [ 140.877540947256989, 41.456783775051235 ], [ 140.884950921148175, 41.467119359570859 ], [ 140.882024527210206, 41.468435198125974 ], [ 140.898570077047452, 41.476738531558055 ], [ 140.903660532107892, 41.494506585610509 ], [ 140.904722724074531, 41.491919585920186 ], [ 140.908695032249966, 41.494504973126084 ], [ 140.905996718973483, 41.501581305732714 ], [ 140.909463606360418, 41.502963026822272 ], [ 140.908573476284914, 41.50777450588879 ], [ 140.900631478759806, 41.511256278854262 ], [ 140.899017834205779, 41.514605134719261 ], [ 140.905345939863309, 41.510761532119091 ], [ 140.906213385439401, 41.51387989174367 ], [ 140.90259147921347, 41.514735891648115 ], [ 140.905237886319469, 41.515743027119072 ], [ 140.897175668322461, 41.52697089199313 ], [ 140.898463942656917, 41.529383612963443 ], [ 140.89744713317873, 41.52595794600245 ], [ 140.900926887166179, 41.52477197314812 ], [ 140.903227470771185, 41.531742693870285 ], [ 140.907792437570947, 41.52948225240408 ], [ 140.907693942921242, 41.544146747874152 ], [ 140.909595887640194, 41.541487531724272 ], [ 140.912408223260968, 41.546368945670338 ], [ 140.917207717062524, 41.545950640409785 ], [ 140.918620415299984, 41.546808721345485 ] ] ], [ [ [ 140.911806278237236, 41.555810359460565 ], [ 140.914186005779584, 41.554614801631828 ], [ 140.910779052811108, 41.552055054097536 ], [ 140.90926878082962, 41.555319531071575 ], [ 140.911800169142566, 41.555848693962105 ], [ 140.911806278237236, 41.555810359460565 ] ] ] ] } },
{ "type": "Feature", "properties": { "code": "020031", "name": "三八", "PrefCode": "02", "regioncode": "020031" }, "geometry": { "type": "MultiPolygon", "coordinates": [ [ [ [ 141.535003969058039, 40.537531891783431 ], [ 141.546948197001711, 40.537766279390326 ], [ 141.535034474961094, 40.537559170919053 ], [ 141.535003969058039, 40.537531891783431 ] ] ], [ [ [ 141.550316835253852, 40.538870306019874 ], [ 141.555391310260802, 40.538567891894729 ], [ 141.550288754822191, 40.538872081281568 ], [ 141.550316835253852, 40.538870306019874 ] ] ], [ [ [ 141.528879780177817, 40.541126532363648 ], [ 141.533333722073735, 40.536338613736064 ], [ 141.529925109855981, 40.533946918915206 ], [ 141.520750168785298, 40.540507719655579 ], [ 141.5279136447989, 40.540522973056795 ], [ 141.524052750034457, 40.544988505415233 ], [ 141.528308859066669, 40.546255721224611 ], [ 141.531061375382251, 40.544283133859608 ], [ 141.528922632873218, 40.541551000678169 ], [ 141.528879780177817, 40.541126532363648 ] ] ], [ [ [ 141.549578689704845, 40.54944330616371 ], [ 141.550387950943218, 40.546446080722092 ], [ 141.560335005855904, 40.544616667225455 ], [ 141.550148715990531, 40.546389865899641 ], [ 141.549582217745183, 40.549720864826099 ], [ 141.549578689704845, 40.54944330616371 ] ] ], [ [ [ 141.535075331161693, 40.56300699997314 ], [ 141.53563180286551, 40.55604008068525 ], [ 141.545553671364928, 40.549119198592166 ], [ 141.535398339761628, 40.556060251579424 ], [ 141.53507992220068, 40.563299667245872 ], [ 141.535075331161693, 40.56300699997314 ] ] ], [ [ [ 141.480857197002138, 40.585049081150203 ], [ 141.479258884989576, 40.587480107820795 ], [ 141.480835278725181, 40.585091973415899 ], [ 141.480857197002138, 40.585049081150203 ] ] ], [ [ [ 141.398502140361529, 40.845253946012861 ], [ 141.424565472618497, 40.706804108422944 ], [ 141.431999000653377, 40.68615020726628 ], [ 141.438238781194855, 40.686571278841484 ], [ 141.441851089855959, 40.680957919272601 ], [ 141.438100829689574, 40.686430341587027 ], [ 141.433711466311138, 40.686015423173274 ], [ 141.438444358120705, 40.679955332572604 ], [ 141.436104267298106, 40.678248324001004 ], [ 141.444628585740702, 40.681369504798852 ], [ 141.437392502961757, 40.677255306087545 ], [ 141.441862943819842, 40.675361252020195 ], [ 141.438514357751501, 40.670246802148256 ], [ 141.44630802919221, 40.644853865013886 ], [ 141.450184189049196, 40.644463413555741 ], [ 141.447110558105805, 40.643853801811531 ], [ 141.448557834376629, 40.637014251706375 ], [ 141.453229727869711, 40.635362866203366 ], [ 141.449893411251992, 40.634533080637198 ], [ 141.451829273901922, 40.629295134962547 ], [ 141.453487639043374, 40.625820865040964 ], [ 141.456875745819048, 40.626659919020085 ], [ 141.453672918270627, 40.625623170672839 ], [ 141.45486027158438, 40.622461693052742 ], [ 141.457794423074233, 40.616978612872742 ], [ 141.461006472270924, 40.617750027042177 ], [ 141.458443450305026, 40.616351531797818 ], [ 141.462405058346803, 40.607730332988524 ], [ 141.465644553053721, 40.607805386809218 ], [ 141.461610388608619, 40.603133505007293 ], [ 141.466058249288835, 40.600760972940577 ], [ 141.471644642686215, 40.587336387164612 ], [ 141.478237004234416, 40.586529667410275 ], [ 141.473837056734851, 40.586788666763596 ], [ 141.477155057759774, 40.586489036040234 ], [ 141.479456394996646, 40.57932741442869 ], [ 141.477116939095481, 40.578428747089049 ], [ 141.482356627656259, 40.568866603810761 ], [ 141.488943891847157, 40.571207909617385 ], [ 141.503622230581527, 40.559413369331594 ], [ 141.521107690667463, 40.555425722319285 ], [ 141.528094059593286, 40.55873544058818 ], [ 141.521043476375439, 40.555264973000135 ], [ 141.50353430566372, 40.559288531740378 ], [ 141.491865538264051, 40.566209739388 ], [ 141.484085058079017, 40.560496838358461 ], [ 141.487491166584164, 40.556787613357699 ], [ 141.500125057625382, 40.55677274756431 ], [ 141.498328884870261, 40.55133474770048 ], [ 141.505957302287698, 40.551314360069739 ], [ 141.500366744130019, 40.548596467652885 ], [ 141.501821193393425, 40.54663680174707 ], [ 141.507550465681561, 40.54910786533577 ], [ 141.512293892149501, 40.546769639707179 ], [ 141.514621970727376, 40.552466441073477 ], [ 141.512368028661626, 40.546722802115653 ], [ 141.503057912292888, 40.541898612930709 ], [ 141.514345473265053, 40.543075106930701 ], [ 141.518058079716639, 40.540339171415667 ], [ 141.515083164656403, 40.538893531911015 ], [ 141.525330219913826, 40.53322483795597 ], [ 141.522454527054833, 40.531033279162557 ], [ 141.534473865476571, 40.531545107620673 ], [ 141.527216860869544, 40.528811945614848 ], [ 141.534562827312698, 40.527181802098539 ], [ 141.537204772881978, 40.531528053776697 ], [ 141.536953916889843, 40.527257505229727 ], [ 141.543660752241976, 40.527618946357336 ], [ 141.54298719780104, 40.530990666586035 ], [ 141.549228910985562, 40.529822693662425 ], [ 141.552438171384551, 40.534521639661989 ], [ 141.552291555810712, 40.529463440585346 ], [ 141.558156836169132, 40.540017467732014 ], [ 141.575983022398646, 40.543103720660213 ], [ 141.581701777115427, 40.539382504998684 ], [ 141.579620752195979, 40.535888864579476 ], [ 141.583468495274929, 40.533923666943735 ], [ 141.581803449969357, 40.530816081197258 ], [ 141.587764916417768, 40.522180387115213 ], [ 141.608577224159603, 40.513984198012395 ], [ 141.612698196564565, 40.505253081364685 ], [ 141.621821504858644, 40.50564141402009 ], [ 141.619090830377559, 40.503940108049619 ], [ 141.621755811181856, 40.498660360087626 ], [ 141.632766693028543, 40.49562691894721 ], [ 141.630202021706054, 40.490725531957764 ], [ 141.63436830105627, 40.483218171381566 ], [ 141.645247717308393, 40.477096107599323 ], [ 141.649177833790077, 40.470209387153545 ], [ 141.660906160590912, 40.465830748190513 ], [ 141.668587367313194, 40.456447224659769 ], [ 141.682666834906627, 40.450293973288296 ], [ 141.676031777144885, 40.448535224920761 ], [ 141.669946589163828, 40.437244306779405 ], [ 141.654955253082562, 40.428588108154713 ], [ 141.646894448819808, 40.428240054335106 ], [ 141.631335913921362, 40.420253892003586 ], [ 141.61613819692036, 40.420196666343145 ], [ 141.612551310294748, 40.415440801351963 ], [ 141.597910530846434, 40.413152468311807 ], [ 141.58692175073827, 40.40696077541952 ], [ 141.581239882614568, 40.398426279349337 ], [ 141.585609468102575, 40.378339972711615 ], [ 141.572438197065253, 40.36948491869407 ], [ 141.57188406000148, 40.365855171279179 ], [ 141.556020805116077, 40.36123017113556 ], [ 141.537915161755336, 40.347603171349306 ], [ 141.531678470385145, 40.351448224555952 ], [ 141.518172387146024, 40.351836053591057 ], [ 141.507505615591754, 40.362860892016613 ], [ 141.498949533993823, 40.362122027010003 ], [ 141.496434474671332, 40.367410413859545 ], [ 141.479983865363124, 40.376359440735655 ], [ 141.466421088862262, 40.377459225263067 ], [ 141.454308910727718, 40.37300058620815 ], [ 141.441720311343374, 40.376056469030857 ], [ 141.433953139326036, 40.373716693870392 ], [ 141.427289105407908, 40.361809613323032 ], [ 141.419241608413586, 40.363524613270329 ], [ 141.407126447227824, 40.357124774988449 ], [ 141.401534137190765, 40.366363441119972 ], [ 141.397253606169102, 40.367248694171963 ], [ 141.389119274235213, 40.359223612779545 ], [ 141.389792672194176, 40.35304050481551 ], [ 141.381575031562534, 40.34214008129976 ], [ 141.376645642382528, 40.338925612926744 ], [ 141.373296160589348, 40.343170332944567 ], [ 141.370103450413922, 40.338536693913341 ], [ 141.350996641281995, 40.33107297293941 ], [ 141.350861052295841, 40.334737998959554 ], [ 141.346132723646292, 40.335730506058042 ], [ 141.346883216887022, 40.340148866277218 ], [ 141.334004616719767, 40.345601054744918 ], [ 141.336338080438168, 40.360196693622584 ], [ 141.31600305999325, 40.372621946445747 ], [ 141.310373384923878, 40.366833306312117 ], [ 141.293490143255553, 40.36323133265995 ], [ 141.295887367108321, 40.360721892301569 ], [ 141.291949883380425, 40.357881333256955 ], [ 141.292318301448518, 40.351668251788453 ], [ 141.279533113862158, 40.344750721468699 ], [ 141.262429442065127, 40.349475468118385 ], [ 141.260130363025951, 40.341872387300896 ], [ 141.248377859750462, 40.34100408107355 ], [ 141.232431608232218, 40.328346531567206 ], [ 141.226160506102588, 40.327833748029093 ], [ 141.218485642298674, 40.31522119790003 ], [ 141.197362114270277, 40.307636467748864 ], [ 141.1727826328123, 40.310101774777138 ], [ 141.153969753601359, 40.301293197722941 ], [ 141.138373411204043, 40.300496559368753 ], [ 141.134391284230446, 40.294744892163123 ], [ 141.099849026811171, 40.280957694342192 ], [ 141.110054501014474, 40.261051720660419 ], [ 141.104170921251125, 40.255812532122718 ], [ 141.076405863040236, 40.25263835967263 ], [ 141.059720363404153, 40.238157973411774 ], [ 141.04188177732226, 40.236860197739986 ], [ 141.026839079160254, 40.226569585617938 ], [ 141.02597800258286, 40.221680945619198 ], [ 141.012688637970314, 40.217712053968171 ], [ 140.996489247980435, 40.21915235959375 ], [ 140.991046160651877, 40.222806558675813 ], [ 140.980057638649214, 40.219633504982312 ], [ 140.975961217736085, 40.225762999862582 ], [ 140.968588444301304, 40.226396332125091 ], [ 140.967038910617248, 40.238016135036673 ], [ 140.955365032370423, 40.24447508126002 ], [ 140.95424219192364, 40.250549278626352 ], [ 140.945710466664764, 40.258074918822501 ], [ 140.957582166084194, 40.282037585865965 ], [ 140.952392698364406, 40.287418774656771 ], [ 140.944597977414787, 40.288137693599708 ], [ 140.943973722009673, 40.296259414340568 ], [ 140.956895550789113, 40.304718054394755 ], [ 140.957339830269007, 40.324516252423166 ], [ 140.962577613166332, 40.323161775395647 ], [ 140.967416938840756, 40.333662107620228 ], [ 140.968170777559408, 40.338721865221942 ], [ 140.962081283624457, 40.34713389161584 ], [ 140.968354279726327, 40.350866386574523 ], [ 140.971859339736852, 40.343708559202696 ], [ 140.980899053348708, 40.343268252028281 ], [ 140.995432282873594, 40.353365224825325 ], [ 140.991182775764514, 40.361063613095325 ], [ 140.994102607349532, 40.376405080430175 ], [ 140.98440919632742, 40.388426559238383 ], [ 140.98768077794557, 40.397093531741177 ], [ 140.981403748384309, 40.405646359591856 ], [ 140.982737834183808, 40.413510865234286 ], [ 140.978759195680368, 40.415979748866391 ], [ 140.985452477350009, 40.421523107905159 ], [ 140.986032969945654, 40.428684251976676 ], [ 140.994969026799254, 40.433944802111 ], [ 141.001153644725036, 40.445158467589238 ], [ 141.001061609006115, 40.454570198356009 ], [ 141.030468585556832, 40.474246612890909 ], [ 141.068248780956537, 40.480026865047819 ], [ 141.067818754831706, 40.482965468181874 ], [ 141.087862802326526, 40.493579413559132 ], [ 141.10401474678315, 40.492581333361898 ], [ 141.11229219233087, 40.498710532365237 ], [ 141.121985278697707, 40.49540686473506 ], [ 141.147703281181521, 40.497748225400358 ], [ 141.172934915913743, 40.493012053763323 ], [ 141.190040660648037, 40.497028441309567 ], [ 141.200889688808161, 40.508284892034169 ], [ 141.219272606645518, 40.518855748194255 ], [ 141.219450025798096, 40.527461359953861 ], [ 141.225674423435976, 40.531208612787282 ], [ 141.270681776742663, 40.54108644058681 ], [ 141.274458754867737, 40.535824467725035 ], [ 141.284615576647639, 40.552728468444116 ], [ 141.290440829980412, 40.55783877513943 ], [ 141.298974695625816, 40.558539053834295 ], [ 141.304527419305032, 40.569141639874829 ], [ 141.302772386936226, 40.574426666857221 ], [ 141.28549871629275, 40.58816646770839 ], [ 141.294019780088888, 40.599137639990147 ], [ 141.277030894160475, 40.601331000125583 ], [ 141.27445444891373, 40.615563026912241 ], [ 141.258475837090259, 40.616281360396499 ], [ 141.257051362230641, 40.619109441347689 ], [ 141.259198782298085, 40.630483694267127 ], [ 141.265945446824958, 40.63154286541095 ], [ 141.261311529903196, 40.637168170674613 ], [ 141.270814033740749, 40.637560694170759 ], [ 141.283182049212314, 40.645287973161487 ], [ 141.269080362968452, 40.646240197826899 ], [ 141.263154747093949, 40.653574694316717 ], [ 141.269928275269763, 40.664489505186566 ], [ 141.290677885875766, 40.68140046755758 ], [ 141.315911193347006, 40.690768306012558 ], [ 141.318040504665646, 40.699411720774322 ], [ 141.340378300917905, 40.712099586426802 ], [ 141.343711802657594, 40.720097171047655 ], [ 141.336043476025679, 40.720736053925805 ], [ 141.331658054375794, 40.712936559374782 ], [ 141.318703606286476, 40.713374361038007 ], [ 141.313229494145958, 40.710189612560612 ], [ 141.310096328982468, 40.716546332847031 ], [ 141.321847886171099, 40.724505838373773 ], [ 141.347569831282726, 40.720811613165495 ], [ 141.356265226858795, 40.730428332701422 ], [ 141.359460777992581, 40.756278558908434 ], [ 141.356882309271214, 40.77226897343445 ], [ 141.348062218196901, 40.779588196737961 ], [ 141.347740363427079, 40.804059505042176 ], [ 141.366080051753102, 40.827456108212857 ], [ 141.367729493821116, 40.838649974216992 ], [ 141.379125331368982, 40.84549161344728 ], [ 141.374095914195095, 40.863549359815181 ], [ 141.376877588330103, 40.878784360010286 ], [ 141.382395642245115, 40.884657972587434 ], [ 141.392928184588072, 40.886623261954014 ], [ 141.398486860879984, 40.845269333413057 ], [ 141.398502140361529, 40.845253946012861 ] ] ] ] } },
{ "type": "Feature", "properties": { "code": "020032", "name": "上北", "PrefCode": "02", "regioncode": "020032" }, "geometry": { "type": "MultiPolygon", "coordinates": [ [ [ [ 141.40819778170237, 40.924296386768901 ], [ 141.400966394283728, 40.930433891910639 ], [ 141.400918586323769, 40.940252252039841 ], [ 141.401305278615837, 40.930507225328256 ], [ 141.407417886026678, 40.924995838087511 ], [ 141.40819778170237, 40.924296386768901 ] ] ], [ [ [ 141.288633255620312, 41.157267197223405 ], [ 141.310877978336066, 41.151648305924653 ], [ 141.324063216744094, 41.153353333289772 ], [ 141.327158222773846, 41.149543891437474 ], [ 141.326357444840255, 41.136289107556308 ], [ 141.334111049685248, 41.125740775816212 ], [ 141.325239414867156, 41.116747946560565 ], [ 141.328343022012973, 41.112352386853217 ], [ 141.342666108753974, 41.106953225111283 ], [ 141.361554968087376, 41.108060467716484 ], [ 141.368452191715392, 41.112062720618098 ], [ 141.37429383878964, 41.122590558607442 ], [ 141.395824462029395, 41.132364090230624 ], [ 141.392825887604658, 41.113946613245673 ], [ 141.394131555726744, 41.105444613278337 ], [ 141.395736446280011, 41.107133585946315 ], [ 141.398466329357689, 41.102396765898106 ], [ 141.392901363207443, 41.10327764015102 ], [ 141.398862113795531, 41.098216081207227 ], [ 141.390868417843308, 41.069537468279577 ], [ 141.384236913302971, 40.98062855906079 ], [ 141.385530246323924, 40.970295532213072 ], [ 141.393091024831051, 40.964954640244514 ], [ 141.389581114776661, 40.969114413899149 ], [ 141.384148560307835, 40.96669455770774 ], [ 141.391195031825305, 40.96516755923551 ], [ 141.386710972533365, 40.960545838020039 ], [ 141.386523838904054, 40.943549747622797 ], [ 141.390062243977468, 40.936982558997954 ], [ 141.393939222217341, 40.936779667447752 ], [ 141.385193502378343, 40.935144054254749 ], [ 141.379938560416349, 40.938173559062534 ], [ 141.375706886863441, 40.935138946105553 ], [ 141.395875810620282, 40.926236612929415 ], [ 141.38581878121181, 40.930844386559272 ], [ 141.389329274026863, 40.926550693959427 ], [ 141.386938392193088, 40.924226693806929 ], [ 141.400053203792368, 40.926224314700391 ], [ 141.392686005254973, 40.923673027088569 ], [ 141.390440310871668, 40.917549027066002 ], [ 141.392928184588072, 40.886623261954014 ], [ 141.381574527042858, 40.884276305706976 ], [ 141.37678119269799, 40.878476027446766 ], [ 141.374075914172181, 40.863101865258955 ], [ 141.379125331368982, 40.84549161344728 ], [ 141.367729493821116, 40.838649974216992 ], [ 141.361495615530316, 40.819653080225521 ], [ 141.348180336953078, 40.806281170439718 ], [ 141.348062218196901, 40.779588196737961 ], [ 141.357948443865666, 40.768391171415487 ], [ 141.358130999046466, 40.735100333213836 ], [ 141.347569831282726, 40.720811613165495 ], [ 141.321847886171099, 40.724505838373773 ], [ 141.310096328982468, 40.716546332847031 ], [ 141.313229494145958, 40.710189612560612 ], [ 141.318703606286476, 40.713374361038007 ], [ 141.331658054375794, 40.712936559374782 ], [ 141.336043476025679, 40.720736053925805 ], [ 141.343711802657594, 40.720097171047655 ], [ 141.340378300917905, 40.712099586426802 ], [ 141.318040504665646, 40.699411720774322 ], [ 141.315911193347006, 40.690768306012558 ], [ 141.290952892262226, 40.681562135084505 ], [ 141.274946861008857, 40.669003693565685 ], [ 141.262961141043888, 40.652717170960727 ], [ 141.269197587798544, 40.646195197550355 ], [ 141.283182049212314, 40.645287973161487 ], [ 141.270814033740749, 40.637560694170759 ], [ 141.261311529903196, 40.637168170674613 ], [ 141.265945446824958, 40.63154286541095 ], [ 141.259198782298085, 40.630483694267127 ], [ 141.257051362230641, 40.619109441347689 ], [ 141.258475837090259, 40.616281360396499 ], [ 141.27445444891373, 40.615563026912241 ], [ 141.277030894160475, 40.601331000125583 ], [ 141.294019780088888, 40.599137639990147 ], [ 141.28549871629275, 40.58816646770839 ], [ 141.302772386936226, 40.574426666857221 ], [ 141.304527419305032, 40.569141639874829 ], [ 141.299123306795195, 40.558779892278267 ], [ 141.290440829980412, 40.55783877513943 ], [ 141.284615576647639, 40.552728468444116 ], [ 141.274458754867737, 40.535824467725035 ], [ 141.270681776742663, 40.54108644058681 ], [ 141.225674423435976, 40.531208612787282 ], [ 141.219450025798096, 40.527461359953861 ], [ 141.219272606645518, 40.518855748194255 ], [ 141.200889688808161, 40.508284892034169 ], [ 141.190040660648037, 40.497028441309567 ], [ 141.172934915913743, 40.493012053763323 ], [ 141.147703281181521, 40.497748225400358 ], [ 141.137295811152853, 40.494519054011164 ], [ 141.11205330721441, 40.498690532342266 ], [ 141.10401474678315, 40.492581333361898 ], [ 141.087862802326526, 40.493579413559132 ], [ 141.067818754831706, 40.482965468181874 ], [ 141.068248780956537, 40.480026865047819 ], [ 141.031086082556726, 40.474509946077205 ], [ 141.001164668614592, 40.454707414215818 ], [ 141.001153644725036, 40.445158467589238 ], [ 140.994969026799254, 40.433944802111 ], [ 140.985173280122808, 40.427080359670924 ], [ 140.972207393556459, 40.430850108146046 ], [ 140.951263838755267, 40.426307639685888 ], [ 140.941954915786823, 40.430201278766049 ], [ 140.93296169892335, 40.421273748384806 ], [ 140.926247249910716, 40.421320441185458 ], [ 140.920029416424541, 40.427305198276315 ], [ 140.911499468225998, 40.423305747662198 ], [ 140.892325914109733, 40.423351586106889 ], [ 140.861322606752992, 40.440629306397398 ], [ 140.880061505034519, 40.510246171323786 ], [ 140.860736720023624, 40.539695080563547 ], [ 140.851454811790177, 40.545303197984254 ], [ 140.863853799913045, 40.556341504656757 ], [ 140.866683645333978, 40.574038747889972 ], [ 140.866616056785688, 40.584885441410051 ], [ 140.858760531773214, 40.588525225258991 ], [ 140.863060142811378, 40.597427695132069 ], [ 140.858169274292663, 40.605382999925553 ], [ 140.876686057115876, 40.613885440560693 ], [ 140.876635421687411, 40.625428775018008 ], [ 140.883692528587403, 40.635559054207022 ], [ 140.88379247744092, 40.640666838304014 ], [ 140.876316913295, 40.645719359960538 ], [ 140.879351582009917, 40.653237972854242 ], [ 140.877164616953564, 40.65660744118054 ], [ 140.887517951392397, 40.653067413730184 ], [ 140.910825642189707, 40.652929586331425 ], [ 140.919726471699391, 40.64574733337281 ], [ 140.935732282618801, 40.642811748363556 ], [ 140.954996082803063, 40.646991171305558 ], [ 140.956214358405987, 40.655982585927632 ], [ 140.961115446820486, 40.658856505323513 ], [ 140.959744033760217, 40.665251801129784 ], [ 140.968147030061459, 40.673628225162531 ], [ 140.970234163176201, 40.692358864969719 ], [ 140.978966615317063, 40.697616387086669 ], [ 140.953169636169832, 40.718696440988026 ], [ 140.9319429963723, 40.720569774675425 ], [ 140.925518274748697, 40.727136467773846 ], [ 140.90915358127279, 40.72937535968515 ], [ 140.901233839270276, 40.738358441189177 ], [ 140.905883747936628, 40.751379865388515 ], [ 140.920258391911375, 40.761696838438411 ], [ 140.939543086944013, 40.759497666883874 ], [ 140.953955810912021, 40.76587574786754 ], [ 140.961355473176582, 40.773023278001915 ], [ 140.957946278198278, 40.779909135098535 ], [ 140.975317613417246, 40.791295305833728 ], [ 140.980609195558031, 40.806184279281126 ], [ 140.988058637995778, 40.808317332678826 ], [ 140.990034163445898, 40.813231251720936 ], [ 141.016733307396294, 40.819851027303116 ], [ 141.020142723607819, 40.825955531822387 ], [ 141.018068806929932, 40.837155864851354 ], [ 141.039400725862833, 40.840387027339489 ], [ 141.039066834566825, 40.846397334169694 ], [ 141.046197366615274, 40.851958468308737 ], [ 141.041567327570192, 40.864428251962295 ], [ 141.047021479257978, 40.877074414252888 ], [ 141.084124954602999, 40.886198585896068 ], [ 141.102200440098272, 40.87274508062103 ], [ 141.109251284119523, 40.872649721007861 ], [ 141.112274616880086, 40.876845559275182 ], [ 141.113063333106425, 40.870554225097464 ], [ 141.112475083858044, 40.873997332610884 ], [ 141.116987977213398, 40.871059055031424 ], [ 141.125355227262048, 40.874429973064878 ], [ 141.131222917803484, 40.87236269428297 ], [ 141.150780143388943, 40.880388972673018 ], [ 141.179224865135438, 40.905572413636037 ], [ 141.211724616497918, 40.952109720587202 ], [ 141.229922970069083, 40.994062468108496 ], [ 141.239242113832574, 41.031145802237063 ], [ 141.24152691343636, 41.083404224625326 ], [ 141.247237328739743, 41.089333666215794 ], [ 141.248539779986913, 41.110492360434137 ], [ 141.259113502286368, 41.125598748583457 ], [ 141.264771114795167, 41.126366944978599 ], [ 141.272475720078432, 41.135045972893408 ], [ 141.276318781286818, 41.150693973248337 ], [ 141.288530751792791, 41.157393586145133 ], [ 141.288633255620312, 41.157267197223405 ] ] ] ] } }
]
}
