{
"type": "FeatureCollection",
"name": "04_miyagi_region",
"crs": { "type": "name", "properties": { "name": "urn:ogc:def:crs:OGC:1.3:CRS84" } },
"features": [
{ "type": "Feature", "properties": { "code": "040011", "name": "東部仙台", "PrefCode": "04", "regioncode": "040011" }, "geometry": { "type": "MultiPolygon", "coordinates": [ [ [ [ 141.068582165934231, 38.262783107554412 ], [ 141.054993217363176, 38.257961386109116 ], [ 141.06851136230955, 38.262903532172345 ], [ 141.068582165934231, 38.262783107554412 ] ] ], [ [ [ 141.058922502871269, 38.268844720707364 ], [ 141.056539728425832, 38.271927225261265 ], [ 141.058333332717211, 38.269650640065038 ], [ 141.058922502871269, 38.268844720707364 ] ] ], [ [ [ 141.089385693594977, 38.302312333247642 ], [ 141.087543307377814, 38.30493590207027 ], [ 141.089419921792, 38.302355387391287 ], [ 141.089385693594977, 38.302312333247642 ] ] ], [ [ [ 141.118435912687232, 38.321687946141878 ], [ 141.120243995164287, 38.32026083716795 ], [ 141.118430310810254, 38.321690225023929 ], [ 141.118435912687232, 38.321687946141878 ] ] ], [ [ [ 141.075113411354891, 38.327951585697178 ], [ 141.075788858868805, 38.325529838231489 ], [ 141.069161090112289, 38.323400640227419 ], [ 141.066738560236445, 38.326508252054225 ], [ 141.075106589097913, 38.32796213474478 ], [ 141.075113411354891, 38.327951585697178 ] ] ], [ [ [ 141.051797523237155, 38.32323625225132 ], [ 141.048562140230615, 38.325311667199742 ], [ 141.053479921861026, 38.329823946318129 ], [ 141.050204385024358, 38.324236945878397 ], [ 141.051797523237155, 38.32323625225132 ] ] ], [ [ [ 141.084512529129938, 38.332115837975607 ], [ 141.085833967763506, 38.330105891873473 ], [ 141.084512891556756, 38.332125719726264 ], [ 141.084512529129938, 38.332115837975607 ] ] ], [ [ [ 141.09082472128398, 38.338266440843597 ], [ 141.090911776557277, 38.335454332751283 ], [ 141.102924111958259, 38.333840108134552 ], [ 141.107229222350838, 38.327548613877468 ], [ 141.097152698338391, 38.332600441257398 ], [ 141.087676614783959, 38.33075700013552 ], [ 141.084921894230092, 38.335921802149528 ], [ 141.091212671727476, 38.338439107978502 ], [ 141.09082472128398, 38.338266440843597 ] ] ], [ [ [ 141.054584331601632, 38.338653774352281 ], [ 141.051710636137045, 38.334835279024958 ], [ 141.054565134673339, 38.33866299959783 ], [ 141.054584331601632, 38.338653774352281 ] ] ], [ [ [ 141.094726029782464, 38.338451000613247 ], [ 141.091854915372096, 38.33903353197195 ], [ 141.094646783322446, 38.338516467660895 ], [ 141.094726029782464, 38.338451000613247 ] ] ], [ [ [ 141.04477652411731, 38.343093801937471 ], [ 141.040740025032164, 38.340759332777054 ], [ 141.044771530182061, 38.343102278947072 ], [ 141.04477652411731, 38.343093801937471 ] ] ], [ [ [ 141.115395720336323, 38.343550748368386 ], [ 141.112765668300995, 38.340391694421214 ], [ 141.115405576006538, 38.343557666852917 ], [ 141.115395720336323, 38.343550748368386 ] ] ], [ [ [ 141.121128663656918, 38.344853053925362 ], [ 141.115722023152898, 38.336278467877037 ], [ 141.109429105269101, 38.335388972722967 ], [ 141.109808833211105, 38.331043694111258 ], [ 141.104286887030298, 38.337276585845814 ], [ 141.103543411199553, 38.343360801659742 ], [ 141.106813165395351, 38.338795081228056 ], [ 141.110658520774223, 38.340909441317706 ], [ 141.113434163156171, 38.338189666619883 ], [ 141.121119389847991, 38.344854775227759 ], [ 141.121128663656918, 38.344853053925362 ] ] ], [ [ [ 141.110785614764382, 38.34702119796998 ], [ 141.112462801816946, 38.345329773750109 ], [ 141.110780699969382, 38.347023000211323 ], [ 141.110785614764382, 38.34702119796998 ] ] ], [ [ [ 141.130254474764229, 38.347143333098415 ], [ 141.127414746693262, 38.33963150469026 ], [ 141.132623773768159, 38.343353532439608 ], [ 141.131550726085152, 38.336133251648278 ], [ 141.126913281123052, 38.335725170780051 ], [ 141.13127399479913, 38.332242225098639 ], [ 141.126114189418331, 38.331666333434612 ], [ 141.1286037223839, 38.327894413996034 ], [ 141.124238911396674, 38.325460279268498 ], [ 141.115575057742831, 38.335342639651174 ], [ 141.119887198135757, 38.339459387041131 ], [ 141.121495965666327, 38.334683774736448 ], [ 141.124510895161734, 38.335119505260991 ], [ 141.121687030232351, 38.340170359574472 ], [ 141.130248443910659, 38.347152559243284 ], [ 141.130254474764229, 38.347143333098415 ] ] ], [ [ [ 141.120297755736942, 38.351899802433991 ], [ 141.122401776320999, 38.348005279320262 ], [ 141.118942827249725, 38.348250171008658 ], [ 141.120290634904904, 38.351919720618639 ], [ 141.120297755736942, 38.351899802433991 ] ] ], [ [ [ 141.115096393583713, 38.352188558555213 ], [ 141.117340220974484, 38.347578414312409 ], [ 141.114050999154301, 38.345667837900464 ], [ 141.11183313878837, 38.349120387395999 ], [ 141.115117133748754, 38.352192747597257 ], [ 141.115096393583713, 38.352188558555213 ] ] ], [ [ [ 141.12116547380765, 38.354213251740248 ], [ 141.126471919943242, 38.352235441112782 ], [ 141.124953527982939, 38.348837306896257 ], [ 141.121159415974375, 38.354219108125392 ], [ 141.12116547380765, 38.354213251740248 ] ] ], [ [ [ 141.118211361864951, 38.35558630606323 ], [ 141.115698029240775, 38.353641801827735 ], [ 141.118214501398143, 38.355602612570578 ], [ 141.118211361864951, 38.35558630606323 ] ] ], [ [ [ 141.127120699860484, 38.35442444133497 ], [ 141.126671413854751, 38.357104747486176 ], [ 141.127125940210021, 38.354426053819395 ], [ 141.127120699860484, 38.35442444133497 ] ] ], [ [ [ 141.075597055959406, 38.365437441085078 ], [ 141.078433773999564, 38.363104918956878 ], [ 141.075577250190008, 38.36544155908075 ], [ 141.075597055959406, 38.365437441085078 ] ] ], [ [ [ 141.07950430627875, 38.366652919796479 ], [ 141.088173190740235, 38.364790747594952 ], [ 141.079496329292283, 38.366666665933963 ], [ 141.07950430627875, 38.366652919796479 ] ] ], [ [ [ 141.07043641960513, 38.367833919399914 ], [ 141.073037107876303, 38.365493612740067 ], [ 141.070451777327776, 38.367870666598037 ], [ 141.07043641960513, 38.367833919399914 ] ] ], [ [ [ 141.077318314288846, 38.377153857264773 ], [ 141.082389585011356, 38.375800586228138 ], [ 141.077171633963758, 38.377192892338144 ], [ 141.077318314288846, 38.377153857264773 ] ] ], [ [ [ 140.963116861054345, 38.505593440984569 ], [ 140.977397860423025, 38.503925802034189 ], [ 140.995373502285361, 38.493965134983057 ], [ 141.00113530485055, 38.478514918928397 ], [ 141.006887639353181, 38.473392359869592 ], [ 141.015726834725683, 38.47741227905351 ], [ 141.023225524938084, 38.468677279133203 ], [ 141.03475593973485, 38.464819108415156 ], [ 141.034280532021057, 38.453851694400214 ], [ 141.025917613107367, 38.444737134711033 ], [ 141.06052878107846, 38.441374837578735 ], [ 141.060673061112993, 38.445484721342893 ], [ 141.081314111856841, 38.449681467925473 ], [ 141.099368780744726, 38.442284919113774 ], [ 141.117057522686537, 38.442797747617988 ], [ 141.11533891106194, 38.436629748264295 ], [ 141.127221556129939, 38.421752467802207 ], [ 141.10867900143478, 38.412175838244366 ], [ 141.099758340075368, 38.414310666903816 ], [ 141.094065668395956, 38.408181054212321 ], [ 141.099051698677044, 38.40838433337035 ], [ 141.099993190833175, 38.403080747978208 ], [ 141.106756277879981, 38.400168172123472 ], [ 141.110797082019758, 38.393253441393256 ], [ 141.116726420188229, 38.398647198209687 ], [ 141.126992891808527, 38.381956612907402 ], [ 141.120780143089178, 38.378721945761242 ], [ 141.105520855802865, 38.385818720857344 ], [ 141.107861245200411, 38.380036504581085 ], [ 141.116309195912777, 38.37614380169515 ], [ 141.107225006329031, 38.375548586298294 ], [ 141.108743087123798, 38.370506864600145 ], [ 141.105244617345306, 38.368037134706071 ], [ 141.103614188743904, 38.372620224643697 ], [ 141.096589389988367, 38.374640027315479 ], [ 141.098803475899786, 38.378413197710984 ], [ 141.088014967616687, 38.381721945611332 ], [ 141.082806082634647, 38.380608108277613 ], [ 141.081538948663592, 38.376660559337381 ], [ 141.077035499089106, 38.378987359978737 ], [ 141.070625526347044, 38.370827613203858 ], [ 141.061581854818769, 38.36906725235184 ], [ 141.062260245813718, 38.354416747634843 ], [ 141.066098974987767, 38.351284197607697 ], [ 141.052001478685384, 38.351063198208067 ], [ 141.059494501370182, 38.34792553193779 ], [ 141.053597197952399, 38.344841108230639 ], [ 141.053786328076626, 38.347413666607508 ], [ 141.049792750035408, 38.345033531672186 ], [ 141.045294227846398, 38.347191359593637 ], [ 141.046657470565833, 38.349213279269463 ], [ 141.041184916051066, 38.349363919309496 ], [ 141.043034617353783, 38.346440135204148 ], [ 141.036440271001766, 38.339501612909146 ], [ 141.041249364166902, 38.338332387229912 ], [ 141.038389883386458, 38.335073666816299 ], [ 141.043325718906885, 38.338063170678822 ], [ 141.041261088628403, 38.33510358636147 ], [ 141.043641388139577, 38.334606504986255 ], [ 141.046424967938037, 38.339839053829337 ], [ 141.050075136258556, 38.339555865410887 ], [ 141.048194253661904, 38.336757505254695 ], [ 141.053947055812046, 38.330657919127702 ], [ 141.043441192756859, 38.323498919039935 ], [ 141.030499883762673, 38.323323640273827 ], [ 141.024626796389612, 38.319765153339233 ], [ 141.039720829652651, 38.319246919010141 ], [ 141.039563747768852, 38.316521585602743 ], [ 141.045563165607632, 38.318632306136067 ], [ 141.036330635550485, 38.306467972718792 ], [ 141.045868339752133, 38.312850134825908 ], [ 141.050088249273358, 38.30904102662214 ], [ 141.048612218079484, 38.313590945965416 ], [ 141.05205783380211, 38.314937559320981 ], [ 141.058727588307647, 38.31275891928874 ], [ 141.06544724979085, 38.321697468163677 ], [ 141.076395719586799, 38.319574972806777 ], [ 141.08138769078937, 38.305798504797224 ], [ 141.090027781656886, 38.300551666626177 ], [ 141.087879610655591, 38.295681026558157 ], [ 141.084691996938204, 38.292865775335315 ], [ 141.073163916781368, 38.294766107569842 ], [ 141.064808911002501, 38.288178026794526 ], [ 141.061721088757281, 38.280730945976416 ], [ 141.044897613334228, 38.277697028195348 ], [ 141.040252865877164, 38.272677505362651 ], [ 141.029578859276967, 38.275564170849862 ], [ 141.031365161972758, 38.280789999958586 ], [ 141.028790699731076, 38.283106197592986 ], [ 141.024949248309213, 38.270718081374412 ], [ 140.998918443631283, 38.273108802229501 ], [ 140.997706329283687, 38.270038918761145 ], [ 141.046888715941577, 38.26464086498396 ], [ 141.02323175094466, 38.264127279250602 ], [ 140.990945667708502, 38.224157251755798 ], [ 140.965798637597118, 38.186303945970394 ], [ 140.962005305300636, 38.176562414024261 ], [ 140.965283307178993, 38.170511972249756 ], [ 140.963171504761249, 38.173559054306963 ], [ 140.960776394315189, 38.169756054298546 ], [ 140.967573216730671, 38.170467748987505 ], [ 140.959061088598446, 38.166453775221612 ], [ 140.939938222970682, 38.127363585960779 ], [ 140.92435783364715, 38.069757224516366 ], [ 140.92165671898249, 38.037911693070214 ], [ 140.92606413715032, 38.035174171151141 ], [ 140.922627003833213, 38.033873693915893 ], [ 140.927776406755811, 38.034247640116575 ], [ 140.92162175064334, 38.032952387043053 ], [ 140.915000751983143, 38.000764170729951 ], [ 140.915150558351684, 37.966894277948597 ], [ 140.920538003725937, 37.931985134906085 ], [ 140.926348948844975, 37.903786919131051 ], [ 140.929566355303109, 37.904125252178687 ], [ 140.92935369621614, 37.900432080975804 ], [ 140.931536667383398, 37.904005865378451 ], [ 140.931170830369638, 37.896197431566293 ], [ 140.920209857299142, 37.891997388069058 ], [ 140.914866446329484, 37.898028775008015 ], [ 140.901119663142026, 37.897637774963414 ], [ 140.900221387906754, 37.904329667180434 ], [ 140.856251414271469, 37.890900054194219 ], [ 140.859338494575923, 37.895203919025676 ], [ 140.857226083317187, 37.906360803108612 ], [ 140.850761244735736, 37.914285774668826 ], [ 140.85669849513954, 37.927756775354965 ], [ 140.850685383323821, 37.937629531877462 ], [ 140.853245447419567, 37.966449027200895 ], [ 140.84026503230541, 37.996591134773098 ], [ 140.839213332729173, 38.018454440620019 ], [ 140.830068663737961, 38.028741414085061 ], [ 140.830140142753407, 38.060219306275997 ], [ 140.823125006314058, 38.077148693957099 ], [ 140.83497616072134, 38.085527693648203 ], [ 140.82854739304787, 38.092434081367799 ], [ 140.829373255771202, 38.09629183839769 ], [ 140.824736744305369, 38.096884918803994 ], [ 140.827157444960221, 38.121942774839226 ], [ 140.81251705581758, 38.127346801913404 ], [ 140.79612630268673, 38.121504802304855 ], [ 140.777079662696337, 38.128513000474641 ], [ 140.780311166926822, 38.134207387161268 ], [ 140.787230245879186, 38.136851467721101 ], [ 140.790169558578327, 38.145308891891887 ], [ 140.796603917336938, 38.147958800957952 ], [ 140.794591724728434, 38.162313747981159 ], [ 140.790694695204138, 38.166410414409143 ], [ 140.791968392427407, 38.17439702730104 ], [ 140.776496252699985, 38.179500197875882 ], [ 140.756707522734018, 38.176705414323465 ], [ 140.753921361881453, 38.180721225404284 ], [ 140.749700389361578, 38.179040171266934 ], [ 140.743738859061182, 38.182566558699762 ], [ 140.745873139134119, 38.187422332974336 ], [ 140.741990310804226, 38.194126170886136 ], [ 140.74468455284989, 38.19739889284466 ], [ 140.737414422637585, 38.206353026970646 ], [ 140.744014823225598, 38.209418050502677 ], [ 140.745264487865938, 38.215883930499047 ], [ 140.749176769892074, 38.215634048472623 ], [ 140.736564742269138, 38.222041294470216 ], [ 140.734414505525024, 38.230681829602815 ], [ 140.739046057229871, 38.244198999684158 ], [ 140.749620246277459, 38.245754467994345 ], [ 140.753614773103322, 38.242061134913513 ], [ 140.764819210638166, 38.242747403070268 ], [ 140.76596361143163, 38.239178462416135 ], [ 140.78106094700513, 38.251713592608269 ], [ 140.796709989674355, 38.254113649325518 ], [ 140.800997047975443, 38.258746507745172 ], [ 140.797899725292154, 38.26134475075969 ], [ 140.80959649937904, 38.260579801816448 ], [ 140.810771737925393, 38.253963971560097 ], [ 140.823162964898984, 38.248522356421688 ], [ 140.820545608593079, 38.267104231275312 ], [ 140.825807449254398, 38.275128359386315 ], [ 140.818082471628827, 38.283485518142186 ], [ 140.825319579634993, 38.283460668974726 ], [ 140.824719086116943, 38.294326003642198 ], [ 140.830077522959414, 38.298272135250897 ], [ 140.831943138664997, 38.308362891933996 ], [ 140.856388910719716, 38.309404866241664 ], [ 140.857697885648918, 38.303773747760317 ], [ 140.867719611271127, 38.300449775236984 ], [ 140.880057250341906, 38.309290414021461 ], [ 140.88145230927671, 38.303194053762638 ], [ 140.888909532648881, 38.300500666972255 ], [ 140.892046329274763, 38.287298775817874 ], [ 140.929271803051279, 38.306487360303493 ], [ 140.932400169432299, 38.327994667719793 ], [ 140.927264112448938, 38.333090251613896 ], [ 140.919580219451632, 38.333078413837768 ], [ 140.916882023086941, 38.336633693789963 ], [ 140.908349804999602, 38.334208531598506 ], [ 140.900855863207539, 38.340866639883586 ], [ 140.883812023306291, 38.347408251789432 ], [ 140.875185058044053, 38.358717107808332 ], [ 140.86342819755339, 38.362024999554137 ], [ 140.8604335288843, 38.373755251803459 ], [ 140.873244890339492, 38.390584170822876 ], [ 140.871254747308853, 38.397021668215473 ], [ 140.875780143039265, 38.40276853214209 ], [ 140.871933527710212, 38.408162720633129 ], [ 140.860588143927771, 38.403988135144346 ], [ 140.858643865422096, 38.406803134557094 ], [ 140.872246277743557, 38.413452972676623 ], [ 140.871976160071767, 38.423785693754837 ], [ 140.875474915834729, 38.426486467576467 ], [ 140.904394561459867, 38.434746380840863 ], [ 140.90470778633528, 38.444713395307019 ], [ 140.907771633554148, 38.445228721228546 ], [ 140.904310609746858, 38.452510360065105 ], [ 140.914110142569143, 38.457312999695205 ], [ 140.911348910923607, 38.461893252271807 ], [ 140.921656354757033, 38.468219505325976 ], [ 140.940479688586834, 38.46472966724042 ], [ 140.949270972577438, 38.468435973041778 ], [ 140.960420466931055, 38.46527366714605 ], [ 140.960443721600541, 38.472450586225648 ], [ 140.949353333389695, 38.478061198365651 ], [ 140.955606420300114, 38.486364693675739 ], [ 140.947544695131683, 38.493972531906877 ], [ 140.956955031949178, 38.505635999601736 ], [ 140.962957690944791, 38.505805666598292 ], [ 140.963116861054345, 38.505593440984569 ] ] ] ] } },
{ "type": "Feature", "properties": { "code": "040012", "name": "石巻地域", "PrefCode": "04", "regioncode": "040012" }, "geometry": { "type": "MultiPolygon", "coordinates": [ [ [ [ 141.470118637964788, 38.283639559418191 ], [ 141.482095746021969, 38.277540135169147 ], [ 141.489077367426603, 38.267355892160765 ], [ 141.489640584045787, 38.259387747746416 ], [ 141.494824617162408, 38.258554721922906 ], [ 141.495156886980794, 38.255328108205674 ], [ 141.495504474951645, 38.259168585661769 ], [ 141.499143501571439, 38.256977026868356 ], [ 141.496594136710087, 38.250951945975601 ], [ 141.500632723121726, 38.246022639533237 ], [ 141.494843580267116, 38.251018225111068 ], [ 141.478990532687021, 38.250182198249888 ], [ 141.472214279565378, 38.263848946271878 ], [ 141.464973333252829, 38.265118135193859 ], [ 141.466510143328492, 38.268622278795192 ], [ 141.457013864598252, 38.268236252001486 ], [ 141.459578339868585, 38.272696775136126 ], [ 141.456573140138403, 38.273618612608914 ], [ 141.463296782920224, 38.277007278762937 ], [ 141.460387108278496, 38.283323386565087 ], [ 141.467344554107967, 38.279983053575108 ], [ 141.470130661001235, 38.283642386886697 ], [ 141.470118637964788, 38.283639559418191 ] ] ], [ [ [ 141.435109027159911, 38.290944026645548 ], [ 141.436497950919716, 38.287958134460382 ], [ 141.43510228314392, 38.290970838133717 ], [ 141.435109027159911, 38.290944026645548 ] ] ], [ [ [ 141.416229974034195, 38.312209722200976 ], [ 141.421661893581586, 38.309485387041036 ], [ 141.419490077605019, 38.305857108219016 ], [ 141.42428379955777, 38.294573640061515 ], [ 141.428439222292354, 38.294160441151462 ], [ 141.427076082994859, 38.296433721339213 ], [ 141.429541024898413, 38.292788721422426 ], [ 141.408691919596436, 38.285021721175553 ], [ 141.406438948798495, 38.290300891772802 ], [ 141.412815083649207, 38.299323333005475 ], [ 141.409414526659134, 38.304811080666866 ], [ 141.416207859705082, 38.312202972789009 ], [ 141.416229974034195, 38.312209722200976 ] ] ], [ [ [ 141.566857367773423, 38.313552613262516 ], [ 141.571301776855535, 38.312081774754176 ], [ 141.568392334238865, 38.308301333339898 ], [ 141.589672944151062, 38.301757197936411 ], [ 141.579105938888006, 38.286898278932483 ], [ 141.583076278447606, 38.282166972627749 ], [ 141.581364552931859, 38.279667585790492 ], [ 141.586131440014015, 38.277274945782153 ], [ 141.576473606172044, 38.269112838286901 ], [ 141.558002528693805, 38.281962613383939 ], [ 141.552407249095381, 38.28780419840507 ], [ 141.552016667235421, 38.293877413711698 ], [ 141.548002825669982, 38.295213199229806 ], [ 141.551802528763801, 38.294108559262668 ], [ 141.548461530275517, 38.303660197560134 ], [ 141.566839274313111, 38.31355172113507 ], [ 141.566857367773423, 38.313552613262516 ] ] ], [ [ [ 141.186727717410349, 38.316800108338384 ], [ 141.185238885266358, 38.314975892023824 ], [ 141.186728105917382, 38.316809467582914 ], [ 141.186727717410349, 38.316800108338384 ] ] ], [ [ [ 141.157973916662968, 38.321255892045826 ], [ 141.161474864073739, 38.316611197648683 ], [ 141.155285772020875, 38.318258027186232 ], [ 141.157966277821515, 38.32125861339432 ], [ 141.157973916662968, 38.321255892045826 ] ] ], [ [ [ 141.153056161113, 38.321551667375616 ], [ 141.153391996743267, 38.318287251555489 ], [ 141.153042218023984, 38.32155558572174 ], [ 141.153056161113, 38.321551667375616 ] ] ], [ [ [ 141.16316457778305, 38.355767612985005 ], [ 141.167313411185091, 38.354098439791244 ], [ 141.161459947918274, 38.352671441433927 ], [ 141.163138469564728, 38.355786053583586 ], [ 141.16316457778305, 38.355767612985005 ] ] ], [ [ [ 141.150000000399814, 38.35662322528168 ], [ 141.158228716182407, 38.353223000141384 ], [ 141.154365188202974, 38.347893197712949 ], [ 141.156866666863266, 38.349610413589744 ], [ 141.157531050917328, 38.343326774910793 ], [ 141.162592140414972, 38.340430224974966 ], [ 141.158833916751973, 38.350394748319047 ], [ 141.161665279329213, 38.347998749342878 ], [ 141.160581051274562, 38.352197026571559 ], [ 141.168882996153457, 38.350137467570107 ], [ 141.163749027395738, 38.347156000049438 ], [ 141.167263139082706, 38.346891531918743 ], [ 141.163834383849803, 38.345575107904949 ], [ 141.167395771997349, 38.345505108274153 ], [ 141.16692972802457, 38.342363612690633 ], [ 141.169497275379058, 38.344719305851356 ], [ 141.168649688632286, 38.336482694021186 ], [ 141.170668145018908, 38.338865999966004 ], [ 141.166756160668342, 38.332051585912041 ], [ 141.171935057756741, 38.325252838048073 ], [ 141.182659144004333, 38.321503171434244 ], [ 141.177152698538293, 38.32365869349394 ], [ 141.179536549472232, 38.320887170906246 ], [ 141.177090636323896, 38.319482559372659 ], [ 141.162860363215259, 38.328146531737104 ], [ 141.154236031168011, 38.322346332617201 ], [ 141.145336199905728, 38.329989197643386 ], [ 141.148872555424191, 38.334185440605665 ], [ 141.141959779820013, 38.334124441389918 ], [ 141.143172801583546, 38.330871305766209 ], [ 141.137812969892707, 38.330082026564355 ], [ 141.146605835790751, 38.324711467760096 ], [ 141.137692049748352, 38.321676055305772 ], [ 141.139756743878706, 38.326961333198994 ], [ 141.131497418770891, 38.338672649323371 ], [ 141.134473475970253, 38.342686414446518 ], [ 141.136631580882863, 38.339139332714069 ], [ 141.142398470013404, 38.339409613163184 ], [ 141.142792437820844, 38.342474559353491 ], [ 141.148215939713964, 38.33882627870986 ], [ 141.149992671824407, 38.342688775166891 ], [ 141.140550025962966, 38.354314331940941 ], [ 141.149986550139261, 38.356628748018352 ], [ 141.150000000399814, 38.35662322528168 ] ] ], [ [ [ 141.527412917572178, 38.358589919389317 ], [ 141.52500130996259, 38.356912279078472 ], [ 141.527414643371117, 38.358602973048846 ], [ 141.527412917572178, 38.358589919389317 ] ] ], [ [ [ 141.529895084190798, 38.359620108081572 ], [ 141.529485305402545, 38.357299531648096 ], [ 141.529869948139662, 38.359634586267191 ], [ 141.529895084190798, 38.359620108081572 ] ] ], [ [ [ 141.426048910628765, 38.365556306278563 ], [ 141.422485863232055, 38.364208693776277 ], [ 141.426016835408745, 38.36555072148866 ], [ 141.426048910628765, 38.365556306278563 ] ] ], [ [ [ 141.420662282738249, 38.380813721176366 ], [ 141.427107107806819, 38.379925360067375 ], [ 141.423660465957823, 38.376149414364022 ], [ 141.417393774103402, 38.376879666563411 ], [ 141.42061033699747, 38.380829864906389 ], [ 141.420662282738249, 38.380813721176366 ] ] ], [ [ [ 141.37716753605298, 38.383269963937721 ], [ 141.380487886107176, 38.382196386554028 ], [ 141.375947496879576, 38.381203838086719 ], [ 141.377116328655688, 38.383256009157549 ], [ 141.37716753605298, 38.383269963937721 ] ] ], [ [ [ 141.606053216582723, 38.392029224868907 ], [ 141.605769247552757, 38.387985414295485 ], [ 141.600480557631727, 38.385532667198902 ], [ 141.60605403406646, 38.392050946194274 ], [ 141.606053216582723, 38.392029224868907 ] ] ], [ [ [ 141.27500000014993, 38.390080314854686 ], [ 141.269338067298008, 38.387015874083374 ], [ 141.288085162000698, 38.392936675886915 ], [ 141.277810233155833, 38.391666666783294 ], [ 141.27500000014993, 38.390080314854686 ] ] ], [ [ [ 141.268364578162846, 38.395553333419628 ], [ 141.27081635489094, 38.394081612676359 ], [ 141.266666667132995, 38.39657644085014 ], [ 141.268364578162846, 38.395553333419628 ] ] ], [ [ [ 141.592550025563241, 38.402575668032682 ], [ 141.596667691161088, 38.402632441334163 ], [ 141.599408054038577, 38.397696693947296 ], [ 141.58948481227435, 38.397284891684478 ], [ 141.59109092230824, 38.401038919110874 ], [ 141.594010000261392, 38.399866440583821 ], [ 141.59249155614043, 38.402624440965212 ], [ 141.592550025563241, 38.402575668032682 ] ] ], [ [ [ 141.342180532405678, 38.403284413844688 ], [ 141.345217301937055, 38.401930215607024 ], [ 141.338744448597481, 38.403116478043103 ], [ 141.341666666983201, 38.403259296679266 ], [ 141.342180532405678, 38.403284413844688 ] ] ], [ [ [ 141.54929564158067, 38.404617504993894 ], [ 141.550859338687587, 38.402804171375465 ], [ 141.549244553793187, 38.404616279217976 ], [ 141.54929564158067, 38.404617504993894 ] ] ], [ [ [ 141.583174228108192, 38.404668197978992 ], [ 141.579964721294914, 38.399761441137628 ], [ 141.583174747016983, 38.404696666917687 ], [ 141.583174228108192, 38.404668197978992 ] ] ], [ [ [ 141.55424927378499, 38.406211720594456 ], [ 141.553024357588129, 38.402157000345369 ], [ 141.554261335492356, 38.40623910764873 ], [ 141.55424927378499, 38.406211720594456 ] ] ], [ [ [ 141.311020921078693, 38.411820945979912 ], [ 141.312684476207664, 38.407283027190033 ], [ 141.310834747025979, 38.412243080553765 ], [ 141.311020921078693, 38.411820945979912 ] ] ], [ [ [ 141.283962632869247, 38.417826278659902 ], [ 141.279918754846676, 38.417493721058406 ], [ 141.283333333166865, 38.417774531669352 ], [ 141.283962632869247, 38.417826278659902 ] ] ], [ [ [ 141.593237392691549, 38.424392747827085 ], [ 141.595523022369662, 38.422774945707204 ], [ 141.591385524922089, 38.422193667104125 ], [ 141.593187250091546, 38.424416586156553 ], [ 141.593237392691549, 38.424392747827085 ] ] ], [ [ [ 141.515075356742386, 38.459632026596807 ], [ 141.51208683493951, 38.458359694544299 ], [ 141.515065135947339, 38.459641359761008 ], [ 141.515075356742386, 38.459632026596807 ] ] ], [ [ [ 141.517915331227641, 38.465580197468171 ], [ 141.526191529415655, 38.459541865065091 ], [ 141.524636886683084, 38.453695504643861 ], [ 141.532471336083404, 38.454504080598895 ], [ 141.5294521662845, 38.450205613498326 ], [ 141.534949443162304, 38.443795000438968 ], [ 141.530206523912057, 38.437677918900874 ], [ 141.518586005140037, 38.442879108384204 ], [ 141.515834500561823, 38.450587972856738 ], [ 141.519365227223489, 38.456576333531018 ], [ 141.515256718522778, 38.46241883675998 ], [ 141.517922723654806, 38.465585558326893 ], [ 141.517915331227641, 38.465580197468171 ] ] ], [ [ [ 141.514632697840852, 38.55601353219879 ], [ 141.510711698686009, 38.549661721311452 ], [ 141.514629973794285, 38.556030198434939 ], [ 141.514632697840852, 38.55601353219879 ] ] ], [ [ [ 141.494163164898168, 38.559962747582802 ], [ 141.491955162001204, 38.556325197649812 ], [ 141.494166394363674, 38.559976504512122 ], [ 141.494163164898168, 38.559962747582802 ] ] ], [ [ [ 141.525251802628645, 38.631938467686211 ], [ 141.529046355305127, 38.627693279121559 ], [ 141.524149973942258, 38.609167332206653 ], [ 141.520467198002848, 38.609498026412837 ], [ 141.517418444105942, 38.604133747574451 ], [ 141.508398029045907, 38.604003279327912 ], [ 141.510814358096241, 38.601650053906894 ], [ 141.508298366176746, 38.598377694375131 ], [ 141.501060363345118, 38.603038108022304 ], [ 141.504575383347287, 38.595030612872563 ], [ 141.491925577003826, 38.590942134771751 ], [ 141.494127561637697, 38.589386358893421 ], [ 141.487375875296493, 38.583109413868385 ], [ 141.474235640762231, 38.585224026667561 ], [ 141.458564695104656, 38.578485964155959 ], [ 141.463038949088286, 38.561251027313119 ], [ 141.478386056071713, 38.562656648785378 ], [ 141.476423074365471, 38.557566081309631 ], [ 141.479841336308709, 38.559424765940264 ], [ 141.482599546232109, 38.554549035709499 ], [ 141.487839857123731, 38.554046694199656 ], [ 141.485689637466862, 38.540913414122826 ], [ 141.493528003414667, 38.533065973116209 ], [ 141.499775161994194, 38.53289480155388 ], [ 141.498277056041388, 38.535720413866045 ], [ 141.501849337676845, 38.536498108001354 ], [ 141.509975694422792, 38.533361802405295 ], [ 141.507963527894617, 38.538100558693884 ], [ 141.514489882801968, 38.544903838241567 ], [ 141.520486860780011, 38.539289749322506 ], [ 141.526131166020605, 38.546882505023632 ], [ 141.5348565494902, 38.547016135286469 ], [ 141.530337859104975, 38.532088107879929 ], [ 141.536830777218711, 38.533134252343928 ], [ 141.541693838699757, 38.525012108022395 ], [ 141.547558468848365, 38.523850801773108 ], [ 141.538504813046757, 38.51663450497847 ], [ 141.539290441001071, 38.511282054023638 ], [ 141.533853086850513, 38.509127172281239 ], [ 141.538938559666803, 38.502565721331052 ], [ 141.542804086839169, 38.504577666626062 ], [ 141.539116861054367, 38.497929198174006 ], [ 141.533345693848787, 38.495989802087763 ], [ 141.537319467919133, 38.490387720017338 ], [ 141.523915838145513, 38.489864891951242 ], [ 141.523116589059441, 38.496037531806678 ], [ 141.51494416274295, 38.493018440248875 ], [ 141.516462192276435, 38.500307198118776 ], [ 141.512420610223103, 38.503287919202137 ], [ 141.516226031206429, 38.506097225006954 ], [ 141.513242529419244, 38.513249919048576 ], [ 141.50456732811972, 38.511682361152111 ], [ 141.503424577582223, 38.508389801947828 ], [ 141.498505965877712, 38.511333774933803 ], [ 141.494132218327309, 38.508798197578813 ], [ 141.483235499119019, 38.51986066723606 ], [ 141.46957622536263, 38.521207613340721 ], [ 141.464698808003618, 38.512085892350115 ], [ 141.475207029081162, 38.517701359929845 ], [ 141.488964305558284, 38.506093359720808 ], [ 141.489284060411137, 38.498633414100823 ], [ 141.495997912273879, 38.500620639730812 ], [ 141.497273061003057, 38.495356135277461 ], [ 141.490788885198981, 38.488696640237833 ], [ 141.498635888235754, 38.47847738662216 ], [ 141.489329170404972, 38.469139802260145 ], [ 141.483615550817035, 38.47125110825209 ], [ 141.476177288750932, 38.467943855924261 ], [ 141.476297990360081, 38.463921144345363 ], [ 141.501594384373448, 38.460752359733647 ], [ 141.494657327074037, 38.456187838098288 ], [ 141.497569559387671, 38.448783973301772 ], [ 141.501495447257184, 38.451191026744539 ], [ 141.501819779659172, 38.44718008099602 ], [ 141.506583306874177, 38.447814838683882 ], [ 141.509452387018086, 38.453607171433873 ], [ 141.512678144580718, 38.450022332564629 ], [ 141.509278029157826, 38.444201135174296 ], [ 141.507882192309353, 38.446470640008101 ], [ 141.494428833623829, 38.443088081150051 ], [ 141.494394253791825, 38.437110441293896 ], [ 141.489948469646265, 38.443066332845035 ], [ 141.481413800006976, 38.436680053641624 ], [ 141.479303217069855, 38.440372865115705 ], [ 141.467214746863192, 38.438906107730759 ], [ 141.460704254198049, 38.44672777506679 ], [ 141.447390338093669, 38.443894505027458 ], [ 141.465288029419071, 38.431454134600699 ], [ 141.463218559888674, 38.423647440976652 ], [ 141.471546226277383, 38.425638253102932 ], [ 141.475050583917323, 38.419882081193123 ], [ 141.47039469475942, 38.415434667475949 ], [ 141.474585498621877, 38.413555505282375 ], [ 141.472603256135471, 38.405774802065537 ], [ 141.469789585021431, 38.406749170737669 ], [ 141.471743995289216, 38.405243864812576 ], [ 141.465494839315397, 38.39876589163265 ], [ 141.469712943897321, 38.394273838267054 ], [ 141.475622606698039, 38.39914717090528 ], [ 141.481444772658165, 38.398797081020518 ], [ 141.481202503392865, 38.401781721349437 ], [ 141.490718029413642, 38.405650441115029 ], [ 141.493018470026414, 38.412061531714357 ], [ 141.497047082057293, 38.411564694055414 ], [ 141.500018521237848, 38.415904973335898 ], [ 141.504753112766025, 38.413622333004298 ], [ 141.500983475806834, 38.403455748184285 ], [ 141.504564424208866, 38.400836972748152 ], [ 141.505882710718538, 38.404584170722956 ], [ 141.50539814430897, 38.398243053674037 ], [ 141.510952672028225, 38.399673305778492 ], [ 141.514187781640885, 38.392637468744226 ], [ 141.521832022629837, 38.394135413718402 ], [ 141.523945084098386, 38.398085532021753 ], [ 141.530538339572786, 38.396986720560733 ], [ 141.534392476831385, 38.402459748118929 ], [ 141.539046861423571, 38.400856252414144 ], [ 141.540939417220443, 38.395788918923529 ], [ 141.53774416286285, 38.391390666645975 ], [ 141.540613722345483, 38.389749441683421 ], [ 141.533109611919144, 38.386759721084331 ], [ 141.530689973363678, 38.381521278084563 ], [ 141.525184227570094, 38.386560559022655 ], [ 141.526573994893965, 38.389153918718421 ], [ 141.515889637097189, 38.386530612497836 ], [ 141.516766887082213, 38.38958061285507 ], [ 141.512015940483366, 38.391557134754009 ], [ 141.508091309866131, 38.390536225266658 ], [ 141.507220272397717, 38.384131919152821 ], [ 141.491459104953833, 38.379744467733076 ], [ 141.488348392264584, 38.382291306398713 ], [ 141.489022891893001, 38.379575945573492 ], [ 141.484809780347177, 38.380059279012585 ], [ 141.481432386295637, 38.3757217480603 ], [ 141.488953555062608, 38.367639279129492 ], [ 141.49497230922475, 38.371359838285969 ], [ 141.498181387960699, 38.368483333339213 ], [ 141.502853722121699, 38.371499440946479 ], [ 141.518112334916395, 38.368497838504481 ], [ 141.518321478553503, 38.362713945891926 ], [ 141.521894577672697, 38.361877667220597 ], [ 141.519621051070772, 38.358705694512253 ], [ 141.524486834799632, 38.356583837674009 ], [ 141.524426666557474, 38.347581721119582 ], [ 141.534184642607215, 38.339836891859136 ], [ 141.531050532256359, 38.329459225362996 ], [ 141.524667860233649, 38.32543533297428 ], [ 141.532546226227396, 38.318566134919251 ], [ 141.539747691402908, 38.319114558590059 ], [ 141.54101503221807, 38.308042747674733 ], [ 141.539466692833685, 38.302793359925658 ], [ 141.530615110199278, 38.301234504768615 ], [ 141.525578690004636, 38.295858586005011 ], [ 141.523517327862464, 38.278127585819504 ], [ 141.526798470173276, 38.27615446785444 ], [ 141.523305382837179, 38.271539279314368 ], [ 141.510306808612427, 38.278149333225201 ], [ 141.509055032363904, 38.296715333246084 ], [ 141.495650610287498, 38.291465387018036 ], [ 141.491657392874458, 38.293892721072268 ], [ 141.497222698069095, 38.304476999613883 ], [ 141.495532891729681, 38.307037694134351 ], [ 141.484122581392057, 38.308360918821393 ], [ 141.478257328013342, 38.305467360030718 ], [ 141.470140272056028, 38.315359108436155 ], [ 141.472074837883497, 38.320069413772501 ], [ 141.468082476625113, 38.31536153210908 ], [ 141.470564577593223, 38.307957305785067 ], [ 141.466747392578213, 38.30583046760205 ], [ 141.458722996469191, 38.313798891705517 ], [ 141.449471309953083, 38.315253278915748 ], [ 141.474231634282546, 38.329308586222339 ], [ 141.473324773219815, 38.334282026894073 ], [ 141.463128339901004, 38.335717054398572 ], [ 141.462284137303186, 38.351484586344611 ], [ 141.453773671118142, 38.347769360167888 ], [ 141.451531895080961, 38.340312640416073 ], [ 141.448457004187503, 38.353787973136491 ], [ 141.444842801554159, 38.353508864942228 ], [ 141.436126977877848, 38.341268558597164 ], [ 141.430612309010939, 38.341156414936677 ], [ 141.433484034060939, 38.344810801976962 ], [ 141.43132571960632, 38.348229504588005 ], [ 141.421942750057951, 38.343982865416933 ], [ 141.421440830330084, 38.348076891435426 ], [ 141.415787638888446, 38.346042640255689 ], [ 141.420642891556213, 38.350462558999936 ], [ 141.417214773043384, 38.349559440915527 ], [ 141.415236394044427, 38.355070505299636 ], [ 141.423972243824096, 38.355578838092981 ], [ 141.429878470315202, 38.364765053064787 ], [ 141.44061622625793, 38.36509669425709 ], [ 141.443614449047686, 38.370501251931273 ], [ 141.458865110036868, 38.37301597310875 ], [ 141.453113968934531, 38.376552468022055 ], [ 141.431809610625123, 38.373655441445521 ], [ 141.438286886830383, 38.381363531601778 ], [ 141.427822335932092, 38.3803714139097 ], [ 141.42269319113791, 38.384324440620503 ], [ 141.433519143593685, 38.395740396002509 ], [ 141.429792087734768, 38.399667360360468 ], [ 141.423203800115402, 38.39476361265065 ], [ 141.419039779862032, 38.396898306411742 ], [ 141.41460413827042, 38.391467666599567 ], [ 141.408395330380245, 38.404004251894776 ], [ 141.39007564207725, 38.385692694362433 ], [ 141.373178495091565, 38.383265198430195 ], [ 141.363849248344195, 38.388567081405711 ], [ 141.370273671392852, 38.400071081315389 ], [ 141.36559527939869, 38.402685720769455 ], [ 141.368450169140033, 38.403480504721585 ], [ 141.36730260722959, 38.409193332906057 ], [ 141.363938885571201, 38.409635305624931 ], [ 141.363377445113088, 38.403030838302584 ], [ 141.363712243825034, 38.411899694215549 ], [ 141.327017587691557, 38.41201827882054 ], [ 141.327215863021706, 38.40953794591951 ], [ 141.335434253687936, 38.409508892421513 ], [ 141.32723693863386, 38.409284413544924 ], [ 141.340500337120943, 38.406021225299355 ], [ 141.317167886189054, 38.411534198044876 ], [ 141.317161920086619, 38.407186252043971 ], [ 141.324126329366663, 38.402406585595486 ], [ 141.332109805423215, 38.402683171191427 ], [ 141.324106834762688, 38.402286386707431 ], [ 141.314901528982432, 38.411716774809349 ], [ 141.314457638908948, 38.407335224740905 ], [ 141.313953943020124, 38.413211838355721 ], [ 141.294160532082969, 38.414049919268393 ], [ 141.294769610529215, 38.400133612975935 ], [ 141.283844694876848, 38.3991981345863 ], [ 141.286785031903719, 38.399633026942695 ], [ 141.286053204092127, 38.408997368833582 ], [ 141.275469467841731, 38.409550135330505 ], [ 141.264422218310756, 38.397722440638177 ], [ 141.274173917092639, 38.408124946409202 ], [ 141.274850051688645, 38.414449865768745 ], [ 141.285787496695662, 38.41617761270669 ], [ 141.285355473176651, 38.419491359938377 ], [ 141.273860660740979, 38.416521198694397 ], [ 141.273436912783382, 38.41994891880762 ], [ 141.266602555363647, 38.419386694140655 ], [ 141.266024357837864, 38.412341864785276 ], [ 141.269442022631324, 38.410351972665467 ], [ 141.266820558222207, 38.407533973114425 ], [ 141.230256719272234, 38.400944721421808 ], [ 141.174179948146161, 38.375524891860323 ], [ 141.160687458159714, 38.364537440950187 ], [ 141.158641556262864, 38.353547107712927 ], [ 141.144059442289517, 38.360445891664597 ], [ 141.132398105987818, 38.3599988656552 ], [ 141.138076134905759, 38.372059533320851 ], [ 141.126348053619836, 38.379798449538839 ], [ 141.121958079601768, 38.393619108435132 ], [ 141.11941216633852, 38.392601081274961 ], [ 141.114774941710266, 38.399042225418441 ], [ 141.110797082019758, 38.393253441393256 ], [ 141.106756277879981, 38.400168172123472 ], [ 141.099993190833175, 38.403080747978208 ], [ 141.099051698677044, 38.40838433337035 ], [ 141.094065668395956, 38.408181054212321 ], [ 141.099758340075368, 38.414310666903816 ], [ 141.10867900143478, 38.412175838244366 ], [ 141.127221556129939, 38.421752467802207 ], [ 141.11533891106194, 38.436629748264295 ], [ 141.115881051169595, 38.445293306041265 ], [ 141.127932023244398, 38.449894504727638 ], [ 141.130756354921914, 38.446407000382806 ], [ 141.123995330919797, 38.441344613163437 ], [ 141.13026450130576, 38.438413720816641 ], [ 141.131395888009934, 38.442993693704068 ], [ 141.175704772956919, 38.455204441132082 ], [ 141.165799855778801, 38.460822864783438 ], [ 141.166180830181247, 38.472610530651536 ], [ 141.160895551388649, 38.475884467594142 ], [ 141.168302723891657, 38.481257387118774 ], [ 141.166987327802985, 38.486100999861321 ], [ 141.170381607525201, 38.487877332672838 ], [ 141.163711140756618, 38.501064838271702 ], [ 141.166309195812801, 38.508456694420943 ], [ 141.17728503107935, 38.518418973956557 ], [ 141.177869558933025, 38.530935251660594 ], [ 141.18458175064734, 38.531993775292563 ], [ 141.197122891907952, 38.541520225378179 ], [ 141.213885914003754, 38.534135332679512 ], [ 141.226546692975603, 38.534079359774694 ], [ 141.235437134416316, 38.569595775424773 ], [ 141.241893916870822, 38.575568198313761 ], [ 141.264383721931267, 38.584092918753242 ], [ 141.267170116607645, 38.588725108077313 ], [ 141.265130363375647, 38.600272027232336 ], [ 141.268723722421896, 38.604197531990565 ], [ 141.290203165243952, 38.602180892234458 ], [ 141.292183942734823, 38.59418146760072 ], [ 141.285621855064619, 38.576207440920712 ], [ 141.287405668436918, 38.570260225129346 ], [ 141.303922607242612, 38.571972224938293 ], [ 141.31674949369426, 38.568729838011677 ], [ 141.324432114150795, 38.576424135265654 ], [ 141.342517445423823, 38.57887944093352 ], [ 141.361408663678958, 38.590958863960452 ], [ 141.376991724888285, 38.589698386771204 ], [ 141.401662633223964, 38.609458892414011 ], [ 141.409446446296556, 38.61102546825083 ], [ 141.41593763861124, 38.605799559102422 ], [ 141.407548002638237, 38.602190774884377 ], [ 141.406705279425182, 38.597982440537237 ], [ 141.426063280895733, 38.593103334251509 ], [ 141.447777366732112, 38.603841720618959 ], [ 141.446213838697759, 38.608746999874199 ], [ 141.457517250221031, 38.609748838338248 ], [ 141.460962502617463, 38.614943252329283 ], [ 141.474148366054351, 38.620811171298556 ], [ 141.485591051086203, 38.618625225174071 ], [ 141.493497612624765, 38.622927359709934 ], [ 141.49831574577513, 38.617322864758478 ], [ 141.508453138601567, 38.614786945661081 ], [ 141.516121946370845, 38.626262135788977 ], [ 141.525054552525603, 38.631988135444146 ], [ 141.525251802628645, 38.631938467686211 ] ] ] ] } },
{ "type": "Feature", "properties": { "code": "040013", "name": "東部大崎", "PrefCode": "04", "regioncode": "040013" }, "geometry": { "type": "Polygon", "coordinates": [ [ [ 140.955047425998032, 38.681460026459092 ], [ 140.954958791515082, 38.67145694827957 ], [ 140.975096978242959, 38.666666278625883 ], [ 140.980416159678043, 38.660414585664626 ], [ 140.995096523685675, 38.653856919061639 ], [ 140.994756588945506, 38.648933612895974 ], [ 140.99025116715768, 38.64718589201533 ], [ 140.991855226737357, 38.641164775334175 ], [ 141.007339298669763, 38.629246000002922 ], [ 141.055239339324089, 38.62719013541647 ], [ 141.074775421848358, 38.631832973612916 ], [ 141.083444889969769, 38.6292570535702 ], [ 141.090549364161916, 38.640143613137298 ], [ 141.110758275374224, 38.643885586050999 ], [ 141.108616278218733, 38.629357613063462 ], [ 141.124667755812311, 38.622741054356254 ], [ 141.138292217711751, 38.610385000767224 ], [ 141.150960558183328, 38.607983613053364 ], [ 141.16184472105715, 38.598378054103989 ], [ 141.174453333054885, 38.596131386654235 ], [ 141.179293605715429, 38.603619721173231 ], [ 141.200844163327588, 38.594032225107128 ], [ 141.200651388251003, 38.589280279361446 ], [ 141.195761387578045, 38.588157774361832 ], [ 141.195557224386448, 38.581556387217574 ], [ 141.192661672698136, 38.581821108057738 ], [ 141.203601115099445, 38.572024441374936 ], [ 141.223004812022509, 38.566307306337194 ], [ 141.231053527598306, 38.547267865419713 ], [ 141.226546692975603, 38.534079359774694 ], [ 141.213885914003754, 38.534135332679512 ], [ 141.197122891907952, 38.541520225378179 ], [ 141.18458175064734, 38.531993775292563 ], [ 141.177869558933025, 38.530935251660594 ], [ 141.17728503107935, 38.518418973956557 ], [ 141.166309195812801, 38.508456694420943 ], [ 141.163711140756618, 38.501064838271702 ], [ 141.170381607525201, 38.487877332672838 ], [ 141.166987327802985, 38.486100999861321 ], [ 141.168302723891657, 38.481257387118774 ], [ 141.160895551388649, 38.475884467594142 ], [ 141.166180830181247, 38.472610530651536 ], [ 141.165799855778801, 38.460822864783438 ], [ 141.175704772956919, 38.455204441132082 ], [ 141.155051751337282, 38.451702224777875 ], [ 141.131395888009934, 38.442993693704068 ], [ 141.132060415955493, 38.438844532948906 ], [ 141.129148911193397, 38.438297918714056 ], [ 141.123995330919797, 38.441344613163437 ], [ 141.130756354921914, 38.446407000382806 ], [ 141.127932023244398, 38.449894504727638 ], [ 141.113417392598649, 38.441545027980737 ], [ 141.099191243780979, 38.442329360012025 ], [ 141.081314111856841, 38.449681467925473 ], [ 141.060673061112993, 38.445484721342893 ], [ 141.06052878107846, 38.441374837578735 ], [ 141.025917613107367, 38.444737134711033 ], [ 141.034280532021057, 38.453851694400214 ], [ 141.03475593973485, 38.464819108415156 ], [ 141.023225524938084, 38.468677279133203 ], [ 141.015726834725683, 38.47741227905351 ], [ 141.006887639353181, 38.473392359869592 ], [ 141.00107972764738, 38.478615197833165 ], [ 140.997789170334045, 38.492097081215377 ], [ 140.977667860283645, 38.503817747591029 ], [ 140.956955031949178, 38.505635999601736 ], [ 140.949007690652479, 38.498231918967917 ], [ 140.949051751137517, 38.489781972659955 ], [ 140.942178560092543, 38.486070081169373 ], [ 140.936903891501402, 38.491333440785695 ], [ 140.933008833291069, 38.486992666878109 ], [ 140.917516939055531, 38.489765586112981 ], [ 140.89530474661683, 38.50477908059014 ], [ 140.893458443852182, 38.512042667335265 ], [ 140.887567056174817, 38.515789386870779 ], [ 140.885771478770835, 38.529561837608753 ], [ 140.888022865862581, 38.533226774596017 ], [ 140.894227276068023, 38.532081198388653 ], [ 140.891675188059594, 38.534833134641531 ], [ 140.896531996554472, 38.538544802200931 ], [ 140.899852866416722, 38.55645269363697 ], [ 140.894123165151996, 38.561120774903884 ], [ 140.903387082447921, 38.560198503957849 ], [ 140.907289920693302, 38.564366775306496 ], [ 140.905106160820765, 38.568633721169363 ], [ 140.881913672278188, 38.57523553189435 ], [ 140.876634280447774, 38.579668891905897 ], [ 140.873278170651133, 38.591113026644905 ], [ 140.878577951011721, 38.598732413969799 ], [ 140.883877152208925, 38.598156565473175 ], [ 140.881297519764757, 38.603725855563823 ], [ 140.889589934527976, 38.604491661560985 ], [ 140.892054989746043, 38.608405422971941 ], [ 140.889039844413333, 38.611066027675065 ], [ 140.895270736955013, 38.613902226806374 ], [ 140.899054647054413, 38.622010144752437 ], [ 140.915931187874094, 38.631266128229299 ], [ 140.920635127808964, 38.638121622414985 ], [ 140.919571525705464, 38.646757223866814 ], [ 140.905563333880764, 38.65514197022577 ], [ 140.91518606358602, 38.6680219355639 ], [ 140.908940897904131, 38.672544022688555 ], [ 140.914482552727691, 38.675480182364595 ], [ 140.922881017345162, 38.672508324999228 ], [ 140.925874946771387, 38.67823233265608 ], [ 140.937998673999687, 38.674439778273211 ], [ 140.938745778594921, 38.681313131196077 ], [ 140.952554267865253, 38.681732856486178 ], [ 140.955047425998032, 38.681460026459092 ] ] ] } },
{ "type": "Feature", "properties": { "code": "040014", "name": "気仙沼地域", "PrefCode": "04", "regioncode": "040014" }, "geometry": { "type": "MultiPolygon", "coordinates": [ [ [ [ 141.488951089121542, 38.65299463919132 ], [ 141.490671803361124, 38.651250386995798 ], [ 141.487082165709467, 38.650072386631393 ], [ 141.488956328571817, 38.65300327897819 ], [ 141.488951089121542, 38.65299463919132 ] ] ], [ [ [ 141.509993449737976, 38.676078108318109 ], [ 141.511648858807803, 38.674156999945637 ], [ 141.509964189395873, 38.676108386692761 ], [ 141.509993449737976, 38.676078108318109 ] ] ], [ [ [ 141.556317951012716, 38.69989346910836 ], [ 141.554271362033774, 38.698784026761473 ], [ 141.556390440866267, 38.700000000099976 ], [ 141.556317951012716, 38.69989346910836 ] ] ], [ [ [ 141.59181517513025, 38.836706567554074 ], [ 141.59056500686961, 38.838982080758456 ], [ 141.59166666738281, 38.83690619816258 ], [ 141.59181517513025, 38.836706567554074 ] ] ], [ [ [ 141.641323502177897, 38.845380251697293 ], [ 141.643315084123856, 38.841299666946099 ], [ 141.64128486370555, 38.84538519796854 ], [ 141.641323502177897, 38.845380251697293 ] ] ], [ [ [ 141.638952891962504, 38.851930080708712 ], [ 141.639869804747718, 38.848510801632244 ], [ 141.638993217562984, 38.851971891989251 ], [ 141.638952891962504, 38.851930080708712 ] ] ], [ [ [ 141.668429273692141, 38.860280197772965 ], [ 141.665973696428978, 38.859687945642236 ], [ 141.668408469675228, 38.860294306337209 ], [ 141.668429273692141, 38.860280197772965 ] ] ], [ [ [ 141.624302699310192, 38.885406639704684 ], [ 141.627761581831578, 38.878296414348085 ], [ 141.634404085979895, 38.874710080805642 ], [ 141.631238002931582, 38.871948801496046 ], [ 141.634332970290416, 38.867347531763244 ], [ 141.62228508378962, 38.861542360291764 ], [ 141.627722827346702, 38.856147775199702 ], [ 141.622419441604052, 38.851345333420454 ], [ 141.627262995890646, 38.847950441259911 ], [ 141.636331387983205, 38.8484903330625 ], [ 141.633165887695668, 38.845622973321611 ], [ 141.63777230874507, 38.840417891572486 ], [ 141.628517056417081, 38.840052559078401 ], [ 141.624316523688663, 38.830233081091876 ], [ 141.623552191680346, 38.834885505161992 ], [ 141.615543995059397, 38.839004865082529 ], [ 141.617466693433244, 38.841595586167443 ], [ 141.610487198025794, 38.847570865303226 ], [ 141.613846641609257, 38.849000837718563 ], [ 141.604705382847214, 38.860404332993653 ], [ 141.606722243836543, 38.864989136139798 ], [ 141.612929196425284, 38.865392080080483 ], [ 141.607188832798442, 38.866511837651217 ], [ 141.601683112185924, 38.873503973029983 ], [ 141.6053925287423, 38.877634945896091 ], [ 141.618675135848889, 38.878757947321446 ], [ 141.624316134282253, 38.885444720597434 ], [ 141.624302699310192, 38.885406639704684 ] ] ], [ [ [ 141.51078719677173, 39.002449748257334 ], [ 141.518352672437913, 39.001366585899291 ], [ 141.516624422778932, 38.998226306199115 ], [ 141.523134228361982, 38.99134589179954 ], [ 141.536906278002448, 38.99538569409458 ], [ 141.56712961144251, 38.995960504773507 ], [ 141.574538366752336, 38.987292532224615 ], [ 141.604254112037665, 38.985388865303946 ], [ 141.62151128371886, 38.972851919380616 ], [ 141.635808884572384, 38.968031946217423 ], [ 141.632011140202053, 38.962977080927601 ], [ 141.637071673019364, 38.96430272119369 ], [ 141.644041114905576, 38.955467945988971 ], [ 141.632619727618362, 38.958275054750004 ], [ 141.63134771662385, 38.95425866720376 ], [ 141.639626056997031, 38.949389386910752 ], [ 141.637199026913663, 38.946838801669401 ], [ 141.640368300756563, 38.946245053966095 ], [ 141.639302801982808, 38.942705306204971 ], [ 141.648265719787219, 38.941366107759734 ], [ 141.642567859918813, 38.940286612836985 ], [ 141.643062632734427, 38.933038224634402 ], [ 141.634177445133105, 38.930087612853129 ], [ 141.642717690569043, 38.928100775730286 ], [ 141.644489300141117, 38.922723694143201 ], [ 141.65315027236727, 38.919131279385113 ], [ 141.650611362124778, 38.911380081125913 ], [ 141.64751527870726, 38.91131325160535 ], [ 141.654834332038831, 38.906956946406012 ], [ 141.651425110080822, 38.901822559463596 ], [ 141.667481996197239, 38.892208000099174 ], [ 141.668352672138212, 38.888861837703701 ], [ 141.662569026839151, 38.88884197257903 ], [ 141.665188611665144, 38.883081694364762 ], [ 141.662584916061064, 38.881722612808403 ], [ 141.670773385383541, 38.873966468277956 ], [ 141.668516912625478, 38.86993750461221 ], [ 141.673608445073796, 38.867347198114771 ], [ 141.674636640868357, 38.858175467623767 ], [ 141.662192943849391, 38.863802773878945 ], [ 141.656691478828748, 38.862576441249814 ], [ 141.658005694107601, 38.866355585841688 ], [ 141.64667722477418, 38.875161359709011 ], [ 141.648281920174554, 38.87951141372082 ], [ 141.643041478881173, 38.878795107308406 ], [ 141.645048223396884, 38.884206278596935 ], [ 141.637082023316793, 38.885072972339856 ], [ 141.641559882682486, 38.889901972897803 ], [ 141.636151751102489, 38.888830467552111 ], [ 141.637211505007031, 38.893964054097864 ], [ 141.633417197845461, 38.896571559230154 ], [ 141.638300194598401, 38.902308080953219 ], [ 141.631320584077798, 38.901431721296944 ], [ 141.629411854873297, 38.895544359884354 ], [ 141.623388003353739, 38.899810170802766 ], [ 141.62406011708083, 38.895017170106371 ], [ 141.630914837849559, 38.890873134587537 ], [ 141.620849948366526, 38.892842559036922 ], [ 141.614689169669532, 38.887984775676898 ], [ 141.615280465820888, 38.881949973112796 ], [ 141.610360116626111, 38.886279748311779 ], [ 141.60739344924832, 38.87969394641857 ], [ 141.59738389055417, 38.893823568303105 ], [ 141.588185900758731, 38.894624982057337 ], [ 141.586774136916915, 38.909343315441731 ], [ 141.575006926128822, 38.906177991421202 ], [ 141.579704254247986, 38.904884595447754 ], [ 141.58603162066288, 38.89291228797174 ], [ 141.593714345440731, 38.889748766192668 ], [ 141.593956680356541, 38.885472577097801 ], [ 141.590261051306584, 38.885409567897284 ], [ 141.590465045425617, 38.873873359667868 ], [ 141.587613229566955, 38.873545883235977 ], [ 141.592128571776243, 38.869830098580223 ], [ 141.585526213364119, 38.868289532036329 ], [ 141.586254800019105, 38.858027351081432 ], [ 141.583553968640786, 38.856710900088046 ], [ 141.586805720207849, 38.857826604414299 ], [ 141.583294993569211, 38.856723828741735 ], [ 141.583163061226401, 38.848537278572621 ], [ 141.586920025838594, 38.846428864800316 ], [ 141.590857418734913, 38.834228251832428 ], [ 141.595500025805563, 38.83343672972137 ], [ 141.596440999052902, 38.836809855590388 ], [ 141.603680466880064, 38.827808730088861 ], [ 141.5965343576745, 38.829320189175462 ], [ 141.590366874531696, 38.822208819881212 ], [ 141.579406238707065, 38.82419530626845 ], [ 141.574820674734383, 38.819143918656948 ], [ 141.57840517455918, 38.813127395712797 ], [ 141.571438781374695, 38.808030306353601 ], [ 141.568688312815425, 38.813387693687162 ], [ 141.559058806718667, 38.812516666111321 ], [ 141.555104073094526, 38.809427190012855 ], [ 141.555699364034467, 38.806281874109231 ], [ 141.558884629622071, 38.80844577515245 ], [ 141.55536147884925, 38.80079850524686 ], [ 141.539043216471327, 38.798220062605878 ], [ 141.520781050605024, 38.788793261000251 ], [ 141.51825084310201, 38.774747107892779 ], [ 141.511664669788729, 38.767792828576205 ], [ 141.520269584573725, 38.764925765611622 ], [ 141.519749441883278, 38.759600974205625 ], [ 141.529112412307995, 38.75883138655928 ], [ 141.526910998743688, 38.757129999649806 ], [ 141.530623166326109, 38.752566801816499 ], [ 141.527694330728878, 38.753797360359954 ], [ 141.532637638716096, 38.75177586516412 ], [ 141.530239493957538, 38.748581657617478 ], [ 141.538078418384316, 38.749221305818651 ], [ 141.540488003418659, 38.746319136019338 ], [ 141.534946031134496, 38.740089640124836 ], [ 141.546821245104411, 38.740417837813027 ], [ 141.54599705601936, 38.733517640127047 ], [ 141.553058833098703, 38.738759080567149 ], [ 141.565346692895673, 38.739669171994763 ], [ 141.565615162110134, 38.733272612641031 ], [ 141.561218053770176, 38.730450639885191 ], [ 141.566537301755147, 38.725806000346665 ], [ 141.558369300103209, 38.723940224561773 ], [ 141.559838948808533, 38.719150054031843 ], [ 141.556758470427098, 38.71938283814751 ], [ 141.558696834990997, 38.714611413985608 ], [ 141.566396640592529, 38.711137108091123 ], [ 141.564109000929761, 38.697869197705359 ], [ 141.559708145114882, 38.695452467557402 ], [ 141.561798079617688, 38.69161283816203 ], [ 141.55985914398434, 38.689982198219923 ], [ 141.554272917860885, 38.695341531686381 ], [ 141.559228638291074, 38.701113440832671 ], [ 141.556815057568883, 38.706701441318501 ], [ 141.546226743769239, 38.711390504668088 ], [ 141.537732725285082, 38.709308468011443 ], [ 141.536198756167778, 38.705288531740393 ], [ 141.534374085695617, 38.714007441889976 ], [ 141.525735940061622, 38.717176386581002 ], [ 141.521916290904187, 38.715665540832106 ], [ 141.526213332579346, 38.708962613034203 ], [ 141.520825472617503, 38.708761360048754 ], [ 141.524319780333713, 38.705526720781563 ], [ 141.517284669052287, 38.698111612660853 ], [ 141.519233190559362, 38.69461572123862 ], [ 141.516343410719855, 38.689340027420371 ], [ 141.509215576637644, 38.685433413821045 ], [ 141.506359662568457, 38.691178917972763 ], [ 141.50067697786028, 38.689816053867844 ], [ 141.499365083731732, 38.695530748145586 ], [ 141.496983969434723, 38.689906081400579 ], [ 141.489830129656866, 38.689768557972627 ], [ 141.49709616075927, 38.680439054019189 ], [ 141.493255837087304, 38.673235107614175 ], [ 141.488376497877084, 38.677911468039895 ], [ 141.481618002768641, 38.674408468376157 ], [ 141.474739415791419, 38.679938224269677 ], [ 141.475542218098894, 38.676492640023355 ], [ 141.461273165324428, 38.670312080737972 ], [ 141.462629494055932, 38.666264505602499 ], [ 141.461231309977052, 38.670216080807563 ], [ 141.453339688875644, 38.670024305777133 ], [ 141.458475005716991, 38.670610305821015 ], [ 141.452512166003771, 38.674545721108188 ], [ 141.448855577423046, 38.673825666321477 ], [ 141.450967833099071, 38.671549278076782 ], [ 141.444492529107038, 38.673531026835462 ], [ 141.450203021752145, 38.657592081409462 ], [ 141.441104552733009, 38.646386134812303 ], [ 141.443150103894254, 38.643335666807616 ], [ 141.452151089101562, 38.644340973057524 ], [ 141.458095421666485, 38.639542864211876 ], [ 141.464253281164019, 38.647901333279947 ], [ 141.484395137125944, 38.64142730632517 ], [ 141.497577224309566, 38.64519710786027 ], [ 141.497147781844774, 38.641494107966764 ], [ 141.503870000100505, 38.641739999701258 ], [ 141.5055082492064, 38.636940585040009 ], [ 141.518539274567956, 38.640055559616428 ], [ 141.518819830670736, 38.637250198238121 ], [ 141.529516522669496, 38.637180081695476 ], [ 141.528796030812259, 38.630384135219742 ], [ 141.521176109290082, 38.631154053816601 ], [ 141.508453138601567, 38.614786945661081 ], [ 141.49831574577513, 38.617322864758478 ], [ 141.493497612624765, 38.622927359709934 ], [ 141.485591051086203, 38.618625225174071 ], [ 141.474303644797487, 38.620849774697376 ], [ 141.460962502617463, 38.614943252329283 ], [ 141.457517250221031, 38.609748838338248 ], [ 141.446213838697759, 38.608746999874199 ], [ 141.44796569376183, 38.604015053252169 ], [ 141.436629921933445, 38.59753377506371 ], [ 141.426063280895733, 38.593103334251509 ], [ 141.416871555777789, 38.593931504635293 ], [ 141.406590829902939, 38.598104386808075 ], [ 141.407548002638237, 38.602190774884377 ], [ 141.41593763861124, 38.605799559102422 ], [ 141.409618392175162, 38.610980467974287 ], [ 141.399428366525967, 38.610527531620335 ], [ 141.403470661741721, 38.624331640293008 ], [ 141.395620921168643, 38.626848386743688 ], [ 141.386141284392806, 38.645907081246833 ], [ 141.375827444580977, 38.653938865286477 ], [ 141.376481336244751, 38.667293251782212 ], [ 141.385740920607077, 38.673744251595963 ], [ 141.372309053020444, 38.677106332891015 ], [ 141.375210025822071, 38.688543226288914 ], [ 141.367652191695356, 38.689948334248299 ], [ 141.371695810713163, 38.695343801575234 ], [ 141.368694228056256, 38.718911054701493 ], [ 141.389408301052299, 38.723780505865705 ], [ 141.393330829953925, 38.725840721372265 ], [ 141.392397003618839, 38.731332387379837 ], [ 141.412224890066682, 38.736144081384282 ], [ 141.41425430559184, 38.739441253211339 ], [ 141.406518392210046, 38.743701080940184 ], [ 141.403316835403643, 38.754395000329055 ], [ 141.398834695265009, 38.756997278601602 ], [ 141.410132477032221, 38.767814360144655 ], [ 141.422894383868766, 38.771661694931311 ], [ 141.421695771942382, 38.779828639879895 ], [ 141.439561699213073, 38.785054531941171 ], [ 141.432532411941338, 38.791585198198391 ], [ 141.436344889904831, 38.805606000316686 ], [ 141.429378975159693, 38.810546640015502 ], [ 141.454344968145847, 38.810897747932756 ], [ 141.458672503133585, 38.81396019760507 ], [ 141.453047756348951, 38.818598612935716 ], [ 141.449834863588194, 38.837389802297594 ], [ 141.454596614642128, 38.847250891015847 ], [ 141.466166328913005, 38.85667605405672 ], [ 141.452669416060758, 38.862552333123745 ], [ 141.450757030212799, 38.875482972561201 ], [ 141.466038366177713, 38.885438386672263 ], [ 141.466441919858767, 38.89394925215629 ], [ 141.48311639380654, 38.902485197933572 ], [ 141.491861413973197, 38.912814026745991 ], [ 141.48938396879521, 38.917448252135159 ], [ 141.492109688911114, 38.921624333196462 ], [ 141.485572335295046, 38.935728387355255 ], [ 141.493963385002303, 38.955349748092431 ], [ 141.490186304354552, 38.957309252120353 ], [ 141.484067860343544, 38.985305892053304 ], [ 141.490193087041348, 38.997778360183247 ], [ 141.510516083550442, 39.002498361110554 ], [ 141.51078719677173, 39.002449748257334 ] ] ] ] } },
{ "type": "Feature", "properties": { "code": "040015", "name": "東部仙南", "PrefCode": "04", "regioncode": "040015" }, "geometry": { "type": "Polygon", "coordinates": [ [ [ 140.752484642752165, 38.17988319755159 ], [ 140.756707522734018, 38.176705414323465 ], [ 140.777092672289086, 38.179437694094361 ], [ 140.791968392427407, 38.17439702730104 ], [ 140.790694695204138, 38.166410414409143 ], [ 140.794591724728434, 38.162313747981159 ], [ 140.796603917336938, 38.147958800957952 ], [ 140.790169558578327, 38.145308891891887 ], [ 140.787230245879186, 38.136851467721101 ], [ 140.780311166926822, 38.134207387161268 ], [ 140.777079662696337, 38.128513000474641 ], [ 140.79612630268673, 38.121504802304855 ], [ 140.81251705581758, 38.127346801913404 ], [ 140.827139390170828, 38.121985837976069 ], [ 140.824736744305369, 38.096884918803994 ], [ 140.829373255771202, 38.09629183839769 ], [ 140.82854739304787, 38.092434081367799 ], [ 140.83497616072134, 38.085527693648203 ], [ 140.823125006314058, 38.077148693957099 ], [ 140.830140142753407, 38.060219306275997 ], [ 140.829461413613444, 38.031254747608557 ], [ 140.839213332729173, 38.018454440620019 ], [ 140.84026503230541, 37.996591134773098 ], [ 140.853245447419567, 37.966449027200895 ], [ 140.850685383323821, 37.937629531877462 ], [ 140.85669849513954, 37.927756775354965 ], [ 140.850921244919618, 37.91223386530072 ], [ 140.857226083317187, 37.906360803108612 ], [ 140.859338494575923, 37.895203919025676 ], [ 140.856148911343212, 37.891290332982521 ], [ 140.859937886424404, 37.888663666894786 ], [ 140.856507444962631, 37.882793720853613 ], [ 140.861123086761154, 37.879401225386289 ], [ 140.854579533218953, 37.874518225036127 ], [ 140.861562335433518, 37.862828802007641 ], [ 140.850538833400492, 37.849231998757773 ], [ 140.855090143095708, 37.833775919123411 ], [ 140.85234197140494, 37.829733748014121 ], [ 140.85597649781721, 37.828812612911804 ], [ 140.853656614761007, 37.821013774865889 ], [ 140.858241673314637, 37.814943225149761 ], [ 140.853715888177817, 37.807029108406653 ], [ 140.85795344959206, 37.802975774912113 ], [ 140.851716808583888, 37.795308054423231 ], [ 140.830507392602158, 37.794764559037219 ], [ 140.821616666975615, 37.798886532387598 ], [ 140.810386355046262, 37.795523252296334 ], [ 140.775140414998191, 37.806365585903109 ], [ 140.773061141058861, 37.801216720775074 ], [ 140.765016472432308, 37.7982695857728 ], [ 140.783066524200763, 37.791495053953611 ], [ 140.794922502571467, 37.780906197862805 ], [ 140.803235161973248, 37.779842801703978 ], [ 140.794426523765082, 37.773281224848688 ], [ 140.775219559834909, 37.781816586066668 ], [ 140.745150051833434, 37.788462864669498 ], [ 140.726969831292763, 37.781479171226806 ], [ 140.723001855151551, 37.792535198140911 ], [ 140.712239804923115, 37.800294919275132 ], [ 140.69437333266319, 37.803264972600459 ], [ 140.685387198860212, 37.815556278599445 ], [ 140.684377082136734, 37.830522531689553 ], [ 140.67923396907247, 37.836337774668607 ], [ 140.692006887208095, 37.850863108145973 ], [ 140.691441166876416, 37.861353838309071 ], [ 140.685818028978929, 37.867937971959918 ], [ 140.687457276332339, 37.871387667007298 ], [ 140.681870246214999, 37.87592377456258 ], [ 140.690889389633639, 37.883674197606183 ], [ 140.690080532190905, 37.888213027409336 ], [ 140.666976446106219, 37.895057666777973 ], [ 140.660348002858086, 37.900895748040398 ], [ 140.647291854935247, 37.898795892216697 ], [ 140.644672048876032, 37.895448693802223 ], [ 140.627342283919347, 37.89907327910862 ], [ 140.618622723559952, 37.91251580186281 ], [ 140.629684383827339, 37.921797107550503 ], [ 140.623648754786245, 37.928906027091557 ], [ 140.624667133581397, 37.934603252038528 ], [ 140.632352891772598, 37.941293171143002 ], [ 140.6660808949174, 37.94786846805539 ], [ 140.670936056753703, 37.952710945853539 ], [ 140.676192282947568, 37.948919801607587 ], [ 140.684277833855049, 37.959288386749677 ], [ 140.686088494688306, 37.968199504503559 ], [ 140.692653721891816, 37.972081134936502 ], [ 140.688434773745826, 37.982245305976164 ], [ 140.695181387910793, 37.988490558892238 ], [ 140.690275498915184, 38.002115865255007 ], [ 140.699929390129341, 38.004439386968158 ], [ 140.705948223431847, 38.018275441358583 ], [ 140.705166030887654, 38.032623999597945 ], [ 140.701365940186065, 38.037364837817051 ], [ 140.695425252573386, 38.036364612736747 ], [ 140.693075499434826, 38.044610721407707 ], [ 140.676665447752271, 38.053020801668708 ], [ 140.682358910835092, 38.07117625218234 ], [ 140.689394616568393, 38.075684505035952 ], [ 140.686578418359431, 38.086073919375906 ], [ 140.695233580065747, 38.09543380242809 ], [ 140.706093748128069, 38.124301359320327 ], [ 140.698701893777411, 38.135684359945287 ], [ 140.690549533134458, 38.138852170591235 ], [ 140.677578974590119, 38.137240278815852 ], [ 140.66480204907532, 38.144012467901121 ], [ 140.649590610218524, 38.136475945908217 ], [ 140.636570311071068, 38.142088972727947 ], [ 140.654539883408916, 38.144888611720091 ], [ 140.648595083196597, 38.164788999712641 ], [ 140.653245187915104, 38.169187278969787 ], [ 140.663787638988424, 38.168751694135437 ], [ 140.667035720422177, 38.163140359839815 ], [ 140.69674547262548, 38.152657585978886 ], [ 140.703385330968331, 38.159516973329687 ], [ 140.709690169365899, 38.151061441332502 ], [ 140.719113112879882, 38.149826170341555 ], [ 140.720215642138214, 38.152433640400261 ], [ 140.731166666908166, 38.152256107933113 ], [ 140.745471504606371, 38.161755667390196 ], [ 140.744151024650137, 38.176921053763692 ], [ 140.752360752147069, 38.179949586404348 ], [ 140.752484642752165, 38.17988319755159 ] ] ] } },
{ "type": "Feature", "properties": { "code": "040016", "name": "登米・東部栗原", "PrefCode": "04", "regioncode": "040016" }, "geometry": { "type": "Polygon", "coordinates": [ [ [ 141.098646939005107, 38.884788360294635 ], [ 141.102665862639469, 38.884769532088285 ], [ 141.102449298696229, 38.880705359964452 ], [ 141.107398418102548, 38.877518359584656 ], [ 141.118298105972826, 38.88067683796578 ], [ 141.139830803948485, 38.877504640426878 ], [ 141.146133164713888, 38.869274838263209 ], [ 141.147121776848621, 38.859812332673073 ], [ 141.125336328908475, 38.836861197886037 ], [ 141.104823695956838, 38.837347251774304 ], [ 141.104813721576079, 38.822841170983281 ], [ 141.123735136367486, 38.825463441184922 ], [ 141.126081971206077, 38.821641198382679 ], [ 141.123617004121456, 38.816548441057762 ], [ 141.142503839080973, 38.811901865278912 ], [ 141.138650854753223, 38.790863306096753 ], [ 141.142080219726381, 38.787396334173536 ], [ 141.163586355326061, 38.781957252425286 ], [ 141.167646030839705, 38.777253054385028 ], [ 141.180653747572478, 38.784536532335153 ], [ 141.19560024705379, 38.776810837949881 ], [ 141.206061310381187, 38.769484359815408 ], [ 141.207273333897319, 38.756806305766474 ], [ 141.215838611962454, 38.748470558969188 ], [ 141.233712217644779, 38.74780917055682 ], [ 141.236878780931079, 38.75201822526094 ], [ 141.228844358280526, 38.752567747903299 ], [ 141.256808560566697, 38.760938532287469 ], [ 141.258064331603691, 38.776190694245201 ], [ 141.263262698115113, 38.780298693929637 ], [ 141.262954720783796, 38.787347559442367 ], [ 141.268960726156706, 38.788212504903242 ], [ 141.272481998245667, 38.796965198085502 ], [ 141.280362048669645, 38.792513720331954 ], [ 141.284942360601576, 38.797615891760074 ], [ 141.30454975396799, 38.793460360207519 ], [ 141.302453579968756, 38.803475946158017 ], [ 141.30727277611777, 38.808710864714669 ], [ 141.309295863113675, 38.822229721024883 ], [ 141.317101051272516, 38.823179891638745 ], [ 141.334298948637638, 38.806970838433472 ], [ 141.341113061418696, 38.806457694267237 ], [ 141.349949001245477, 38.812415081390952 ], [ 141.366353747827247, 38.809373252273815 ], [ 141.371383411415422, 38.8074345585581 ], [ 141.378861750869191, 38.796220586410982 ], [ 141.393592386979094, 38.799930135167642 ], [ 141.396858612235178, 38.790105918653296 ], [ 141.414863994677717, 38.786202081261081 ], [ 141.415612282780671, 38.779505107874456 ], [ 141.410051478692822, 38.77322019755411 ], [ 141.410132477032221, 38.767814360144655 ], [ 141.398806354929434, 38.756845614233782 ], [ 141.403316835403643, 38.754395000329055 ], [ 141.406518392210046, 38.743701080940184 ], [ 141.41406627803633, 38.73821961324461 ], [ 141.392397003618839, 38.731332387379837 ], [ 141.393330829953925, 38.725840721372265 ], [ 141.389408301052299, 38.723780505865705 ], [ 141.368677275835694, 38.718809945722455 ], [ 141.371695810713163, 38.695343801575234 ], [ 141.367652191695356, 38.689948334248299 ], [ 141.375210025822071, 38.688543226288914 ], [ 141.372309053020444, 38.677106332891015 ], [ 141.385740920607077, 38.673744251595963 ], [ 141.376481336244751, 38.667293251782212 ], [ 141.375827444580977, 38.653938865286477 ], [ 141.386141284392806, 38.645907081246833 ], [ 141.395620921168643, 38.626848386743688 ], [ 141.403470661741721, 38.624331640293008 ], [ 141.399506004998216, 38.605234747985264 ], [ 141.376991724888285, 38.589698386771204 ], [ 141.361408663678958, 38.590958863960452 ], [ 141.346976719400118, 38.580916865820768 ], [ 141.324432114150795, 38.576424135265654 ], [ 141.317797301904079, 38.569158441409002 ], [ 141.312011854363618, 38.568379918998119 ], [ 141.303922607242612, 38.571972224938293 ], [ 141.287405668436918, 38.570260225129346 ], [ 141.285621855064619, 38.576207440920712 ], [ 141.292183942734823, 38.59418146760072 ], [ 141.290203165243952, 38.602180892234458 ], [ 141.270273217435147, 38.604918639883351 ], [ 141.265130363375647, 38.600272027232336 ], [ 141.267170116607645, 38.588725108077313 ], [ 141.263765382266683, 38.583461838393191 ], [ 141.241893916870822, 38.575568198313761 ], [ 141.235437134416316, 38.569595775424773 ], [ 141.231053527598306, 38.547267865419713 ], [ 141.223004812022509, 38.566307306337194 ], [ 141.203601115099445, 38.572024441374936 ], [ 141.192661672698136, 38.581821108057738 ], [ 141.195557224386448, 38.581556387217574 ], [ 141.195761387578045, 38.588157774361832 ], [ 141.200651388251003, 38.589280279361446 ], [ 141.200790272353288, 38.594085838190949 ], [ 141.179293605715429, 38.603619721173231 ], [ 141.174453333054885, 38.596131386654235 ], [ 141.16184472105715, 38.598378054103989 ], [ 141.150960558183328, 38.607983613053364 ], [ 141.138292217711751, 38.610385000767224 ], [ 141.124667755812311, 38.622741054356254 ], [ 141.108616278218733, 38.629357613063462 ], [ 141.110820219777338, 38.643872532391526 ], [ 141.090549364161916, 38.640143613137298 ], [ 141.083444889969769, 38.6292570535702 ], [ 141.073267860423471, 38.631795774955094 ], [ 141.055239339324089, 38.62719013541647 ], [ 141.007339298669763, 38.629246000002922 ], [ 140.995101505030448, 38.637848081024174 ], [ 140.989985913918872, 38.645397278961298 ], [ 140.995301802935955, 38.653613586797633 ], [ 140.980416159678043, 38.660414585664626 ], [ 140.966928520634838, 38.672250802332712 ], [ 140.972908949288694, 38.677019053686422 ], [ 140.969556005105574, 38.679490468010727 ], [ 140.970221140992976, 38.688179053920237 ], [ 140.980095344524557, 38.686091958577094 ], [ 140.98643998062073, 38.699931219050598 ], [ 140.963841900783109, 38.712655576493717 ], [ 140.97517809799092, 38.713593858070169 ], [ 140.992327127095336, 38.721844081139466 ], [ 140.993681571747175, 38.733184893667953 ], [ 140.981034419303114, 38.742509587147765 ], [ 140.967485072378281, 38.746408201277518 ], [ 140.982276285921898, 38.748922245265476 ], [ 140.995146959464705, 38.755813697943836 ], [ 140.991573077035923, 38.764865153104381 ], [ 140.994188239895379, 38.770782059944167 ], [ 141.017193208100139, 38.774320746505282 ], [ 141.015880877800328, 38.77802051333606 ], [ 141.030223729841282, 38.782359678356499 ], [ 141.0457386269361, 38.793495296171045 ], [ 141.027719218667016, 38.800200357160804 ], [ 141.022943249331547, 38.805299905266452 ], [ 141.027367691665745, 38.808767114610703 ], [ 141.025002658146263, 38.810193601253729 ], [ 141.028114859213474, 38.815217016352278 ], [ 141.024117118210484, 38.81837512421265 ], [ 141.026878366943151, 38.824500859027467 ], [ 141.023201244142115, 38.824416856952439 ], [ 141.023094142980426, 38.829123620758537 ], [ 141.027823847592572, 38.833597854057757 ], [ 141.034339025725558, 38.832133365662344 ], [ 141.044768959919679, 38.836602864031022 ], [ 141.042577708694353, 38.841814050378161 ], [ 141.047917517879227, 38.850178757143965 ], [ 141.042211066787331, 38.851036838079665 ], [ 141.040077753485548, 38.857148656785114 ], [ 141.044606023449319, 38.859195493077607 ], [ 141.043446227161667, 38.862170551130077 ], [ 141.030810454738798, 38.86409697719381 ], [ 141.02734852531421, 38.870725316120513 ], [ 140.997535116352651, 38.872109578694165 ], [ 140.991550127236678, 38.875221947934619 ], [ 140.996095084120952, 38.880643558553459 ], [ 141.005867031138678, 38.87874677504368 ], [ 141.020699728609657, 38.886396586433364 ], [ 141.022490143005712, 38.881074639583005 ], [ 141.029609170027243, 38.883470946127318 ], [ 141.032525746066426, 38.877918693692834 ], [ 141.043324384312996, 38.876495504863726 ], [ 141.051925576804024, 38.883267613009991 ], [ 141.074772140222194, 38.879465972776472 ], [ 141.092480220286006, 38.887766306070205 ], [ 141.098279883409987, 38.885155135301318 ], [ 141.098646939005107, 38.884788360294635 ] ] ] } },
{ "type": "Feature", "properties": { "code": "040021", "name": "西部仙台", "PrefCode": "04", "regioncode": "040021" }, "geometry": { "type": "Polygon", "coordinates": [ [ [ 140.890456109362049, 38.512982135117511 ], [ 140.904509144081771, 38.495989026872167 ], [ 140.924932503132595, 38.486933864706145 ], [ 140.933143579612533, 38.487035171535979 ], [ 140.936903891501402, 38.491333440785695 ], [ 140.942178560092543, 38.486070081169373 ], [ 140.953377134047514, 38.48910722571793 ], [ 140.955606420300114, 38.486364693675739 ], [ 140.949353333389695, 38.478061198365651 ], [ 140.961162918433956, 38.471176972639228 ], [ 140.960420466931055, 38.46527366714605 ], [ 140.949270972577438, 38.468435973041778 ], [ 140.940479688586834, 38.46472966724042 ], [ 140.921656354757033, 38.468219505325976 ], [ 140.911348910923607, 38.461893252271807 ], [ 140.914110142569143, 38.457312999695205 ], [ 140.904310609746858, 38.452510360065105 ], [ 140.907771633554148, 38.445228721228546 ], [ 140.90470778633528, 38.444713395307019 ], [ 140.904394561459867, 38.434746380840863 ], [ 140.875474915834729, 38.426486467576467 ], [ 140.871976160071767, 38.423785693754837 ], [ 140.872246277743557, 38.413452972676623 ], [ 140.858643865422096, 38.406803134557094 ], [ 140.860588143927771, 38.403988135144346 ], [ 140.871933527710212, 38.408162720633129 ], [ 140.875780143039265, 38.40276853214209 ], [ 140.871254747308853, 38.397021668215473 ], [ 140.873244890339492, 38.390584170822876 ], [ 140.8604335288843, 38.373755251803459 ], [ 140.86342819755339, 38.362024999554137 ], [ 140.875185058044053, 38.358717107808332 ], [ 140.883812023306291, 38.347408251789432 ], [ 140.900855863207539, 38.340866639883586 ], [ 140.908349804999602, 38.334208531598506 ], [ 140.917086743858249, 38.336603413616672 ], [ 140.932400169432299, 38.327994667719793 ], [ 140.929271803051279, 38.306487360303493 ], [ 140.919019222359339, 38.303488332620532 ], [ 140.916723864714641, 38.29882397274821 ], [ 140.892046329274763, 38.287298775817874 ], [ 140.888909532648881, 38.300500666972255 ], [ 140.88145230927671, 38.303194053762638 ], [ 140.880057250341906, 38.309290414021461 ], [ 140.867719611271127, 38.300449775236984 ], [ 140.857697885648918, 38.303773747760317 ], [ 140.856388910719716, 38.309404866241664 ], [ 140.831943138664997, 38.308362891933996 ], [ 140.830077522959414, 38.298272135250897 ], [ 140.824719086116943, 38.294326003642198 ], [ 140.825319579634993, 38.283460668974726 ], [ 140.818082471628827, 38.283485518142186 ], [ 140.825807449254398, 38.275128359386315 ], [ 140.820545608593079, 38.267104231275312 ], [ 140.823162964898984, 38.248522356421688 ], [ 140.810771737925393, 38.253963971560097 ], [ 140.80959649937904, 38.260579801816448 ], [ 140.797899725292154, 38.26134475075969 ], [ 140.800997047975443, 38.258746507745172 ], [ 140.796709989674355, 38.254113649325518 ], [ 140.78106094700513, 38.251713592608269 ], [ 140.76596361143163, 38.239178462416135 ], [ 140.764819210638166, 38.242747403070268 ], [ 140.753614773103322, 38.242061134913513 ], [ 140.749620246277459, 38.245754467994345 ], [ 140.739046057229871, 38.244198999684158 ], [ 140.734102215944631, 38.226190718726741 ], [ 140.749176769892074, 38.215634048472623 ], [ 140.745264487865938, 38.215883930499047 ], [ 140.740952601081744, 38.206943294297673 ], [ 140.722145746429078, 38.216675504770762 ], [ 140.683736549901937, 38.225027837764571 ], [ 140.686339688825683, 38.229281972784861 ], [ 140.679505357486278, 38.229413945597173 ], [ 140.672367173106636, 38.234707532326809 ], [ 140.671702698220997, 38.240311946339318 ], [ 140.650660000358812, 38.240380332586312 ], [ 140.651811699150699, 38.244717802384741 ], [ 140.655415109919431, 38.244925025969223 ], [ 140.652583087239805, 38.247525585637334 ], [ 140.607898365717119, 38.265189802167697 ], [ 140.58508833995495, 38.263159640205288 ], [ 140.562566912932766, 38.267528586275262 ], [ 140.548541581828658, 38.261339801790484 ], [ 140.541345304842025, 38.263826504589588 ], [ 140.534553191276814, 38.259709053030406 ], [ 140.522612943732383, 38.261728532845552 ], [ 140.501642554959972, 38.255461135023438 ], [ 140.486527302193281, 38.256572000097776 ], [ 140.476367689817152, 38.251387892337391 ], [ 140.469498170704128, 38.25640817060065 ], [ 140.473006303698071, 38.271819197797811 ], [ 140.487879026396058, 38.274504693936535 ], [ 140.496948340293784, 38.283143505068779 ], [ 140.492143553981919, 38.292962639514258 ], [ 140.492593580129665, 38.302687586163245 ], [ 140.501983721771353, 38.30482669379694 ], [ 140.504341283723306, 38.314326917853009 ], [ 140.520283475701945, 38.309515197768235 ], [ 140.529742023375775, 38.320697585725043 ], [ 140.521580829591699, 38.347330532378237 ], [ 140.522752245120046, 38.353181586361188 ], [ 140.532355746420649, 38.361521774910045 ], [ 140.545528806209518, 38.364116694030258 ], [ 140.552211141331213, 38.376212695159779 ], [ 140.563550245147781, 38.37727261274091 ], [ 140.567571439570315, 38.385331171396501 ], [ 140.578217197565664, 38.392780531995982 ], [ 140.571318638444495, 38.413381559311574 ], [ 140.578306523627248, 38.42035038696082 ], [ 140.583152917972825, 38.439303054092704 ], [ 140.592357523181249, 38.441721054083416 ], [ 140.59776461694355, 38.436528838035485 ], [ 140.614964253597464, 38.454273107717825 ], [ 140.619679052846095, 38.45469197415531 ], [ 140.625846160971605, 38.447278640396974 ], [ 140.673808976103373, 38.47383489196676 ], [ 140.700001633568604, 38.486001080685355 ], [ 140.709100999211842, 38.486024945994529 ], [ 140.723613994890002, 38.495350919209613 ], [ 140.801839805362761, 38.495065693826746 ], [ 140.819374383720856, 38.502750505031827 ], [ 140.850288910904624, 38.508226774646005 ], [ 140.873733189834866, 38.501508802089575 ], [ 140.884432697610919, 38.50441946778426 ], [ 140.883558079941508, 38.512310278596544 ], [ 140.890427497431119, 38.513081306057472 ], [ 140.890456109362049, 38.512982135117511 ] ] ] } },
{ "type": "Feature", "properties": { "code": "040022", "name": "西部仙南", "PrefCode": "04", "regioncode": "040022" }, "geometry": { "type": "Polygon", "coordinates": [ [ [ 140.562970804758947, 38.267255802113652 ], [ 140.58508833995495, 38.263159640205288 ], [ 140.607350558981125, 38.265286467596468 ], [ 140.613039341092758, 38.260887027314538 ], [ 140.630133086173032, 38.258246134851277 ], [ 140.654999804797171, 38.24590474830552 ], [ 140.650660001258075, 38.240380332586312 ], [ 140.671702697321734, 38.240311946339318 ], [ 140.672367173106636, 38.234707532326809 ], [ 140.679505358385654, 38.229413945597173 ], [ 140.686339687926306, 38.229281972784861 ], [ 140.6837365508012, 38.225027837764571 ], [ 140.735731089618184, 38.210705198885876 ], [ 140.744416497323527, 38.198267774638168 ], [ 140.743649689481686, 38.182684612704747 ], [ 140.749700388462202, 38.179040171266934 ], [ 140.744124357053465, 38.176831612588899 ], [ 140.746310726758679, 38.164672836981879 ], [ 140.732479195958149, 38.152864135071809 ], [ 140.710659052173582, 38.150732559260234 ], [ 140.702845863645734, 38.159626973006425 ], [ 140.696745473524857, 38.152657585978886 ], [ 140.667035721321554, 38.163140359839815 ], [ 140.663787637189785, 38.168751694135437 ], [ 140.653896862750116, 38.169283946197197 ], [ 140.648595084995236, 38.164788999712641 ], [ 140.654539884308292, 38.144888611720091 ], [ 140.636570311071068, 38.142088972727947 ], [ 140.649590610218524, 38.136475945908217 ], [ 140.66480204907532, 38.144012467901121 ], [ 140.677578974590119, 38.137240278815852 ], [ 140.690549533134458, 38.138852170591235 ], [ 140.698701893777411, 38.135684359945287 ], [ 140.706093748128069, 38.124301359320327 ], [ 140.695233580065747, 38.09543380242809 ], [ 140.686578418359431, 38.086073919375906 ], [ 140.689394616568393, 38.075684505035952 ], [ 140.682358910835092, 38.07117625218234 ], [ 140.676665447752271, 38.053020801668708 ], [ 140.693075499434826, 38.044610721407707 ], [ 140.695425252573386, 38.036364612736747 ], [ 140.701365940186065, 38.037364837817051 ], [ 140.705166030887654, 38.032623999597945 ], [ 140.705948223431847, 38.018275441358583 ], [ 140.699929390129341, 38.004439386968158 ], [ 140.690275498915184, 38.002115865255007 ], [ 140.695181387910793, 37.988490558892238 ], [ 140.688434773745826, 37.982245305976164 ], [ 140.692653721891816, 37.972081134936502 ], [ 140.686088494688306, 37.968199504503559 ], [ 140.684277833855049, 37.959288386749677 ], [ 140.676192282947568, 37.948919801607587 ], [ 140.670936056753703, 37.952710945853539 ], [ 140.6660808949174, 37.94786846805539 ], [ 140.632352891772598, 37.941293171143002 ], [ 140.624570194758689, 37.934157136142971 ], [ 140.623658470162354, 37.928857413339017 ], [ 140.630096641147134, 37.923525413866798 ], [ 140.628372969936663, 37.919965169656905 ], [ 140.621215862921758, 37.917277170704892 ], [ 140.619391089027545, 37.912682748410191 ], [ 140.611849001130508, 37.915256973230782 ], [ 140.610328392341444, 37.911147837702572 ], [ 140.60071457761569, 37.910509278580378 ], [ 140.596335304630657, 37.906221278689088 ], [ 140.583433385042781, 37.909297198407046 ], [ 140.566379247904024, 37.922790891686361 ], [ 140.562609974270913, 37.918125359997418 ], [ 140.56369469515414, 37.912182585957623 ], [ 140.558945694688077, 37.909938442005569 ], [ 140.531666199335746, 37.905215838440256 ], [ 140.521887393188763, 37.908830333353251 ], [ 140.515792218236356, 37.903493413690114 ], [ 140.503380830261221, 37.905579865118739 ], [ 140.498347664713037, 37.900359892395159 ], [ 140.488857717209953, 37.899470774956342 ], [ 140.476662191706851, 37.906916388080901 ], [ 140.469530972576422, 37.917868667405116 ], [ 140.467429882882811, 37.938169197950174 ], [ 140.474879831638987, 37.946782223720675 ], [ 140.461617030301795, 37.952591134573254 ], [ 140.448195331349552, 37.950956224650099 ], [ 140.444650558176818, 37.956983169837486 ], [ 140.429127197562138, 37.954414386814562 ], [ 140.40912133618076, 37.963813946156733 ], [ 140.407451634185577, 37.97367310762786 ], [ 140.398304279818717, 37.974384865269371 ], [ 140.388407173252517, 37.969115775172952 ], [ 140.384490855968238, 37.952216891596322 ], [ 140.358874422916301, 37.958970333414186 ], [ 140.353557911568373, 37.954778107723541 ], [ 140.355770440753304, 37.952132558570781 ], [ 140.348590894754011, 37.950157278635572 ], [ 140.336037690886769, 37.955108414321899 ], [ 140.333306225901651, 37.951676170618839 ], [ 140.327650362574218, 37.958718972902318 ], [ 140.316452166334443, 37.958110891804267 ], [ 140.314205498884689, 37.96441174800384 ], [ 140.308527082358978, 37.963589225362512 ], [ 140.302419532735257, 37.96903227941624 ], [ 140.280002580854443, 37.976644413708755 ], [ 140.274889221860121, 37.982025775169461 ], [ 140.276246225982618, 37.993031865428293 ], [ 140.289614526789023, 38.007205748346678 ], [ 140.281380051748101, 38.025710053975843 ], [ 140.276068340081906, 38.028719440949487 ], [ 140.275920584167693, 38.035977468985038 ], [ 140.283392944029174, 38.049972667404745 ], [ 140.277358975136622, 38.056540666318767 ], [ 140.289084720883238, 38.059338720705455 ], [ 140.302711556093527, 38.053566027350314 ], [ 140.315760117335572, 38.058422414063216 ], [ 140.34441891010465, 38.053355279322716 ], [ 140.355644112086225, 38.058475531620559 ], [ 140.373657470615854, 38.057008613256926 ], [ 140.382006200026126, 38.063549333035326 ], [ 140.380164228396438, 38.069470919047717 ], [ 140.383015384152714, 38.0715100265665 ], [ 140.402768689823233, 38.070344694052437 ], [ 140.417674163132233, 38.0803352788501 ], [ 140.421311997250882, 38.088453504825452 ], [ 140.417463943006624, 38.103478278599709 ], [ 140.425610194554906, 38.11491586447562 ], [ 140.42515771685521, 38.121907971975361 ], [ 140.431835615621253, 38.127209837863802 ], [ 140.445685253371835, 38.129854774578234 ], [ 140.443753060855101, 38.140928775342786 ], [ 140.452009339959091, 38.151060053678577 ], [ 140.467658198267259, 38.156975838164442 ], [ 140.469593840583343, 38.170557639823244 ], [ 140.479968171493965, 38.181373359792758 ], [ 140.478348469106663, 38.198375999952475 ], [ 140.470956719976698, 38.213837306446578 ], [ 140.474288444656054, 38.224479441073413 ], [ 140.46707085643493, 38.232751359387805 ], [ 140.471066473239262, 38.23478383800375 ], [ 140.471399857317579, 38.251429585806818 ], [ 140.52261294463176, 38.261728532845552 ], [ 140.534553191276814, 38.259709053030406 ], [ 140.541345304842025, 38.263826504589588 ], [ 140.548541581828658, 38.261339801790484 ], [ 140.562748300793487, 38.267463586875067 ], [ 140.562970804758947, 38.267255802113652 ] ] ] } },
{ "type": "Feature", "properties": { "code": "040023", "name": "西部大崎", "PrefCode": "04", "regioncode": "040023" }, "geometry": { "type": "Polygon", "coordinates": [ [ [ 140.703430726047259, 38.920575107655168 ], [ 140.712478689140312, 38.917776666559973 ], [ 140.720317003826722, 38.908255197819187 ], [ 140.737524916042162, 38.899818612738841 ], [ 140.736629663428289, 38.895267251782286 ], [ 140.749648754786222, 38.877709053629985 ], [ 140.743523190842666, 38.868069386992659 ], [ 140.747972476948348, 38.866205197611805 ], [ 140.74956396940172, 38.860306585680462 ], [ 140.745927198281606, 38.842581693690249 ], [ 140.747338105968879, 38.838028667189292 ], [ 140.758063332556844, 38.834314171262065 ], [ 140.750954669322596, 38.827942613061168 ], [ 140.75489481234581, 38.823127332560375 ], [ 140.749906497786696, 38.813711892090225 ], [ 140.749626420123263, 38.797282864712486 ], [ 140.752904577584218, 38.795143386558095 ], [ 140.737109441847338, 38.779518666952981 ], [ 140.746336913217988, 38.773905251626104 ], [ 140.746504747396216, 38.769491945596883 ], [ 140.762565187633413, 38.762332387929405 ], [ 140.762551505347801, 38.768105414033698 ], [ 140.766013773816667, 38.769207613240837 ], [ 140.791361920216559, 38.763891279059351 ], [ 140.803260143341049, 38.75066458640157 ], [ 140.833610246115995, 38.73122346778888 ], [ 140.859944838183765, 38.734677386951887 ], [ 140.883670506888393, 38.722783585793877 ], [ 140.895650725700534, 38.727276559165944 ], [ 140.916766134649492, 38.719040000395751 ], [ 140.929827030093406, 38.721354054046401 ], [ 140.940518807297167, 38.717310359485566 ], [ 140.949241723926434, 38.708162801871879 ], [ 140.96478674291393, 38.704189053881805 ], [ 140.968136419860002, 38.698057082268576 ], [ 140.964404668640555, 38.695933532006961 ], [ 140.969984942151427, 38.691531251665992 ], [ 140.969556005105574, 38.679490468010727 ], [ 140.972932554693671, 38.67714099995726 ], [ 140.967358383982287, 38.669257565384385 ], [ 140.954958791515082, 38.67145694827957 ], [ 140.956831298725547, 38.680693543272469 ], [ 140.951632306286001, 38.682276991290166 ], [ 140.938745778594921, 38.681313131196077 ], [ 140.937998673999687, 38.674439778273211 ], [ 140.925874946771387, 38.67823233265608 ], [ 140.923510442053271, 38.672724677601821 ], [ 140.914482552727691, 38.675480182364595 ], [ 140.908596784913811, 38.672074590070338 ], [ 140.91518606358602, 38.6680219355639 ], [ 140.905563333880764, 38.65514197022577 ], [ 140.919571525705464, 38.646757223866814 ], [ 140.920635127808964, 38.638121622414985 ], [ 140.915931187874094, 38.631266128229299 ], [ 140.899054647054413, 38.622010144752437 ], [ 140.895270736955013, 38.613902226806374 ], [ 140.889039844413333, 38.611066027675065 ], [ 140.892054989746043, 38.608405422971941 ], [ 140.889589934527976, 38.604491661560985 ], [ 140.881297519764757, 38.603725855563823 ], [ 140.883877152208925, 38.598156565473175 ], [ 140.878577951011721, 38.598732413969799 ], [ 140.873278170651133, 38.591113026644905 ], [ 140.876634280447774, 38.579668891905897 ], [ 140.881913672278188, 38.57523553189435 ], [ 140.905106160820765, 38.568633721169363 ], [ 140.907289920693302, 38.564366775306496 ], [ 140.903387082447921, 38.560198503957849 ], [ 140.893906226191461, 38.560641892209617 ], [ 140.899852866416722, 38.55645269363697 ], [ 140.896531996554472, 38.538544802200931 ], [ 140.891636589157315, 38.534694251438623 ], [ 140.894400894685646, 38.532235639862961 ], [ 140.888022865862581, 38.533226774596017 ], [ 140.885771478770835, 38.529561837608753 ], [ 140.890613333338706, 38.513359639935459 ], [ 140.883558079941508, 38.512310278596544 ], [ 140.884432697610919, 38.50441946778426 ], [ 140.870586693121481, 38.501467170673436 ], [ 140.850288910904624, 38.508226774646005 ], [ 140.819374383720856, 38.502750505031827 ], [ 140.801839805362761, 38.495065693826746 ], [ 140.723613994890002, 38.495350919209613 ], [ 140.709100999211842, 38.486024945994529 ], [ 140.700001633568604, 38.486001080685355 ], [ 140.673808976103373, 38.47383489196676 ], [ 140.625846160971605, 38.447278640396974 ], [ 140.619654617366791, 38.455803332957487 ], [ 140.60821022002574, 38.458402558931027 ], [ 140.604229780180276, 38.482282197865175 ], [ 140.574140584220686, 38.494661224635877 ], [ 140.567408495006134, 38.501302612725453 ], [ 140.569150441339843, 38.505962612684471 ], [ 140.563465887840493, 38.510706225312106 ], [ 140.570302087971072, 38.515304225109958 ], [ 140.567800077811398, 38.5202303326638 ], [ 140.571955693900236, 38.52563808113257 ], [ 140.555738715869097, 38.529954558955808 ], [ 140.554084501098941, 38.540758972648518 ], [ 140.564639637109622, 38.545723641333041 ], [ 140.569916589978675, 38.555579414158672 ], [ 140.566413450020718, 38.560375837674826 ], [ 140.578467198302633, 38.570085748558483 ], [ 140.571004228262609, 38.580256892941293 ], [ 140.56973466792067, 38.594065775215427 ], [ 140.55844586318608, 38.597636667398319 ], [ 140.56212197065247, 38.607253027205502 ], [ 140.552217886246467, 38.613343918686951 ], [ 140.537399468210992, 38.635383414313196 ], [ 140.546654746619311, 38.649703332742661 ], [ 140.562752218240348, 38.648062441428578 ], [ 140.569403774064995, 38.638212694060655 ], [ 140.575943580132162, 38.639212919140959 ], [ 140.587862114445102, 38.633942613161139 ], [ 140.602019778989643, 38.640603919435364 ], [ 140.606014967716646, 38.655417748230548 ], [ 140.613506134200748, 38.661795197890115 ], [ 140.62442413676456, 38.687171198092358 ], [ 140.620728469942947, 38.696290918990769 ], [ 140.62363488993833, 38.699784775247224 ], [ 140.606640441703121, 38.703712918616361 ], [ 140.609104332299125, 38.708788694043051 ], [ 140.607038949288153, 38.721313108812978 ], [ 140.620237912249877, 38.730719666679306 ], [ 140.620355641599645, 38.738658252176663 ], [ 140.631339300068703, 38.747114000011152 ], [ 140.635031750914663, 38.760946413945874 ], [ 140.64646236074941, 38.769516306432422 ], [ 140.637283307078974, 38.777386919370883 ], [ 140.626981243889304, 38.773953665729152 ], [ 140.603526161403238, 38.783705198136431 ], [ 140.595672244378648, 38.802326919251982 ], [ 140.598548443555842, 38.825964666636082 ], [ 140.592940272175838, 38.827788053775691 ], [ 140.590728249309336, 38.83604419798138 ], [ 140.566301970959216, 38.848043918591998 ], [ 140.559131311161195, 38.847250945874521 ], [ 140.553476977580544, 38.858833251553392 ], [ 140.540046420306112, 38.861891612907641 ], [ 140.538687107624014, 38.871064919010848 ], [ 140.54763574599292, 38.880981747709541 ], [ 140.547116445967276, 38.889207801498912 ], [ 140.554264253092924, 38.876210891919186 ], [ 140.561985771925947, 38.87301335957892 ], [ 140.579912309005977, 38.881345054031044 ], [ 140.585621283595401, 38.880054170763401 ], [ 140.590327056348656, 38.889175171397085 ], [ 140.597823021615227, 38.885057306149804 ], [ 140.607144526998354, 38.886602747918516 ], [ 140.613589532830702, 38.893912360167349 ], [ 140.639155836772488, 38.883227640843018 ], [ 140.645014474738332, 38.888634505278276 ], [ 140.654076523912522, 38.889013000249804 ], [ 140.653340659943524, 38.891604386833023 ], [ 140.671114720567971, 38.897130800845844 ], [ 140.685648003152892, 38.917604747661017 ], [ 140.700392580553171, 38.923817359683483 ], [ 140.703309339154771, 38.92065650529355 ], [ 140.703430726047259, 38.920575107655168 ] ] ] } },
{ "type": "Feature", "properties": { "code": "040024", "name": "西部栗原", "PrefCode": "04", "regioncode": "040024" }, "geometry": { "type": "Polygon", "coordinates": [ [ [ 140.991550127236678, 38.875221947934619 ], [ 140.997535116352651, 38.872109578694165 ], [ 141.02734852531421, 38.870725316120513 ], [ 141.030810454738798, 38.86409697719381 ], [ 141.038655097954461, 38.865053994346397 ], [ 141.044483846052685, 38.860862299255757 ], [ 141.040077753485548, 38.857148656785114 ], [ 141.042211066787331, 38.851036838079665 ], [ 141.047917517879227, 38.850178757143965 ], [ 141.042577708694353, 38.841814050378161 ], [ 141.045293794373151, 38.837557425135117 ], [ 141.023307644732085, 38.831198569858145 ], [ 141.023201244142115, 38.824416856952439 ], [ 141.026878366943151, 38.824500859027467 ], [ 141.024117118210484, 38.81837512421265 ], [ 141.028114859213474, 38.815217016352278 ], [ 141.025002658146263, 38.810193601253729 ], [ 141.027367691665745, 38.808767114610703 ], [ 141.022760071819903, 38.806451801009871 ], [ 141.027719218667016, 38.800200357160804 ], [ 141.0457386269361, 38.793495296171045 ], [ 141.030223729841282, 38.782359678356499 ], [ 141.015880877800328, 38.77802051333606 ], [ 141.017193208100139, 38.774320746505282 ], [ 140.994188239895379, 38.770782059944167 ], [ 140.991573077035923, 38.764865153104381 ], [ 140.995146959464705, 38.755813697943836 ], [ 140.982276285921898, 38.748922245265476 ], [ 140.967485072378281, 38.746408201277518 ], [ 140.981034419303114, 38.742509587147765 ], [ 140.993681571747175, 38.733184893667953 ], [ 140.992327127095336, 38.721844081139466 ], [ 140.97517809799092, 38.713593858070169 ], [ 140.963841900783109, 38.712655576493717 ], [ 140.98643998062073, 38.699931219050598 ], [ 140.985143760776054, 38.691799169596038 ], [ 140.978476199716852, 38.685607401160667 ], [ 140.964481895223344, 38.695798252387476 ], [ 140.968136419860002, 38.698057082268576 ], [ 140.964347833285956, 38.704520999944236 ], [ 140.949241723926434, 38.708162801871879 ], [ 140.940687419388951, 38.717233134701473 ], [ 140.929827030093406, 38.721354054046401 ], [ 140.916766134649492, 38.719040000395751 ], [ 140.895650725700534, 38.727276559165944 ], [ 140.883670506888393, 38.722783585793877 ], [ 140.859944838183765, 38.734677386951887 ], [ 140.833610246115995, 38.73122346778888 ], [ 140.803260143341049, 38.75066458640157 ], [ 140.791361920216559, 38.763891279059351 ], [ 140.766013773816667, 38.769207613240837 ], [ 140.762551505347801, 38.768105414033698 ], [ 140.762565187633413, 38.762332387929405 ], [ 140.746504747396216, 38.769491945596883 ], [ 140.746336913217988, 38.773905251626104 ], [ 140.737109441847338, 38.779518666952981 ], [ 140.752904577584218, 38.795143386558095 ], [ 140.749626420123263, 38.797282864712486 ], [ 140.749906497786696, 38.813711892090225 ], [ 140.75489481234581, 38.823127332560375 ], [ 140.750954669322596, 38.827942613061168 ], [ 140.758063332556844, 38.834314171262065 ], [ 140.747338105968879, 38.838028667189292 ], [ 140.745927198281606, 38.842581693690249 ], [ 140.74956396940172, 38.860306585680462 ], [ 140.747972476948348, 38.866205197611805 ], [ 140.743523190842666, 38.868069386992659 ], [ 140.749648754786222, 38.877709053629985 ], [ 140.736629663428289, 38.895267251782286 ], [ 140.737524916042162, 38.899818612738841 ], [ 140.723967950960287, 38.905737108680682 ], [ 140.707388300629646, 38.920355611921991 ], [ 140.722449195673903, 38.932949081135234 ], [ 140.730894085993327, 38.948450107986162 ], [ 140.745251141027438, 38.95637191932866 ], [ 140.781670311435732, 38.958122467677811 ], [ 140.793879558794629, 38.964010694238198 ], [ 140.824455913909333, 38.964080945679143 ], [ 140.837716808683808, 38.957539135023126 ], [ 140.841119221874692, 38.950264946170364 ], [ 140.864863332976483, 38.941270358740098 ], [ 140.881532671795412, 38.927903387131664 ], [ 140.910374188817855, 38.927444359669494 ], [ 140.914568637632556, 38.916826585878312 ], [ 140.922161310596039, 38.914342386791759 ], [ 140.926535422371899, 38.921410945658693 ], [ 140.931393022270186, 38.920410081160355 ], [ 140.931956160648383, 38.916322026640273 ], [ 140.957863190733747, 38.908131026625654 ], [ 140.970837030004986, 38.894913170706332 ], [ 140.970788002564291, 38.887841251972247 ], [ 140.984456497969063, 38.879934774969968 ], [ 140.985305771843969, 38.875368387241338 ], [ 140.991535084276734, 38.875199170805161 ], [ 140.991550127236678, 38.875221947934619 ] ] ] } }
]
}
