{
"type": "FeatureCollection",
"name": "07_fukushima_region",
"crs": { "type": "name", "properties": { "name": "urn:ogc:def:crs:OGC:1.3:CRS84" } },
"features": [
{ "type": "Feature", "properties": { "code": "070011", "name": "中通り北部", "PrefCode": "07", "regioncode": "070011" }, "geometry": { "type": "Polygon", "coordinates": [ [ [ 140.285530973375785, 37.972848612773305 ], [ 140.302419532735257, 37.96903227941624 ], [ 140.308527082358978, 37.963589225362512 ], [ 140.314205498884689, 37.96441174800384 ], [ 140.316452166334443, 37.958110891804267 ], [ 140.328508444409294, 37.958370359704361 ], [ 140.333836807922467, 37.951461720981683 ], [ 140.336037690886769, 37.955108414321899 ], [ 140.350227860527411, 37.950139505333937 ], [ 140.355770440753304, 37.952132558570781 ], [ 140.353557911568373, 37.954778107723541 ], [ 140.358874422916301, 37.958970333414186 ], [ 140.384490855968238, 37.952216891596322 ], [ 140.388407173252517, 37.969115775172952 ], [ 140.398304279818717, 37.974384865269371 ], [ 140.407451634185577, 37.97367310762786 ], [ 140.40912133618076, 37.963813946156733 ], [ 140.429127197562138, 37.954414386814562 ], [ 140.444650558176818, 37.956983169837486 ], [ 140.448195331349552, 37.950956224650099 ], [ 140.461617030301795, 37.952591134573254 ], [ 140.474879831638987, 37.946782223720675 ], [ 140.467429882882811, 37.938169197950174 ], [ 140.469530972576422, 37.917868667405116 ], [ 140.476662191706851, 37.906916388080901 ], [ 140.488857717209953, 37.899470774956342 ], [ 140.498347664713037, 37.900359892395159 ], [ 140.503380830261221, 37.905579865118739 ], [ 140.515792218236356, 37.903493413690114 ], [ 140.521887393188763, 37.908830333353251 ], [ 140.531666199335746, 37.905215838440256 ], [ 140.558945694688077, 37.909938442005569 ], [ 140.56369469515414, 37.912182585957623 ], [ 140.562609974270913, 37.918125359997418 ], [ 140.566379247904024, 37.922790891686361 ], [ 140.590980466875067, 37.906256586072629 ], [ 140.615494358078195, 37.91481833339941 ], [ 140.627342283919347, 37.89907327910862 ], [ 140.644672048876032, 37.895448693802223 ], [ 140.647291854935247, 37.898795892216697 ], [ 140.660348002858086, 37.900895748040398 ], [ 140.666976446106219, 37.895057666777973 ], [ 140.690080532190905, 37.888213027409336 ], [ 140.690889389633639, 37.883674197606183 ], [ 140.681870246214999, 37.87592377456258 ], [ 140.687457276332339, 37.871387667007298 ], [ 140.685818028978929, 37.867937971959918 ], [ 140.691441166876416, 37.861353838309071 ], [ 140.692006887208095, 37.850863108145973 ], [ 140.67923396907247, 37.836337774668607 ], [ 140.684377082136734, 37.830522531689553 ], [ 140.685387198860212, 37.815556278599445 ], [ 140.695307834389155, 37.804515505086556 ], [ 140.693906589017956, 37.797780027226509 ], [ 140.678370583935362, 37.787271027336089 ], [ 140.677982698243, 37.779754413635317 ], [ 140.681895837323054, 37.77867163978442 ], [ 140.684444642806056, 37.770177279557856 ], [ 140.699970117726821, 37.763860332688239 ], [ 140.702497612874595, 37.759546747084755 ], [ 140.722741114710743, 37.761435747861526 ], [ 140.735663449808385, 37.768298918660207 ], [ 140.736221115811873, 37.757988721102663 ], [ 140.728391672937391, 37.751861613023095 ], [ 140.704656394077347, 37.750108775899321 ], [ 140.697991166759039, 37.743522748276291 ], [ 140.685016225818231, 37.74268553161204 ], [ 140.678107471082967, 37.738369999875658 ], [ 140.676502890795859, 37.728101973327455 ], [ 140.669306888102483, 37.722279774991648 ], [ 140.671661920261499, 37.719048946151986 ], [ 140.667179856565213, 37.715645613854065 ], [ 140.668170661247132, 37.711457278630576 ], [ 140.661603060732773, 37.708657559598748 ], [ 140.662225771102499, 37.700571198402145 ], [ 140.649797755562076, 37.697732586389805 ], [ 140.645076743796722, 37.688440108424288 ], [ 140.646009248128394, 37.684270387368542 ], [ 140.65040791229535, 37.683586225423994 ], [ 140.656070829904934, 37.687560360122575 ], [ 140.659591414012652, 37.680542585971637 ], [ 140.66717483834816, 37.6760336667204 ], [ 140.66236800338072, 37.663077559381918 ], [ 140.668731634057735, 37.652845865444363 ], [ 140.667904423250548, 37.631092278685742 ], [ 140.67422552498806, 37.622376973918279 ], [ 140.697181245418165, 37.606336027385794 ], [ 140.718245965878737, 37.601443667791102 ], [ 140.726193800003898, 37.593879999762237 ], [ 140.713102776372125, 37.572620359342181 ], [ 140.697881167082301, 37.573681586336193 ], [ 140.698551608070375, 37.561496278930179 ], [ 140.686255720025542, 37.547309171481118 ], [ 140.685002969811308, 37.552186945870915 ], [ 140.674623722307047, 37.559847279328551 ], [ 140.683691751073525, 37.572440837574675 ], [ 140.685046588729165, 37.579369720935915 ], [ 140.681620751796345, 37.585769721095801 ], [ 140.665506887333095, 37.587168999649691 ], [ 140.659714811789172, 37.584874053894509 ], [ 140.660477834384665, 37.580822108053894 ], [ 140.651691556020523, 37.579594666560638 ], [ 140.644859416329041, 37.573290278723448 ], [ 140.633354747323779, 37.573533108266361 ], [ 140.630641388389449, 37.579583720912069 ], [ 140.640425136311023, 37.585202080711497 ], [ 140.63852538323988, 37.589817440122829 ], [ 140.632828637631633, 37.5912362519515 ], [ 140.635368223265004, 37.596568306282336 ], [ 140.630511166557199, 37.606334440981698 ], [ 140.61854763916233, 37.610505585664328 ], [ 140.604793721652982, 37.608577558807326 ], [ 140.586089558786171, 37.61454619824849 ], [ 140.578941479166019, 37.624858973263031 ], [ 140.566588029114314, 37.633083170851705 ], [ 140.568497588393029, 37.639996198265976 ], [ 140.557607523268643, 37.650651748079781 ], [ 140.548852944208079, 37.65093733319145 ], [ 140.549934253962761, 37.643230135162639 ], [ 140.540136030553413, 37.643503774579585 ], [ 140.528624917006368, 37.635278252289538 ], [ 140.524680700054319, 37.635844665998604 ], [ 140.526485577347557, 37.647579639688672 ], [ 140.512986134702373, 37.641373559442286 ], [ 140.509992698104611, 37.63537802667463 ], [ 140.513781050854845, 37.634093864939985 ], [ 140.502505499429276, 37.624204468261667 ], [ 140.497464357793888, 37.62826446843053 ], [ 140.503013086684632, 37.631927774946917 ], [ 140.503137328025332, 37.638712747895056 ], [ 140.498190557648172, 37.636374441327462 ], [ 140.491440506274444, 37.639366946227653 ], [ 140.490802088345731, 37.632676973163825 ], [ 140.482778364929686, 37.635522838208487 ], [ 140.479368948718047, 37.641403360276911 ], [ 140.486861894061235, 37.647019441194288 ], [ 140.483479637375467, 37.647413080749118 ], [ 140.483821335686116, 37.650982224650022 ], [ 140.460991478973597, 37.646730640107023 ], [ 140.442677056201205, 37.649169864997305 ], [ 140.434473527731143, 37.644580171337907 ], [ 140.414801530666182, 37.642489693644507 ], [ 140.40235167329115, 37.64812253162961 ], [ 140.387581699036218, 37.647292053585431 ], [ 140.377821829014238, 37.651233252412737 ], [ 140.347304864228136, 37.646951586446619 ], [ 140.333803281196538, 37.650308946300868 ], [ 140.297430610234528, 37.645538532077637 ], [ 140.285836472175561, 37.639752775170507 ], [ 140.280681945815218, 37.641686170980051 ], [ 140.282585667594503, 37.654540081159894 ], [ 140.277910895371633, 37.661956198319956 ], [ 140.263209559173902, 37.664516667110547 ], [ 140.245183773812187, 37.676135559008912 ], [ 140.230908029182274, 37.678984640029171 ], [ 140.231860310504999, 37.690493107770749 ], [ 140.23674955934473, 37.696048026695109 ], [ 140.236411245182921, 37.704280667119122 ], [ 140.230135356861297, 37.712050278997253 ], [ 140.230182918406967, 37.725606774632979 ], [ 140.232029636658467, 37.730351693975535 ], [ 140.244251219118496, 37.735142108221794 ], [ 140.237254865020077, 37.746468467745615 ], [ 140.240427224436871, 37.753527054030371 ], [ 140.254950142335247, 37.764617801970019 ], [ 140.266175252585867, 37.779176919379381 ], [ 140.276287977008565, 37.781768000193097 ], [ 140.282211310403682, 37.798229054227534 ], [ 140.298801829041281, 37.807808198289763 ], [ 140.291366252350713, 37.814938197939512 ], [ 140.28738147777301, 37.813827641332637 ], [ 140.268994059728129, 37.823787945957008 ], [ 140.262115965579369, 37.834416305668015 ], [ 140.267339195647423, 37.847566305940347 ], [ 140.265467327854935, 37.862154639624976 ], [ 140.269962438016137, 37.866545504871226 ], [ 140.264765810793619, 37.885955774939134 ], [ 140.270720077269857, 37.890737440580494 ], [ 140.264529831386653, 37.91193691905363 ], [ 140.276504501381737, 37.926350531551861 ], [ 140.281004358164637, 37.941347774380347 ], [ 140.275288780752703, 37.947246639920536 ], [ 140.278074669110765, 37.952628585940545 ], [ 140.272491828035527, 37.957929414011289 ], [ 140.27129713355589, 37.966817999251305 ], [ 140.277737004259393, 37.975844413688776 ], [ 140.285045693803795, 37.972955559251716 ], [ 140.285530973375785, 37.972848612773305 ] ] ] } },
{ "type": "Feature", "properties": { "code": "070012", "name": "中通り中部", "PrefCode": "07", "regioncode": "070012" }, "geometry": { "type": "Polygon", "coordinates": [ [ [ 140.555429170120192, 37.650886774205333 ], [ 140.567222580857447, 37.641962585704846 ], [ 140.566588029114314, 37.633083170851705 ], [ 140.578941479166019, 37.624858973263031 ], [ 140.586089558786171, 37.61454619824849 ], [ 140.604793721652982, 37.608577558807326 ], [ 140.61854763916233, 37.610505585664328 ], [ 140.630511166557199, 37.606334440981698 ], [ 140.635368223265004, 37.596568306282336 ], [ 140.632828637631633, 37.5912362519515 ], [ 140.63852538323988, 37.589817440122829 ], [ 140.640425136311023, 37.585202080711497 ], [ 140.630641388389449, 37.579583720912069 ], [ 140.6332444760518, 37.573588947172254 ], [ 140.644859416329041, 37.573290278723448 ], [ 140.651691556020523, 37.579594666560638 ], [ 140.660477834384665, 37.580822108053894 ], [ 140.659714811789172, 37.584874053894509 ], [ 140.665506887333095, 37.587168999649691 ], [ 140.681620751796345, 37.585769721095801 ], [ 140.685046588729165, 37.579369720935915 ], [ 140.683691751073525, 37.572440837574675 ], [ 140.674623722307047, 37.559847279328551 ], [ 140.685344357855911, 37.551627504605733 ], [ 140.681911971160616, 37.538076666604923 ], [ 140.695485135730451, 37.52938186458141 ], [ 140.695932335309067, 37.525892693792855 ], [ 140.705456329346134, 37.523331802320854 ], [ 140.691583450415919, 37.503014973362383 ], [ 140.702486355161227, 37.502097108195017 ], [ 140.730571051313063, 37.490290586241599 ], [ 140.741401778269505, 37.490462468268333 ], [ 140.747756523644739, 37.484910775212143 ], [ 140.766240661077745, 37.482173198434396 ], [ 140.764087004211888, 37.479377081187408 ], [ 140.771565357155623, 37.472145945578973 ], [ 140.779869728405288, 37.475662586159501 ], [ 140.792340661392473, 37.468586134842326 ], [ 140.799480310767763, 37.47264635984169 ], [ 140.809022697739351, 37.472154358736702 ], [ 140.819425279053462, 37.463875973397535 ], [ 140.834721750608423, 37.467892279105456 ], [ 140.835905005711538, 37.460591440642531 ], [ 140.845528999863518, 37.455388612594447 ], [ 140.842894423338976, 37.449266973292254 ], [ 140.844092386854186, 37.442040052806249 ], [ 140.850607198063813, 37.437972504627453 ], [ 140.850434746766268, 37.423826694046738 ], [ 140.861987859552187, 37.411244720867217 ], [ 140.858041582253236, 37.405420864181565 ], [ 140.859798585936005, 37.387048945952131 ], [ 140.851637522553688, 37.383451504883112 ], [ 140.850152996363704, 37.37931402722063 ], [ 140.854137470567821, 37.375920946294684 ], [ 140.850422606817915, 37.371294613355758 ], [ 140.819319079012303, 37.381929225153669 ], [ 140.795351698622085, 37.381994640939979 ], [ 140.790203774184874, 37.377669946011224 ], [ 140.788744916444784, 37.382082721440497 ], [ 140.770174694106913, 37.38723391940988 ], [ 140.764155939944771, 37.383460359607966 ], [ 140.755388443921561, 37.392877613111409 ], [ 140.742942725226612, 37.393615999678673 ], [ 140.742408340872316, 37.399303198084169 ], [ 140.735016329140308, 37.403392946027679 ], [ 140.728456005040698, 37.404596864853488 ], [ 140.726294228196139, 37.400399108332238 ], [ 140.715605136368026, 37.397716945980335 ], [ 140.712642827104901, 37.393211413575955 ], [ 140.715753916610083, 37.388961134848557 ], [ 140.699919441828797, 37.374502224398213 ], [ 140.698984720668363, 37.369511667829272 ], [ 140.706717223820874, 37.365608891637066 ], [ 140.70172128391016, 37.354839332968879 ], [ 140.707184578105853, 37.346270721116923 ], [ 140.71243105115218, 37.345602945719406 ], [ 140.723216446881565, 37.319540198021798 ], [ 140.695736005212552, 37.315094748423974 ], [ 140.690888859033635, 37.305489252427094 ], [ 140.695160466981974, 37.292638999790086 ], [ 140.689125888349167, 37.287250972554375 ], [ 140.693841114775637, 37.277537081271362 ], [ 140.685496134638925, 37.268213225060322 ], [ 140.682781478882248, 37.234375775321837 ], [ 140.66802418776615, 37.225576359661318 ], [ 140.663175552310008, 37.228383865023432 ], [ 140.654321218649329, 37.226029171009486 ], [ 140.647185745725665, 37.217618640188164 ], [ 140.627863773794161, 37.211996414203213 ], [ 140.617400195063055, 37.203646414050809 ], [ 140.61044438420106, 37.214845864844847 ], [ 140.601717107658487, 37.218552532173646 ], [ 140.603014669291611, 37.221711694039527 ], [ 140.597035772183176, 37.229215891700107 ], [ 140.601957055773596, 37.23888030588148 ], [ 140.602416083235767, 37.250905892792787 ], [ 140.592364060353134, 37.255825053983131 ], [ 140.585375615792145, 37.251368135331234 ], [ 140.577754422628573, 37.252125081207566 ], [ 140.573283358540266, 37.263312332698035 ], [ 140.557514890399943, 37.268430171215471 ], [ 140.557230778377743, 37.27355794634218 ], [ 140.522343864777554, 37.263724170933813 ], [ 140.511052723604394, 37.248822251745594 ], [ 140.491229364343781, 37.246600080929056 ], [ 140.486607950696452, 37.249890387331561 ], [ 140.485326030971578, 37.225047053778553 ], [ 140.457618171441482, 37.223981919230255 ], [ 140.447075304881423, 37.229154441024662 ], [ 140.425938079279035, 37.228429775413872 ], [ 140.422835032410831, 37.231794251603503 ], [ 140.423226498304302, 37.241018945867722 ], [ 140.391347781874742, 37.247758801627469 ], [ 140.388609105226124, 37.244353837959295 ], [ 140.396560751577454, 37.227235440663094 ], [ 140.395238781444618, 37.223190441185977 ], [ 140.367032775742018, 37.220581721069607 ], [ 140.354752918112695, 37.226944332814753 ], [ 140.345262724195436, 37.218703801739139 ], [ 140.332784837650252, 37.223181892230571 ], [ 140.333229248431167, 37.218973252113926 ], [ 140.323228030049563, 37.216943558698347 ], [ 140.326383606318473, 37.213210748976962 ], [ 140.316910467144453, 37.218974666747499 ], [ 140.316724967583241, 37.228578026854507 ], [ 140.311173799731137, 37.231007225203314 ], [ 140.309713280943242, 37.23757889245195 ], [ 140.301817613791854, 37.233579720627631 ], [ 140.298632776281693, 37.223500000424735 ], [ 140.293290778146911, 37.22636694557815 ], [ 140.270229078908983, 37.219260332798171 ], [ 140.246772697801816, 37.222734278963856 ], [ 140.241197638560266, 37.220567892194538 ], [ 140.23351313941987, 37.225317360307997 ], [ 140.225216109336088, 37.223984027241102 ], [ 140.210843281092593, 37.228395441096779 ], [ 140.203715771665543, 37.23724408114947 ], [ 140.192327664690083, 37.238927135379072 ], [ 140.183934060008937, 37.244942134871678 ], [ 140.170173670978215, 37.24154438736366 ], [ 140.147742192348346, 37.244594667410013 ], [ 140.140267223553565, 37.25392883794558 ], [ 140.114626328941995, 37.261702441014904 ], [ 140.115344746962592, 37.271736885748737 ], [ 140.104615736027426, 37.285973412742862 ], [ 140.117405227769154, 37.308551891856382 ], [ 140.109111025153766, 37.312752721361051 ], [ 140.106270467008471, 37.319159945774913 ], [ 140.10892243822002, 37.322690223674954 ], [ 140.114359974033619, 37.319510774902369 ], [ 140.115571672894475, 37.328940504700597 ], [ 140.121372801913367, 37.328267441289427 ], [ 140.129865939961178, 37.334364666696047 ], [ 140.134558755282342, 37.330029668234658 ], [ 140.145553838738692, 37.335630775439995 ], [ 140.153586939385832, 37.331446053692503 ], [ 140.166909856804523, 37.33842466686491 ], [ 140.168039078840479, 37.346170224576269 ], [ 140.174834422770459, 37.346238000183632 ], [ 140.173871673339136, 37.355876891605305 ], [ 140.180941777241287, 37.360318278066131 ], [ 140.188545509167966, 37.373789944250575 ], [ 140.198399999560365, 37.379846673185455 ], [ 140.191323654363259, 37.399925697113304 ], [ 140.180170475487103, 37.412070979292309 ], [ 140.184201292655644, 37.421394889462647 ], [ 140.181533741588964, 37.428742307411596 ], [ 140.195612159673487, 37.429939110801399 ], [ 140.203770328138148, 37.441839590324889 ], [ 140.216103701724478, 37.449556395811044 ], [ 140.199895939945691, 37.453897330697316 ], [ 140.201526886556621, 37.465205414198579 ], [ 140.19282016851605, 37.474456251754646 ], [ 140.19878255497099, 37.484749278556421 ], [ 140.192620052273696, 37.4936426400958 ], [ 140.187128885389825, 37.495003468135621 ], [ 140.190055446601605, 37.510244838228743 ], [ 140.178374746097688, 37.513125134717257 ], [ 140.165541114730672, 37.527399277654581 ], [ 140.171042580650692, 37.530499559107398 ], [ 140.17165955874168, 37.535182891077625 ], [ 140.179138275011496, 37.535235387203386 ], [ 140.190994616708281, 37.544736224597159 ], [ 140.192228301295131, 37.55392677520058 ], [ 140.20313596615199, 37.559898440860422 ], [ 140.210036082899023, 37.562464837981963 ], [ 140.217727249612949, 37.554638441111194 ], [ 140.22826627786651, 37.555044252090624 ], [ 140.240344915785272, 37.576469560222051 ], [ 140.238420532081932, 37.590081802133511 ], [ 140.248683773337575, 37.598976000042398 ], [ 140.263264837802126, 37.603073224949412 ], [ 140.284682477414435, 37.625933000307782 ], [ 140.280681945815218, 37.641686170980051 ], [ 140.287575383297394, 37.639896108218863 ], [ 140.297430610234528, 37.645538532077637 ], [ 140.333803281196538, 37.650308946300868 ], [ 140.347304864228136, 37.646951586446619 ], [ 140.377821829014238, 37.651233252412737 ], [ 140.387581699036218, 37.647292053585431 ], [ 140.40235167329115, 37.64812253162961 ], [ 140.414801530666182, 37.642489693644507 ], [ 140.434473527731143, 37.644580171337907 ], [ 140.442677056201205, 37.649169864997305 ], [ 140.460991478973597, 37.646730640107023 ], [ 140.483821335686116, 37.650982224650022 ], [ 140.483479637375467, 37.647413080749118 ], [ 140.486861894061235, 37.647019441194288 ], [ 140.479368948718047, 37.641403360276911 ], [ 140.482778364929686, 37.635522838208487 ], [ 140.490802088345731, 37.632676973163825 ], [ 140.491440506274444, 37.639366946227653 ], [ 140.498190557648172, 37.636374441327462 ], [ 140.503137328025332, 37.638712747895056 ], [ 140.503013086684632, 37.631927774946917 ], [ 140.497464357793888, 37.62826446843053 ], [ 140.502505499429276, 37.624204468261667 ], [ 140.513781050854845, 37.634093864939985 ], [ 140.509992698104611, 37.63537802667463 ], [ 140.512986134702373, 37.641373559442286 ], [ 140.526485577347557, 37.647579639688672 ], [ 140.524680700054319, 37.635844665998604 ], [ 140.528624917006368, 37.635278252289538 ], [ 140.540136030553413, 37.643503774579585 ], [ 140.549871192601472, 37.643184586299697 ], [ 140.54881849477772, 37.650909838218524 ], [ 140.555322503330899, 37.650902053686877 ], [ 140.555429170120192, 37.650886774205333 ] ] ] } },
{ "type": "Feature", "properties": { "code": "070013", "name": "中通り南部", "PrefCode": "07", "regioncode": "070013" }, "geometry": { "type": "Polygon", "coordinates": [ [ [ 140.556085772340566, 37.273668505397268 ], [ 140.557514890399943, 37.268430171215471 ], [ 140.573283358540266, 37.263312332698035 ], [ 140.577754422628573, 37.252125081207566 ], [ 140.585375615792145, 37.251368135331234 ], [ 140.592364060353134, 37.255825053983131 ], [ 140.60257719767958, 37.250686720815565 ], [ 140.601957055773596, 37.23888030588148 ], [ 140.597035772183176, 37.229215891700107 ], [ 140.603014669291611, 37.221711694039527 ], [ 140.601717107658487, 37.218552532173646 ], [ 140.610635226634486, 37.214600865237799 ], [ 140.613814060270784, 37.20550197263799 ], [ 140.607015357372916, 37.204005305600447 ], [ 140.605081608129808, 37.194448918882529 ], [ 140.607909636920226, 37.188166414248656 ], [ 140.601918339959525, 37.176917802014998 ], [ 140.609682555005975, 37.171769224670015 ], [ 140.608628611621157, 37.16774422521587 ], [ 140.613957250326962, 37.160827559144593 ], [ 140.611751920215056, 37.154171747728014 ], [ 140.620933190714254, 37.152749054425385 ], [ 140.6238876911641, 37.142963053702033 ], [ 140.632448145265812, 37.154858586054957 ], [ 140.634922917658628, 37.143861748021322 ], [ 140.642877522779486, 37.133509134838732 ], [ 140.642885058198885, 37.122503414201276 ], [ 140.655878171740255, 37.117316972700166 ], [ 140.653042802683217, 37.114856666801757 ], [ 140.664901219116018, 37.09001125221755 ], [ 140.653041673134794, 37.085805278590783 ], [ 140.655459221665865, 37.08094505357144 ], [ 140.652152166289511, 37.080031972797372 ], [ 140.657253138921305, 37.078129278943095 ], [ 140.657166472155041, 37.074919026591829 ], [ 140.640032826853485, 37.068459081221647 ], [ 140.642874746572375, 37.056650559176035 ], [ 140.633827496641743, 37.055619865064784 ], [ 140.62499744467641, 37.049145332691012 ], [ 140.627740531600352, 37.043939251795109 ], [ 140.620607393316618, 37.034486108147405 ], [ 140.620922724404295, 37.020375586064517 ], [ 140.61731418929844, 37.015156640366683 ], [ 140.61210927392392, 37.012739613442477 ], [ 140.598475914132223, 37.015711918670149 ], [ 140.603035109982443, 37.010098667019918 ], [ 140.599403800445089, 37.005223026721353 ], [ 140.565921504673724, 36.985730838307575 ], [ 140.57094927428966, 36.973946694184633 ], [ 140.582433917191565, 36.965350721358732 ], [ 140.582732994831872, 36.953450946903729 ], [ 140.587040557675664, 36.946302360065943 ], [ 140.567444527243197, 36.936675108569432 ], [ 140.570583994855497, 36.931314559219572 ], [ 140.56495802859024, 36.91285661364185 ], [ 140.571803695883887, 36.912473306397999 ], [ 140.580773579836887, 36.904407721339339 ], [ 140.579855227236976, 36.893633720919524 ], [ 140.593282139559165, 36.880032748412646 ], [ 140.592154306076395, 36.873269638882789 ], [ 140.588755084579589, 36.874911053602318 ], [ 140.58047263250603, 36.866889720584197 ], [ 140.575332245286972, 36.869072531672032 ], [ 140.57227494243466, 36.864078668295974 ], [ 140.538035887846036, 36.858856279094084 ], [ 140.535122477420487, 36.85211272082546 ], [ 140.527923995296192, 36.848365801640512 ], [ 140.528482826821119, 36.839994721379355 ], [ 140.519104306218765, 36.836239747866102 ], [ 140.513984422643034, 36.823507053707601 ], [ 140.504423695796959, 36.823169585807818 ], [ 140.501481114961507, 36.818172639555712 ], [ 140.488000389006856, 36.818362972972864 ], [ 140.489323385266061, 36.809576612770513 ], [ 140.480589611121673, 36.803736360544633 ], [ 140.478620362939409, 36.796941666824523 ], [ 140.46497435778042, 36.791315359716123 ], [ 140.438501024602715, 36.821541838085409 ], [ 140.4309698059119, 36.817039386758324 ], [ 140.423066445959762, 36.820519171322758 ], [ 140.41509866397223, 36.832026414187737 ], [ 140.392869001303438, 36.83244683825103 ], [ 140.37705914366461, 36.838058026856515 ], [ 140.376889778840336, 36.84704855924366 ], [ 140.368407276174935, 36.861230251874701 ], [ 140.372433190239576, 36.871254359800901 ], [ 140.365211829362465, 36.884324946339234 ], [ 140.346381388190593, 36.885044531679853 ], [ 140.326526031051571, 36.891302170958454 ], [ 140.321665005635509, 36.908021945556413 ], [ 140.292703916552568, 36.933197441009156 ], [ 140.285124720829231, 36.935535279029978 ], [ 140.272974889879379, 36.930154801602839 ], [ 140.243037327710567, 36.943486251789125 ], [ 140.241211581649281, 36.952077918661075 ], [ 140.253089830831073, 36.962967892054621 ], [ 140.243670195023583, 36.973999279343332 ], [ 140.244201361603587, 36.978990945675662 ], [ 140.250976445606511, 36.983374801605862 ], [ 140.250246498277306, 36.988658693643856 ], [ 140.243954551661318, 36.991389801598132 ], [ 140.240213218165536, 37.000275080930294 ], [ 140.246016394041362, 37.005198666785077 ], [ 140.244895304574698, 37.010240613313726 ], [ 140.252046199072879, 37.010226135128107 ], [ 140.2494635539, 37.025561693917098 ], [ 140.224654500704673, 37.023804558933307 ], [ 140.219983865363133, 37.018487641091838 ], [ 140.20308046718992, 37.023962387254414 ], [ 140.195593333265833, 37.036526027754007 ], [ 140.199782891567224, 37.047692666783178 ], [ 140.190650661099198, 37.056666306305033 ], [ 140.19458627783456, 37.060235999691656 ], [ 140.19339046729624, 37.065106837610529 ], [ 140.172827003763246, 37.070254973388387 ], [ 140.165617522930347, 37.078685801908307 ], [ 140.157199973799834, 37.081420278722931 ], [ 140.152917716979118, 37.086171109309305 ], [ 140.156233061406738, 37.091389440770115 ], [ 140.14937800429152, 37.092554170738424 ], [ 140.140085188180933, 37.104662251561706 ], [ 140.128260052059773, 37.104057837898949 ], [ 140.097559830621776, 37.124345946108576 ], [ 140.08906693898814, 37.121509585998638 ], [ 140.065483605983673, 37.127486026159204 ], [ 140.057417366218488, 37.126056612222953 ], [ 140.038656355406488, 37.139432774902673 ], [ 140.028521192898779, 37.139574225670003 ], [ 140.023255305288217, 37.143324802397785 ], [ 140.01706319061384, 37.139575973052786 ], [ 139.990492724359797, 37.142715332746434 ], [ 139.961775032291939, 37.149963838760186 ], [ 139.96401500608772, 37.160881252268041 ], [ 139.959902580839525, 37.180293613259721 ], [ 139.982140999307717, 37.20193619759749 ], [ 139.993674423236143, 37.196347305883535 ], [ 139.999528715677798, 37.199679748221854 ], [ 140.017622866602096, 37.196944134664136 ], [ 140.039220000103001, 37.206099584728122 ], [ 140.048651776758106, 37.203170667292511 ], [ 140.063613501761779, 37.213182279138948 ], [ 140.071356860630658, 37.209956694246102 ], [ 140.071888754762313, 37.223974170671511 ], [ 140.083096667277459, 37.226426081398586 ], [ 140.089220699675593, 37.232998027437077 ], [ 140.086251388290975, 37.246546332946934 ], [ 140.092788858818835, 37.242091891927316 ], [ 140.10147836563408, 37.242384668018076 ], [ 140.099290388840473, 37.251702999693748 ], [ 140.114626328941995, 37.261702441014904 ], [ 140.140267223553565, 37.25392883794558 ], [ 140.147742192348346, 37.244594667410013 ], [ 140.170173670978215, 37.24154438736366 ], [ 140.183934060008937, 37.244942134871678 ], [ 140.192327664690083, 37.238927135379072 ], [ 140.203715771665543, 37.23724408114947 ], [ 140.210843281092593, 37.228395441096779 ], [ 140.225216109336088, 37.223984027241102 ], [ 140.23351313941987, 37.225317360307997 ], [ 140.241197638560266, 37.220567892194538 ], [ 140.246772697801816, 37.222734278963856 ], [ 140.270229078908983, 37.219260332798171 ], [ 140.293290778146911, 37.22636694557815 ], [ 140.298632776281693, 37.223500000424735 ], [ 140.301817613791854, 37.233579720627631 ], [ 140.309713280943242, 37.23757889245195 ], [ 140.311173799731137, 37.231007225203314 ], [ 140.316724967583241, 37.228578026854507 ], [ 140.316910467144453, 37.218974666747499 ], [ 140.326383606318473, 37.213210748976962 ], [ 140.323228030049563, 37.216943558698347 ], [ 140.333229248431167, 37.218973252113926 ], [ 140.332784837650252, 37.223181892230571 ], [ 140.345262724195436, 37.218703801739139 ], [ 140.354752918112695, 37.226944332814753 ], [ 140.367032775742018, 37.220581721069607 ], [ 140.395238781444618, 37.223190441185977 ], [ 140.396560751577454, 37.227235440663094 ], [ 140.388609105226124, 37.244353837959295 ], [ 140.391347781874742, 37.247758801627469 ], [ 140.423226498304302, 37.241018945867722 ], [ 140.422835032410831, 37.231794251603503 ], [ 140.425938079279035, 37.228429775413872 ], [ 140.447075304881423, 37.229154441024662 ], [ 140.457618171441482, 37.223981919230255 ], [ 140.485326030971578, 37.225047053778553 ], [ 140.486607950696452, 37.249890387331561 ], [ 140.491229364343781, 37.246600080929056 ], [ 140.511052723604394, 37.248822251745594 ], [ 140.52201914386842, 37.263548892167705 ], [ 140.555876030654304, 37.273674054214268 ], [ 140.556085772340566, 37.273668505397268 ] ], [ [ 140.30241530502235, 37.222287747581561 ], [ 140.302394501005438, 37.225808053798687 ], [ 140.302315577402055, 37.222154972574003 ], [ 140.30241530502235, 37.222287747581561 ] ] ] } },
{ "type": "Feature", "properties": { "code": "070021", "name": "浜通り北部", "PrefCode": "07", "regioncode": "070021" }, "geometry": { "type": "MultiPolygon", "coordinates": [ [ [ [ 141.022953060935038, 37.665423946358089 ], [ 141.021178949448995, 37.670646467760321 ], [ 141.022601088769306, 37.666660640076543 ], [ 141.022953060935038, 37.665423946358089 ] ] ], [ [ [ 141.018741555578345, 37.688246026632896 ], [ 141.019693086866482, 37.685325414436363 ], [ 141.018553839188371, 37.688207639970642 ], [ 141.018741555578345, 37.688246026632896 ] ] ], [ [ [ 140.973306498196393, 37.832941693604312 ], [ 140.970926303905912, 37.832875413569525 ], [ 140.974036614598162, 37.833009053724879 ], [ 140.973306498196393, 37.832941693604312 ] ] ], [ [ [ 140.900507497323247, 37.902525801624506 ], [ 140.901119663142026, 37.897637774963414 ], [ 140.914866446329484, 37.898028775008015 ], [ 140.920209857299142, 37.891997388069058 ], [ 140.931170830369638, 37.896197431566293 ], [ 140.933414137052864, 37.879562694163042 ], [ 140.946410506139955, 37.853208414137043 ], [ 140.949792502921696, 37.858146134636456 ], [ 140.967786329075921, 37.859415197653277 ], [ 140.955856251964519, 37.859367892414355 ], [ 140.956873112704102, 37.856402558731133 ], [ 140.949375278646244, 37.855250504707101 ], [ 140.952482334692036, 37.846207945640231 ], [ 140.958774668915908, 37.845045775142466 ], [ 140.953882217590376, 37.840633837881342 ], [ 140.962382802024763, 37.841626279329375 ], [ 140.955118392399982, 37.838558774567844 ], [ 140.959482334642075, 37.831374053869524 ], [ 140.962466251916112, 37.830495386552911 ], [ 140.967490337009508, 37.844650306366589 ], [ 140.963026082587703, 37.831450945904464 ], [ 140.970282310180551, 37.828071108394965 ], [ 140.972520025778635, 37.831617531823667 ], [ 140.975366744279881, 37.827405890669354 ], [ 140.974897691175556, 37.831992532029801 ], [ 140.97547935109128, 37.827302287870339 ], [ 140.980877588330145, 37.825676919754073 ], [ 140.976544136702614, 37.837263413575727 ], [ 140.978468664297452, 37.829158036214437 ], [ 140.987353529042252, 37.822730532088428 ], [ 140.989047197969853, 37.773226892307264 ], [ 140.991805227129589, 37.766961467597696 ], [ 141.000611440765397, 37.763087001164251 ], [ 141.011344384435802, 37.73977072094209 ], [ 141.011226030956664, 37.689512801774413 ], [ 141.017475161749417, 37.686201801971663 ], [ 141.013476108635587, 37.684192505180022 ], [ 141.014572970366316, 37.675038225134017 ], [ 141.017295641780493, 37.671541252726684 ], [ 141.032130026379718, 37.673327837809495 ], [ 141.041004189191995, 37.664976837610993 ], [ 141.032039390005934, 37.67316161341779 ], [ 141.019069948419428, 37.671762747652735 ], [ 141.022251556464198, 37.664282748050425 ], [ 141.03307355370157, 37.666949360224862 ], [ 141.019986680440979, 37.662593359895709 ], [ 141.019222218031018, 37.658452106879281 ], [ 141.024530077900863, 37.642187305599748 ], [ 141.022414967776626, 37.621263748123511 ], [ 141.027628690211941, 37.602681251838362 ], [ 141.026524527784773, 37.561367171357915 ], [ 141.034793553879467, 37.513774640387396 ], [ 140.993922243816542, 37.508160000183921 ], [ 140.976263359366612, 37.516986532202736 ], [ 140.938527587778026, 37.525242919225377 ], [ 140.931655862628077, 37.531314054400127 ], [ 140.917870467048488, 37.527636386610027 ], [ 140.913030245649338, 37.51845144148092 ], [ 140.906214306345191, 37.521962305715874 ], [ 140.895398196969268, 37.520506838419919 ], [ 140.886386419897462, 37.525822170756612 ], [ 140.880148754561446, 37.523938865386356 ], [ 140.87426141383321, 37.545961387208308 ], [ 140.844158443857168, 37.558569054018676 ], [ 140.843669948309525, 37.569577666875887 ], [ 140.839232944245055, 37.571340467588584 ], [ 140.841597471446221, 37.573200171151029 ], [ 140.838008560446724, 37.577190467566083 ], [ 140.843217328516971, 37.582681279217695 ], [ 140.839055421670423, 37.590381306052507 ], [ 140.842259975017896, 37.593562666783725 ], [ 140.826136887107737, 37.597716360121979 ], [ 140.829396471769769, 37.602605531620043 ], [ 140.820098612261177, 37.612868639775968 ], [ 140.814734917082774, 37.614788945053817 ], [ 140.813839195922242, 37.604226440897605 ], [ 140.802831414038565, 37.598700667202081 ], [ 140.803197471386284, 37.595745108250185 ], [ 140.793078911262796, 37.593379613378488 ], [ 140.781860143031281, 37.599457720997066 ], [ 140.770021829144184, 37.596742801738969 ], [ 140.743103359432553, 37.603536585345182 ], [ 140.721901581392899, 37.600927531580396 ], [ 140.706473916737878, 37.60634791912122 ], [ 140.698652943678439, 37.605539360253317 ], [ 140.67422552498806, 37.622376973918279 ], [ 140.667958301634371, 37.630970613003456 ], [ 140.668731634057735, 37.652845865444363 ], [ 140.662355771701527, 37.663220612741156 ], [ 140.66710233500487, 37.676155891781036 ], [ 140.659591414012652, 37.680542585971637 ], [ 140.655971388268995, 37.687603693955339 ], [ 140.646009248128394, 37.684270387368542 ], [ 140.644895668000686, 37.691653440953587 ], [ 140.649634695884515, 37.697595919116452 ], [ 140.662225771102499, 37.700571198402145 ], [ 140.661603060732773, 37.708657559598748 ], [ 140.668170661247132, 37.711457278630576 ], [ 140.667179856565213, 37.715645613854065 ], [ 140.671661920261499, 37.719048946151986 ], [ 140.669306888102483, 37.722279774991648 ], [ 140.676502890795859, 37.728101973327455 ], [ 140.678107471082967, 37.738369999875658 ], [ 140.685016225818231, 37.74268553161204 ], [ 140.697991166759039, 37.743522748276291 ], [ 140.703149688807116, 37.749623505320585 ], [ 140.728391672937391, 37.751861613023095 ], [ 140.735939974250527, 37.757205387318834 ], [ 140.735663449808385, 37.768298918660207 ], [ 140.722741114710743, 37.761435747861526 ], [ 140.704613475731435, 37.759389225432471 ], [ 140.68431852098297, 37.770282000214195 ], [ 140.681895837323054, 37.77867163978442 ], [ 140.677982698243, 37.779754413635317 ], [ 140.678370583935362, 37.787271027336089 ], [ 140.693906589017956, 37.797780027226509 ], [ 140.69437333266319, 37.803264972600459 ], [ 140.712239804923115, 37.800294919275132 ], [ 140.723001855151551, 37.792535198140911 ], [ 140.726969831292763, 37.781479171226806 ], [ 140.745150051833434, 37.788462864669498 ], [ 140.775219559834909, 37.781816586066668 ], [ 140.792087030092375, 37.77327291871029 ], [ 140.803235161973248, 37.779842801703978 ], [ 140.794922502571467, 37.780906197862805 ], [ 140.772747756104081, 37.797276198238023 ], [ 140.764438104934698, 37.796896278740348 ], [ 140.773061141058861, 37.801216720775074 ], [ 140.775054034216396, 37.806357531574861 ], [ 140.810179974126527, 37.795534640411404 ], [ 140.821616666975615, 37.798886532387598 ], [ 140.830507392602158, 37.794764559037219 ], [ 140.852106524396618, 37.79543805412294 ], [ 140.85795344959206, 37.802975774912113 ], [ 140.853715888177817, 37.807029108406653 ], [ 140.858252776344671, 37.814748504839656 ], [ 140.853656614761007, 37.821013774865889 ], [ 140.85597649781721, 37.828812612911804 ], [ 140.85234197140494, 37.829733748014121 ], [ 140.855090143095708, 37.833775919123411 ], [ 140.850546056755206, 37.849313945881931 ], [ 140.861562335433518, 37.862828802007641 ], [ 140.854579533218953, 37.874518225036127 ], [ 140.861123086761154, 37.879401225386289 ], [ 140.856592995670326, 37.882469559322772 ], [ 140.859937886424404, 37.888663666894786 ], [ 140.856251414271469, 37.890900054194219 ], [ 140.900511388689665, 37.902674973071612 ], [ 140.900507497323247, 37.902525801624506 ] ] ] ] } },
{ "type": "Feature", "properties": { "code": "070022", "name": "浜通り中部", "PrefCode": "07", "regioncode": "070022" }, "geometry": { "type": "Polygon", "coordinates": [ [ [ 140.821605033345691, 37.611053333044936 ], [ 140.829438690443226, 37.602481918905482 ], [ 140.826136887107737, 37.597716360121979 ], [ 140.842259975017896, 37.593562666783725 ], [ 140.839055421670423, 37.590381306052507 ], [ 140.843217328516971, 37.582681279217695 ], [ 140.838008560446724, 37.577190467566083 ], [ 140.841597471446221, 37.573200171151029 ], [ 140.839232944245055, 37.571340467588584 ], [ 140.843669948309525, 37.569577666875887 ], [ 140.844158443857168, 37.558569054018676 ], [ 140.87426141383321, 37.545961387208308 ], [ 140.880148754561446, 37.523938865386356 ], [ 140.886386419897462, 37.525822170756612 ], [ 140.895398196969268, 37.520506838419919 ], [ 140.906214306345191, 37.521962305715874 ], [ 140.913030245649338, 37.51845144148092 ], [ 140.917870467048488, 37.527636386610027 ], [ 140.931655862628077, 37.531314054400127 ], [ 140.938527587778026, 37.525242919225377 ], [ 140.976263359366612, 37.516986532202736 ], [ 140.993922243816542, 37.508160000183921 ], [ 141.034768586001519, 37.51338455855057 ], [ 141.040780608738146, 37.48435974800401 ], [ 141.045269274357565, 37.483967107596015 ], [ 141.041151764342544, 37.48406550511902 ], [ 141.044728975162116, 37.481500306793748 ], [ 141.040992775895916, 37.479128054416208 ], [ 141.045895966026023, 37.479730171210463 ], [ 141.040212361311546, 37.478687748141112 ], [ 141.036811089360299, 37.471041080781333 ], [ 141.0392404666743, 37.453357000025562 ], [ 141.034610025632219, 37.433690945680667 ], [ 141.040823280669883, 37.423613278629944 ], [ 141.035210699913932, 37.430280306391069 ], [ 141.036532438021709, 37.419900585843436 ], [ 141.042851115186863, 37.423322440578204 ], [ 141.033895278644309, 37.418965972601598 ], [ 141.035486421261453, 37.368084585834993 ], [ 141.039178144555763, 37.363929306092643 ], [ 141.033320271913112, 37.356561505009495 ], [ 141.032205005556648, 37.344111440790414 ], [ 141.02753089523469, 37.339043279024168 ], [ 141.030731970903844, 37.335893468308996 ], [ 141.027275693718366, 37.338182197950118 ], [ 141.029721855079629, 37.334201359705048 ], [ 141.026625759071635, 37.333807792995287 ], [ 141.025443942883726, 37.324801386674721 ], [ 141.036093138987212, 37.319107278777949 ], [ 141.027430245809228, 37.322292225106139 ], [ 141.028041530292398, 37.313706694308564 ], [ 141.030077563029181, 37.319293225302147 ], [ 141.032502191922731, 37.315599440761616 ], [ 141.029366550026339, 37.313701107720021 ], [ 141.038613307358332, 37.318947080743214 ], [ 141.031593644631016, 37.313501081409811 ], [ 141.025344526428853, 37.313426134608505 ], [ 141.024503722368991, 37.296480891879696 ], [ 141.012805914061801, 37.253550252142475 ], [ 141.012926666932231, 37.240912171159835 ], [ 141.020813189776959, 37.240611278687595 ], [ 141.023247328101775, 37.235072640190253 ], [ 141.016491114573341, 37.234857134749006 ], [ 141.020916718831586, 37.234538225258916 ], [ 141.016486108946879, 37.234547694220737 ], [ 141.016462723875634, 37.230172693914767 ], [ 141.02231836619967, 37.229238505152921 ], [ 141.028782749724201, 37.237971747797985 ], [ 141.02243058360466, 37.22906266700852 ], [ 141.012321505932846, 37.229132467889144 ], [ 141.004648079245499, 37.208999676194139 ], [ 141.000434086364066, 37.183642586036569 ], [ 140.968816418842721, 37.189229000118303 ], [ 140.956469558123672, 37.185909386608955 ], [ 140.929205084147384, 37.199125225348951 ], [ 140.925424526720576, 37.204637467844918 ], [ 140.916253255783204, 37.203325359677649 ], [ 140.916808301162177, 37.207315918694746 ], [ 140.90411286591609, 37.213797134829974 ], [ 140.899939779597162, 37.221399387371889 ], [ 140.87290377389013, 37.22201800043041 ], [ 140.86703535669642, 37.228177198119226 ], [ 140.878115914418004, 37.240680081320761 ], [ 140.874645913578092, 37.253140360039652 ], [ 140.867058858679457, 37.259747892251482 ], [ 140.872020921128637, 37.263489224847888 ], [ 140.871895421636509, 37.271521414481754 ], [ 140.877419753718755, 37.277279135024116 ], [ 140.859496030617379, 37.274654585940425 ], [ 140.853509688921122, 37.257939972551753 ], [ 140.837497715847007, 37.261922586058574 ], [ 140.827748884103812, 37.254323251816686 ], [ 140.80722569401064, 37.25433113617305 ], [ 140.804638689823719, 37.251539531724063 ], [ 140.800988910909609, 37.258621999505749 ], [ 140.787502048880469, 37.267362586014599 ], [ 140.787039300023707, 37.275219774772836 ], [ 140.796175914686728, 37.281977467686033 ], [ 140.779627056243726, 37.288376135050669 ], [ 140.777952087818676, 37.296808333238062 ], [ 140.766415473095662, 37.294925054847454 ], [ 140.761578494651872, 37.300973973170358 ], [ 140.758053696321099, 37.297066224626633 ], [ 140.737785083614767, 37.299806865394601 ], [ 140.724965305404567, 37.31450325172375 ], [ 140.72784011692795, 37.317655171349145 ], [ 140.719572283334287, 37.324209639962987 ], [ 140.71243105115218, 37.345602945719406 ], [ 140.707184578105853, 37.346270721116923 ], [ 140.70172128391016, 37.354839332968879 ], [ 140.706765836674094, 37.36543861310156 ], [ 140.69902083024715, 37.36939972112026 ], [ 140.699746666775354, 37.374276107856133 ], [ 140.715753916610083, 37.388961134848557 ], [ 140.712642827104901, 37.393211413575955 ], [ 140.714997638929958, 37.397253892253389 ], [ 140.726294228196139, 37.400399108332238 ], [ 140.728456005040698, 37.404596864853488 ], [ 140.740595837328101, 37.401051559282109 ], [ 140.742942725226612, 37.393615999678673 ], [ 140.755472892060425, 37.392833442009817 ], [ 140.76407510977856, 37.383489801613109 ], [ 140.770174694106913, 37.38723391940988 ], [ 140.788744916444784, 37.382082721440497 ], [ 140.790203774184874, 37.377669946011224 ], [ 140.795351698622085, 37.381994640939979 ], [ 140.815762334963892, 37.382395613566757 ], [ 140.850338171269641, 37.371232107775597 ], [ 140.854137470567821, 37.375920946294684 ], [ 140.850152996363704, 37.37931402722063 ], [ 140.851637522553688, 37.383451504883112 ], [ 140.859798585936005, 37.387048945952131 ], [ 140.858041582253236, 37.405420864181565 ], [ 140.861987859552187, 37.411244720867217 ], [ 140.850434746766268, 37.423826694046738 ], [ 140.850607198063813, 37.437972504627453 ], [ 140.844092386854186, 37.442040052806249 ], [ 140.842894423338976, 37.449266973292254 ], [ 140.845528999863518, 37.455388612594447 ], [ 140.835905005711538, 37.460591440642531 ], [ 140.834721750608423, 37.467892279105456 ], [ 140.819425279053462, 37.463875973397535 ], [ 140.809022697739351, 37.472154358736702 ], [ 140.799480310767763, 37.47264635984169 ], [ 140.792340661392473, 37.468586134842326 ], [ 140.779869728405288, 37.475662586159501 ], [ 140.771565357155623, 37.472145945578973 ], [ 140.764087004211888, 37.479377081187408 ], [ 140.766240661077745, 37.482173198434396 ], [ 140.747756523644739, 37.484910775212143 ], [ 140.741401778269505, 37.490462468268333 ], [ 140.730571051313063, 37.490290586241599 ], [ 140.702486355161227, 37.502097108195017 ], [ 140.691583450415919, 37.503014973362383 ], [ 140.705456329346134, 37.523331802320854 ], [ 140.695932335309067, 37.525892693792855 ], [ 140.681651140787608, 37.539596694431964 ], [ 140.693142891930961, 37.558503559092003 ], [ 140.698551608070375, 37.561496278930179 ], [ 140.697881167082301, 37.573681586336193 ], [ 140.712978884867653, 37.572556747595854 ], [ 140.724026160478957, 37.58675277542028 ], [ 140.726193800003898, 37.593879999762237 ], [ 140.718245965878737, 37.601443667791102 ], [ 140.743103359432553, 37.603536585345182 ], [ 140.770114060915262, 37.596736135064646 ], [ 140.781860143031281, 37.599457720997066 ], [ 140.793078911262796, 37.593379613378488 ], [ 140.803197471386284, 37.595745108250185 ], [ 140.802831414038565, 37.598700667202081 ], [ 140.813839195922242, 37.604226440897605 ], [ 140.814734917082774, 37.614788945053817 ], [ 140.821461970993255, 37.611089171927802 ], [ 140.821605033345691, 37.611053333044936 ] ] ] } },
{ "type": "Feature", "properties": { "code": "070023", "name": "浜通り南部", "PrefCode": "07", "regioncode": "070023" }, "geometry": { "type": "MultiPolygon", "coordinates": [ [ [ [ 140.900000000000091, 36.915519251712169 ], [ 140.882550948067887, 36.908409919382336 ], [ 140.90667311257414, 36.91761661281646 ], [ 140.900022217751257, 36.915525919285813 ], [ 140.900000000000091, 36.915519251712169 ] ] ], [ [ [ 140.865025615639752, 36.912634559337505 ], [ 140.872347471258877, 36.917655531877358 ], [ 140.865081996836693, 36.912683585878824 ], [ 140.865025615639752, 36.912634559337505 ] ] ], [ [ [ 140.875000000050022, 36.91881655933679 ], [ 140.884848391240325, 36.920673027138548 ], [ 140.875022217801188, 36.918826864668119 ], [ 140.875000000050022, 36.91881655933679 ] ] ], [ [ [ 140.901087056422625, 36.930363775268063 ], [ 140.900155033228316, 36.934684388174048 ], [ 140.901541920023647, 36.930753304921154 ], [ 140.901087056422625, 36.930363775268063 ] ] ], [ [ [ 140.906693061335773, 36.934411972734381 ], [ 140.903886161217429, 36.936665612627962 ], [ 140.906608884792263, 36.934490864861573 ], [ 140.906693061335773, 36.934411972734381 ] ] ], [ [ [ 140.909050635878202, 36.938660333207849 ], [ 140.897908079794092, 36.935645892044363 ], [ 140.890884889925815, 36.926738054117948 ], [ 140.888178301087805, 36.914827171236993 ], [ 140.890772671621562, 36.926687225335229 ], [ 140.897886979000987, 36.935741721103625 ], [ 140.909057587637676, 36.938671440734481 ], [ 140.909050635878202, 36.938660333207849 ] ] ], [ [ [ 140.957159143879494, 36.953996251725698 ], [ 140.953067108060623, 36.952747972940642 ], [ 140.957084967797073, 36.954136251886553 ], [ 140.957159143879494, 36.953996251725698 ] ] ], [ [ [ 140.969038858956196, 36.96111172102917 ], [ 140.971326420378091, 36.962345332770951 ], [ 140.969102191912725, 36.961140054170244 ], [ 140.969038858956196, 36.96111172102917 ] ] ], [ [ [ 140.999999999800252, 37.108031522936471 ], [ 140.997388612294685, 37.103362847217682 ], [ 141.000048457070648, 37.108063667404394 ], [ 140.999999999800252, 37.108031522936471 ] ] ], [ [ [ 141.007559558826642, 37.148536666833763 ], [ 141.009317886311464, 37.146176109240116 ], [ 141.007433165408315, 37.14846889212572 ], [ 141.007559558826642, 37.148536666833763 ] ] ], [ [ [ 140.723907301580766, 37.31920825195931 ], [ 140.727967327830015, 37.317362108374653 ], [ 140.725486977841797, 37.313786585582534 ], [ 140.731690077734925, 37.310190441335862 ], [ 140.728600583650064, 37.30809658578886 ], [ 140.739509805233411, 37.298725197709757 ], [ 140.743812918231697, 37.296847388096523 ], [ 140.749267197623112, 37.300465413747872 ], [ 140.759603721934241, 37.297166197761896 ], [ 140.761578494651872, 37.300973973170358 ], [ 140.766415473095662, 37.294925054847454 ], [ 140.777802088095996, 37.296849999727783 ], [ 140.77980204902542, 37.288234748135153 ], [ 140.793038366227734, 37.284885251952858 ], [ 140.795850895202761, 37.279911081031628 ], [ 140.787039300023707, 37.275219774772836 ], [ 140.787502048880469, 37.267362586014599 ], [ 140.800988910909609, 37.258621999505749 ], [ 140.804763695588122, 37.251497865234342 ], [ 140.80722569401064, 37.25433113617305 ], [ 140.827748884103812, 37.254323251816686 ], [ 140.837497715847007, 37.261922586058574 ], [ 140.853509688921122, 37.257939972551753 ], [ 140.859496030617379, 37.274654585940425 ], [ 140.877419753718755, 37.277279135024116 ], [ 140.871895421636509, 37.271521414481754 ], [ 140.872020921128637, 37.263489224847888 ], [ 140.867058858679457, 37.259747892251482 ], [ 140.874645913578092, 37.253140360039652 ], [ 140.878115914418004, 37.240680081320761 ], [ 140.86703535669642, 37.228177198119226 ], [ 140.87290377389013, 37.22201800043041 ], [ 140.899939779597162, 37.221399387371889 ], [ 140.90411286591609, 37.213797134829974 ], [ 140.916808301162177, 37.207315918694746 ], [ 140.916253255783204, 37.203325359677649 ], [ 140.925424526720576, 37.204637467844918 ], [ 140.929205084147384, 37.199125225348951 ], [ 140.956469558123672, 37.185909386608955 ], [ 140.968816418842721, 37.189229000118303 ], [ 141.001143255756688, 37.183386747800228 ], [ 141.000653994885965, 37.155207026583071 ], [ 141.005140895136265, 37.147353641057748 ], [ 141.002527301593773, 37.15101644125582 ], [ 140.999902113991425, 37.149206532255732 ], [ 141.005576978195108, 37.144542252423037 ], [ 141.001435188283381, 37.143987027179605 ], [ 140.998840362692704, 37.13533619840689 ], [ 141.000541996915672, 37.108968504093241 ], [ 140.994762114380137, 37.10561563994986 ], [ 140.99678582280751, 37.102600856144647 ], [ 140.99334871467147, 37.104316197834294 ], [ 140.988348885192977, 37.099657054029876 ], [ 140.977765524859137, 37.070997945598776 ], [ 140.972786004770342, 37.022302944725197 ], [ 140.975660660711014, 37.011562026766171 ], [ 140.981230699936873, 37.010497558615498 ], [ 140.979652087573868, 37.008347359642983 ], [ 140.98210211422122, 37.011517000409299 ], [ 140.979531167429514, 37.006401440773914 ], [ 140.983016031364855, 36.995516973029908 ], [ 140.970631581682255, 36.987922864748441 ], [ 140.966996913177013, 36.977252333128718 ], [ 140.969572139842398, 36.973145359570765 ], [ 140.95883610879946, 36.969849586189525 ], [ 140.957720168850756, 36.965218467957982 ], [ 140.961719999878142, 36.967894585966405 ], [ 140.959734384034618, 36.965415693779278 ], [ 140.949720558057379, 36.960976305612064 ], [ 140.951040169268481, 36.955038504823165 ], [ 140.942023113176219, 36.954813278609947 ], [ 140.93425513626562, 36.949979170802123 ], [ 140.925760946910259, 36.941095864582564 ], [ 140.924972282844692, 36.935319720528753 ], [ 140.908754448658897, 36.934306973288244 ], [ 140.914941996575976, 36.936455297174291 ], [ 140.91038907889299, 36.939218224941158 ], [ 140.916264616918625, 36.940692891863534 ], [ 140.90940797699659, 36.945482865441932 ], [ 140.905215499495739, 36.940989721198719 ], [ 140.903156693226833, 36.944656802169732 ], [ 140.895100920670984, 36.93903146812778 ], [ 140.89572513560654, 36.942412053873227 ], [ 140.893269000763894, 36.941668170649621 ], [ 140.891157523001311, 36.936845360125346 ], [ 140.884985135855345, 36.938359197918714 ], [ 140.888303555065022, 36.934386360042538 ], [ 140.879090039373864, 36.9330293514235 ], [ 140.882755940434322, 36.929048450225821 ], [ 140.880490636333889, 36.927707269674784 ], [ 140.875882165729422, 36.93313758573106 ], [ 140.873426252119884, 36.931642622009463 ], [ 140.874521530144534, 36.927289747723705 ], [ 140.868892335313035, 36.926278639947327 ], [ 140.872222827921291, 36.922274440912759 ], [ 140.866857030127903, 36.925031945767728 ], [ 140.861631114684315, 36.921742721249643 ], [ 140.864959364383253, 36.916146053997238 ], [ 140.854012477394008, 36.920223586449424 ], [ 140.841472891960507, 36.908606360095519 ], [ 140.828118611584728, 36.912583639723266 ], [ 140.816565888205218, 36.908287640362346 ], [ 140.800703332992498, 36.894240360404353 ], [ 140.793072607015233, 36.881639027519157 ], [ 140.789439922414545, 36.859631107989287 ], [ 140.793496354972831, 36.859456081033386 ], [ 140.789729856647682, 36.856484170608041 ], [ 140.785580078058274, 36.856842531557618 ], [ 140.78641739274849, 36.862108332833373 ], [ 140.772068612376643, 36.868598946883935 ], [ 140.772068832710488, 36.865099532817226 ], [ 140.767106304412437, 36.867657306339652 ], [ 140.771543800406107, 36.863066198046681 ], [ 140.765381479371854, 36.862074585773541 ], [ 140.767331555806663, 36.865107612326483 ], [ 140.765368780944527, 36.867432332835961 ], [ 140.764143969068982, 36.86310791939502 ], [ 140.764644034394792, 36.866690667340492 ], [ 140.759856471898729, 36.866723747103322 ], [ 140.760106278382068, 36.872364802193943 ], [ 140.758381439851632, 36.867298748438543 ], [ 140.740846056600276, 36.875556053669015 ], [ 140.734207808043948, 36.871592837639412 ], [ 140.729355006028754, 36.874414558585045 ], [ 140.723265940171018, 36.871026081288676 ], [ 140.714270557740065, 36.872783837703992 ], [ 140.695083747616877, 36.888771252091658 ], [ 140.656080999438586, 36.897150505391551 ], [ 140.654959364083425, 36.901041693819138 ], [ 140.636214112091693, 36.89757194568881 ], [ 140.627989883026771, 36.902856891732199 ], [ 140.615519441968786, 36.903270305580179 ], [ 140.601247911561927, 36.922809837903742 ], [ 140.592669999820714, 36.926743360118053 ], [ 140.594460077870394, 36.938053774662023 ], [ 140.589298884835785, 36.939480666899328 ], [ 140.586113022098402, 36.94528427894636 ], [ 140.582433917191565, 36.965350721358732 ], [ 140.57094927428966, 36.973946694184633 ], [ 140.566015939783824, 36.984540558599974 ], [ 140.569889999723728, 36.99000980271029 ], [ 140.599403800445089, 37.005223026721353 ], [ 140.603035109982443, 37.010098667019918 ], [ 140.598475914132223, 37.015711918670149 ], [ 140.61210927392392, 37.012739613442477 ], [ 140.61731418929844, 37.015156640366683 ], [ 140.620922724404295, 37.020375586064517 ], [ 140.620607393316618, 37.034486108147405 ], [ 140.627740531600352, 37.043939251795109 ], [ 140.62499744467641, 37.049145332691012 ], [ 140.633827496641743, 37.055619865064784 ], [ 140.642874746572375, 37.056650559176035 ], [ 140.640032826853485, 37.068459081221647 ], [ 140.657166472155041, 37.074919026591829 ], [ 140.657253138921305, 37.078129278943095 ], [ 140.652152166289511, 37.080031972797372 ], [ 140.655459221665865, 37.08094505357144 ], [ 140.653041673134794, 37.085805278590783 ], [ 140.664901219116018, 37.09001125221755 ], [ 140.653042802683217, 37.114856666801757 ], [ 140.655878171740255, 37.117316972700166 ], [ 140.642885058198885, 37.122503414201276 ], [ 140.642877522779486, 37.133509134838732 ], [ 140.634922917658628, 37.143861748021322 ], [ 140.63234258104535, 37.154997468358545 ], [ 140.624043255891593, 37.14294917086761 ], [ 140.620933190714254, 37.152749054425385 ], [ 140.61133189365205, 37.154960080843125 ], [ 140.613957250326962, 37.160827559144593 ], [ 140.608628611621157, 37.16774422521587 ], [ 140.609682555005975, 37.171769224670015 ], [ 140.601124475114489, 37.178982801914856 ], [ 140.607560169366366, 37.186514748157151 ], [ 140.607015357372916, 37.204005305600447 ], [ 140.61759408619821, 37.203691972806325 ], [ 140.627863773794161, 37.211996414203213 ], [ 140.647185745725665, 37.217618640188164 ], [ 140.654321218649329, 37.226029171009486 ], [ 140.663175552310008, 37.228383865023432 ], [ 140.66802418776615, 37.225576359661318 ], [ 140.681762826693216, 37.233082999880594 ], [ 140.685384967642221, 37.244565198425221 ], [ 140.682886160867724, 37.253310748292449 ], [ 140.686557419189626, 37.260020748358897 ], [ 140.685496134638925, 37.268213225060322 ], [ 140.693841114775637, 37.277537081271362 ], [ 140.689125888349167, 37.287250972554375 ], [ 140.695160466981974, 37.292638999790086 ], [ 140.690888859033635, 37.305489252427094 ], [ 140.695736005212552, 37.315094748423974 ], [ 140.723727859852943, 37.319269639682204 ], [ 140.723907301580766, 37.31920825195931 ] ] ] ] } },
{ "type": "Feature", "properties": { "code": "070031", "name": "会津北部", "PrefCode": "07", "regioncode": "070031" }, "geometry": { "type": "Polygon", "coordinates": [ [ [ 139.714743747925695, 37.854400774875899 ], [ 139.720856472248443, 37.83968664042618 ], [ 139.741242606561059, 37.820326387053171 ], [ 139.782954475168935, 37.831968801618928 ], [ 139.794743139284492, 37.81781658606667 ], [ 139.803417107613541, 37.815161864728339 ], [ 139.804236497916122, 37.805418559319094 ], [ 139.809758222863707, 37.803261305165165 ], [ 139.8216139440284, 37.811993775292535 ], [ 139.837874694761467, 37.814495414032194 ], [ 139.857717172709386, 37.826538721185102 ], [ 139.876422048738618, 37.817329837901752 ], [ 139.879446809622664, 37.810270107679401 ], [ 139.886619636786918, 37.809157053655156 ], [ 139.898831440018967, 37.810280108140546 ], [ 139.907380467334747, 37.815427306824802 ], [ 139.924826743959102, 37.81351397219214 ], [ 139.930085472966311, 37.822470892417812 ], [ 139.927958248974051, 37.827523360115038 ], [ 139.937031946167394, 37.82829586516209 ], [ 139.940992217816643, 37.82166530580929 ], [ 139.957919027141429, 37.814861386843575 ], [ 139.962130388606624, 37.805802505081601 ], [ 139.959362282543339, 37.797679197936702 ], [ 139.968782022672258, 37.788465864807847 ], [ 139.967361166684555, 37.783542838331357 ], [ 139.978945940103131, 37.77355172113505 ], [ 139.978039779612232, 37.766240919083202 ], [ 139.992568755343882, 37.758699531758054 ], [ 140.037297496882047, 37.767900531584303 ], [ 140.051259611042269, 37.77935961305576 ], [ 140.053517082047733, 37.770839107738709 ], [ 140.064999662804212, 37.767618279360136 ], [ 140.069122724334306, 37.757844171271529 ], [ 140.086730143281557, 37.75804386483253 ], [ 140.101757977448756, 37.737994306292251 ], [ 140.115371167245598, 37.734356000029436 ], [ 140.14069291764406, 37.738078694176465 ], [ 140.146009753647263, 37.752720224558743 ], [ 140.166414253914695, 37.757290973099998 ], [ 140.199598586305797, 37.752811135225784 ], [ 140.20482082981755, 37.747530026589516 ], [ 140.240454616887178, 37.744098468169796 ], [ 140.244251219118496, 37.735142108221794 ], [ 140.232029636658467, 37.730351693975535 ], [ 140.230182918406967, 37.725606774632979 ], [ 140.230135356861297, 37.712050278997253 ], [ 140.236411245182921, 37.704280667119122 ], [ 140.23674955934473, 37.696048026695109 ], [ 140.231860310504999, 37.690493107770749 ], [ 140.230749144157699, 37.679154081295849 ], [ 140.245183773812187, 37.676135559008912 ], [ 140.263209559173902, 37.664516667110547 ], [ 140.277910895371633, 37.661956198319956 ], [ 140.282585667594503, 37.654540081159894 ], [ 140.280681919734889, 37.636535026969966 ], [ 140.285269728415301, 37.627416054307503 ], [ 140.263855668104611, 37.603535721096705 ], [ 140.248683773337575, 37.598976000042398 ], [ 140.238420532081932, 37.590081802133511 ], [ 140.240344915785272, 37.576469560222051 ], [ 140.22826627786651, 37.555044252090624 ], [ 140.217727249612949, 37.554638441111194 ], [ 140.210036082899023, 37.562464837981963 ], [ 140.20313596615199, 37.559898440860422 ], [ 140.192228301295131, 37.55392677520058 ], [ 140.190994616708281, 37.544736224597159 ], [ 140.179138275011496, 37.535235387203386 ], [ 140.17165955874168, 37.535182891077625 ], [ 140.171042580650692, 37.530499559107398 ], [ 140.165541114730672, 37.527399277654581 ], [ 140.178374746097688, 37.513125134717257 ], [ 140.190055446601605, 37.510244838228743 ], [ 140.187128885389825, 37.495003468135621 ], [ 140.192620052273696, 37.4936426400958 ], [ 140.198840894891418, 37.484551225358814 ], [ 140.19282016851605, 37.474456251754646 ], [ 140.201526886556621, 37.465205414198579 ], [ 140.200291192884265, 37.450069027363782 ], [ 140.181716225723335, 37.448703774659521 ], [ 140.176064553236642, 37.457846558671804 ], [ 140.166522218425712, 37.457781838061408 ], [ 140.158634137055856, 37.464106000191805 ], [ 140.132541050728946, 37.463879080555159 ], [ 140.113355357563819, 37.469848531184823 ], [ 140.031418170911934, 37.503416892075961 ], [ 140.022592308887965, 37.515561586997705 ], [ 140.024186251994024, 37.524523225066844 ], [ 140.014781997291379, 37.523145999688211 ], [ 140.019266809315809, 37.528296801955889 ], [ 140.014358715182652, 37.530568198063918 ], [ 140.017645421599013, 37.532827640383346 ], [ 140.013639558818682, 37.535450693894461 ], [ 140.01610267150113, 37.542998171428508 ], [ 140.008929585332112, 37.546395918936582 ], [ 140.000645057623387, 37.544518171376581 ], [ 139.985441946488663, 37.556451441081208 ], [ 139.983343281367411, 37.552572558976465 ], [ 139.960277277074738, 37.556582251969417 ], [ 139.955024227286344, 37.565973026733843 ], [ 139.950730584149255, 37.566668585786658 ], [ 139.952975615732157, 37.569139694341459 ], [ 139.939579947656512, 37.570846891770714 ], [ 139.93637827483758, 37.575310198307079 ], [ 139.929874060339671, 37.575010467758943 ], [ 139.929632113931007, 37.5784610270548 ], [ 139.908125551153375, 37.581662359930021 ], [ 139.903528585575827, 37.585368198083927 ], [ 139.905311673195229, 37.589545666799154 ], [ 139.89823357971602, 37.593083999926705 ], [ 139.894556860710622, 37.590680107600917 ], [ 139.897459636653025, 37.58924733289814 ], [ 139.890697912079077, 37.589316774949282 ], [ 139.880442556079174, 37.593383171096548 ], [ 139.874417717104052, 37.586898468289746 ], [ 139.875660195261844, 37.583801532314908 ], [ 139.863552826701607, 37.5817798923282 ], [ 139.857767834218294, 37.592543748395315 ], [ 139.852918586323767, 37.589520722303519 ], [ 139.848767108015636, 37.594204333063544 ], [ 139.836099221701829, 37.594427134704574 ], [ 139.838561582551051, 37.600301892118694 ], [ 139.830617003971611, 37.605435720582079 ], [ 139.82551968888265, 37.602952973900699 ], [ 139.818213774646097, 37.609125199168659 ], [ 139.804158612130323, 37.612446333431592 ], [ 139.80381719800539, 37.605542197614398 ], [ 139.794417081982829, 37.604103613291159 ], [ 139.794595693636438, 37.6083946942598 ], [ 139.801192749645793, 37.612853838733713 ], [ 139.799518053715246, 37.622708559352589 ], [ 139.78612427961184, 37.625931919322682 ], [ 139.795996355347597, 37.628614945923061 ], [ 139.809399299837878, 37.623426864957878 ], [ 139.810610168624407, 37.630477946400163 ], [ 139.804299274192203, 37.637564640096116 ], [ 139.78276313900767, 37.630349694083179 ], [ 139.77741386535763, 37.614644720777278 ], [ 139.781437496942999, 37.611471667083833 ], [ 139.782262723845747, 37.597590865126392 ], [ 139.788382529430237, 37.595539197675862 ], [ 139.787582218244893, 37.593013639667788 ], [ 139.769010894237454, 37.590530053918883 ], [ 139.76797394264338, 37.596970026245742 ], [ 139.761005252590394, 37.593625612132371 ], [ 139.75440216572747, 37.599153359839761 ], [ 139.751466835226324, 37.595436720828047 ], [ 139.7490273927001, 37.598462837889713 ], [ 139.731567470662299, 37.593370585983791 ], [ 139.726735746057898, 37.587980054136267 ], [ 139.718871556077488, 37.594643892002068 ], [ 139.718151802563739, 37.588613640007509 ], [ 139.726877951356414, 37.582739774720892 ], [ 139.725451776778186, 37.57505563980601 ], [ 139.719007834843751, 37.569555919470133 ], [ 139.699702191902702, 37.575151693695773 ], [ 139.700989389748656, 37.569385333366483 ], [ 139.695445720443672, 37.562398108286118 ], [ 139.698994331922904, 37.556325640316118 ], [ 139.693820389199686, 37.553380080926047 ], [ 139.687046421255445, 37.540188440244378 ], [ 139.684508885177024, 37.532610413639702 ], [ 139.687139974130559, 37.521455439716817 ], [ 139.682475187979662, 37.515850198328053 ], [ 139.678822696710199, 37.514817693881525 ], [ 139.674008520576876, 37.522173197635027 ], [ 139.666740117062773, 37.507026586407903 ], [ 139.650094449299445, 37.505482386602921 ], [ 139.633739662755261, 37.51139319783789 ], [ 139.612124526625621, 37.507992639049121 ], [ 139.585105771714098, 37.512897054055827 ], [ 139.590547276235839, 37.528032585635344 ], [ 139.578707756357971, 37.530016999984639 ], [ 139.570199143675609, 37.539063919864077 ], [ 139.570948611689118, 37.543761134668671 ], [ 139.565737223893848, 37.546110028055409 ], [ 139.57027697730075, 37.550598054256852 ], [ 139.56757202253084, 37.56288333299949 ], [ 139.572384033096682, 37.57034802703987 ], [ 139.564194942342738, 37.58844302692421 ], [ 139.564986666801246, 37.59738389155342 ], [ 139.554131362272642, 37.60255972105432 ], [ 139.548539688955543, 37.609636107620304 ], [ 139.552200337075988, 37.618574467637643 ], [ 139.546039533197927, 37.628890865121377 ], [ 139.555303748169536, 37.641080586399994 ], [ 139.549292606768404, 37.649037802252849 ], [ 139.568493255659291, 37.653133919195056 ], [ 139.588659689193378, 37.667247775064823 ], [ 139.59641997420249, 37.66586444059152 ], [ 139.609411673110344, 37.684271107725522 ], [ 139.617649195953732, 37.68880446785198 ], [ 139.627203384728432, 37.688284441174062 ], [ 139.628207833025158, 37.692406413625122 ], [ 139.621547808284845, 37.700111694299324 ], [ 139.624091996648417, 37.710249468438292 ], [ 139.632750609952723, 37.716428080691401 ], [ 139.631767561923539, 37.71985141391167 ], [ 139.64961260693633, 37.729061999611645 ], [ 139.658865357350464, 37.744954441094649 ], [ 139.657887664783971, 37.755007467620601 ], [ 139.666712192213936, 37.757029693965251 ], [ 139.680305006071194, 37.775394360061739 ], [ 139.696559689078413, 37.785122081119198 ], [ 139.705361244226083, 37.796178440782455 ], [ 139.713539973890761, 37.798992306150069 ], [ 139.721621244924563, 37.809422838393346 ], [ 139.741505383067079, 37.817712774624908 ], [ 139.735978171355555, 37.827919414349537 ], [ 139.720555615749163, 37.839568027042844 ], [ 139.714649559229883, 37.852921613141973 ], [ 139.680829195710885, 37.846950864790642 ], [ 139.69728269813811, 37.848733613365596 ], [ 139.706407833854541, 37.855993585735462 ], [ 139.714022335162667, 37.854592171291699 ], [ 139.714743747925695, 37.854400774875899 ] ] ] } },
{ "type": "Feature", "properties": { "code": "070032", "name": "会津中部", "PrefCode": "07", "regioncode": "070032" }, "geometry": { "type": "Polygon", "coordinates": [ [ [ 139.804515964939924, 37.637521837762677 ], [ 139.810610168624407, 37.630477946400163 ], [ 139.809399299837878, 37.623426864957878 ], [ 139.795996355347597, 37.628614945923061 ], [ 139.78612427961184, 37.625931919322682 ], [ 139.799518053715246, 37.622708559352589 ], [ 139.801192749645793, 37.612853838733713 ], [ 139.794595693636438, 37.6083946942598 ], [ 139.794417081982829, 37.604103613291159 ], [ 139.80381719800539, 37.605542197614398 ], [ 139.804158612130323, 37.612446333431592 ], [ 139.818213774646097, 37.609125199168659 ], [ 139.82551968888265, 37.602952973900699 ], [ 139.830617003971611, 37.605435720582079 ], [ 139.838561582551051, 37.600301892118694 ], [ 139.836099221701829, 37.594427134704574 ], [ 139.848767108015636, 37.594204333063544 ], [ 139.852918586323767, 37.589520722303519 ], [ 139.857767834218294, 37.592543748395315 ], [ 139.863552826701607, 37.5817798923282 ], [ 139.875660195261844, 37.583801532314908 ], [ 139.874417717104052, 37.586898468289746 ], [ 139.880442556079174, 37.593383171096548 ], [ 139.890697912079077, 37.589316774949282 ], [ 139.897459636653025, 37.58924733289814 ], [ 139.894556860710622, 37.590680107600917 ], [ 139.89823357971602, 37.593083999926705 ], [ 139.905311673195229, 37.589545666799154 ], [ 139.903528585575827, 37.585368198083927 ], [ 139.908125551153375, 37.581662359930021 ], [ 139.929632113931007, 37.5784610270548 ], [ 139.929874060339671, 37.575010467758943 ], [ 139.93637827483758, 37.575310198307079 ], [ 139.939579947656512, 37.570846891770714 ], [ 139.952975615732157, 37.569139694341459 ], [ 139.950730584149255, 37.566668585786658 ], [ 139.955024227286344, 37.565973026733843 ], [ 139.960277277074738, 37.556582251969417 ], [ 139.983343281367411, 37.552572558976465 ], [ 139.985441946488663, 37.556451441081208 ], [ 140.000645057623387, 37.544518171376581 ], [ 140.008929585332112, 37.546395918936582 ], [ 140.01610267150113, 37.542998171428508 ], [ 140.013639558818682, 37.535450693894461 ], [ 140.017645421599013, 37.532827640383346 ], [ 140.014358715182652, 37.530568198063918 ], [ 140.019266809315809, 37.528296801955889 ], [ 140.014781997291379, 37.523145999688211 ], [ 140.024186251994024, 37.524523225066844 ], [ 140.022592308887965, 37.515561586997705 ], [ 140.031418170911934, 37.503416892075961 ], [ 140.113355357563819, 37.469848531184823 ], [ 140.132541050728946, 37.463879080555159 ], [ 140.158471920043098, 37.46415433335585 ], [ 140.166522218425712, 37.457781838061408 ], [ 140.175790947094583, 37.457992107649716 ], [ 140.181716225723335, 37.448703774659521 ], [ 140.198528392171625, 37.449003197639513 ], [ 140.200599073988087, 37.454096285914943 ], [ 140.212177823747652, 37.452226979391639 ], [ 140.216103701724478, 37.449556395811044 ], [ 140.203770328138148, 37.441839590324889 ], [ 140.195612159673487, 37.429939110801399 ], [ 140.181250290568528, 37.427635498279699 ], [ 140.184201292655644, 37.421394889462647 ], [ 140.180170475487103, 37.412070979292309 ], [ 140.191323654363259, 37.399925697113304 ], [ 140.198215979384031, 37.378506004348651 ], [ 140.183702670741695, 37.368801892293561 ], [ 140.180941777241287, 37.360318278066131 ], [ 140.173817782364836, 37.355771892159169 ], [ 140.175073306987542, 37.346576891710242 ], [ 140.168039078840479, 37.346170224576269 ], [ 140.166760414661439, 37.338314945978027 ], [ 140.153586939385832, 37.331446053692503 ], [ 140.145553838738692, 37.335630775439995 ], [ 140.134558755282342, 37.330029668234658 ], [ 140.129865939961178, 37.334364666696047 ], [ 140.121372801913367, 37.328267441289427 ], [ 140.115571672894475, 37.328940504700597 ], [ 140.114299973964648, 37.319480775317572 ], [ 140.10892243822002, 37.322690223674954 ], [ 140.10657963684082, 37.319104945936544 ], [ 140.095638170964889, 37.318189667219428 ], [ 140.087763968832178, 37.322838279063376 ], [ 140.079272776017888, 37.31765910768172 ], [ 140.072283281048612, 37.318094386746623 ], [ 140.063700998602258, 37.327039972816522 ], [ 140.041817717014055, 37.332224693914554 ], [ 140.025646472206972, 37.342100802210325 ], [ 140.019526394127865, 37.336883027429849 ], [ 140.019212476774442, 37.331143892276884 ], [ 140.014455187257113, 37.330110558655406 ], [ 140.013037638975902, 37.323046946059776 ], [ 139.998541672860028, 37.330941107745957 ], [ 139.989832387254978, 37.327376107921111 ], [ 139.97754447529735, 37.33128889176902 ], [ 139.973424136914446, 37.328896946037275 ], [ 139.970909689130963, 37.333057774596682 ], [ 139.953037835327905, 37.336879999412474 ], [ 139.94552966266383, 37.326894720614916 ], [ 139.917551971446414, 37.325053278685914 ], [ 139.921009495092221, 37.325839946256565 ], [ 139.920670363446561, 37.329934946240826 ], [ 139.914665057746333, 37.330859639960465 ], [ 139.910023968731252, 37.340594613150927 ], [ 139.910966523886032, 37.3485676669643 ], [ 139.919749079056828, 37.348772108046376 ], [ 139.917848274678249, 37.354977947274506 ], [ 139.885850468224589, 37.342854333360833 ], [ 139.883153021894486, 37.355867332711284 ], [ 139.874983280953757, 37.361202054431317 ], [ 139.855445331436954, 37.35943735974638 ], [ 139.852238366107827, 37.357043466982475 ], [ 139.851797755861753, 37.346365721001291 ], [ 139.832472606625515, 37.343936865294154 ], [ 139.836086743608348, 37.331371613209456 ], [ 139.828889728278455, 37.325468586506133 ], [ 139.831993892104492, 37.318089134705872 ], [ 139.816634306128435, 37.313847504758598 ], [ 139.811462581133242, 37.307770026665423 ], [ 139.803549196438325, 37.308904505238786 ], [ 139.791949338691097, 37.303264532032586 ], [ 139.791903994873564, 37.287931774631772 ], [ 139.778241088755294, 37.281391251804905 ], [ 139.744234474741233, 37.291724891990214 ], [ 139.741895006249592, 37.287612413681984 ], [ 139.73532855956546, 37.287466027435244 ], [ 139.730815965684315, 37.279167721213412 ], [ 139.707793799744081, 37.268033027002673 ], [ 139.709225422415329, 37.259565278614787 ], [ 139.697392217576862, 37.247609170626788 ], [ 139.690210506010089, 37.25002417137847 ], [ 139.672154228235058, 37.246411973333977 ], [ 139.666048029393096, 37.238095026864073 ], [ 139.66279661597116, 37.241147252144003 ], [ 139.657338519856921, 37.239446973199279 ], [ 139.653889831150877, 37.229410891699331 ], [ 139.635525810767604, 37.232173666581502 ], [ 139.634797172851336, 37.227613108258367 ], [ 139.622894578122327, 37.228227864124676 ], [ 139.619140895136297, 37.221097027206099 ], [ 139.620948663749914, 37.214944532164452 ], [ 139.611893579824937, 37.213305387333833 ], [ 139.614918028644183, 37.210858440864399 ], [ 139.610021025849733, 37.206402891880032 ], [ 139.599591218459977, 37.20930122517143 ], [ 139.590252606172953, 37.222800387228119 ], [ 139.592208223330886, 37.2321628927034 ], [ 139.589712672102223, 37.236044000630159 ], [ 139.593568002761231, 37.238635081443931 ], [ 139.587272724156946, 37.252698134611251 ], [ 139.594307807559289, 37.257758108050325 ], [ 139.592561996838754, 37.266632558645711 ], [ 139.597329585392117, 37.27453422517442 ], [ 139.578378948929412, 37.287656973290723 ], [ 139.578182048662711, 37.30231946776928 ], [ 139.572257886092643, 37.309576108150907 ], [ 139.575535745878028, 37.322772505346904 ], [ 139.567128197208604, 37.323218332560032 ], [ 139.565509585698919, 37.327748586428186 ], [ 139.560320947154082, 37.32713833256804 ], [ 139.544781166717485, 37.33629053158279 ], [ 139.556521828619566, 37.3450091080839 ], [ 139.546373475755331, 37.353867441029649 ], [ 139.554256886945836, 37.360293559300374 ], [ 139.522874553118186, 37.366296026740315 ], [ 139.52065014298978, 37.374055440306392 ], [ 139.514186252293825, 37.379037107076897 ], [ 139.50823897534849, 37.372336000406165 ], [ 139.50821338603896, 37.366177693945474 ], [ 139.497835577450019, 37.369362386664875 ], [ 139.474659000612405, 37.346843000204331 ], [ 139.462231751294325, 37.346892694042651 ], [ 139.447825498847806, 37.334418278880491 ], [ 139.42915736731868, 37.333242441385607 ], [ 139.429464384174025, 37.33962272121164 ], [ 139.416717392593682, 37.339850225407645 ], [ 139.416125252878146, 37.34537769432518 ], [ 139.404158248704334, 37.346345747957969 ], [ 139.406704721345932, 37.350729081382042 ], [ 139.399246005099144, 37.363137945859592 ], [ 139.381596031131949, 37.354614360364508 ], [ 139.373275083578278, 37.371950972759237 ], [ 139.365265886911175, 37.379040386904364 ], [ 139.364256200063664, 37.382016224669087 ], [ 139.374916082811069, 37.385944000215488 ], [ 139.381365914405478, 37.401748917878308 ], [ 139.380288975355938, 37.410248054404235 ], [ 139.377001997344337, 37.412095838352286 ], [ 139.391236277832036, 37.419991892212124 ], [ 139.390236550076793, 37.432130441166976 ], [ 139.402544668901442, 37.444662585609876 ], [ 139.397512697652928, 37.459839171240787 ], [ 139.406329689663494, 37.466046053682476 ], [ 139.404623307020074, 37.475051279193224 ], [ 139.409941671870683, 37.483576252342232 ], [ 139.407890830897145, 37.492461440842874 ], [ 139.414032243593283, 37.496800891847727 ], [ 139.410625575709787, 37.503053333044932 ], [ 139.41424919604367, 37.510155801748908 ], [ 139.457198754818705, 37.517867559340459 ], [ 139.47611516218501, 37.502554360395493 ], [ 139.485794111209316, 37.510276864885441 ], [ 139.496737223743935, 37.512570252115495 ], [ 139.513664774110111, 37.50858002674687 ], [ 139.523437366841108, 37.514539505693676 ], [ 139.543099974084612, 37.512054559270553 ], [ 139.564663943286405, 37.501677107712396 ], [ 139.587612477234075, 37.51337317133482 ], [ 139.592302191692852, 37.509635134753694 ], [ 139.598546976961529, 37.511862640348625 ], [ 139.613372309884312, 37.508023197112891 ], [ 139.633739662755261, 37.51139319783789 ], [ 139.646357223906875, 37.509212946220543 ], [ 139.648579728371828, 37.505568225093555 ], [ 139.666087861265851, 37.506769359618318 ], [ 139.674008520576876, 37.522173197635027 ], [ 139.679236303912376, 37.514615748418123 ], [ 139.687139974130559, 37.521455439716817 ], [ 139.684508885177024, 37.532610413639702 ], [ 139.693448716485136, 37.552788415153316 ], [ 139.698994331922904, 37.556325640316118 ], [ 139.695445720443672, 37.562398108286118 ], [ 139.700989389748656, 37.569385333366483 ], [ 139.699702191902702, 37.575151693695773 ], [ 139.719007834843751, 37.569555919470133 ], [ 139.725372049180805, 37.574887864983054 ], [ 139.726877951356414, 37.582739774720892 ], [ 139.718151802563739, 37.588613640007509 ], [ 139.718871556077488, 37.594643892002068 ], [ 139.726735746057898, 37.587980054136267 ], [ 139.731567470662299, 37.593370585983791 ], [ 139.7490273927001, 37.598462837889713 ], [ 139.751466835226324, 37.595436720828047 ], [ 139.75440216572747, 37.599153359839761 ], [ 139.761005252590394, 37.593625612132371 ], [ 139.76797394264338, 37.596970026245742 ], [ 139.769010894237454, 37.590530053918883 ], [ 139.787582218244893, 37.593013639667788 ], [ 139.788382529430237, 37.595539197675862 ], [ 139.782262723845747, 37.597590865126392 ], [ 139.781437496942999, 37.611471667083833 ], [ 139.77741386535763, 37.614644720777278 ], [ 139.78276313900767, 37.630349694083179 ], [ 139.804487912387344, 37.637530721265819 ], [ 139.804515964939924, 37.637521837762677 ] ] ] } },
{ "type": "Feature", "properties": { "code": "070033", "name": "会津南部", "PrefCode": "07", "regioncode": "070033" }, "geometry": { "type": "MultiPolygon", "coordinates": [ [ [ [ 140.302632555148421, 37.222992198231395 ], [ 140.300097522782494, 37.222820559021613 ], [ 140.302394501005438, 37.225808053798687 ], [ 140.302646446076665, 37.223116640120907 ], [ 140.302632555148421, 37.222992198231395 ] ] ], [ [ [ 139.365085330923307, 37.468951079728583 ], [ 139.373852308936989, 37.463832775362334 ], [ 139.397512697652928, 37.459839171240787 ], [ 139.40253717305211, 37.444817305874039 ], [ 139.390236550076793, 37.432130441166976 ], [ 139.391236277832036, 37.419991892212124 ], [ 139.377001997344337, 37.412095838352286 ], [ 139.380288975355938, 37.410248054404235 ], [ 139.381365914405478, 37.401748917878308 ], [ 139.374916082811069, 37.385944000215488 ], [ 139.36418702960782, 37.381918721072168 ], [ 139.374453411295917, 37.370138468315702 ], [ 139.381596031131949, 37.354614360364508 ], [ 139.399170726447892, 37.363170720752237 ], [ 139.406704721345932, 37.350729081382042 ], [ 139.404158248704334, 37.346345747957969 ], [ 139.416125252878146, 37.34537769432518 ], [ 139.416717392593682, 37.339850225407645 ], [ 139.429464384174025, 37.33962272121164 ], [ 139.428993190683286, 37.333286892176375 ], [ 139.443092411885345, 37.33361050512076 ], [ 139.449617173194042, 37.335262441008922 ], [ 139.462231751294325, 37.346892694042651 ], [ 139.471197328394055, 37.345782170710663 ], [ 139.480486808919181, 37.350053802041373 ], [ 139.485612476934307, 37.360479360134434 ], [ 139.490559142990151, 37.359781864841239 ], [ 139.497949222079001, 37.369424054076887 ], [ 139.50821338603896, 37.366177693945474 ], [ 139.50823897534849, 37.372336000406165 ], [ 139.514186252293825, 37.379037107076897 ], [ 139.52065014298978, 37.374055440306392 ], [ 139.522874553118186, 37.366296026740315 ], [ 139.554256886945836, 37.360293559300374 ], [ 139.546373475755331, 37.353867441029649 ], [ 139.556521828619566, 37.3450091080839 ], [ 139.544781166717485, 37.33629053158279 ], [ 139.560320947154082, 37.32713833256804 ], [ 139.565509585698919, 37.327748586428186 ], [ 139.567128197208604, 37.323218332560032 ], [ 139.575535745878028, 37.322772505346904 ], [ 139.572257886092643, 37.309576108150907 ], [ 139.578182048662711, 37.30231946776928 ], [ 139.578378948929412, 37.287656973290723 ], [ 139.597329585392117, 37.27453422517442 ], [ 139.592561996838754, 37.266632558645711 ], [ 139.594307807559289, 37.257758108050325 ], [ 139.587272724156946, 37.252698134611251 ], [ 139.593568002761231, 37.238635081443931 ], [ 139.589712672102223, 37.236044000630159 ], [ 139.592208223330886, 37.2321628927034 ], [ 139.590252606172953, 37.222800387228119 ], [ 139.599591218459977, 37.20930122517143 ], [ 139.606727665349581, 37.206527612559341 ], [ 139.614846355375107, 37.210687053464824 ], [ 139.611893579824937, 37.213305387333833 ], [ 139.62086197090332, 37.214827026745922 ], [ 139.619140895136297, 37.221097027206099 ], [ 139.622894578122327, 37.228227864124676 ], [ 139.634797172851336, 37.227613108258367 ], [ 139.635525810767604, 37.232173666581502 ], [ 139.653889831150877, 37.229410891699331 ], [ 139.657338519856921, 37.239446973199279 ], [ 139.66279661597116, 37.241147252144003 ], [ 139.666048029393096, 37.238095026864073 ], [ 139.672154228235058, 37.246411973333977 ], [ 139.690210506010089, 37.25002417137847 ], [ 139.697392217576862, 37.247609170626788 ], [ 139.709225422415329, 37.259565278614787 ], [ 139.707793799744081, 37.268033027002673 ], [ 139.730815965684315, 37.279167721213412 ], [ 139.73532855956546, 37.287466027435244 ], [ 139.741895006249592, 37.287612413681984 ], [ 139.744234474741233, 37.291724891990214 ], [ 139.761574578304248, 37.284114612999019 ], [ 139.765620168635905, 37.286146559216377 ], [ 139.778390531797641, 37.281387918917403 ], [ 139.786080336938085, 37.284320694444546 ], [ 139.793060415106083, 37.290710386575142 ], [ 139.792029052798625, 37.303342306302454 ], [ 139.803549196438325, 37.308904505238786 ], [ 139.811462581133242, 37.307770026665423 ], [ 139.816634306128435, 37.313847504758598 ], [ 139.832037781718327, 37.318129694130107 ], [ 139.828889728278455, 37.325468586506133 ], [ 139.836086743608348, 37.331371613209456 ], [ 139.832020636143511, 37.337506612839945 ], [ 139.83263038908126, 37.344088532359933 ], [ 139.851797755861753, 37.346365721001291 ], [ 139.853980895202199, 37.358573197595035 ], [ 139.869302944375477, 37.3615606671911 ], [ 139.883153021894486, 37.355867332711284 ], [ 139.885850468224589, 37.342854333360833 ], [ 139.917848274678249, 37.354977947274506 ], [ 139.919749079056828, 37.348772108046376 ], [ 139.910966523886032, 37.3485676669643 ], [ 139.910023968731252, 37.340594613150927 ], [ 139.914665057746333, 37.330859639960465 ], [ 139.920670363446561, 37.329934946240826 ], [ 139.921009495092221, 37.325839946256565 ], [ 139.917551971446414, 37.325053278685914 ], [ 139.94552966266383, 37.326894720614916 ], [ 139.953037835327905, 37.336879999412474 ], [ 139.970909689130963, 37.333057774596682 ], [ 139.973424136914446, 37.328896946037275 ], [ 139.97754447529735, 37.33128889176902 ], [ 139.989832387254978, 37.327376107921111 ], [ 139.998541672860028, 37.330941107745957 ], [ 140.013037638975902, 37.323046946059776 ], [ 140.014455187257113, 37.330110558655406 ], [ 140.019212476774442, 37.331143892276884 ], [ 140.019526394127865, 37.336883027429849 ], [ 140.025646472206972, 37.342100802210325 ], [ 140.041817717014055, 37.332224693914554 ], [ 140.063700998602258, 37.327039972816522 ], [ 140.072363281140611, 37.31806938739237 ], [ 140.079272776017888, 37.31765910768172 ], [ 140.087763968832178, 37.322838279063376 ], [ 140.094831220084757, 37.318200774746003 ], [ 140.102897108215075, 37.320881892085708 ], [ 140.117397716631331, 37.308594386621678 ], [ 140.104615736027426, 37.285973412742862 ], [ 140.115344746962592, 37.271736885748737 ], [ 140.114626328941995, 37.261702441014904 ], [ 140.099290388840473, 37.251702999693748 ], [ 140.10147836563408, 37.242384668018076 ], [ 140.092788858818835, 37.242091891927316 ], [ 140.086251388290975, 37.246546332946934 ], [ 140.089220699675593, 37.232998027437077 ], [ 140.083096667277459, 37.226426081398586 ], [ 140.071888754762313, 37.223974170671511 ], [ 140.071356860630658, 37.209956694246102 ], [ 140.063613501761779, 37.213182279138948 ], [ 140.048651776758106, 37.203170667292511 ], [ 140.039220000103001, 37.206099584728122 ], [ 140.017622866602096, 37.196944134664136 ], [ 139.999528715677798, 37.199679748221854 ], [ 139.993674423236143, 37.196347305883535 ], [ 139.982140999307717, 37.20193619759749 ], [ 139.959902580839525, 37.180293613259721 ], [ 139.96401500608772, 37.160881252268041 ], [ 139.961261192949792, 37.153295747800598 ], [ 139.933795887770088, 37.153736558595369 ], [ 139.916176354954928, 37.147611559425968 ], [ 139.907341362114266, 37.149089026837146 ], [ 139.902431724744361, 37.154271505025974 ], [ 139.894644189377914, 37.1532587209133 ], [ 139.877567716676822, 37.146126775130597 ], [ 139.866289389943404, 37.147227891553996 ], [ 139.856319299795928, 37.137807612731194 ], [ 139.847653475727384, 37.139471225416798 ], [ 139.838978144925477, 37.133152613002721 ], [ 139.83177313911915, 37.133640945773095 ], [ 139.828319728073097, 37.126651251154385 ], [ 139.815051854559556, 37.116615693959147 ], [ 139.816181803247673, 37.111081278678114 ], [ 139.821297638974897, 37.108324054411639 ], [ 139.818244747297285, 37.096874054294233 ], [ 139.822092995795174, 37.085136865573929 ], [ 139.809419078627684, 37.084850721083967 ], [ 139.787951024820018, 37.090702332646572 ], [ 139.777980999423676, 37.088807333391799 ], [ 139.774910999043414, 37.091894278798009 ], [ 139.76309639398346, 37.075807027072699 ], [ 139.751816887339487, 37.070227865123911 ], [ 139.719248106714872, 37.070949775212 ], [ 139.700439883294052, 37.059327305810541 ], [ 139.692063721863292, 37.062548413878233 ], [ 139.673274422876375, 37.057748973136654 ], [ 139.67123741797252, 37.048202613859587 ], [ 139.664650920903341, 37.039840694092788 ], [ 139.655844772918044, 37.041977360067165 ], [ 139.638757108154095, 37.03213210841011 ], [ 139.62555705611328, 37.033223801737108 ], [ 139.623054227570606, 37.028952972601644 ], [ 139.625524773149778, 37.025986306123173 ], [ 139.616686328711125, 37.015175532424905 ], [ 139.602712671752442, 37.015981081261941 ], [ 139.595773449784929, 37.011740838069272 ], [ 139.582052022982566, 37.015081973254496 ], [ 139.576423332670743, 37.002078387107929 ], [ 139.556802970181025, 36.996841224742752 ], [ 139.554449610761026, 36.992472640200219 ], [ 139.547879027195449, 36.993637639965186 ], [ 139.535260362575741, 36.980584386959947 ], [ 139.523597807692681, 36.981492468402735 ], [ 139.504009390021452, 36.969617559302947 ], [ 139.494164916277896, 36.967906198911976 ], [ 139.484207367176282, 36.97547169436325 ], [ 139.461165253373792, 36.970720585886397 ], [ 139.457082698208069, 36.954214250986922 ], [ 139.434448560053056, 36.941853639633791 ], [ 139.430350116564682, 36.925931972882267 ], [ 139.408003256045504, 36.926569414147195 ], [ 139.393289196239493, 36.910795505108524 ], [ 139.383302438057171, 36.911402694079129 ], [ 139.372975187554971, 36.918407413671275 ], [ 139.34939975419536, 36.913040170667387 ], [ 139.350015057748806, 36.918363505171669 ], [ 139.342386718572243, 36.92753319779888 ], [ 139.33315968876866, 36.924559027377256 ], [ 139.304454553035271, 36.925824279067285 ], [ 139.294399831287251, 36.9346642523534 ], [ 139.281710584276084, 36.931147306003425 ], [ 139.266135006325499, 36.941153639728725 ], [ 139.254894916067542, 36.932421135427091 ], [ 139.240847367212268, 36.92932113456277 ], [ 139.229952087818674, 36.940048613053079 ], [ 139.241620195115956, 36.941549198436803 ], [ 139.244114668956854, 36.947866945703026 ], [ 139.24183827531624, 36.949909441867305 ], [ 139.249897497671441, 36.955813892197398 ], [ 139.24855031144773, 36.961340000440714 ], [ 139.251418392444975, 36.963827223947305 ], [ 139.247715615583274, 36.970987468696762 ], [ 139.25269313917704, 36.97354719824466 ], [ 139.247176225602402, 36.980485531682007 ], [ 139.255665447102729, 36.988748586278291 ], [ 139.251029663188433, 37.004618801916251 ], [ 139.243366640757927, 37.015134640251517 ], [ 139.24854061046085, 37.030900720691761 ], [ 139.253201480064263, 37.034308775329748 ], [ 139.252821218824238, 37.039812082161916 ], [ 139.259555422344874, 37.043297640373851 ], [ 139.260330169401868, 37.047597081440188 ], [ 139.246997173280988, 37.070867585270889 ], [ 139.248912776003863, 37.081115612695442 ], [ 139.238787782130544, 37.089911413980644 ], [ 139.240906420295119, 37.093563639950048 ], [ 139.235956445633519, 37.101467224732687 ], [ 139.235147588190671, 37.112365559123305 ], [ 139.243836588687714, 37.128082468231355 ], [ 139.245905576181485, 37.14580550581951 ], [ 139.252982891747138, 37.158434080968107 ], [ 139.250295939605962, 37.163714332550455 ], [ 139.253845694123584, 37.164971838379699 ], [ 139.243216200367442, 37.170379612928855 ], [ 139.244430116956437, 37.181599026873641 ], [ 139.22565172494717, 37.198265666827126 ], [ 139.226553138816371, 37.203245918964058 ], [ 139.22135727511818, 37.204826197770842 ], [ 139.220750894638172, 37.209128972624057 ], [ 139.217592554752628, 37.209388972922795 ], [ 139.208385253376832, 37.195772586036071 ], [ 139.196583800002486, 37.194028413880233 ], [ 139.194399104834929, 37.204665333338539 ], [ 139.16483688821188, 37.236377801994024 ], [ 139.174748392024753, 37.256434775444575 ], [ 139.2123210886474, 37.286239252339669 ], [ 139.217706977295279, 37.305245919263825 ], [ 139.21574756230018, 37.309068413876275 ], [ 139.224285913763993, 37.319985080946765 ], [ 139.217867911874691, 37.334150387030775 ], [ 139.22814905323628, 37.34327566663876 ], [ 139.233621828984269, 37.343606504736442 ], [ 139.238057470575882, 37.372630306243707 ], [ 139.231461414612681, 37.380232252116798 ], [ 139.231501504590824, 37.387877504843004 ], [ 139.222605694197455, 37.39325722594026 ], [ 139.212133995487534, 37.392094442104849 ], [ 139.204588520743755, 37.406154999653552 ], [ 139.197246328755114, 37.410766640368195 ], [ 139.208433061336791, 37.416790532357254 ], [ 139.207531750889643, 37.428908837572862 ], [ 139.223586109911139, 37.449171027321086 ], [ 139.235521413882225, 37.444819332945883 ], [ 139.251450440685403, 37.452520694374584 ], [ 139.258557977069017, 37.447010108429822 ], [ 139.278822606677977, 37.45320310803703 ], [ 139.283967082215099, 37.449909776315167 ], [ 139.304799804567438, 37.458839108038433 ], [ 139.310724552596071, 37.455645504836241 ], [ 139.326471115050026, 37.462386252723434 ], [ 139.335142555384664, 37.457788720573035 ], [ 139.345728780958552, 37.460245639624645 ], [ 139.351640778399315, 37.468074197566239 ], [ 139.364769780401161, 37.469047747855313 ], [ 139.365085330923307, 37.468951079728583 ] ] ] ] } }
]
}
