{
"type": "FeatureCollection",
"name": "08_ibaraki_region",
"crs": { "type": "name", "properties": { "name": "urn:ogc:def:crs:OGC:1.3:CRS84" } },
"features": [
{ "type": "Feature", "properties": { "code": "080011", "name": "県央地域", "PrefCode": "08", "regioncode": "080011" }, "geometry": { "type": "MultiPolygon", "coordinates": [ [ [ [ 140.586621892686253, 36.291337252012625 ], [ 140.585001945683302, 36.301816864756574 ], [ 140.58636474683567, 36.291664305763163 ], [ 140.586621892686253, 36.291337252012625 ] ] ], [ [ [ 140.327475745709194, 36.548644892447896 ], [ 140.34292472069933, 36.54379205356048 ], [ 140.368092827322243, 36.528235080784384 ], [ 140.366137249734379, 36.526087305484793 ], [ 140.373288664040729, 36.521348693987079 ], [ 140.38287114099046, 36.501627306155285 ], [ 140.38892143977273, 36.499447864827175 ], [ 140.394560894969345, 36.490664279932616 ], [ 140.386936912108922, 36.484848721291485 ], [ 140.393816135806105, 36.482506224782526 ], [ 140.400424526870438, 36.487060945606231 ], [ 140.407995668265585, 36.482967891754868 ], [ 140.407962503067097, 36.465450720674255 ], [ 140.410798638346591, 36.466087107933731 ], [ 140.417993359505999, 36.457179639628691 ], [ 140.416317497154864, 36.455059387181052 ], [ 140.426380025917524, 36.445738026588685 ], [ 140.432922866297304, 36.447396639943008 ], [ 140.432820078284067, 36.451039666747249 ], [ 140.448288002889058, 36.45202880138811 ], [ 140.45444105101376, 36.442590224958963 ], [ 140.454212944272058, 36.436700000104963 ], [ 140.459055226917258, 36.435020251783271 ], [ 140.456411828942805, 36.430487774791004 ], [ 140.461167418741411, 36.427063026937219 ], [ 140.451919000361613, 36.425268892045779 ], [ 140.461622360583533, 36.410501891848867 ], [ 140.474557445369896, 36.399073774934834 ], [ 140.483907030285309, 36.407547919301066 ], [ 140.483539221957585, 36.400082917692544 ], [ 140.488519532550413, 36.397715668243563 ], [ 140.484248301418006, 36.383456533192486 ], [ 140.489276694264049, 36.382226775045694 ], [ 140.492772243943932, 36.374670360049151 ], [ 140.502703476184593, 36.382331440843359 ], [ 140.521760803718166, 36.36811719815023 ], [ 140.54935880656376, 36.361338505167907 ], [ 140.552534086079277, 36.356497666833889 ], [ 140.55541632870063, 36.358016252148389 ], [ 140.587467859754042, 36.336294225298332 ], [ 140.598175642192246, 36.335450775433003 ], [ 140.594663800394187, 36.33405699893143 ], [ 140.592794941733246, 36.319096079720339 ], [ 140.585369663179449, 36.309151251529102 ], [ 140.578613968559921, 36.306893224742566 ], [ 140.579800389276556, 36.300877054332659 ], [ 140.578761894445961, 36.308298532351444 ], [ 140.584803411348389, 36.310780504716547 ], [ 140.571481090180214, 36.309082224964754 ], [ 140.571458106206705, 36.304569586117566 ], [ 140.568985643272867, 36.305910306215708 ], [ 140.574621089291895, 36.301501441038738 ], [ 140.571062049274246, 36.302763224942908 ], [ 140.561823993782355, 36.296373414101822 ], [ 140.55975236138238, 36.290169612737486 ], [ 140.56228635413197, 36.289353504960332 ], [ 140.558582723813743, 36.289821612877176 ], [ 140.559562802281562, 36.255784099056996 ], [ 140.556983087099866, 36.260345865169597 ], [ 140.543675188359316, 36.261734802419255 ], [ 140.546949144187693, 36.266019225706771 ], [ 140.543741336193762, 36.26358061325476 ], [ 140.539070752113616, 36.266628693559426 ], [ 140.540601855091609, 36.263189532271156 ], [ 140.543017173303951, 36.264509225320523 ], [ 140.540416004794906, 36.261329252243229 ], [ 140.536850194680824, 36.267217027343975 ], [ 140.536796005131578, 36.263737586320588 ], [ 140.526112580830954, 36.266418172160968 ], [ 140.522407392886976, 36.278233171123986 ], [ 140.496227977039553, 36.27597322428494 ], [ 140.493511335579683, 36.250346892395214 ], [ 140.496330220063669, 36.245968837991541 ], [ 140.47756252908755, 36.242325278788655 ], [ 140.477858300820003, 36.236136945763462 ], [ 140.451490310629424, 36.237537001331589 ], [ 140.447279948311007, 36.228821197440368 ], [ 140.441732944319938, 36.229976197643452 ], [ 140.444224112253096, 36.23212702704069 ], [ 140.441138300891907, 36.23884702756834 ], [ 140.432480636372361, 36.228143721055915 ], [ 140.420691672782482, 36.231864306292778 ], [ 140.415830415341475, 36.217471558965315 ], [ 140.420307056125807, 36.211262108059884 ], [ 140.442487717434233, 36.20270289232468 ], [ 140.449844578264788, 36.186279838243991 ], [ 140.441269196316398, 36.180224026617566 ], [ 140.434401413794262, 36.15493464012161 ], [ 140.420313139140148, 36.142785504347614 ], [ 140.40712021962247, 36.136819440564807 ], [ 140.394725836927933, 36.155945306330864 ], [ 140.373125109736065, 36.154266198326468 ], [ 140.363256446028231, 36.157139838033174 ], [ 140.366642632751336, 36.130509612728474 ], [ 140.345811945564947, 36.130679107954506 ], [ 140.330270272055486, 36.147234667246153 ], [ 140.307442437918212, 36.159579973037353 ], [ 140.308602555263747, 36.173057721336818 ], [ 140.315608170580617, 36.174302413625526 ], [ 140.316301555972132, 36.177977693715661 ], [ 140.309620116575161, 36.178572721154183 ], [ 140.308594616948085, 36.185676585606018 ], [ 140.317080195294807, 36.183845468793379 ], [ 140.330756718947441, 36.188227359704911 ], [ 140.341618171241635, 36.184793170768273 ], [ 140.344885965814683, 36.185446225163219 ], [ 140.343850999024426, 36.189124559351001 ], [ 140.335636524006418, 36.193700666952282 ], [ 140.326990895113795, 36.191713468301998 ], [ 140.313818948685594, 36.201345441239198 ], [ 140.311763139857135, 36.209560414481587 ], [ 140.300264747220353, 36.210329081222199 ], [ 140.272122723784719, 36.227684666614152 ], [ 140.280607172583018, 36.254881559236594 ], [ 140.296023645175183, 36.253814278905907 ], [ 140.297582334856884, 36.263159837556486 ], [ 140.315665280228586, 36.264809224765941 ], [ 140.303122750414673, 36.273359774633946 ], [ 140.290840389972118, 36.268425666711209 ], [ 140.275267224003301, 36.270564027008277 ], [ 140.268069105205086, 36.267974332949166 ], [ 140.258655189085744, 36.272133801733617 ], [ 140.248957133964609, 36.284214640293442 ], [ 140.237882048617735, 36.283376332751629 ], [ 140.22549705574454, 36.294353304761273 ], [ 140.222495161922211, 36.304454387460055 ], [ 140.212343255836686, 36.31719994642043 ], [ 140.202063502129022, 36.322090224983924 ], [ 140.192668391732923, 36.317606919323907 ], [ 140.180543891087723, 36.321074170936299 ], [ 140.182954501349172, 36.325342224763915 ], [ 140.176969532917724, 36.335091946835917 ], [ 140.164983087199744, 36.336338918906051 ], [ 140.162326419728515, 36.341735558049606 ], [ 140.16801046690955, 36.360059135021118 ], [ 140.179442217984047, 36.361929107942046 ], [ 140.177705330336835, 36.372842441225714 ], [ 140.191206614793487, 36.384784053940962 ], [ 140.185157470740705, 36.398337666350301 ], [ 140.203261088828299, 36.420743170760773 ], [ 140.2013467190759, 36.438143694376038 ], [ 140.206187366753625, 36.446479802700765 ], [ 140.202606549652614, 36.454073667265959 ], [ 140.207312411438693, 36.456875891809034 ], [ 140.216618754252181, 36.478978053994069 ], [ 140.227165252274631, 36.48594497418128 ], [ 140.231236446305047, 36.497420774948864 ], [ 140.229458144877526, 36.502081333386855 ], [ 140.241155446866401, 36.502657973286887 ], [ 140.242499390134867, 36.507579891798628 ], [ 140.249077781614346, 36.507726558633806 ], [ 140.247386692841701, 36.514970134564123 ], [ 140.2601540342813, 36.517405945627956 ], [ 140.254550945869482, 36.522404559223105 ], [ 140.263781855348384, 36.524365360073375 ], [ 140.265539389631158, 36.529130640067024 ], [ 140.280169441966223, 36.519778108073297 ], [ 140.291035110282223, 36.525485864980737 ], [ 140.290369584988412, 36.529808054398245 ], [ 140.296505135004054, 36.52504222491882 ], [ 140.299639389246522, 36.536589973248738 ], [ 140.315250336633767, 36.536439666857177 ], [ 140.317425965735765, 36.547355198083949 ], [ 140.326766861401552, 36.548948505369253 ], [ 140.327475745709194, 36.548644892447896 ] ] ] ] } },
{ "type": "Feature", "properties": { "code": "080012", "name": "県北地域", "PrefCode": "08", "regioncode": "080012" }, "geometry": { "type": "MultiPolygon", "coordinates": [ [ [ [ 140.596721114687739, 36.338035891942923 ], [ 140.602466329257709, 36.337398467765126 ], [ 140.596483865438131, 36.338136838144635 ], [ 140.596721114687739, 36.338035891942923 ] ] ], [ [ [ 140.625827107934697, 36.427249666838691 ], [ 140.62219916995582, 36.427161775195827 ], [ 140.625013942739315, 36.427262775356837 ], [ 140.625827107934697, 36.427249666838691 ] ] ], [ [ [ 140.627797003628871, 36.437588053645811 ], [ 140.627481283134784, 36.434121413572427 ], [ 140.627478586067923, 36.437590278568564 ], [ 140.627797003628871, 36.437588053645811 ] ] ], [ [ [ 140.637120466836109, 36.402804360632786 ], [ 140.636186860834982, 36.445345198222356 ], [ 140.636223722246996, 36.404888441448463 ], [ 140.637120466836109, 36.402804360632786 ] ] ], [ [ [ 140.630109999676847, 36.486462721077771 ], [ 140.633602554614299, 36.481424306186852 ], [ 140.629798781188811, 36.486273386807397 ], [ 140.630558716411656, 36.494905306434816 ], [ 140.630096251740724, 36.486515198317818 ], [ 140.630109999676847, 36.486462721077771 ] ] ], [ [ [ 140.787757977049068, 36.824272026932533 ], [ 140.785653773902595, 36.822469135342374 ], [ 140.792821244704783, 36.825753945987856 ], [ 140.790245252716318, 36.825000000249872 ], [ 140.787757977049068, 36.824272026932533 ] ] ], [ [ [ 140.800659300386428, 36.861030586192669 ], [ 140.799272918110773, 36.857409667422246 ], [ 140.80063133596741, 36.86103583823342 ], [ 140.800659300386428, 36.861030586192669 ] ] ], [ [ [ 140.587145253150993, 36.944479278695781 ], [ 140.589298884835785, 36.939480666899328 ], [ 140.594460077870394, 36.938053774662023 ], [ 140.592789442378944, 36.926567252176994 ], [ 140.601247911561927, 36.922809837903742 ], [ 140.615519441968786, 36.903270305580179 ], [ 140.627989883026771, 36.902856891732199 ], [ 140.636214112091693, 36.89757194568881 ], [ 140.654959364083425, 36.901041693819138 ], [ 140.656080999438586, 36.897150505391551 ], [ 140.68010325556088, 36.893384748107678 ], [ 140.688183060699771, 36.888426999706326 ], [ 140.695083747616877, 36.888771252091658 ], [ 140.70616442314963, 36.881366333289691 ], [ 140.705487691403846, 36.8783943868915 ], [ 140.721305914536401, 36.870889747663796 ], [ 140.724535446553659, 36.874217134912897 ], [ 140.734207808043948, 36.871592837639412 ], [ 140.740846056600276, 36.875556053669015 ], [ 140.758381439851632, 36.867298748438543 ], [ 140.760106278382068, 36.872364802193943 ], [ 140.759706472176049, 36.866948747586662 ], [ 140.762956471863731, 36.864415973418488 ], [ 140.764644034394792, 36.866690667340492 ], [ 140.764143969068982, 36.86310791939502 ], [ 140.765556277899918, 36.867440666853327 ], [ 140.767219001156036, 36.861516505182635 ], [ 140.771756329091431, 36.864224532036587 ], [ 140.76725630413523, 36.867815640079755 ], [ 140.771468832021014, 36.865032585485494 ], [ 140.771693864880035, 36.868523946123275 ], [ 140.777805616136334, 36.867274197846029 ], [ 140.78641739274849, 36.862108332833373 ], [ 140.78616758806379, 36.856225865531314 ], [ 140.798430246159, 36.85939544064712 ], [ 140.792689689177905, 36.857472225163121 ], [ 140.798420609923255, 36.858130585558115 ], [ 140.795804448816284, 36.856144306014983 ], [ 140.798773645087749, 36.851201251636496 ], [ 140.797119273835506, 36.841506532100823 ], [ 140.802388755137031, 36.839421640096646 ], [ 140.802356304000341, 36.832396026555443 ], [ 140.805748494597424, 36.831248640012802 ], [ 140.79693763866112, 36.826496694267064 ], [ 140.786133994788088, 36.829470360169012 ], [ 140.786185135635606, 36.825525027158335 ], [ 140.782628274675176, 36.826695802369443 ], [ 140.784326861095792, 36.822453972772678 ], [ 140.781349493584344, 36.825464667360563 ], [ 140.772801219001167, 36.822600776304853 ], [ 140.748451919920285, 36.784364334146744 ], [ 140.730603838796242, 36.742708693851171 ], [ 140.727025447166739, 36.718146080976908 ], [ 140.729300920800938, 36.71551946794915 ], [ 140.725747197575174, 36.714782837757809 ], [ 140.716646615149216, 36.693287135193202 ], [ 140.714254358252106, 36.674125774984589 ], [ 140.716617302646455, 36.66168738666363 ], [ 140.708403306967057, 36.654887467882361 ], [ 140.702952632957704, 36.65511589208478 ], [ 140.699004941924613, 36.649577721234891 ], [ 140.701575474128845, 36.649599946180615 ], [ 140.693632723871133, 36.644578414262469 ], [ 140.689506640619015, 36.620975467943538 ], [ 140.680025305023833, 36.614833530942747 ], [ 140.671403839115897, 36.597452613447388 ], [ 140.666383838743172, 36.594646055071451 ], [ 140.662325693875687, 36.577389054261516 ], [ 140.660136199925773, 36.575702640164764 ], [ 140.662226445594001, 36.578243918322244 ], [ 140.659324423283579, 36.578970171236449 ], [ 140.652843280892739, 36.572941135125348 ], [ 140.643717912251873, 36.551508108112728 ], [ 140.646470778403796, 36.541183748031585 ], [ 140.638196548831729, 36.537466865303657 ], [ 140.631012970272423, 36.501941504996523 ], [ 140.629555252872706, 36.498647252368869 ], [ 140.629097197577721, 36.5031167759185 ], [ 140.626067950875267, 36.500025639671605 ], [ 140.628315472681038, 36.495158999788089 ], [ 140.618916977236722, 36.492128557886701 ], [ 140.620704280877931, 36.486492135203946 ], [ 140.612140026241264, 36.486585081036708 ], [ 140.623413087444078, 36.481926171055989 ], [ 140.628210052352074, 36.4835197751176 ], [ 140.619251997182005, 36.480194441020672 ], [ 140.614437600714723, 36.483542604407717 ], [ 140.609734357754519, 36.468945198362292 ], [ 140.616498365707116, 36.465299414236654 ], [ 140.61047061023055, 36.467674612793189 ], [ 140.61480917000722, 36.46550597322215 ], [ 140.610032892204231, 36.464331667272688 ], [ 140.608366666088841, 36.452014387054362 ], [ 140.611743191395249, 36.442848135233305 ], [ 140.60935438429749, 36.440445251946869 ], [ 140.632885330893373, 36.441515559395611 ], [ 140.62730741900225, 36.441500865372689 ], [ 140.627203255925565, 36.431197586299618 ], [ 140.610029104259866, 36.431300558673911 ], [ 140.608271414394267, 36.428348080799367 ], [ 140.623581025044359, 36.426335666957527 ], [ 140.618125577433489, 36.426248694421759 ], [ 140.618052750334186, 36.421490722319049 ], [ 140.612610804245264, 36.421226550065285 ], [ 140.612583851563613, 36.414879251975947 ], [ 140.612483333439172, 36.418188377591605 ], [ 140.608878677109374, 36.418242396269648 ], [ 140.608655110145264, 36.41354664016535 ], [ 140.615610414688945, 36.410867279201625 ], [ 140.613273696324086, 36.407804054313715 ], [ 140.609729948378458, 36.41045766678792 ], [ 140.609694837946449, 36.405178864912727 ], [ 140.614977951171568, 36.405130386957865 ], [ 140.619004617069436, 36.411182080588617 ], [ 140.611731946272357, 36.39915169399552 ], [ 140.616042502959203, 36.386810413569776 ], [ 140.621473605922233, 36.383496080879468 ], [ 140.624660000158997, 36.385837559355934 ], [ 140.627357886257528, 36.377133720944528 ], [ 140.621075473354495, 36.359634135207216 ], [ 140.609826781980473, 36.353507802343245 ], [ 140.607005227409331, 36.346006999623398 ], [ 140.609415810691189, 36.344956197570525 ], [ 140.603757197236973, 36.337767251857258 ], [ 140.604353216627715, 36.34341261290183 ], [ 140.600719363807684, 36.33815391986758 ], [ 140.596588612174742, 36.341698134561341 ], [ 140.594334655719877, 36.336309386968708 ], [ 140.588508690124058, 36.336006972843563 ], [ 140.55541632870063, 36.358016252148389 ], [ 140.552534086079277, 36.356497666833889 ], [ 140.552905472809357, 36.35953125186586 ], [ 140.521760803718166, 36.36811719815023 ], [ 140.502703476184593, 36.382331440843359 ], [ 140.492772243943932, 36.374670360049151 ], [ 140.489276694264049, 36.382226775045694 ], [ 140.484248301418006, 36.383456533192486 ], [ 140.488519532550413, 36.397715668243563 ], [ 140.483539221957585, 36.400082917692544 ], [ 140.483907030285309, 36.407547919301066 ], [ 140.474557445369896, 36.399073774934834 ], [ 140.461622360583533, 36.410501891848867 ], [ 140.451919000361613, 36.425268892045779 ], [ 140.461167418741411, 36.427063026937219 ], [ 140.456411828942805, 36.430487774791004 ], [ 140.459055226917258, 36.435020251783271 ], [ 140.454212944272058, 36.436700000104963 ], [ 140.45444105101376, 36.442590224958963 ], [ 140.44848243811407, 36.451817136052057 ], [ 140.432820078284067, 36.451039666747249 ], [ 140.432922866297304, 36.447396639943008 ], [ 140.426380025917524, 36.445738026588685 ], [ 140.416317497154864, 36.455059387181052 ], [ 140.417993359505999, 36.457179639628691 ], [ 140.410798638346591, 36.466087107933731 ], [ 140.407962503067097, 36.465450720674255 ], [ 140.408036782571571, 36.48292705533936 ], [ 140.400424526870438, 36.487060945606231 ], [ 140.393816135806105, 36.482506224782526 ], [ 140.386936912108922, 36.484848721291485 ], [ 140.394453670600456, 36.488010108080061 ], [ 140.391324501124927, 36.496564802024068 ], [ 140.38287114099046, 36.501627306155285 ], [ 140.373288664040729, 36.521348693987079 ], [ 140.366137249734379, 36.526087305484793 ], [ 140.368092827322243, 36.528235080784384 ], [ 140.345709727721783, 36.54227010837883 ], [ 140.324971581673253, 36.549716837562073 ], [ 140.317371529772345, 36.547285747938986 ], [ 140.315250336633767, 36.536439666857177 ], [ 140.299639389246522, 36.536589973248738 ], [ 140.296505135004054, 36.52504222491882 ], [ 140.290369584988412, 36.529808054398245 ], [ 140.291035110282223, 36.525485864980737 ], [ 140.280169441966223, 36.519778108073297 ], [ 140.266860533287058, 36.529715640964127 ], [ 140.263781855348384, 36.524365360073375 ], [ 140.254550945869482, 36.522404559223105 ], [ 140.247157107614498, 36.537715946034155 ], [ 140.24697855981276, 36.548259252362641 ], [ 140.251498366256669, 36.554836999927659 ], [ 140.243781970861278, 36.562819774513059 ], [ 140.246967029604775, 36.567534224824669 ], [ 140.242598170769043, 36.574286440866615 ], [ 140.245650726100166, 36.582120586296071 ], [ 140.243834940929901, 36.588437532266369 ], [ 140.249170894721033, 36.599546387156067 ], [ 140.248486225558963, 36.610676359926117 ], [ 140.2397054474485, 36.624991108153154 ], [ 140.234695667870824, 36.623758054890345 ], [ 140.233766549486745, 36.63440138741413 ], [ 140.242820244858422, 36.636706386690435 ], [ 140.239109416366546, 36.645564467825977 ], [ 140.240930310585441, 36.650922802145658 ], [ 140.229308611902979, 36.662278386938056 ], [ 140.231689780159286, 36.669793971814386 ], [ 140.221565836694026, 36.674286224829473 ], [ 140.221525031754823, 36.67744483810884 ], [ 140.22507199657548, 36.677512891606739 ], [ 140.220066161424256, 36.684463999913703 ], [ 140.231410778084978, 36.699730107658411 ], [ 140.243898079632686, 36.697620081401681 ], [ 140.246697003663826, 36.702271170877907 ], [ 140.268189105343026, 36.702215838290329 ], [ 140.271212217769744, 36.70680944130271 ], [ 140.292259610992346, 36.712564107747426 ], [ 140.287104331899513, 36.718189973288702 ], [ 140.283336329008421, 36.734138613406344 ], [ 140.262206278197255, 36.748283666757857 ], [ 140.254889339171768, 36.760022864563609 ], [ 140.256606030743797, 36.765964504558269 ], [ 140.261076355589353, 36.767510054245633 ], [ 140.253671893643059, 36.774515891695103 ], [ 140.25742469529348, 36.777232278646807 ], [ 140.253680830206235, 36.783377559326937 ], [ 140.263491192664446, 36.785937802387707 ], [ 140.266390946884712, 36.790489198417845 ], [ 140.263294942607558, 36.810269748150404 ], [ 140.267401414343908, 36.817677224624276 ], [ 140.262936809186499, 36.836045306345852 ], [ 140.255425110280726, 36.840530612997441 ], [ 140.256807393446479, 36.84784113536017 ], [ 140.251536004682976, 36.852457000190441 ], [ 140.256727886183057, 36.873249504860837 ], [ 140.248385187626354, 36.921314865188947 ], [ 140.256685642328648, 36.932097053935934 ], [ 140.272974889879379, 36.930154801602839 ], [ 140.285581672656122, 36.935545278591803 ], [ 140.303000337395702, 36.926884586054882 ], [ 140.321856667351426, 36.907783054144659 ], [ 140.326526031051571, 36.891302170958454 ], [ 140.346381388190593, 36.885044531679853 ], [ 140.365211829362465, 36.884324946339234 ], [ 140.372433190239576, 36.871254359800901 ], [ 140.368407276174935, 36.861230251874701 ], [ 140.376889778840336, 36.84704855924366 ], [ 140.377206082095086, 36.837924694269304 ], [ 140.392869001303438, 36.83244683825103 ], [ 140.41509866397223, 36.832026414187737 ], [ 140.423066445959762, 36.820519171322758 ], [ 140.4309698059119, 36.817039386758324 ], [ 140.438501024602715, 36.821541838085409 ], [ 140.46497435778042, 36.791315359716123 ], [ 140.478620362939409, 36.796941666824523 ], [ 140.480589611121673, 36.803736360544633 ], [ 140.489323385266061, 36.809576612770513 ], [ 140.488000389006856, 36.818362972972864 ], [ 140.501481114961507, 36.818172639555712 ], [ 140.504423695796959, 36.823169585807818 ], [ 140.513984422643034, 36.823507053707601 ], [ 140.519104306218765, 36.836239747866102 ], [ 140.528482826821119, 36.839994721379355 ], [ 140.527923995296192, 36.848365801640512 ], [ 140.535122477420487, 36.85211272082546 ], [ 140.538035887846036, 36.858856279094084 ], [ 140.57227494243466, 36.864078668295974 ], [ 140.575332245286972, 36.869072531672032 ], [ 140.58047263250603, 36.866889720584197 ], [ 140.588755084579589, 36.874911053602318 ], [ 140.591985135505638, 36.873019639944459 ], [ 140.593282139559165, 36.880032748412646 ], [ 140.579855227236976, 36.893633720919524 ], [ 140.580773579836887, 36.904407721339339 ], [ 140.571803695883887, 36.912473306397999 ], [ 140.56495802859024, 36.91285661364185 ], [ 140.570583994855497, 36.931314559219572 ], [ 140.567444527243197, 36.936675108569432 ], [ 140.574924695018694, 36.939031305350511 ], [ 140.57558944239895, 36.94257744099616 ], [ 140.58699608260315, 36.944651774959482 ], [ 140.587145253150993, 36.944479278695781 ] ] ] ] } },
{ "type": "Feature", "properties": { "code": "080021", "name": "鹿行地域", "PrefCode": "08", "regioncode": "080021" }, "geometry": { "type": "MultiPolygon", "coordinates": [ [ [ [ 140.762843786811345, 35.841612901414294 ], [ 140.76539533073003, 35.842865469066169 ], [ 140.762956913430912, 35.841666668282187 ], [ 140.762843786811345, 35.841612901414294 ] ] ], [ [ [ 140.695858470392182, 35.930581864661349 ], [ 140.699128274949999, 35.934170279235047 ], [ 140.69567483692424, 35.93090564038306 ], [ 140.695858470392182, 35.930581864661349 ] ] ], [ [ [ 140.526249248104364, 36.266394838351175 ], [ 140.536796005131578, 36.263737586320588 ], [ 140.536850194680824, 36.267217027343975 ], [ 140.540416004794906, 36.261329252243229 ], [ 140.543017173303951, 36.264509225320523 ], [ 140.540601855091609, 36.263189532271156 ], [ 140.539070752113616, 36.266628693559426 ], [ 140.543741336193762, 36.26358061325476 ], [ 140.546949144187693, 36.266019225706771 ], [ 140.543675188359316, 36.261734802419255 ], [ 140.556983087099866, 36.260345865169597 ], [ 140.561467665300597, 36.253711278652645 ], [ 140.566136808666897, 36.207313226324402 ], [ 140.594841894038268, 36.114936945883414 ], [ 140.667565719682329, 35.976368171154206 ], [ 140.672708222106849, 35.977795504958635 ], [ 140.669313061049024, 35.976355972750014 ], [ 140.673887496810607, 35.970323054265577 ], [ 140.678637029675201, 35.973050170129284 ], [ 140.678331166650082, 35.967468305717773 ], [ 140.681909921605666, 35.968850414415158 ], [ 140.680740660852848, 35.972439278649858 ], [ 140.682581504732752, 35.968531972572521 ], [ 140.693496446004247, 35.969106739184724 ], [ 140.700949117907498, 35.962441135050369 ], [ 140.695783332934525, 35.966348486093807 ], [ 140.684896641167143, 35.964434027308585 ], [ 140.696425499237421, 35.943679413773964 ], [ 140.70350883306628, 35.938676585955704 ], [ 140.693438612402133, 35.934381866330114 ], [ 140.693909533398369, 35.928814918973387 ], [ 140.676889948212647, 35.919127892238464 ], [ 140.665286523754162, 35.9238944141959 ], [ 140.666919558590848, 35.926763999758862 ], [ 140.662850997775422, 35.928579170692217 ], [ 140.661402802397447, 35.925525413866808 ], [ 140.654872555224301, 35.929592774986645 ], [ 140.652366978353484, 35.926615054041577 ], [ 140.669899636659011, 35.918457838858217 ], [ 140.674656719332233, 35.896997774627664 ], [ 140.686876887158633, 35.88100880171487 ], [ 140.691025719661297, 35.882917252129516 ], [ 140.678623580314024, 35.901183892122958 ], [ 140.677284332406089, 35.912237838005865 ], [ 140.700029999984622, 35.925702585705835 ], [ 140.702523579899321, 35.921643108942362 ], [ 140.710229947853918, 35.926879225395965 ], [ 140.712625837112796, 35.954655107846975 ], [ 140.710400660761934, 35.926742999689736 ], [ 140.706676588853611, 35.923991387192814 ], [ 140.742503800310146, 35.873233251613328 ], [ 140.739945422443384, 35.872411252377447 ], [ 140.74190321686001, 35.867126837833325 ], [ 140.825342437703398, 35.760454918859466 ], [ 140.835808911352274, 35.753034802414277 ], [ 140.840646718971016, 35.757884278736526 ], [ 140.844709754351697, 35.752831838018949 ], [ 140.840016406631889, 35.754944721421793 ], [ 140.836630998721716, 35.752467803246589 ], [ 140.840419533134991, 35.752707666825415 ], [ 140.838120751771385, 35.751011135355668 ], [ 140.841829753740171, 35.751051505922305 ], [ 140.839809221718269, 35.748773305543693 ], [ 140.842787302392139, 35.74648830629036 ], [ 140.843727327753982, 35.750595802354439 ], [ 140.848779078691564, 35.747870747736897 ], [ 140.846320854723785, 35.758639225419984 ], [ 140.847671505135963, 35.746675171022389 ], [ 140.851974384310438, 35.744667072127754 ], [ 140.849902216813916, 35.741439080649116 ], [ 140.818054616927043, 35.740363360180993 ], [ 140.744367638955396, 35.783239467727299 ], [ 140.726781415230221, 35.799459559211357 ], [ 140.717226719237715, 35.822767892124546 ], [ 140.706575746073895, 35.836255414256016 ], [ 140.683556356340887, 35.849052170721166 ], [ 140.630686161137533, 35.859124198123311 ], [ 140.609939558763699, 35.893706945719032 ], [ 140.598518781216853, 35.903382468326299 ], [ 140.588200700202265, 35.906215251832464 ], [ 140.579691608181292, 35.918045532075723 ], [ 140.53493457756872, 35.940038387061975 ], [ 140.509975188304338, 35.959576531731614 ], [ 140.498282997162619, 35.95792499963909 ], [ 140.48528374844625, 35.969962170717679 ], [ 140.46610866368394, 35.975223360269922 ], [ 140.453433748268935, 35.991923359675354 ], [ 140.409500414812328, 36.023295720920828 ], [ 140.395994890052179, 36.037481865195957 ], [ 140.39637557667163, 36.054898504662333 ], [ 140.404703671137554, 36.082626197840796 ], [ 140.391062023193854, 36.098317891757347 ], [ 140.385959339152237, 36.114134559062677 ], [ 140.366642632751336, 36.130509612728474 ], [ 140.362750311177933, 36.156562892363638 ], [ 140.394725836927933, 36.155945306330864 ], [ 140.40712021962247, 36.136819440564807 ], [ 140.420313139140148, 36.142785504347614 ], [ 140.434101971029236, 36.154457135188693 ], [ 140.441269196316398, 36.180224026617566 ], [ 140.449844578264788, 36.186279838243991 ], [ 140.442487717434233, 36.20270289232468 ], [ 140.420307056125807, 36.211262108059884 ], [ 140.415830415341475, 36.217471558965315 ], [ 140.420691672782482, 36.231864306292778 ], [ 140.432480636372361, 36.228143721055915 ], [ 140.441138300891907, 36.23884702756834 ], [ 140.444224112253096, 36.23212702704069 ], [ 140.441732944319938, 36.229976197643452 ], [ 140.447279948311007, 36.228821197440368 ], [ 140.451490310629424, 36.237537001331589 ], [ 140.477858300820003, 36.236136945763462 ], [ 140.47756252908755, 36.242325278788655 ], [ 140.496330220063669, 36.245968837991541 ], [ 140.493511335579683, 36.250346892395214 ], [ 140.496227977039553, 36.27597322428494 ], [ 140.522407392886976, 36.278233171123986 ], [ 140.526112580830954, 36.266418172160968 ], [ 140.526249248104364, 36.266394838351175 ] ] ] ] } },
{ "type": "Feature", "properties": { "code": "080022", "name": "県南地域", "PrefCode": "08", "regioncode": "080022" }, "geometry": { "type": "Polygon", "coordinates": [ [ [ 140.206417107563539, 36.317937721448743 ], [ 140.212343255836686, 36.31719994642043 ], [ 140.222495161922211, 36.304454387460055 ], [ 140.223995383080478, 36.295946081446573 ], [ 140.233418171011863, 36.287114107630032 ], [ 140.238187327982814, 36.283256613202184 ], [ 140.248957133964609, 36.284214640293442 ], [ 140.258844916359863, 36.272040747982203 ], [ 140.268069105205086, 36.267974332949166 ], [ 140.275267224003301, 36.270564027008277 ], [ 140.290840389972118, 36.268425666711209 ], [ 140.303122750414673, 36.273359774633946 ], [ 140.315665280228586, 36.264809224765941 ], [ 140.297582334856884, 36.263159837556486 ], [ 140.296023645175183, 36.253814278905907 ], [ 140.280607172583018, 36.254881559236594 ], [ 140.271928858729893, 36.231301052801371 ], [ 140.276011608149247, 36.222733000327764 ], [ 140.300264747220353, 36.210329081222199 ], [ 140.311763139857135, 36.209560414481587 ], [ 140.313818948685594, 36.201345441239198 ], [ 140.326990895113795, 36.191713468301998 ], [ 140.335636524006418, 36.193700666952282 ], [ 140.344230726067167, 36.188581224943619 ], [ 140.344885965814683, 36.185446225163219 ], [ 140.341618171241635, 36.184793170768273 ], [ 140.330756718947441, 36.188227359704911 ], [ 140.317080195294807, 36.183845468793379 ], [ 140.308594616948085, 36.185676585606018 ], [ 140.309620116575161, 36.178572721154183 ], [ 140.316301555972132, 36.177977693715661 ], [ 140.315608170580617, 36.174302413625526 ], [ 140.308602555263747, 36.173057721336818 ], [ 140.307442437918212, 36.159579973037353 ], [ 140.330270272055486, 36.147234667246153 ], [ 140.345811945564947, 36.130679107954506 ], [ 140.366642632751336, 36.130509612728474 ], [ 140.385959339152237, 36.114134559062677 ], [ 140.391062023193854, 36.098317891757347 ], [ 140.404703671137554, 36.082626197840796 ], [ 140.39637557667163, 36.054898504662333 ], [ 140.395994890052179, 36.037481865195957 ], [ 140.409500414812328, 36.023295720920828 ], [ 140.453433748268935, 35.991923359675354 ], [ 140.46610866368394, 35.975223360269922 ], [ 140.48528374844625, 35.969962170717679 ], [ 140.498282997162619, 35.95792499963909 ], [ 140.511244643425584, 35.95873541290905 ], [ 140.499695525428251, 35.94439772117795 ], [ 140.495529804556895, 35.931222774611399 ], [ 140.489815330613055, 35.93199280202623 ], [ 140.487176394175322, 35.928592000420508 ], [ 140.490778196956285, 35.914956720576242 ], [ 140.502802606654996, 35.905520279137647 ], [ 140.483773943213009, 35.909971225391814 ], [ 140.458438170585168, 35.926540225051383 ], [ 140.448465771877977, 35.91501866677811 ], [ 140.424799221906596, 35.907219387165014 ], [ 140.39831247803852, 35.909299531648116 ], [ 140.361608559787214, 35.8985570542647 ], [ 140.33496788615912, 35.872387333108975 ], [ 140.319406913198577, 35.864644306089929 ], [ 140.304103217389638, 35.86534677463402 ], [ 140.278298105673116, 35.874044279120255 ], [ 140.241484616721777, 35.854583999552005 ], [ 140.205431803135298, 35.861320332667276 ], [ 140.186630466722704, 35.851757837754064 ], [ 140.15387966331582, 35.842738413746872 ], [ 140.146469663344305, 35.845718134784136 ], [ 140.124597029729216, 35.87250894573134 ], [ 140.092823358611213, 35.883864613261323 ], [ 140.073673358638644, 35.876718027415109 ], [ 140.061116835373696, 35.888056386593007 ], [ 140.043726615291121, 35.893365892222221 ], [ 140.020900532133965, 35.909227612864072 ], [ 139.993099610758463, 35.910275748427125 ], [ 139.977459079273103, 35.922708278564244 ], [ 139.934548248902615, 35.944972801653535 ], [ 139.931655226107864, 35.950766693827916 ], [ 139.938069727835682, 35.962121134682661 ], [ 139.933535032216014, 35.969690586251602 ], [ 139.935380895212234, 35.975107532087009 ], [ 139.941830362581186, 35.978738079898505 ], [ 139.969552891852572, 35.976085025903274 ], [ 139.974711504732227, 35.980748640237607 ], [ 139.97277347561544, 35.991057558959255 ], [ 139.976487393278603, 35.994708107693043 ], [ 139.972388806798108, 36.003454504721674 ], [ 139.979666329437578, 36.006580081405673 ], [ 139.980977977151952, 36.000844801646338 ], [ 139.984314642706636, 36.000279801671581 ], [ 139.982246005948468, 35.998185053997076 ], [ 139.9866379512805, 35.996663667294456 ], [ 139.993983255822627, 36.00195980180348 ], [ 140.001888806523311, 36.000983414153268 ], [ 140.002434668924934, 36.006171747827977 ], [ 139.997846303564074, 36.005235360223764 ], [ 139.991390804442176, 36.01200841355751 ], [ 139.995262191596908, 36.012365946231512 ], [ 139.993982775584641, 36.015672864910812 ], [ 140.006050052368096, 36.018775891993869 ], [ 140.013305136023291, 36.024584747987774 ], [ 140.011401283842247, 36.026560027023663 ], [ 140.019893799559213, 36.027166667407812 ], [ 140.029260584008853, 36.033634972875745 ], [ 140.024331828850904, 36.051393027366373 ], [ 140.015284942246353, 36.061499693955739 ], [ 140.010568715773729, 36.059274360223583 ], [ 140.005528664116582, 36.063062559189802 ], [ 140.009109857134263, 36.063547441261449 ], [ 140.005745914242652, 36.066334333262944 ], [ 140.011548911153341, 36.071786640441132 ], [ 140.001518910869095, 36.074129171124412 ], [ 140.004319001320937, 36.080952748370692 ], [ 139.998264617817881, 36.090088864809331 ], [ 140.009131387803336, 36.099424108236065 ], [ 139.997512826855541, 36.108882198154959 ], [ 140.0029256942654, 36.12094355919794 ], [ 139.995846005388898, 36.127060225249238 ], [ 140.003480271996978, 36.142582666756709 ], [ 140.00549422817619, 36.1523204143557 ], [ 140.002137030199833, 36.156055973304603 ], [ 140.006872607384935, 36.16139650464504 ], [ 140.007639338784543, 36.17221341441757 ], [ 140.021986057010963, 36.175518666653204 ], [ 140.024639144281196, 36.179243639682284 ], [ 140.020729973909283, 36.180485305752313 ], [ 140.023561946226891, 36.182881414445774 ], [ 140.019514773088417, 36.191731387293714 ], [ 140.031947886885519, 36.195603865326177 ], [ 140.03207208775666, 36.198538306397779 ], [ 140.037998197359002, 36.195032197777778 ], [ 140.035761802864954, 36.199532720958359 ], [ 140.04975050638086, 36.203955198273832 ], [ 140.044839441786849, 36.214177666965782 ], [ 140.048971673703818, 36.211642387286417 ], [ 140.060135057187154, 36.213433747769272 ], [ 140.050140972228178, 36.230602613220071 ], [ 140.055048521372214, 36.236705918943073 ], [ 140.060410506040057, 36.234652026569847 ], [ 140.058600142882369, 36.225420946219742 ], [ 140.098136161155026, 36.226277224014723 ], [ 140.099071777140921, 36.230885558821512 ], [ 140.110336277697115, 36.231352467942088 ], [ 140.126757522341791, 36.24356855914175 ], [ 140.132603943017671, 36.243122441447554 ], [ 140.12926425394221, 36.249645774632825 ], [ 140.134832386605467, 36.25745464011959 ], [ 140.134155226782354, 36.266685467760169 ], [ 140.144969195771864, 36.274060720625812 ], [ 140.152356004925764, 36.287456531693635 ], [ 140.143869636974273, 36.298245972573625 ], [ 140.143260804042939, 36.306046505841607 ], [ 140.153663138942761, 36.315543693786481 ], [ 140.170995226848277, 36.321454198352626 ], [ 140.192500609715466, 36.317602197883161 ], [ 140.202063502129022, 36.322090224983924 ], [ 140.206193216843531, 36.317979666728263 ], [ 140.206417107563539, 36.317937721448743 ] ] ] } },
{ "type": "Feature", "properties": { "code": "080023", "name": "県西地域", "PrefCode": "08", "regioncode": "080023" }, "geometry": { "type": "Polygon", "coordinates": [ [ [ 140.132064162731012, 36.414920531757161 ], [ 140.144261478784301, 36.414044666728046 ], [ 140.156508664043713, 36.397992720587638 ], [ 140.165602917940419, 36.400105199295581 ], [ 140.186649688832176, 36.396356000329206 ], [ 140.191206614793487, 36.384784053940962 ], [ 140.177705330336835, 36.372842441225714 ], [ 140.179442217984047, 36.361929107942046 ], [ 140.16801046690955, 36.360059135021118 ], [ 140.162326419728515, 36.341735558049606 ], [ 140.164983087199744, 36.336338918906051 ], [ 140.176613696365052, 36.335418053600335 ], [ 140.182843670698958, 36.324412503834026 ], [ 140.180543891087723, 36.321074170936299 ], [ 140.154641505101495, 36.316153414348662 ], [ 140.143260804042939, 36.306046505841607 ], [ 140.143869636974273, 36.298245972573625 ], [ 140.152356004925764, 36.287456531693635 ], [ 140.144969195771864, 36.274060720625812 ], [ 140.134155226782354, 36.266685467760169 ], [ 140.134832386605467, 36.25745464011959 ], [ 140.12926425394221, 36.249645774632825 ], [ 140.13252561566469, 36.243053558774761 ], [ 140.126757522341791, 36.24356855914175 ], [ 140.110336277697115, 36.231352467942088 ], [ 140.099071777140921, 36.230885558821512 ], [ 140.098136161155026, 36.226277224014723 ], [ 140.058600142882369, 36.225420946219742 ], [ 140.060410506040057, 36.234652026569847 ], [ 140.055048521372214, 36.236705918943073 ], [ 140.050140972228178, 36.230602613220071 ], [ 140.060135057187154, 36.213433747769272 ], [ 140.048971673703818, 36.211642387286417 ], [ 140.044839441786849, 36.214177666965782 ], [ 140.049882477394476, 36.204098802018166 ], [ 140.035761802864954, 36.199532720958359 ], [ 140.037998197359002, 36.195032197777778 ], [ 140.03207208775666, 36.198538306397779 ], [ 140.031947886885519, 36.195603865326177 ], [ 140.019514773088417, 36.191731387293714 ], [ 140.023561946226891, 36.182881414445774 ], [ 140.020729973909283, 36.180485305752313 ], [ 140.024639144281196, 36.179243639682284 ], [ 140.021986057010963, 36.175518666653204 ], [ 140.007639338784543, 36.17221341441757 ], [ 140.006872607384935, 36.16139650464504 ], [ 140.002137030199833, 36.156055973304603 ], [ 140.00549422817619, 36.1523204143557 ], [ 140.003480271996978, 36.142582666756709 ], [ 139.995798494205246, 36.127836892358744 ], [ 140.0029256942654, 36.12094355919794 ], [ 139.997512826855541, 36.108882198154959 ], [ 140.009127196962595, 36.098046333371656 ], [ 139.998320725621056, 36.088607505132302 ], [ 140.004319001320937, 36.080952748370692 ], [ 140.001519195954188, 36.074128611746062 ], [ 140.011548911153341, 36.071786640441132 ], [ 140.005745914242652, 36.066334333262944 ], [ 140.009109857134263, 36.063547441261449 ], [ 140.005618663770406, 36.062895504723826 ], [ 140.010568715773729, 36.059274360223583 ], [ 140.015284942246353, 36.061499693955739 ], [ 140.024331828850904, 36.051393027366373 ], [ 140.029336977819298, 36.033898306062042 ], [ 140.024352749779609, 36.028969441186803 ], [ 140.011401283842247, 36.026560027023663 ], [ 140.013305136023291, 36.024584747987774 ], [ 140.006050052368096, 36.018775891993869 ], [ 139.993982775584641, 36.015672864910812 ], [ 139.995262191596908, 36.012365946231512 ], [ 139.991390804442176, 36.01200841355751 ], [ 139.997846303564074, 36.005235360223764 ], [ 140.002434668924934, 36.006171747827977 ], [ 140.001888806523311, 36.000983414153268 ], [ 139.993983255822627, 36.00195980180348 ], [ 139.9866379512805, 35.996663667294456 ], [ 139.982246005948468, 35.998185053997076 ], [ 139.984314642706636, 36.000279801671581 ], [ 139.980977977151952, 36.000844801646338 ], [ 139.979666329437578, 36.006580081405673 ], [ 139.972388806798108, 36.003454504721674 ], [ 139.976487393278603, 35.994708107693043 ], [ 139.97277347561544, 35.991057558959255 ], [ 139.974711504732227, 35.980748640237607 ], [ 139.969552891852572, 35.976085025903274 ], [ 139.941614253694866, 35.978724748348498 ], [ 139.935380895212234, 35.975107532087009 ], [ 139.934038365678134, 35.968375305276197 ], [ 139.914137497447655, 35.97097753228735 ], [ 139.884163644037017, 35.988828081151098 ], [ 139.87601674407756, 36.011043585792891 ], [ 139.813670584030319, 36.062425467761159 ], [ 139.801192049073848, 36.091964864986608 ], [ 139.78677566756312, 36.104099891296983 ], [ 139.776768663842859, 36.097057134878924 ], [ 139.769209663295442, 36.080827468313089 ], [ 139.729830388761457, 36.087794721249452 ], [ 139.726378559622844, 36.112519134750301 ], [ 139.713584720558515, 36.126249170762662 ], [ 139.695388689936181, 36.157999721210217 ], [ 139.690887912247376, 36.175255251628585 ], [ 139.694246861203737, 36.190762170837559 ], [ 139.687716328945498, 36.197093864790077 ], [ 139.691106354874478, 36.205935775215892 ], [ 139.698623332800594, 36.206472720839429 ], [ 139.706473060783196, 36.201856586212557 ], [ 139.707071413914719, 36.210669919781026 ], [ 139.71932508328598, 36.211480171173037 ], [ 139.720130894725116, 36.207661864703368 ], [ 139.727542023345791, 36.205842666605804 ], [ 139.727486718637238, 36.201580720973539 ], [ 139.760040220679684, 36.219235386703758 ], [ 139.821806693024541, 36.239769505358424 ], [ 139.831562113201016, 36.264614748172164 ], [ 139.841692191841275, 36.275900864833091 ], [ 139.835356135277493, 36.293496413628645 ], [ 139.848029610877916, 36.31074946821343 ], [ 139.85797661542847, 36.310746108346279 ], [ 139.864678911003011, 36.31558610761283 ], [ 139.870125887899462, 36.313841666559711 ], [ 139.874670661322057, 36.323163892299817 ], [ 139.880677664942368, 36.322963586300546 ], [ 139.878818144841603, 36.310703027222985 ], [ 139.89664241191781, 36.309754387255225 ], [ 139.899054111258238, 36.306307999914338 ], [ 139.894289054296451, 36.301933864756109 ], [ 139.900556303730468, 36.299054107860854 ], [ 139.910353061244791, 36.300920505077272 ], [ 139.915058106446509, 36.30901546828926 ], [ 139.910281970736378, 36.310085225352907 ], [ 139.914331555856734, 36.336711586270724 ], [ 139.94616739351045, 36.349187053639639 ], [ 139.96450141430887, 36.35094174786343 ], [ 139.9652848380249, 36.367478693886653 ], [ 139.973330778292848, 36.378443107763246 ], [ 139.979243838732259, 36.36976644056881 ], [ 139.989928781088452, 36.367207802797907 ], [ 140.002241750856228, 36.368018359959422 ], [ 140.00043177710495, 36.376632532365534 ], [ 140.011062115324421, 36.372923333445158 ], [ 140.015085227101622, 36.377375559434597 ], [ 140.01540880677112, 36.374685557692374 ], [ 140.035100609605479, 36.378222999591799 ], [ 140.048165668011279, 36.37558297317571 ], [ 140.062659662813303, 36.38142850532131 ], [ 140.069147808224784, 36.388927360109619 ], [ 140.065196161074027, 36.39686986485242 ], [ 140.066398715628338, 36.403773197575049 ], [ 140.081120752420816, 36.403663413735615 ], [ 140.087951025119764, 36.398284531705826 ], [ 140.092214423157202, 36.401662306170522 ], [ 140.101569948094721, 36.396993640344306 ], [ 140.111077005199718, 36.39795364054811 ], [ 140.109584553284549, 36.407301413329606 ], [ 140.131887365909279, 36.414920531757161 ], [ 140.132064162731012, 36.414920531757161 ] ] ] } }
]
}
