{
"type": "FeatureCollection",
"name": "09_tochigi_region",
"crs": { "type": "name", "properties": { "name": "urn:ogc:def:crs:OGC:1.3:CRS84" } },
"features": [
{ "type": "Feature", "properties": { "code": "090011", "name": "県央部", "PrefCode": "09", "regioncode": "090011" }, "geometry": { "type": "MultiPolygon", "coordinates": [ [ [ [ 139.859360467012038, 36.411299360277326 ], [ 139.86034800265827, 36.414765747641184 ], [ 139.859481582309286, 36.411656585383184 ], [ 139.859360467012038, 36.411299360277326 ] ] ], [ [ [ 139.993260000348755, 36.800654865030026 ], [ 140.009510025767099, 36.783854225192385 ], [ 140.021120946974179, 36.7822928015716 ], [ 140.020188418360931, 36.777729198144016 ], [ 140.026432048900006, 36.772673892186447 ], [ 140.037987665398532, 36.768020171293927 ], [ 140.038771855336904, 36.773054387250227 ], [ 140.044370804169375, 36.77524689123112 ], [ 140.061008080358647, 36.769947386962372 ], [ 140.067389002300729, 36.773404585952903 ], [ 140.077484838354621, 36.765955108441574 ], [ 140.080670168693359, 36.76781455929455 ], [ 140.084248754576379, 36.762552305844281 ], [ 140.078375577271117, 36.756039278889659 ], [ 140.083492191811274, 36.745008972586049 ], [ 140.066293449982822, 36.74175953227666 ], [ 140.073308366088327, 36.730699505178052 ], [ 140.068155161731397, 36.719755333242063 ], [ 140.054065305169729, 36.713837838245695 ], [ 140.057600803634273, 36.707316414321099 ], [ 140.029190310984177, 36.6794955855529 ], [ 140.046278663729368, 36.66596830619244 ], [ 140.049185913798965, 36.658485532181601 ], [ 140.059425383274856, 36.662970774981318 ], [ 140.058902334874915, 36.654856918811788 ], [ 140.064503773930142, 36.645867198512462 ], [ 140.064937107761352, 36.638780000296833 ], [ 140.058409274368614, 36.635777531807719 ], [ 140.062883721706498, 36.618259224883388 ], [ 140.079108585892641, 36.62141169399456 ], [ 140.085247755679461, 36.599229225048759 ], [ 140.074219882941293, 36.60235477475311 ], [ 140.077578520732231, 36.608004775400104 ], [ 140.072551000228486, 36.607714774617193 ], [ 140.067043474676666, 36.61524089235337 ], [ 140.062469558723251, 36.613412278354019 ], [ 140.064234837967433, 36.604883973216829 ], [ 140.044347976677841, 36.607075585969596 ], [ 140.036207470898148, 36.604091253208821 ], [ 140.047631387978186, 36.595502081056225 ], [ 140.044976886973814, 36.586149612914369 ], [ 140.048522995639814, 36.577492666953049 ], [ 140.044036304032261, 36.575737106682197 ], [ 140.042504085894961, 36.58196017062545 ], [ 140.032201555957158, 36.585278532278494 ], [ 140.013121415321166, 36.579830252264401 ], [ 139.997885110209722, 36.60551913470033 ], [ 139.993384228199602, 36.601694972744838 ], [ 140.002781309909551, 36.564347801809674 ], [ 139.997380700259214, 36.557230891792301 ], [ 139.998310117218239, 36.551089224588111 ], [ 140.009704837808044, 36.533682837393087 ], [ 140.006114254069644, 36.53057453218895 ], [ 140.010623410741914, 36.52463925219979 ], [ 140.006264746620786, 36.513432053746328 ], [ 140.007701919907731, 36.501852053929213 ], [ 139.999284941846668, 36.506863721183834 ], [ 140.004839390425559, 36.499459279022574 ], [ 140.000229052828558, 36.496712918566402 ], [ 139.997104617384252, 36.502614865183943 ], [ 139.980684526569689, 36.504989613180157 ], [ 139.962441310318241, 36.498022414203092 ], [ 139.966669052934549, 36.490349359835136 ], [ 139.961695277714966, 36.462173027263475 ], [ 139.954231284246475, 36.453782224869826 ], [ 139.948907367880793, 36.454955000173186 ], [ 139.933882672347522, 36.427410053731023 ], [ 139.931071699199606, 36.401844801996049 ], [ 139.927660310774741, 36.404174801525926 ], [ 139.922291050591525, 36.39463150533976 ], [ 139.923452503430326, 36.403805387009072 ], [ 139.920049948146698, 36.400357612913581 ], [ 139.913627690665407, 36.401647052769306 ], [ 139.912898495169429, 36.396703440811223 ], [ 139.909618780981987, 36.403701776116122 ], [ 139.89622786042753, 36.40381597292884 ], [ 139.8980731640454, 36.407452360038462 ], [ 139.892666199785367, 36.408910694373105 ], [ 139.894346252977243, 36.417113197616004 ], [ 139.891116252413212, 36.418599305713428 ], [ 139.88311313876045, 36.418310973172936 ], [ 139.88170308722772, 36.411694332627405 ], [ 139.864541051228571, 36.413729639611233 ], [ 139.868704837658242, 36.437824586135775 ], [ 139.866740142743424, 36.445757081424233 ], [ 139.87123183008498, 36.450235946231999 ], [ 139.870733281016214, 36.456263171108503 ], [ 139.866352114958204, 36.452132360120402 ], [ 139.865959078848505, 36.45787455926353 ], [ 139.874086666766289, 36.465015107960937 ], [ 139.873506693079435, 36.469453720912554 ], [ 139.867351387656527, 36.470506225382053 ], [ 139.869198948572716, 36.475188441293596 ], [ 139.858634162836438, 36.475910945833562 ], [ 139.839624422928864, 36.486735694097035 ], [ 139.841402244118285, 36.493116251813603 ], [ 139.83030724957996, 36.502697081205383 ], [ 139.830706743721294, 36.511261801690864 ], [ 139.826537808673038, 36.509977079678549 ], [ 139.824889727279128, 36.503882386762768 ], [ 139.82482780715759, 36.510169612837387 ], [ 139.817552529225964, 36.514817667101681 ], [ 139.820018392035195, 36.518969891847064 ], [ 139.827948716360197, 36.518391802239933 ], [ 139.832099663168947, 36.526841612750275 ], [ 139.832299363924562, 36.532591776289507 ], [ 139.820655162405842, 36.540439026639831 ], [ 139.818416835268749, 36.546231252370433 ], [ 139.825676912859308, 36.553403720705205 ], [ 139.825740830375139, 36.558562053895741 ], [ 139.811868494635405, 36.555883468147613 ], [ 139.80236041590058, 36.563826802065307 ], [ 139.803838780835122, 36.570026801995368 ], [ 139.795332334619616, 36.572370694252186 ], [ 139.794191776629305, 36.581560666591542 ], [ 139.801552671818399, 36.583895107872991 ], [ 139.805752139749529, 36.580967613164887 ], [ 139.807582502930245, 36.58638708069924 ], [ 139.799998300681068, 36.589566972837588 ], [ 139.79809727596853, 36.595157918603093 ], [ 139.792390661200102, 36.590709836689655 ], [ 139.773115551141814, 36.599929027102974 ], [ 139.768865006215151, 36.598347640331383 ], [ 139.769349169728457, 36.595246251813137 ], [ 139.761778273848336, 36.595417360422914 ], [ 139.757933839375255, 36.602509027369763 ], [ 139.748305187634401, 36.605918775431178 ], [ 139.74287494172529, 36.615731801681363 ], [ 139.75471221779469, 36.626752053564473 ], [ 139.770667562358199, 36.627770360413876 ], [ 139.77015788597771, 36.636193414294667 ], [ 139.779419610726563, 36.637755360421579 ], [ 139.784286083336156, 36.642591721031181 ], [ 139.792428637771536, 36.641218946397316 ], [ 139.796070946916757, 36.649569505028694 ], [ 139.793359079058291, 36.663108387442151 ], [ 139.783313917103669, 36.681072838141006 ], [ 139.787678300912944, 36.706977801584344 ], [ 139.796619727618349, 36.703928080916228 ], [ 139.806871245311754, 36.714244440628477 ], [ 139.811554332666333, 36.712354440704928 ], [ 139.817372165692973, 36.715946666605419 ], [ 139.819016861139289, 36.709499441246294 ], [ 139.823603838846111, 36.711068332837328 ], [ 139.82348518769129, 36.706044172200848 ], [ 139.827870219934766, 36.706389721408584 ], [ 139.830855863007741, 36.71407222495327 ], [ 139.829019415913422, 36.706545838319812 ], [ 139.837922502721426, 36.703968865171021 ], [ 139.84111169924563, 36.70581163989533 ], [ 139.841513190781143, 36.71906080211437 ], [ 139.860327561967438, 36.730079694222582 ], [ 139.881149585085382, 36.722605506039315 ], [ 139.88779713443023, 36.724571333200515 ], [ 139.926046057379722, 36.719169333198238 ], [ 139.936709754151934, 36.719985413995687 ], [ 139.938582555440689, 36.726917667116709 ], [ 139.964219144098251, 36.729105386704305 ], [ 139.969975810635219, 36.742047053628653 ], [ 139.961841582123384, 36.747968467870521 ], [ 139.975293021655716, 36.75466597275647 ], [ 139.969277133632886, 36.758364612736727 ], [ 139.973656329276196, 36.765015441009837 ], [ 139.984261946931383, 36.770372359796625 ], [ 139.975102191812766, 36.781741865194988 ], [ 139.984786614111044, 36.801219613194633 ], [ 139.993193891185228, 36.800897081235348 ], [ 139.993260000348755, 36.800654865030026 ] ] ] ] } },
{ "type": "Feature", "properties": { "code": "090012", "name": "南東部", "PrefCode": "09", "regioncode": "090012" }, "geometry": { "type": "Polygon", "coordinates": [ [ [ 140.21781457828024, 36.842579864868924 ], [ 140.222462087555414, 36.837575413774402 ], [ 140.230851582334708, 36.83763594624196 ], [ 140.231952088118419, 36.82819789321826 ], [ 140.227869196606207, 36.816835666932548 ], [ 140.231041634264102, 36.806258171077786 ], [ 140.257341362314037, 36.777421998726311 ], [ 140.253671893643059, 36.774515891695103 ], [ 140.261076355589353, 36.767510054245633 ], [ 140.255264332183287, 36.764312279088472 ], [ 140.254917108437894, 36.759860640356294 ], [ 140.262206278197255, 36.748283666757857 ], [ 140.283336329008421, 36.734138613406344 ], [ 140.287104331899513, 36.718189973288702 ], [ 140.292259610992346, 36.712564107747426 ], [ 140.271212217769744, 36.70680944130271 ], [ 140.268189105343026, 36.702215838290329 ], [ 140.246697003663826, 36.702271170877907 ], [ 140.243898079632686, 36.697620081401681 ], [ 140.231410778084978, 36.699730107658411 ], [ 140.220420336929124, 36.687146504907332 ], [ 140.22507199657548, 36.677512891606739 ], [ 140.221525031754823, 36.67744483810884 ], [ 140.221565836694026, 36.674286224829473 ], [ 140.231689780159286, 36.669793971814386 ], [ 140.229308611902979, 36.662278386938056 ], [ 140.240930310585441, 36.650922802145658 ], [ 140.239109416366546, 36.645564467825977 ], [ 140.242820244858422, 36.636706386690435 ], [ 140.233766549486745, 36.63440138741413 ], [ 140.234695667870824, 36.623758054890345 ], [ 140.2397054474485, 36.624991108153154 ], [ 140.248486225558963, 36.610676359926117 ], [ 140.249170894721033, 36.599546387156067 ], [ 140.243834940929901, 36.588437532266369 ], [ 140.245650726100166, 36.582120586296071 ], [ 140.242598170769043, 36.574286440866615 ], [ 140.246984500734129, 36.564619774782841 ], [ 140.243781970861278, 36.562819774513059 ], [ 140.251539753956536, 36.554580053726568 ], [ 140.24697855981276, 36.548259252362641 ], [ 140.247747366847534, 36.534490109331159 ], [ 140.260194034327242, 36.517481226077791 ], [ 140.247386692841701, 36.514970134564123 ], [ 140.2492105584206, 36.507941558656057 ], [ 140.242499390134867, 36.507579891798628 ], [ 140.241155446866401, 36.502657973286887 ], [ 140.229458144877526, 36.502081333386855 ], [ 140.231236446305047, 36.497420774948864 ], [ 140.227165252274631, 36.48594497418128 ], [ 140.216618754252181, 36.478978053994069 ], [ 140.207312411438693, 36.456875891809034 ], [ 140.202606549652614, 36.454073667265959 ], [ 140.206187366753625, 36.446479802700765 ], [ 140.2013467190759, 36.438143694376038 ], [ 140.203261088828299, 36.420743170760773 ], [ 140.192621996607954, 36.404698467760113 ], [ 140.1806963288725, 36.397443504614102 ], [ 140.165602917940419, 36.400105199295581 ], [ 140.156508664043713, 36.397992720587638 ], [ 140.144261478784301, 36.414044666728046 ], [ 140.13183306124688, 36.414920531757161 ], [ 140.109584553284549, 36.407301413329606 ], [ 140.111077005199718, 36.39795364054811 ], [ 140.101569948094721, 36.396993640344306 ], [ 140.092214423157202, 36.401662306170522 ], [ 140.087951025119764, 36.398284531705826 ], [ 140.081120752420816, 36.403663413735615 ], [ 140.066398715628338, 36.403773197575049 ], [ 140.065196161074027, 36.39686986485242 ], [ 140.069147808224784, 36.388927360109619 ], [ 140.062659662813303, 36.38142850532131 ], [ 140.048165668011279, 36.37558297317571 ], [ 140.035100609605479, 36.378222999591799 ], [ 140.01540880677112, 36.374685557692374 ], [ 140.015085227101622, 36.377375559434597 ], [ 140.011062115324421, 36.372923333445158 ], [ 140.00043177710495, 36.376632532365534 ], [ 140.002241750856228, 36.368018359959422 ], [ 139.989928781088452, 36.367207802797907 ], [ 139.979243838732259, 36.36976644056881 ], [ 139.973540219605525, 36.378537279371983 ], [ 139.9652848380249, 36.367478693886653 ], [ 139.96450141430887, 36.35094174786343 ], [ 139.94616739351045, 36.349187053639639 ], [ 139.913026834720654, 36.33498436004021 ], [ 139.910089585066316, 36.337346027397302 ], [ 139.914507716857656, 36.347821280227947 ], [ 139.907288275133851, 36.356191837982976 ], [ 139.917503384673523, 36.366047919276127 ], [ 139.918998742298186, 36.375438071709709 ], [ 139.915082917842483, 36.376393125642267 ], [ 139.921775965688312, 36.387850359906224 ], [ 139.922520777911586, 36.39735205435386 ], [ 139.927660310774741, 36.404174801525926 ], [ 139.931071699199606, 36.401844801996049 ], [ 139.935070467228343, 36.430237559116108 ], [ 139.948907367880793, 36.454955000173186 ], [ 139.954231284246475, 36.453782224869826 ], [ 139.961695277714966, 36.462173027263475 ], [ 139.966669052934549, 36.490349359835136 ], [ 139.96230824932627, 36.497803253017764 ], [ 139.980684526569689, 36.504989613180157 ], [ 139.997104617384252, 36.502614865183943 ], [ 140.000229052828558, 36.496712918566402 ], [ 140.004839390425559, 36.499459279022574 ], [ 139.999284941846668, 36.506863721183834 ], [ 140.007701919907731, 36.501852053929213 ], [ 140.006264746620786, 36.513432053746328 ], [ 140.010623410741914, 36.52463925219979 ], [ 140.006114254069644, 36.53057453218895 ], [ 140.009704837808044, 36.533682837393087 ], [ 139.998310117218239, 36.551089224588111 ], [ 139.997380700259214, 36.557230891792301 ], [ 140.002781309909551, 36.564347801809674 ], [ 139.993384228199602, 36.601694972744838 ], [ 139.997885110209722, 36.60551913470033 ], [ 140.013121415321166, 36.579830252264401 ], [ 140.032201555957158, 36.585278532278494 ], [ 140.042504085894961, 36.58196017062545 ], [ 140.044036304032261, 36.575737106682197 ], [ 140.048522995639814, 36.577492666953049 ], [ 140.044976886973814, 36.586149612914369 ], [ 140.047631387978186, 36.595502081056225 ], [ 140.036207470898148, 36.604091253208821 ], [ 140.044347976677841, 36.607075585969596 ], [ 140.064234837967433, 36.604883973216829 ], [ 140.062469558723251, 36.613412278354019 ], [ 140.067043474676666, 36.61524089235337 ], [ 140.072551000228486, 36.607714774617193 ], [ 140.077578520732231, 36.608004775400104 ], [ 140.074219882941293, 36.60235477475311 ], [ 140.085187755610491, 36.598952559413135 ], [ 140.079108585892641, 36.62141169399456 ], [ 140.062883721706498, 36.618259224883388 ], [ 140.058409274368614, 36.635777531807719 ], [ 140.064937107761352, 36.638780000296833 ], [ 140.064503773930142, 36.645867198512462 ], [ 140.058902334874915, 36.654856918811788 ], [ 140.059425383274856, 36.662970774981318 ], [ 140.049185913798965, 36.658485532181601 ], [ 140.046278663729368, 36.66596830619244 ], [ 140.029190310984177, 36.6794955855529 ], [ 140.057600803634273, 36.707316414321099 ], [ 140.054065305169729, 36.713837838245695 ], [ 140.068155161731397, 36.719755333242063 ], [ 140.073308366088327, 36.730699505178052 ], [ 140.066293449982822, 36.74175953227666 ], [ 140.083841920168538, 36.745541197668217 ], [ 140.078375577271117, 36.756039278889659 ], [ 140.084522360718438, 36.761590080717724 ], [ 140.081386004760361, 36.767155667400175 ], [ 140.077484838354621, 36.765955108441574 ], [ 140.067389002300729, 36.773404585952903 ], [ 140.061008080358647, 36.769947386962372 ], [ 140.04655386526872, 36.774444918997858 ], [ 140.045808392043682, 36.786002720848956 ], [ 140.0578465235983, 36.783327973407324 ], [ 140.081384189029109, 36.784972612196327 ], [ 140.083272580964945, 36.788185387145973 ], [ 140.078793969765911, 36.793211802382814 ], [ 140.087985471852107, 36.797694278867937 ], [ 140.110645032042612, 36.790379505409874 ], [ 140.115628912044713, 36.784693945569188 ], [ 140.137006860977863, 36.784677532042508 ], [ 140.15187627776811, 36.800557505324662 ], [ 140.158852437589985, 36.800943026699372 ], [ 140.163545006496861, 36.806046639740657 ], [ 140.174286082736558, 36.82760383794681 ], [ 140.183579468118069, 36.824739359633782 ], [ 140.183093334190062, 36.820603802023868 ], [ 140.190954449388414, 36.814777413746697 ], [ 140.191736743555907, 36.823695746761359 ], [ 140.197901529631963, 36.82447738712176 ], [ 140.204895550888978, 36.837988504765747 ], [ 140.217735694246926, 36.842612081282596 ], [ 140.21781457828024, 36.842579864868924 ] ] ] } },
{ "type": "Feature", "properties": { "code": "090013", "name": "南西部", "PrefCode": "09", "regioncode": "090013" }, "geometry": { "type": "Polygon", "coordinates": [ [ [ 139.551852918177701, 36.713055305757791 ], [ 139.556195422380938, 36.711266135124106 ], [ 139.560454915561991, 36.714453360334346 ], [ 139.574449052781574, 36.704997251621933 ], [ 139.573368611772025, 36.676694774744135 ], [ 139.578772191883218, 36.667762279205874 ], [ 139.587482776109255, 36.664348946446751 ], [ 139.603815524766674, 36.649742279182874 ], [ 139.613031672773559, 36.649903666121361 ], [ 139.641953087365209, 36.635842774924186 ], [ 139.656127951443864, 36.649540531570324 ], [ 139.650539053434613, 36.65589777526219 ], [ 139.641395135377252, 36.656067224622745 ], [ 139.648839948105206, 36.667586360122471 ], [ 139.662149973742316, 36.661676918554974 ], [ 139.675145576607179, 36.662850774843434 ], [ 139.681500830099253, 36.656416891826154 ], [ 139.695031750814678, 36.662712387167005 ], [ 139.707830699827014, 36.66274155937549 ], [ 139.711021945906168, 36.651197134939878 ], [ 139.708563087016955, 36.647350999848811 ], [ 139.721112750253269, 36.641208107768023 ], [ 139.713302477327488, 36.63291627936286 ], [ 139.712768248555903, 36.622556585817847 ], [ 139.716807951026226, 36.617504081248399 ], [ 139.72600352794052, 36.616388504625832 ], [ 139.737040220329959, 36.620302107756117 ], [ 139.761778273848336, 36.595417360422914 ], [ 139.769349169728457, 36.595246251813137 ], [ 139.768865006215151, 36.598347640331383 ], [ 139.773115551141814, 36.599929027102974 ], [ 139.792390661200102, 36.590709836689655 ], [ 139.798066472389905, 36.595167586315085 ], [ 139.799998300681068, 36.589566972837588 ], [ 139.807582502930245, 36.58638708069924 ], [ 139.805752139749529, 36.580967613164887 ], [ 139.801552671818399, 36.583895107872991 ], [ 139.794191776629305, 36.581560666591542 ], [ 139.795332334619616, 36.572370694252186 ], [ 139.803838780835122, 36.570026801995368 ], [ 139.80236041590058, 36.563826802065307 ], [ 139.811868494635405, 36.555883468147613 ], [ 139.825098340316231, 36.559536224717021 ], [ 139.826067471336842, 36.554072613060669 ], [ 139.818416835268749, 36.546231252370433 ], [ 139.820655162405842, 36.540439026639831 ], [ 139.832299363924562, 36.532591776289507 ], [ 139.828023164937122, 36.51846153207407 ], [ 139.820018392035195, 36.518969891847064 ], [ 139.817552529225964, 36.514817667101681 ], [ 139.82482780715759, 36.510169612837387 ], [ 139.824889727279128, 36.503882386762768 ], [ 139.826537808673038, 36.509977079678549 ], [ 139.830706743721294, 36.511261801690864 ], [ 139.83030724957996, 36.502697081205383 ], [ 139.841402244118285, 36.493116251813603 ], [ 139.839624422928864, 36.486735694097035 ], [ 139.858634162836438, 36.475910945833562 ], [ 139.869198948572716, 36.475188441293596 ], [ 139.867351387656527, 36.470506225382053 ], [ 139.873506693079435, 36.469453720912554 ], [ 139.874086666766289, 36.465015107960937 ], [ 139.865959078848505, 36.45787455926353 ], [ 139.866352114958204, 36.452132360120402 ], [ 139.870733281016214, 36.456263171108503 ], [ 139.87123183008498, 36.450235946231999 ], [ 139.866740142743424, 36.445757081424233 ], [ 139.868704837658242, 36.437824586135775 ], [ 139.864541051228571, 36.413729639611233 ], [ 139.88170308722772, 36.411694332627405 ], [ 139.88311313876045, 36.418310973172936 ], [ 139.889824279167215, 36.418875413769399 ], [ 139.894346252977243, 36.417113197616004 ], [ 139.892610921157143, 36.409131252205555 ], [ 139.8980731640454, 36.407452360038462 ], [ 139.89622786042753, 36.40381597292884 ], [ 139.909618780981987, 36.403701776116122 ], [ 139.91059902672373, 36.397098198223318 ], [ 139.913627690665407, 36.401647052769306 ], [ 139.925091388356918, 36.402849001180527 ], [ 139.920020700395071, 36.382909027729511 ], [ 139.915082917842483, 36.376393125642267 ], [ 139.918998742298186, 36.375438071709709 ], [ 139.917503384673523, 36.366047919276127 ], [ 139.907242437588479, 36.355898505211883 ], [ 139.914507716857656, 36.347821280227947 ], [ 139.910089585066316, 36.337346027397302 ], [ 139.913026834720654, 36.33498436004021 ], [ 139.910281970736378, 36.310085225352907 ], [ 139.915058106446509, 36.30901546828926 ], [ 139.910754449358365, 36.30120133187603 ], [ 139.904266056633219, 36.297925775254384 ], [ 139.894289054296451, 36.301933864756109 ], [ 139.899054111258238, 36.306307999914338 ], [ 139.89664241191781, 36.309754387255225 ], [ 139.878818144841603, 36.310703027222985 ], [ 139.880677664942368, 36.322963586300546 ], [ 139.874670661322057, 36.323163892299817 ], [ 139.870125887899462, 36.313841666559711 ], [ 139.864678911003011, 36.31558610761283 ], [ 139.85797661542847, 36.310746108346279 ], [ 139.848978222966707, 36.311483919347438 ], [ 139.835356135277493, 36.293496413628645 ], [ 139.841692191841275, 36.275900864833091 ], [ 139.831562113201016, 36.264614748172164 ], [ 139.821945032137592, 36.23985617122537 ], [ 139.760040220679684, 36.219235386703758 ], [ 139.727486718637238, 36.201580720973539 ], [ 139.727542023345791, 36.205842666605804 ], [ 139.717599779806051, 36.211521279183728 ], [ 139.706930582780274, 36.210562134235147 ], [ 139.706473060783196, 36.201856586212557 ], [ 139.692544137002415, 36.206530774775501 ], [ 139.687943840336061, 36.199681333027172 ], [ 139.685494942337755, 36.20383938717805 ], [ 139.677335471654715, 36.201481360276603 ], [ 139.674172995787217, 36.209074973031647 ], [ 139.664425472557582, 36.207060801914508 ], [ 139.669942438292992, 36.213722467917592 ], [ 139.665356354512255, 36.223442170619705 ], [ 139.65905302157978, 36.221209135093545 ], [ 139.659632218252341, 36.228513559153498 ], [ 139.66309138765746, 36.230558837820183 ], [ 139.65410277532294, 36.231581613400806 ], [ 139.653497224017769, 36.236953838648787 ], [ 139.645494721004638, 36.240466891833648 ], [ 139.641515810905958, 36.235458586244818 ], [ 139.642061388222601, 36.242030775100261 ], [ 139.63071975371372, 36.254841305581863 ], [ 139.643051777417668, 36.266089612945336 ], [ 139.636912865736235, 36.264015721448459 ], [ 139.632491505378766, 36.271165170736083 ], [ 139.619010077952794, 36.274393747673344 ], [ 139.608602527884386, 36.268095441051798 ], [ 139.562257612898634, 36.266920946244738 ], [ 139.553587885772345, 36.273784802326816 ], [ 139.555915136074759, 36.276615054241404 ], [ 139.553268469963996, 36.27945672125071 ], [ 139.548592049283684, 36.280759468374811 ], [ 139.544029804731736, 36.275783666982704 ], [ 139.539247302720923, 36.280757505154781 ], [ 139.534586719101867, 36.279022251575725 ], [ 139.525965058940415, 36.284713612942937 ], [ 139.512781388050712, 36.278257279250113 ], [ 139.503221672941891, 36.281066441163375 ], [ 139.500619688747747, 36.276256440582301 ], [ 139.487667717391332, 36.275891198020418 ], [ 139.481039611389065, 36.271320387425988 ], [ 139.471975162823583, 36.27590399986974 ], [ 139.472496251600774, 36.271213171150976 ], [ 139.469136252236353, 36.270598999844026 ], [ 139.458480947038083, 36.27630289236464 ], [ 139.46848544704585, 36.279196198445845 ], [ 139.459084643041933, 36.28843591858282 ], [ 139.443649299075901, 36.288360945701129 ], [ 139.443532943890318, 36.293693693409296 ], [ 139.439169052909506, 36.296615359611224 ], [ 139.435713747891214, 36.291993999923193 ], [ 139.430364306067986, 36.295685666560303 ], [ 139.431444616675776, 36.30123705384699 ], [ 139.426715447160177, 36.303950107911191 ], [ 139.429163217408586, 36.306178413902728 ], [ 139.415699610049046, 36.315869558633267 ], [ 139.418198559815778, 36.32141702667451 ], [ 139.415680505750856, 36.325926468431817 ], [ 139.419047471263866, 36.327077865051479 ], [ 139.421713553737618, 36.322472305552537 ], [ 139.426561634312066, 36.324350918260336 ], [ 139.422792502771813, 36.332256198264986 ], [ 139.393455810037722, 36.347754000147063 ], [ 139.388016641055174, 36.355047332868196 ], [ 139.368599105364524, 36.367317919386551 ], [ 139.366315032412899, 36.379420559311427 ], [ 139.361025227332448, 36.385234278838936 ], [ 139.375459274226159, 36.400309027040009 ], [ 139.378485188041054, 36.414369838197501 ], [ 139.391815005957824, 36.424377027178139 ], [ 139.394480609992229, 36.434369801824971 ], [ 139.402526472019076, 36.436815359741104 ], [ 139.405003191444166, 36.445028974107913 ], [ 139.411957393419016, 36.45004366668195 ], [ 139.408237691316458, 36.457968667020396 ], [ 139.414741050559087, 36.461856440722215 ], [ 139.420616328680694, 36.456994505192313 ], [ 139.431173022317239, 36.457569198060071 ], [ 139.42964219183375, 36.461501972937754 ], [ 139.436474720931642, 36.465975306015594 ], [ 139.438026446263507, 36.474914747917353 ], [ 139.430985576623129, 36.471470586398482 ], [ 139.42965977987501, 36.48194617107896 ], [ 139.425910894772073, 36.484595054018598 ], [ 139.42808119359222, 36.490417836913707 ], [ 139.421677588050329, 36.490406440704703 ], [ 139.422568690292906, 36.493662559379686 ], [ 139.417928145367682, 36.49463922492032 ], [ 139.419029274381614, 36.502278108647829 ], [ 139.423967638795602, 36.506328666834577 ], [ 139.4216762516578, 36.508886999735296 ], [ 139.427753217137365, 36.51068561325053 ], [ 139.441795524743725, 36.528933107576904 ], [ 139.442865279109355, 36.531700891682874 ], [ 139.434485524887123, 36.533742001092548 ], [ 139.437830830228677, 36.535995054628131 ], [ 139.439046445637018, 36.55068533276193 ], [ 139.452235913556592, 36.54959508104821 ], [ 139.460757885667931, 36.553246747639321 ], [ 139.465442115161522, 36.563443693571628 ], [ 139.472517418943767, 36.565156748285347 ], [ 139.473909144091749, 36.573132054001121 ], [ 139.483529468110532, 36.581882053713855 ], [ 139.473840025796562, 36.590456226074025 ], [ 139.471445888417065, 36.602890667270515 ], [ 139.46564863817423, 36.606100387223137 ], [ 139.464081166612573, 36.612746225158219 ], [ 139.478582361386884, 36.614449306390441 ], [ 139.47771041380463, 36.61838153178229 ], [ 139.484813773736732, 36.617349864604648 ], [ 139.487208002847069, 36.624526837643486 ], [ 139.508177834039884, 36.631249305910785 ], [ 139.508361193214569, 36.635068467635733 ], [ 139.495189532770837, 36.650157333394247 ], [ 139.497641284317865, 36.661837586035801 ], [ 139.50772802912536, 36.668203134966745 ], [ 139.515563696207664, 36.680503107732306 ], [ 139.524540143412992, 36.682592278710729 ], [ 139.526814060320703, 36.687708946310863 ], [ 139.522481854254238, 36.694104198050354 ], [ 139.525024695433444, 36.700439197011406 ], [ 139.522815551296731, 36.707937252302429 ], [ 139.539324526605697, 36.709138919225779 ], [ 139.547664864442027, 36.715034198269677 ], [ 139.551623748437351, 36.713140585769452 ], [ 139.551852918177701, 36.713055305757791 ] ], [ [ 139.857296004906743, 36.410521306413216 ], [ 139.86034800265827, 36.414765747641184 ], [ 139.857346005413888, 36.410630467921806 ], [ 139.857296004906743, 36.410521306413216 ] ] ] } },
{ "type": "Feature", "properties": { "code": "090021", "name": "那須地域", "PrefCode": "09", "regioncode": "090021" }, "geometry": { "type": "Polygon", "coordinates": [ [ [ 139.957839559448189, 37.154189360050964 ], [ 139.963015861992517, 37.148492720562672 ], [ 139.990308002712254, 37.142748387328254 ], [ 140.01706319061384, 37.139575973052786 ], [ 140.023255305288217, 37.143324802397785 ], [ 140.028521192898779, 37.139574225670003 ], [ 140.038656355406488, 37.139432774902673 ], [ 140.059473217315144, 37.125474667222193 ], [ 140.065483605983673, 37.127486026159204 ], [ 140.08906693898814, 37.121509585998638 ], [ 140.100436808611903, 37.123429000048361 ], [ 140.128260052059773, 37.104057837898949 ], [ 140.140085188180933, 37.104662251561706 ], [ 140.14937800429152, 37.092554170738424 ], [ 140.156233061406738, 37.091389440770115 ], [ 140.152917716979118, 37.086171109309305 ], [ 140.157099143610708, 37.081505558734591 ], [ 140.165617522930347, 37.078685801908307 ], [ 140.172781997191464, 37.070276081376107 ], [ 140.193062140105781, 37.065503506081996 ], [ 140.19458627783456, 37.060235999691656 ], [ 140.190650661099198, 37.056666306305033 ], [ 140.199782891567224, 37.047692666783178 ], [ 140.195593333265833, 37.036526027754007 ], [ 140.20308046718992, 37.023962387254414 ], [ 140.219983865363133, 37.018487641091838 ], [ 140.224654500704673, 37.023804558933307 ], [ 140.2494635539, 37.025561693917098 ], [ 140.252046199072879, 37.010226135128107 ], [ 140.244895304574698, 37.010240613313726 ], [ 140.246016394041362, 37.005198666785077 ], [ 140.240213218165536, 37.000275080930294 ], [ 140.243954551661318, 36.991389801598132 ], [ 140.250246498277306, 36.988658693643856 ], [ 140.250976445606511, 36.983374801605862 ], [ 140.244201361603587, 36.978990945675662 ], [ 140.243670195023583, 36.973999279343332 ], [ 140.253089830831073, 36.962967892054621 ], [ 140.244541388074708, 36.957087359194304 ], [ 140.240581530113559, 36.946290694060338 ], [ 140.26173683568652, 36.937527054330133 ], [ 140.26425652381954, 36.93331538709549 ], [ 140.253466977718858, 36.929692918793194 ], [ 140.248379363616777, 36.921087082203144 ], [ 140.256727886183057, 36.873249504860837 ], [ 140.251569052070181, 36.852245892434041 ], [ 140.256681829203103, 36.848096414218219 ], [ 140.255339273588675, 36.840688945838224 ], [ 140.262714305221039, 36.83651753225837 ], [ 140.267155083740136, 36.823870558779333 ], [ 140.266690271838684, 36.813229999764758 ], [ 140.263294942607558, 36.810269748150404 ], [ 140.267071855981385, 36.79933974773121 ], [ 140.263653139880603, 36.786055865385947 ], [ 140.25381472127242, 36.783655054137512 ], [ 140.244542165988264, 36.788209801940866 ], [ 140.244257197811521, 36.792282863863136 ], [ 140.234501336067865, 36.800247053958401 ], [ 140.227869196606207, 36.816835666932548 ], [ 140.231952088118419, 36.82819789321826 ], [ 140.230851582334708, 36.83763594624196 ], [ 140.222462087555414, 36.837575413774402 ], [ 140.217070972947113, 36.842841802307362 ], [ 140.204895550888978, 36.837988504765747 ], [ 140.197901529631963, 36.82447738712176 ], [ 140.191736743555907, 36.823695746761359 ], [ 140.190954449388414, 36.814777413746697 ], [ 140.183093334190062, 36.820603802023868 ], [ 140.183579468118069, 36.824739359633782 ], [ 140.174286082736558, 36.82760383794681 ], [ 140.17018405994645, 36.821842441875219 ], [ 140.171300699567723, 36.817052721006348 ], [ 140.165484526689625, 36.814136639594267 ], [ 140.158852437589985, 36.800943026699372 ], [ 140.15187627776811, 36.800557505324662 ], [ 140.147680194885197, 36.793035558644192 ], [ 140.131910414634035, 36.783739747791174 ], [ 140.115628912044713, 36.784693945569188 ], [ 140.101626082877488, 36.794376197803331 ], [ 140.086057107749411, 36.797400946096843 ], [ 140.078793969765911, 36.793211802382814 ], [ 140.083272580964945, 36.788185387145973 ], [ 140.081384189029109, 36.784972612196327 ], [ 140.057398443583338, 36.783355197684273 ], [ 140.046630635895212, 36.787101331761107 ], [ 140.04655386526872, 36.774444918997858 ], [ 140.038921855059584, 36.773191613002609 ], [ 140.037987665398532, 36.768020171293927 ], [ 140.021093969111462, 36.776164748304552 ], [ 140.019803721664516, 36.78318835995492 ], [ 140.003160557613683, 36.788118134944 ], [ 139.992963644956262, 36.802405134589321 ], [ 139.985518003053471, 36.801682666921579 ], [ 139.975102191812766, 36.781741865194988 ], [ 139.984261946931383, 36.770372359796625 ], [ 139.973656329276196, 36.765015441009837 ], [ 139.969277133632886, 36.758364612736727 ], [ 139.975293021655716, 36.75466597275647 ], [ 139.961841582123384, 36.747968467870521 ], [ 139.969975810635219, 36.742047053628653 ], [ 139.96438830117927, 36.729225108052333 ], [ 139.938582555440689, 36.726917667116709 ], [ 139.936709754151934, 36.719985413995687 ], [ 139.881149585085382, 36.722605506039315 ], [ 139.860327561967438, 36.730079694222582 ], [ 139.852784423662342, 36.724540803015714 ], [ 139.838906614648636, 36.734763027092072 ], [ 139.812023696036817, 36.738919441778876 ], [ 139.784051970921837, 36.750230305983905 ], [ 139.754751387766419, 36.767221415036317 ], [ 139.735054085577644, 36.768862837849724 ], [ 139.733757301858077, 36.794884505415666 ], [ 139.729684811904576, 36.796353108209416 ], [ 139.729785939769386, 36.803499505198033 ], [ 139.726480388958862, 36.804835612673457 ], [ 139.731787781181197, 36.82243727865756 ], [ 139.727882801650026, 36.833074802460203 ], [ 139.737039248162887, 36.833451999710064 ], [ 139.742988494623432, 36.838199503704175 ], [ 139.742103255960615, 36.842760053933375 ], [ 139.750401361633635, 36.843361170681533 ], [ 139.77145572010545, 36.855094747724479 ], [ 139.770678249002003, 36.893355000333031 ], [ 139.776495278934021, 36.89964944076911 ], [ 139.769232748892364, 36.902791946291359 ], [ 139.771833968662804, 36.920621972626009 ], [ 139.746501698894349, 36.937948667297235 ], [ 139.742835304106052, 36.942973134602539 ], [ 139.746241750756212, 36.949391197645696 ], [ 139.732969441786395, 36.951338693925663 ], [ 139.746836278171713, 36.962295081352977 ], [ 139.743771581992974, 36.973608135407176 ], [ 139.747278858832374, 36.980186468430816 ], [ 139.740829689138877, 36.988599531743034 ], [ 139.750001996994683, 36.994441197703168 ], [ 139.755083748416268, 37.002725918766203 ], [ 139.754914641697383, 37.014962306765085 ], [ 139.758737717271856, 37.0182117749535 ], [ 139.754881362285118, 37.027372333166682 ], [ 139.758545058207915, 37.038358721078168 ], [ 139.786075447324151, 37.039657081309315 ], [ 139.803695811112902, 37.049405440908401 ], [ 139.803673061862355, 37.054369613167182 ], [ 139.813017276026585, 37.062284360335013 ], [ 139.823350194955651, 37.081021585877522 ], [ 139.818254189279514, 37.096665720946305 ], [ 139.821297638974897, 37.108324054411639 ], [ 139.816181803247673, 37.111081278678114 ], [ 139.815051854559556, 37.116615693959147 ], [ 139.828319728073097, 37.126651251154385 ], [ 139.83177313911915, 37.133640945773095 ], [ 139.838978144925477, 37.133152613002721 ], [ 139.847653475727384, 37.139471225416798 ], [ 139.856319299795928, 37.137807612731194 ], [ 139.866289389943404, 37.147227891553996 ], [ 139.877567716676822, 37.146126775130597 ], [ 139.894644189377914, 37.1532587209133 ], [ 139.902431724744361, 37.154271505025974 ], [ 139.907341362114266, 37.149089026837146 ], [ 139.916176354954928, 37.147611559425968 ], [ 139.933795887770088, 37.153736558595369 ], [ 139.957677055551699, 37.154202413710493 ], [ 139.957839559448189, 37.154189360050964 ] ] ] } },
{ "type": "Feature", "properties": { "code": "090022", "name": "日光市", "PrefCode": "09", "regioncode": "090022" }, "geometry": { "type": "Polygon", "coordinates": [ [ [ 139.777927108449376, 37.08881538682067 ], [ 139.787951024820018, 37.090702332646572 ], [ 139.809419078627684, 37.084850721083967 ], [ 139.822092995795174, 37.085136865573929 ], [ 139.823350194955651, 37.081021585877522 ], [ 139.800427172975674, 37.046406000436605 ], [ 139.784040143038283, 37.039247639766813 ], [ 139.772018716390676, 37.041164279408008 ], [ 139.758545058207915, 37.038358721078168 ], [ 139.754881362285118, 37.027372333166682 ], [ 139.758737717271856, 37.0182117749535 ], [ 139.754914641697383, 37.014962306765085 ], [ 139.755083748416268, 37.002725918766203 ], [ 139.750001996994683, 36.994441197703168 ], [ 139.740829689138877, 36.988599531743034 ], [ 139.747278858832374, 36.980186468430816 ], [ 139.743771581992974, 36.973608135407176 ], [ 139.746836278171713, 36.962295081352977 ], [ 139.732981114986501, 36.951262305511023 ], [ 139.746241750756212, 36.949391197645696 ], [ 139.742835304106052, 36.942973134602539 ], [ 139.746501698894349, 36.937948667297235 ], [ 139.771833968662804, 36.920621972626009 ], [ 139.769232748892364, 36.902791946291359 ], [ 139.776495278934021, 36.89964944076911 ], [ 139.770678249002003, 36.893355000333031 ], [ 139.771540440738818, 36.855228919379158 ], [ 139.750401361633635, 36.843361170681533 ], [ 139.742103255960615, 36.842760053933375 ], [ 139.742988494623432, 36.838199503704175 ], [ 139.737039248162887, 36.833451999710064 ], [ 139.727882801650026, 36.833074802460203 ], [ 139.731787781181197, 36.82243727865756 ], [ 139.726480388958862, 36.804835612673457 ], [ 139.729785939769386, 36.803499505198033 ], [ 139.729684811904576, 36.796353108209416 ], [ 139.733757301858077, 36.794884505415666 ], [ 139.736799363899536, 36.767355333082207 ], [ 139.754751387766419, 36.767221415036317 ], [ 139.784051970921837, 36.750230305983905 ], [ 139.812023696036817, 36.738919441778876 ], [ 139.838906614648636, 36.734763027092072 ], [ 139.852784423662342, 36.724540803015714 ], [ 139.841217366888031, 36.71870441517666 ], [ 139.84111169924563, 36.70581163989533 ], [ 139.837922502721426, 36.703968865171021 ], [ 139.829019415913422, 36.706545838319812 ], [ 139.830855863007741, 36.71407222495327 ], [ 139.827870219934766, 36.706389721408584 ], [ 139.82348518769129, 36.706044172200848 ], [ 139.823603838846111, 36.711068332837328 ], [ 139.819016861139289, 36.709499441246294 ], [ 139.817372165692973, 36.715946666605419 ], [ 139.811554332666333, 36.712354440704928 ], [ 139.806871245311754, 36.714244440628477 ], [ 139.796619727618349, 36.703928080916228 ], [ 139.787601633708505, 36.70687280213815 ], [ 139.783313917103669, 36.681072838141006 ], [ 139.793359079058291, 36.663108387442151 ], [ 139.796070946916757, 36.649569505028694 ], [ 139.792428637771536, 36.641218946397316 ], [ 139.784286083336156, 36.642591721031181 ], [ 139.779419610726563, 36.637755360421579 ], [ 139.77015788597771, 36.636193414294667 ], [ 139.770667562358199, 36.627770360413876 ], [ 139.75471221779469, 36.626752053564473 ], [ 139.743973837722478, 36.616479865853194 ], [ 139.737040220329959, 36.620302107756117 ], [ 139.72600352794052, 36.616388504625832 ], [ 139.716807951026226, 36.617504081248399 ], [ 139.712768248555903, 36.622556585817847 ], [ 139.713302477327488, 36.63291627936286 ], [ 139.721112750253269, 36.641208107768023 ], [ 139.708563087016955, 36.647350999848811 ], [ 139.711021945906168, 36.651197134939878 ], [ 139.707830699827014, 36.66274155937549 ], [ 139.695031750814678, 36.662712387167005 ], [ 139.681500830099253, 36.656416891826154 ], [ 139.675145576607179, 36.662850774843434 ], [ 139.662149973742316, 36.661676918554974 ], [ 139.648839948105206, 36.667586360122471 ], [ 139.641395135377252, 36.656067224622745 ], [ 139.650539053434613, 36.65589777526219 ], [ 139.656104060054417, 36.649459694209554 ], [ 139.642130583859398, 36.635896946486923 ], [ 139.636874747071943, 36.636430026824314 ], [ 139.613031672773559, 36.649903666121361 ], [ 139.603815524766674, 36.649742279182874 ], [ 139.587482776109255, 36.664348946446751 ], [ 139.578819416183137, 36.667720612716153 ], [ 139.573355550917995, 36.676747001073295 ], [ 139.574449052781574, 36.704997251621933 ], [ 139.560454915561991, 36.714453360334346 ], [ 139.555943191325241, 36.711243359793286 ], [ 139.547664864442027, 36.715034198269677 ], [ 139.539324526605697, 36.709138919225779 ], [ 139.522815551296731, 36.707937252302429 ], [ 139.525024695433444, 36.700439197011406 ], [ 139.522481854254238, 36.694104198050354 ], [ 139.526814060320703, 36.687708946310863 ], [ 139.524540143412992, 36.682592278710729 ], [ 139.515563696207664, 36.680503107732306 ], [ 139.50772802912536, 36.668203134966745 ], [ 139.497641284317865, 36.661837586035801 ], [ 139.495189532770837, 36.650157333394247 ], [ 139.508361193214569, 36.635068467635733 ], [ 139.508177834039884, 36.631249305910785 ], [ 139.487208002847069, 36.624526837643486 ], [ 139.484813773736732, 36.617349864604648 ], [ 139.47771041380463, 36.61838153178229 ], [ 139.478582361386884, 36.614449306390441 ], [ 139.464081166612573, 36.612746225158219 ], [ 139.464066692923552, 36.605775107835029 ], [ 139.45267413700185, 36.603575359815068 ], [ 139.445443553577206, 36.60746786574947 ], [ 139.427765939846267, 36.600972279347275 ], [ 139.403726420338103, 36.608822531634587 ], [ 139.40654725005561, 36.604785865275517 ], [ 139.39789888542532, 36.602082252294167 ], [ 139.386688833423023, 36.611983333863805 ], [ 139.352288417976183, 36.615090279292986 ], [ 139.345689494074918, 36.625870000300324 ], [ 139.329558911214804, 36.627667504951432 ], [ 139.330528028745562, 36.642511640000237 ], [ 139.326701855006718, 36.657112413107427 ], [ 139.334522114004471, 36.665691279029375 ], [ 139.334930116631654, 36.674513747911192 ], [ 139.339314552624614, 36.678426504779452 ], [ 139.336945863360938, 36.692353945578191 ], [ 139.361131284381372, 36.713499306447886 ], [ 139.359744643100839, 36.716741802192473 ], [ 139.36693422823214, 36.724589332231972 ], [ 139.364771479220508, 36.730458801632437 ], [ 139.36811938989797, 36.74181355904858 ], [ 139.372465031835759, 36.74626522476035 ], [ 139.355915524981583, 36.750565774690813 ], [ 139.355279222258332, 36.760246359581856 ], [ 139.350783410625922, 36.763535000439958 ], [ 139.354513748111003, 36.769276386596005 ], [ 139.353056860785614, 36.773608919116384 ], [ 139.359914137427609, 36.775158359270904 ], [ 139.367551478817745, 36.783788640333512 ], [ 139.374997912124059, 36.784813080559275 ], [ 139.377648105375783, 36.804259532151718 ], [ 139.38861177731178, 36.805268135316226 ], [ 139.393701854656911, 36.809679252395654 ], [ 139.390994915982674, 36.814244278550689 ], [ 139.393840804409706, 36.817852613107675 ], [ 139.406699559237381, 36.826940107699841 ], [ 139.398552918282576, 36.834344864623858 ], [ 139.390920051918897, 36.832655972894884 ], [ 139.374448885008064, 36.838041559370538 ], [ 139.366357496601267, 36.841241838240308 ], [ 139.363824746714727, 36.84731519833781 ], [ 139.348540246035554, 36.852709919227436 ], [ 139.355680894557736, 36.858541305936569 ], [ 139.356146550922631, 36.877813531869037 ], [ 139.360955719630851, 36.874163802417627 ], [ 139.362409921580706, 36.877513802220221 ], [ 139.370233865100886, 36.878231027739787 ], [ 139.370631970688919, 36.889595468156358 ], [ 139.379420973099514, 36.897986586212028 ], [ 139.394333605911243, 36.903609666552939 ], [ 139.393289196239493, 36.910795505108524 ], [ 139.403711284748056, 36.923966053990227 ], [ 139.411985252617342, 36.927713865302678 ], [ 139.420237498262054, 36.924121946071011 ], [ 139.430350116564682, 36.925931972882267 ], [ 139.434448560053056, 36.941853639633791 ], [ 139.457082698208069, 36.954214250986922 ], [ 139.461165253373792, 36.970720585886397 ], [ 139.484207367176282, 36.97547169436325 ], [ 139.494164916277896, 36.967906198911976 ], [ 139.504009390021452, 36.969617559302947 ], [ 139.523597807692681, 36.981492468402735 ], [ 139.535260362575741, 36.980584386959947 ], [ 139.547879027195449, 36.993637639965186 ], [ 139.554449610761026, 36.992472640200219 ], [ 139.556802970181025, 36.996841224742752 ], [ 139.576423332670743, 37.002078387107929 ], [ 139.582052022982566, 37.015081973254496 ], [ 139.595773449784929, 37.011740838069272 ], [ 139.602712671752442, 37.015981081261941 ], [ 139.616686328711125, 37.015175532424905 ], [ 139.625524773149778, 37.025986306123173 ], [ 139.623054227570606, 37.028952972601644 ], [ 139.62555705611328, 37.033223801737108 ], [ 139.638757108154095, 37.03213210841011 ], [ 139.655844772918044, 37.041977360067165 ], [ 139.664650920903341, 37.039840694092788 ], [ 139.67123741797252, 37.048202613859587 ], [ 139.673049416097683, 37.057650919154639 ], [ 139.692063721863292, 37.062548413878233 ], [ 139.700439883294052, 37.059327305810541 ], [ 139.719248106714872, 37.070949775212 ], [ 139.751717173209045, 37.070197586749259 ], [ 139.76309639398346, 37.075807027072699 ], [ 139.774910999043414, 37.091894278798009 ], [ 139.777858223078624, 37.088829278648348 ], [ 139.777927108449376, 37.08881538682067 ] ] ] } }
]
}
