{
"type": "FeatureCollection",
"name": "12_chiba_region",
"crs": { "type": "name", "properties": { "name": "urn:ogc:def:crs:OGC:1.3:CRS84" } },
"features": [
{ "type": "Feature", "properties": { "code": "120011", "name": "千葉中央", "PrefCode": "12", "regioncode": "120011" }, "geometry": { "type": "MultiPolygon", "coordinates": [ [ [ [ 140.034239338774569, 35.512251225213902 ], [ 140.03654644606172, 35.510944026445713 ], [ 140.034199637303459, 35.512204413702761 ], [ 140.034239338774569, 35.512251225213902 ] ] ], [ [ [ 140.041826006065435, 35.513614866333057 ], [ 140.045464475105518, 35.511550360161038 ], [ 140.041757108104093, 35.513533667444847 ], [ 140.041826006065435, 35.513614866333057 ] ] ], [ [ [ 140.071012387012161, 35.557612198244385 ], [ 140.077924423373474, 35.561752107673669 ], [ 140.071169273743067, 35.557740386709554 ], [ 140.071012387012161, 35.557612198244385 ] ] ], [ [ [ 140.091670194823678, 35.5878559732746 ], [ 140.102960610244054, 35.587346774434138 ], [ 140.105089804650788, 35.57763797331387 ], [ 140.109463216754079, 35.576620865260793 ], [ 140.111722502591533, 35.570437504587233 ], [ 140.086109856584699, 35.569450000417248 ], [ 140.081593606060096, 35.588288252201153 ], [ 140.09166666678334, 35.58785610907222 ], [ 140.091670194823678, 35.5878559732746 ] ] ], [ [ [ 140.117330051640579, 35.709581134961468 ], [ 140.122581167886665, 35.706898387150886 ], [ 140.123625005589588, 35.699029532387044 ], [ 140.134272825730363, 35.699563171203465 ], [ 140.141408366103292, 35.692761801815777 ], [ 140.152643942663872, 35.689292414313513 ], [ 140.15399194637132, 35.682539414062774 ], [ 140.151868638027281, 35.687699640326173 ], [ 140.14762330647045, 35.683631333119592 ], [ 140.151831970868784, 35.688858532795109 ], [ 140.146966692558863, 35.691811559256109 ], [ 140.139491633831881, 35.688156280088322 ], [ 140.136624331647681, 35.67988269443083 ], [ 140.141779584660185, 35.671569107828134 ], [ 140.136499247642178, 35.670511865730077 ], [ 140.149916522829358, 35.668126108233366 ], [ 140.152864137170241, 35.679015532141136 ], [ 140.150344306044985, 35.665399468110991 ], [ 140.156651776758167, 35.65735364025835 ], [ 140.157801166990339, 35.646346666865213 ], [ 140.16355396914048, 35.645350585860911 ], [ 140.172526550160228, 35.652379748126918 ], [ 140.17058538330889, 35.645333612955937 ], [ 140.174827133765234, 35.654025558732599 ], [ 140.183592969639903, 35.647636918808814 ], [ 140.180341828712471, 35.643698026742584 ], [ 140.185136327679402, 35.647157467743 ], [ 140.186137133721786, 35.64196522471542 ], [ 140.19646192008156, 35.641152413852865 ], [ 140.185820143384944, 35.633170505314638 ], [ 140.185077612741679, 35.629123279116072 ], [ 140.189554279606341, 35.625601026766049 ], [ 140.208298948837523, 35.645960134652569 ], [ 140.205106471586419, 35.651767360175597 ], [ 140.21188625094976, 35.654592054279931 ], [ 140.223571284387276, 35.647736441383699 ], [ 140.221858418531269, 35.637178972531615 ], [ 140.228736472210471, 35.633139467912144 ], [ 140.24251199683124, 35.632751613696087 ], [ 140.25264994813665, 35.624880251622358 ], [ 140.265606057273772, 35.627482919301315 ], [ 140.267764227836892, 35.60786489235096 ], [ 140.262500855630037, 35.605936864594696 ], [ 140.26131691344483, 35.599636612739516 ], [ 140.276713799702179, 35.586590720685251 ], [ 140.280639948374983, 35.587527666768437 ], [ 140.275234359178398, 35.587111000072639 ], [ 140.274769882723945, 35.582138531568035 ], [ 140.281027367319211, 35.579806837715466 ], [ 140.293338365773025, 35.562758225112077 ], [ 140.291981051384482, 35.548284640423844 ], [ 140.281762994766495, 35.550076613345084 ], [ 140.28058294394782, 35.543528000217066 ], [ 140.292038170924911, 35.531238503654095 ], [ 140.287778884587965, 35.523390747884775 ], [ 140.300873917397439, 35.520336802201712 ], [ 140.292587976853724, 35.515316585991684 ], [ 140.286189105343055, 35.518888559159734 ], [ 140.28227069983302, 35.512782999735691 ], [ 140.27703455370181, 35.51177997326721 ], [ 140.272114837629715, 35.49360280232753 ], [ 140.270254669117776, 35.500214748411963 ], [ 140.260277444648409, 35.50215255899343 ], [ 140.262817613042444, 35.494305612613971 ], [ 140.251199248146804, 35.491851504843112 ], [ 140.253603112593623, 35.49020927893514 ], [ 140.247515006312597, 35.486075973227628 ], [ 140.248490506331905, 35.481753747837217 ], [ 140.236505745943532, 35.480264919290619 ], [ 140.211531607797497, 35.486742721599398 ], [ 140.206183528447127, 35.48458525160811 ], [ 140.207777638826997, 35.480080251602374 ], [ 140.20147152968741, 35.478603305798003 ], [ 140.196908911017545, 35.470851108391969 ], [ 140.186087833786587, 35.473847505558012 ], [ 140.185898340336166, 35.468267532420725 ], [ 140.173976355324612, 35.468862801776936 ], [ 140.174542944401423, 35.460536136333701 ], [ 140.170595422440897, 35.456541414354831 ], [ 140.186330336875585, 35.44838227911896 ], [ 140.186880559190513, 35.443460640296337 ], [ 140.182353864839001, 35.440752866151911 ], [ 140.182548248802732, 35.43545817055815 ], [ 140.173027081334794, 35.431277332982575 ], [ 140.18219394289622, 35.421298505022037 ], [ 140.18085055810684, 35.415435197776219 ], [ 140.190233256059969, 35.407388000256049 ], [ 140.188581244628836, 35.404180224637685 ], [ 140.194444189447836, 35.393276107606312 ], [ 140.201002217578321, 35.390638891571655 ], [ 140.206933774374306, 35.379683107589415 ], [ 140.199791802949449, 35.377813106789517 ], [ 140.197956744408316, 35.369890108341906 ], [ 140.209356136076849, 35.365618198221341 ], [ 140.205848859237562, 35.359699332658124 ], [ 140.213839493897581, 35.340214694052918 ], [ 140.212649415638111, 35.333189171343236 ], [ 140.220754916206488, 35.328121972750921 ], [ 140.231036108829471, 35.304112387176986 ], [ 140.225535032315975, 35.30680097338626 ], [ 140.212908585862579, 35.300985665656015 ], [ 140.199086720076139, 35.30806838704649 ], [ 140.198761634042285, 35.298970053824974 ], [ 140.204231309827151, 35.293803134806865 ], [ 140.202815135710011, 35.287712279298319 ], [ 140.190306161400258, 35.27741138702595 ], [ 140.177980583137469, 35.274736359895144 ], [ 140.174558974816932, 35.251351305818162 ], [ 140.166719804875129, 35.25595630593881 ], [ 140.157426692887611, 35.253299613286572 ], [ 140.158052801795407, 35.250467999798389 ], [ 140.154067457946894, 35.252608288241959 ], [ 140.156344124981501, 35.248587558768861 ], [ 140.151820816577469, 35.24974308957195 ], [ 140.141236939133478, 35.231205134909089 ], [ 140.122252554711736, 35.247619253325922 ], [ 140.118556939151517, 35.262186441251288 ], [ 140.120293359151219, 35.282576413870459 ], [ 140.114320414655481, 35.289388891684041 ], [ 140.12214136163459, 35.31371077493236 ], [ 140.118123917384992, 35.316177135066766 ], [ 140.107701607643094, 35.312570440873174 ], [ 140.101283333259289, 35.318019613014769 ], [ 140.101612244109788, 35.32064905441041 ], [ 140.108937833714094, 35.318946278947692 ], [ 140.108466743645408, 35.324513225405099 ], [ 140.119564034152972, 35.331359694894047 ], [ 140.129614111801857, 35.347100586223121 ], [ 140.124086108687038, 35.351203612656661 ], [ 140.122899493716773, 35.358643613112292 ], [ 140.118138974733938, 35.361898053652283 ], [ 140.120628145272804, 35.364251666681128 ], [ 140.11061377430633, 35.373756640056968 ], [ 140.105588002984064, 35.384425532212617 ], [ 140.102243838882146, 35.385160504953376 ], [ 140.105684358146732, 35.379232747793139 ], [ 140.102465162037674, 35.375453864903989 ], [ 140.089904331919456, 35.380861919142319 ], [ 140.092528612105866, 35.395821332888261 ], [ 140.087510310552489, 35.397752440822558 ], [ 140.092772607170104, 35.406698278702663 ], [ 140.087568859115663, 35.427607973129511 ], [ 140.080706666779292, 35.432318801871247 ], [ 140.060111556103493, 35.425787196721785 ], [ 140.032622554687237, 35.423570027035169 ], [ 140.040912049351618, 35.429021945706268 ], [ 140.043167691136091, 35.437372224648527 ], [ 140.018351971266497, 35.47257597300279 ], [ 140.01786182906028, 35.480510838004818 ], [ 140.009750169035101, 35.486199333232719 ], [ 140.015546718706219, 35.489177135116734 ], [ 140.020127081899318, 35.486743027368846 ], [ 140.01594403379022, 35.489712505128068 ], [ 140.021924889622028, 35.496792999797151 ], [ 140.025936886678096, 35.494544468052823 ], [ 140.029643774340798, 35.497050026937245 ], [ 140.027934033628867, 35.49456305434154 ], [ 140.033041477782035, 35.491674027234637 ], [ 140.036225966355346, 35.495293026851755 ], [ 140.025218610750358, 35.501636170972574 ], [ 140.033891633891812, 35.511865468216854 ], [ 140.042233916961777, 35.507327305710646 ], [ 140.045908586412224, 35.51139866701493 ], [ 140.036919883246128, 35.517539612962821 ], [ 140.050075524965564, 35.530936837764898 ], [ 140.05772172467789, 35.526577251838773 ], [ 140.060677638861989, 35.530064586211722 ], [ 140.053943554051898, 35.535085134271583 ], [ 140.07015111528176, 35.5484597213391 ], [ 140.066349053266208, 35.553390251758742 ], [ 140.096088689941098, 35.535401585914485 ], [ 140.101058832798913, 35.538462054380375 ], [ 140.09054111488058, 35.542343171300388 ], [ 140.094193164582975, 35.545569613247096 ], [ 140.08695905311788, 35.547080864590271 ], [ 140.088246082790533, 35.551953838398958 ], [ 140.098043060638815, 35.555011332806828 ], [ 140.113722022853153, 35.548126027893943 ], [ 140.11562700458262, 35.550355919390199 ], [ 140.091214695401959, 35.561177919325587 ], [ 140.091025187562423, 35.564478801755342 ], [ 140.126894864106703, 35.567673306078291 ], [ 140.112113410905295, 35.570451802009131 ], [ 140.110566057177834, 35.589544505274773 ], [ 140.117992917639071, 35.591695305893722 ], [ 140.117669364949279, 35.596556504878833 ], [ 140.107348417795265, 35.59213594581729 ], [ 140.10887099879767, 35.599887135083293 ], [ 140.106045888307108, 35.60266025216896 ], [ 140.101660117720371, 35.593931641032441 ], [ 140.088973864552258, 35.594540865168824 ], [ 140.099847833610738, 35.604737721168931 ], [ 140.092789688893049, 35.603813306239147 ], [ 140.083005421163307, 35.613894135306168 ], [ 140.077921140848048, 35.610410468368457 ], [ 140.086809557914876, 35.601751667105816 ], [ 140.083913643799633, 35.596779694127633 ], [ 140.055576030409497, 35.622331504595309 ], [ 140.050886004785411, 35.620688468398157 ], [ 140.054666082873496, 35.62187680197286 ], [ 140.046530363285683, 35.626288559369584 ], [ 140.047432943575586, 35.628745359710649 ], [ 140.044410000221433, 35.63002594574084 ], [ 140.043718715646264, 35.626314225121462 ], [ 140.045275058996822, 35.630778440872405 ], [ 140.018264863832428, 35.650666027015575 ], [ 140.041759974243519, 35.677848197736182 ], [ 140.048027197597207, 35.676450946254192 ], [ 140.050094449399353, 35.679203440986043 ], [ 140.054476641583847, 35.675444837809096 ], [ 140.0575828019048, 35.679737640080077 ], [ 140.061474163002231, 35.676436225251621 ], [ 140.062914227609554, 35.679440973522162 ], [ 140.066150311187926, 35.676349865154179 ], [ 140.081641362758774, 35.694878135017973 ], [ 140.093393384896899, 35.69241219756492 ], [ 140.112662114265277, 35.714776251322974 ], [ 140.117171725095091, 35.709897802441674 ], [ 140.117330051640579, 35.709581134961468 ] ] ] ] } },
{ "type": "Feature", "properties": { "code": "120012", "name": "印旛", "PrefCode": "12", "regioncode": "120012" }, "geometry": { "type": "Polygon", "coordinates": [ [ [ 140.385028559720354, 35.885053999942215 ], [ 140.391375252565922, 35.886201224606907 ], [ 140.401027665294578, 35.872463108185968 ], [ 140.397989830966026, 35.870010918669038 ], [ 140.400551504848181, 35.867277558812361 ], [ 140.39800306089262, 35.858313666142806 ], [ 140.394169415586134, 35.857576440600326 ], [ 140.398430246059092, 35.855349505175582 ], [ 140.392753281039177, 35.855928666774616 ], [ 140.394356031205916, 35.852792837819266 ], [ 140.403084695402413, 35.853460865026932 ], [ 140.418147665182687, 35.866330559207995 ], [ 140.422558496277702, 35.86624053167526 ], [ 140.423065382961113, 35.859972197658863 ], [ 140.427790725861428, 35.863630503944648 ], [ 140.438431310057013, 35.86340599988705 ], [ 140.442211362064768, 35.868212108202272 ], [ 140.44644105081386, 35.864019306046202 ], [ 140.452393358566724, 35.87036789196469 ], [ 140.460380531736178, 35.862770892362846 ], [ 140.46523260709921, 35.850622558784096 ], [ 140.472468470443573, 35.851010026291704 ], [ 140.472173644797977, 35.843861693962083 ], [ 140.463918365740028, 35.845284532055587 ], [ 140.464150920528596, 35.837952360313238 ], [ 140.469499364104422, 35.834686441725978 ], [ 140.455993112692113, 35.826303198134156 ], [ 140.454967756057158, 35.818135972597133 ], [ 140.467982502790392, 35.820632585925125 ], [ 140.444468392402428, 35.803379331690849 ], [ 140.443018470326251, 35.788239333178751 ], [ 140.433082891662139, 35.786052413987761 ], [ 140.436255057724793, 35.780824081166486 ], [ 140.418482477384487, 35.775098838740462 ], [ 140.414043722340011, 35.785320251628377 ], [ 140.407379558919615, 35.786509134688856 ], [ 140.40234810568063, 35.783752198205434 ], [ 140.402944136762585, 35.774850532326241 ], [ 140.393416808938696, 35.767866387423908 ], [ 140.389240699998368, 35.7685483334389 ], [ 140.395256524169326, 35.766171640209052 ], [ 140.392822607077733, 35.7643499725732 ], [ 140.39991511039409, 35.763789972829045 ], [ 140.395118910809174, 35.756244134759072 ], [ 140.389082528136214, 35.757774693647264 ], [ 140.401966938823193, 35.753312747785117 ], [ 140.400531854661381, 35.745321613102021 ], [ 140.403268755149043, 35.742074359943786 ], [ 140.381552089157708, 35.74084774762548 ], [ 140.385199584693169, 35.740540252330845 ], [ 140.388545032127581, 35.729036054570315 ], [ 140.393527496596789, 35.727789945849395 ], [ 140.387024694933757, 35.723269386672882 ], [ 140.379263060941526, 35.728921332553512 ], [ 140.37667758830014, 35.737898586450683 ], [ 140.368047301841557, 35.739409172295495 ], [ 140.365856640571565, 35.725909107319524 ], [ 140.377368029311128, 35.724679108154362 ], [ 140.377684890145588, 35.715764640425846 ], [ 140.386257950943786, 35.713216585876808 ], [ 140.380902580789552, 35.707035468112394 ], [ 140.383109830954027, 35.708553531820087 ], [ 140.382386160892679, 35.703619919423772 ], [ 140.369664501415627, 35.702730197640562 ], [ 140.373399466811975, 35.700082693361651 ], [ 140.369901388238532, 35.697079893022703 ], [ 140.373868366132228, 35.699332134470467 ], [ 140.380275524895637, 35.693346585976201 ], [ 140.37888466939205, 35.690886306158177 ], [ 140.381971633683975, 35.693636864649648 ], [ 140.393186861284676, 35.687136027106021 ], [ 140.394338003396228, 35.691840198166688 ], [ 140.404484384047123, 35.691870775116229 ], [ 140.398570389212182, 35.678839107638737 ], [ 140.390675913662562, 35.676090505172738 ], [ 140.377520998595287, 35.68285019817813 ], [ 140.371349274249724, 35.678639639807557 ], [ 140.373312361176545, 35.68090353197249 ], [ 140.367998560385331, 35.688370441043048 ], [ 140.365783216322484, 35.683561278630179 ], [ 140.360609636925233, 35.686884054155826 ], [ 140.351642672171693, 35.682740972817669 ], [ 140.346902607369543, 35.676657918927845 ], [ 140.349280336618335, 35.671537386041564 ], [ 140.338825252883225, 35.664525197579849 ], [ 140.353754137343572, 35.662957693642682 ], [ 140.354416835168877, 35.65670855925265 ], [ 140.347467172971733, 35.660114639878771 ], [ 140.333331309792129, 35.659909386708875 ], [ 140.330330700201671, 35.655596080794567 ], [ 140.326332943910302, 35.657914972797812 ], [ 140.327453113370552, 35.648921666901458 ], [ 140.320225616419179, 35.649557802350728 ], [ 140.325736108834462, 35.644003919445368 ], [ 140.321206328909057, 35.639690639611388 ], [ 140.329194617237818, 35.631514559349512 ], [ 140.32564147857147, 35.626128748043357 ], [ 140.31651124459836, 35.630895693581465 ], [ 140.307788105836494, 35.624741586055393 ], [ 140.315807497218316, 35.617514639489059 ], [ 140.309133553670677, 35.614319693599043 ], [ 140.309187418564534, 35.609981080762338 ], [ 140.31210824929633, 35.61184636012149 ], [ 140.314810972848136, 35.604126360243356 ], [ 140.32409713397567, 35.608956054178634 ], [ 140.330153774776932, 35.606205467808138 ], [ 140.321212048597204, 35.601419134685386 ], [ 140.311511219067597, 35.601610000501182 ], [ 140.30584557741156, 35.594236720748142 ], [ 140.312523995086394, 35.600359171238836 ], [ 140.323024278747539, 35.600998305927135 ], [ 140.32382308626643, 35.59239472123943 ], [ 140.331768054252393, 35.588238613221449 ], [ 140.336391970712953, 35.590403586256571 ], [ 140.337111634294502, 35.585404972661422 ], [ 140.316706082719634, 35.585692000285633 ], [ 140.292493995001905, 35.572674613142908 ], [ 140.283812892351193, 35.573325748384605 ], [ 140.281027367319211, 35.579806837715466 ], [ 140.274339338589698, 35.583251305903104 ], [ 140.275234359178398, 35.587111000072639 ], [ 140.280639948374983, 35.587527666768437 ], [ 140.276713799702179, 35.586590720685251 ], [ 140.26131691344483, 35.599636612739516 ], [ 140.262500855630037, 35.605936864594696 ], [ 140.267764227836892, 35.60786489235096 ], [ 140.265606057273772, 35.627482919301315 ], [ 140.25264994813665, 35.624880251622358 ], [ 140.24251199683124, 35.632751613696087 ], [ 140.228736472210471, 35.633139467912144 ], [ 140.221858418531269, 35.637178972531615 ], [ 140.223571284387276, 35.647736441383699 ], [ 140.215646550248152, 35.654623694228178 ], [ 140.205106471586419, 35.651767360175597 ], [ 140.208298948837523, 35.645960134652569 ], [ 140.189976226221916, 35.625474359953785 ], [ 140.185077612741679, 35.629123279116072 ], [ 140.185820143384944, 35.633170505314638 ], [ 140.19646192008156, 35.641152413852865 ], [ 140.186137133721786, 35.64196522471542 ], [ 140.185136327679402, 35.647157467743 ], [ 140.180341828712471, 35.643698026742584 ], [ 140.183592969639903, 35.647636918808814 ], [ 140.174827133765234, 35.654025558732599 ], [ 140.17058538330889, 35.645333612955937 ], [ 140.172526550160228, 35.652379748126918 ], [ 140.16355396914048, 35.645350585860911 ], [ 140.157801166990339, 35.646346666865213 ], [ 140.156651776758167, 35.65735364025835 ], [ 140.150344306044985, 35.665399468110991 ], [ 140.152864137170241, 35.679015532141136 ], [ 140.149916522829358, 35.668126108233366 ], [ 140.136499247642178, 35.670511865730077 ], [ 140.141779584660185, 35.671569107828134 ], [ 140.136624331647681, 35.67988269443083 ], [ 140.139491633831881, 35.688156280088322 ], [ 140.146966692558863, 35.691811559256109 ], [ 140.151831970868784, 35.688858532795109 ], [ 140.14762330647045, 35.683631333119592 ], [ 140.151868638027281, 35.687699640326173 ], [ 140.15399194637132, 35.682539414062774 ], [ 140.152643942663872, 35.689292414313513 ], [ 140.140810311546716, 35.69331235957776 ], [ 140.136794189300417, 35.697545945988679 ], [ 140.139605381882916, 35.702870946037365 ], [ 140.131306808562385, 35.711443387202621 ], [ 140.132880194965082, 35.715600026719926 ], [ 140.126254060276779, 35.716536134634964 ], [ 140.14219031133382, 35.725260000048991 ], [ 140.139499610818461, 35.743157999841856 ], [ 140.148179974226537, 35.750102134805729 ], [ 140.136250505956127, 35.751771558910377 ], [ 140.151881750142707, 35.759793197697945 ], [ 140.132292891803559, 35.773595361137041 ], [ 140.089773528225805, 35.783866198066619 ], [ 140.071208975214063, 35.799728693924123 ], [ 140.06152902704298, 35.776128225237471 ], [ 140.03937302244708, 35.766585558576708 ], [ 140.030484448898278, 35.77140697335318 ], [ 140.021033476214029, 35.76548953231611 ], [ 140.015185720044997, 35.767946224738523 ], [ 140.018154695083126, 35.774342586241403 ], [ 140.027553969340261, 35.780336171077465 ], [ 140.018986471748349, 35.784040919253073 ], [ 140.029907755938211, 35.798948945737322 ], [ 140.034189610762041, 35.815977694115361 ], [ 140.05617005240606, 35.835734532322874 ], [ 140.07664306122831, 35.830655000427953 ], [ 140.086240245690874, 35.832303865131337 ], [ 140.094067691171063, 35.825012748339702 ], [ 140.101261050756989, 35.832567171337928 ], [ 140.109256031840459, 35.834123531775617 ], [ 140.111358340115316, 35.847894306177352 ], [ 140.117976913304005, 35.851081505307263 ], [ 140.11883411200472, 35.843577359807341 ], [ 140.122679104956774, 35.845726504774404 ], [ 140.132382969698369, 35.840752892332148 ], [ 140.146469663344305, 35.845718134784136 ], [ 140.15387966331582, 35.842738413746872 ], [ 140.165930558048899, 35.844905359894483 ], [ 140.205431803135298, 35.861320332667276 ], [ 140.214421361556674, 35.861893973328279 ], [ 140.230372827344127, 35.854502891495315 ], [ 140.240564332378085, 35.854383721431645 ], [ 140.279710052077348, 35.874156225829211 ], [ 140.304103217389638, 35.86534677463402 ], [ 140.319406913198577, 35.864644306089929 ], [ 140.34838834044956, 35.883209279085008 ], [ 140.359200195132985, 35.89715761293354 ], [ 140.375885331442987, 35.902367891864742 ], [ 140.375675252510973, 35.894837612965546 ], [ 140.384967171997459, 35.885277054292658 ], [ 140.385028559720354, 35.885053999942215 ] ] ] } },
{ "type": "Feature", "properties": { "code": "120013", "name": "東葛飾", "PrefCode": "12", "regioncode": "120013" }, "geometry": { "type": "MultiPolygon", "coordinates": [ [ [ [ 139.980862336028054, 35.660649278741289 ], [ 139.981625641010623, 35.656185613375385 ], [ 139.980829533256383, 35.660645532165631 ], [ 139.980862336028054, 35.660649278741289 ] ] ], [ [ [ 139.936020052383583, 35.666877892400862 ], [ 139.932196472289434, 35.666321251624538 ], [ 139.935945836731094, 35.666867864960068 ], [ 139.936020052383583, 35.666877892400862 ] ] ], [ [ [ 139.977079754227361, 35.667149440894036 ], [ 139.980786057330761, 35.6610956401517 ], [ 139.977073255726282, 35.667151333067636 ], [ 139.977079754227361, 35.667149440894036 ] ] ], [ [ [ 139.966727055609226, 35.679093918849333 ], [ 139.977664085129504, 35.679503945850456 ], [ 139.978268975432911, 35.675910442013333 ], [ 139.971233021486796, 35.677082666931597 ], [ 139.971679585244715, 35.674410108439815 ], [ 139.978717250600653, 35.673240918733484 ], [ 139.979300389901141, 35.669799667420762 ], [ 139.971444163417459, 35.670703198294007 ], [ 139.970763996261439, 35.667986531653185 ], [ 139.976261441312545, 35.667048466813355 ], [ 139.969021478858281, 35.670941053686704 ], [ 139.958030558363589, 35.669985080646995 ], [ 139.960538443794235, 35.678970666762893 ], [ 139.966670583580594, 35.679102440825034 ], [ 139.966727055609226, 35.679093918849333 ] ] ], [ [ [ 139.9235266930026, 35.970238919090889 ], [ 139.93245586284786, 35.969439198760085 ], [ 139.937220025883562, 35.965120026568002 ], [ 139.931655226107864, 35.950766693827916 ], [ 139.93863933863463, 35.940570559084108 ], [ 139.976287419129108, 35.923363558781261 ], [ 139.994315447400027, 35.909806585605509 ], [ 140.020900532133965, 35.909227612864072 ], [ 140.043726615291121, 35.893365892222221 ], [ 140.061116835373696, 35.888056386593007 ], [ 140.073673358638644, 35.876718027415109 ], [ 140.092823358611213, 35.883864613261323 ], [ 140.124597029729216, 35.87250894573134 ], [ 140.146469663344305, 35.845718134784136 ], [ 140.132072412212096, 35.840797053541223 ], [ 140.122679104956774, 35.845726504774404 ], [ 140.11883411200472, 35.843577359807341 ], [ 140.117976913304005, 35.851081505307263 ], [ 140.111358340115316, 35.847894306177352 ], [ 140.109256031840459, 35.834123531775617 ], [ 140.101261050756989, 35.832567171337928 ], [ 140.094067691171063, 35.825012748339702 ], [ 140.086240245690874, 35.832303865131337 ], [ 140.07664306122831, 35.830655000427953 ], [ 140.05617005240606, 35.835734532322874 ], [ 140.050360855569124, 35.832643973440668 ], [ 140.033987392803965, 35.81559353161623 ], [ 140.029907755938211, 35.798948945737322 ], [ 140.018986471748349, 35.784040919253073 ], [ 140.027553969340261, 35.780336171077465 ], [ 140.018154695083126, 35.774342586241403 ], [ 140.016300972911608, 35.766740640368312 ], [ 140.021033476214029, 35.76548953231611 ], [ 140.030484448898278, 35.77140697335318 ], [ 140.03937302244708, 35.766585558576708 ], [ 140.06152902704298, 35.776128225237471 ], [ 140.071208975214063, 35.799728693924123 ], [ 140.089773528225805, 35.783866198066619 ], [ 140.128938196640547, 35.77530313503172 ], [ 140.151881750142707, 35.759793197697945 ], [ 140.136250505956127, 35.751771558910377 ], [ 140.148179974226537, 35.750102134805729 ], [ 140.139499610818461, 35.743157999841856 ], [ 140.14219031133382, 35.725260000048991 ], [ 140.126254060276779, 35.716536134634964 ], [ 140.132880194965082, 35.715600026719926 ], [ 140.131338756078776, 35.711358386880079 ], [ 140.139605381882916, 35.702870946037365 ], [ 140.136668911041511, 35.69743622510174 ], [ 140.123625005589588, 35.699029532387044 ], [ 140.122581167886665, 35.706898387150886 ], [ 140.112662114265277, 35.714776251322974 ], [ 140.093393384896899, 35.69241219756492 ], [ 140.081641362758774, 35.694878135017973 ], [ 140.066150311187926, 35.676349865154179 ], [ 140.062914227609554, 35.679440973522162 ], [ 140.061474163002231, 35.676436225251621 ], [ 140.0575828019048, 35.679737640080077 ], [ 140.054476641583847, 35.675444837809096 ], [ 140.050094449399353, 35.679203440986043 ], [ 140.048027197597207, 35.676450946254192 ], [ 140.041759974243519, 35.677848197736182 ], [ 140.019651907109846, 35.652477829987902 ], [ 140.007998911120922, 35.658870387358547 ], [ 139.987461194278808, 35.654467532350793 ], [ 139.986498365707121, 35.660108748420043 ], [ 140.002949144087779, 35.659778440922366 ], [ 140.001858806938458, 35.665643251834638 ], [ 139.985868975173162, 35.663835837553904 ], [ 139.984580947252994, 35.671450134715997 ], [ 139.992006732125105, 35.672288432365292 ], [ 139.983819610886371, 35.677134332983144 ], [ 139.9881836061885, 35.689848467832576 ], [ 139.984505305275661, 35.690900586492944 ], [ 139.982967860278563, 35.681610052861686 ], [ 139.967624501669434, 35.68371950535095 ], [ 139.959866693393224, 35.67934841439785 ], [ 139.954325187857194, 35.689420585691551 ], [ 139.952396719433068, 35.687483748176476 ], [ 139.958101803555451, 35.677396999771759 ], [ 139.954686161337349, 35.672925081327492 ], [ 139.946743190745678, 35.680982226248773 ], [ 139.936648054364241, 35.67329872085935 ], [ 139.93277919610307, 35.67550519760681 ], [ 139.92983591379641, 35.669456505013727 ], [ 139.945092698269491, 35.672958000111691 ], [ 139.947662335648374, 35.669545081040724 ], [ 139.930352361172595, 35.666482107962963 ], [ 139.918183165121036, 35.65535372069769 ], [ 139.939506550387023, 35.640488865268992 ], [ 139.910180336553367, 35.624163196973996 ], [ 139.904732671675561, 35.628599972610687 ], [ 139.905442022731222, 35.632658747003632 ], [ 139.900085110239729, 35.631678693716822 ], [ 139.897386808654346, 35.629427559334431 ], [ 139.906908003101876, 35.623092053155801 ], [ 139.897557885787819, 35.616615026961995 ], [ 139.892977367011895, 35.625310945943454 ], [ 139.888331971143657, 35.621822080924346 ], [ 139.87258141390123, 35.625531883289852 ], [ 139.874996874206431, 35.637245784065726 ], [ 139.871460610418922, 35.63864172073886 ], [ 139.883146056645273, 35.64475669336673 ], [ 139.886903916982192, 35.653733639695758 ], [ 139.886939999581386, 35.679260027228509 ], [ 139.907153917319533, 35.684383613313173 ], [ 139.918908364929166, 35.698274171116168 ], [ 139.916210921297079, 35.708001386754631 ], [ 139.897654060186824, 35.724998918765152 ], [ 139.89945055759722, 35.744385586125929 ], [ 139.884045083713659, 35.757405306110059 ], [ 139.879389857356045, 35.768013081238735 ], [ 139.881751556189442, 35.772858360425062 ], [ 139.894463580330012, 35.779917774985392 ], [ 139.888281996716842, 35.79458302678529 ], [ 139.891660803603259, 35.818328837605804 ], [ 139.888040558425132, 35.823212414421448 ], [ 139.888451193367928, 35.831157693572777 ], [ 139.890036304232126, 35.844002386600891 ], [ 139.900338691177694, 35.864174865377777 ], [ 139.889919727813208, 35.892560946830258 ], [ 139.866774358349971, 35.926512864976814 ], [ 139.847673800405573, 35.939559801143957 ], [ 139.837773306992631, 35.95390591862332 ], [ 139.83387669205581, 35.968304532228444 ], [ 139.825658340060386, 35.972762054325415 ], [ 139.826645330717497, 35.983431198291214 ], [ 139.8141898049156, 35.997332054230981 ], [ 139.816965667631507, 36.003195919056452 ], [ 139.813421854934745, 36.023425054222912 ], [ 139.817282438533766, 36.032504721116027 ], [ 139.782760778287297, 36.070218306429751 ], [ 139.776067781702864, 36.091310747592956 ], [ 139.777969780381113, 36.098557413593824 ], [ 139.78677566756312, 36.104099891296983 ], [ 139.798434838297226, 36.095496802135756 ], [ 139.812990310754344, 36.063144640312942 ], [ 139.87601674407756, 36.011043585792891 ], [ 139.884163644037017, 35.988828081151098 ], [ 139.898570829979917, 35.977931972582496 ], [ 139.919927497356184, 35.970280865269785 ], [ 139.9235266930026, 35.970238919090889 ] ] ] ] } },
{ "type": "Feature", "properties": { "code": "120021", "name": "香取・海匝", "PrefCode": "12", "regioncode": "120021" }, "geometry": { "type": "MultiPolygon", "coordinates": [ [ [ [ 140.861448494752267, 35.752611198348177 ], [ 140.861498222764794, 35.749890505442522 ], [ 140.861444721197017, 35.752738305828188 ], [ 140.861448494752267, 35.752611198348177 ] ] ], [ [ [ 140.558342139877936, 35.930370333324277 ], [ 140.579691608181292, 35.918045532075723 ], [ 140.588200700202265, 35.906215251832464 ], [ 140.607992917739011, 35.895811945664832 ], [ 140.630686161137533, 35.859124198123311 ], [ 140.683556356340887, 35.849052170721166 ], [ 140.706575746073895, 35.836255414256016 ], [ 140.717226719237715, 35.822767892124546 ], [ 140.726781415230221, 35.799459559211357 ], [ 140.746677639361678, 35.781832251757066 ], [ 140.820006833748494, 35.739677531792722 ], [ 140.846003279827528, 35.739894666805469 ], [ 140.859679637105614, 35.748108532083165 ], [ 140.854654240800642, 35.743415901123001 ], [ 140.860615331332497, 35.745084774842553 ], [ 140.867505422437375, 35.738177666765978 ], [ 140.872081387945741, 35.739961838068439 ], [ 140.860989144433574, 35.749855612646456 ], [ 140.881634719666636, 35.730879404860673 ], [ 140.872376471696839, 35.739860837907372 ], [ 140.867798248890153, 35.738041279181743 ], [ 140.869646549049094, 35.73158625220384 ], [ 140.874133800034883, 35.733136748162451 ], [ 140.867843606197539, 35.730326332594245 ], [ 140.875354279876206, 35.731706585990196 ], [ 140.867732021915344, 35.729858891974345 ], [ 140.871210441308904, 35.718581505032489 ], [ 140.865913580147662, 35.712729054402416 ], [ 140.869135422062186, 35.706665225319966 ], [ 140.862797912193969, 35.702648774821171 ], [ 140.86590914379201, 35.692526801770555 ], [ 140.850967639145324, 35.694896440718196 ], [ 140.856234138294894, 35.695599838261955 ], [ 140.851556523314912, 35.697902198028089 ], [ 140.839938326592574, 35.696855945645439 ], [ 140.846769636209842, 35.700203865316212 ], [ 140.843822164861081, 35.703329333182239 ], [ 140.838114033835609, 35.700951441156121 ], [ 140.835321361891374, 35.705080386950328 ], [ 140.838317859781455, 35.700887720591879 ], [ 140.84103435824909, 35.702599134942147 ], [ 140.836530973425738, 35.705020000172908 ], [ 140.837789299436736, 35.711531721311928 ], [ 140.836213306798754, 35.709482224824853 ], [ 140.830556860710658, 35.713612053753309 ], [ 140.807829221841189, 35.711877305593248 ], [ 140.739009883799213, 35.692326306014252 ], [ 140.728527198071788, 35.684022252225191 ], [ 140.7307548376657, 35.690412612552052 ], [ 140.737016978051201, 35.691885026672708 ], [ 140.735196355427547, 35.695482558573246 ], [ 140.736332477062206, 35.692644747856889 ], [ 140.731203217154757, 35.692898747878985 ], [ 140.728660169131558, 35.68921325238972 ], [ 140.717395057935619, 35.699941468324141 ], [ 140.693124357802958, 35.699998080646935 ], [ 140.663152360593017, 35.691214802421257 ], [ 140.631555667959788, 35.676736612304865 ], [ 140.559441893828421, 35.627904981929419 ], [ 140.529863839244854, 35.657168639820895 ], [ 140.54081680924844, 35.666760279063681 ], [ 140.532020389229615, 35.670654748218112 ], [ 140.525346005014171, 35.680389467799728 ], [ 140.518378637863862, 35.673698640379996 ], [ 140.512289753669279, 35.677062837779772 ], [ 140.516028390997462, 35.678635027184782 ], [ 140.51454260665605, 35.683683081908782 ], [ 140.504260610039182, 35.685943946056341 ], [ 140.500748443585849, 35.692119505111123 ], [ 140.499130466997485, 35.698207559231548 ], [ 140.50266169997758, 35.70601533294132 ], [ 140.486469883178643, 35.721250919494366 ], [ 140.480782943777854, 35.721699558887565 ], [ 140.478544059960427, 35.717756225069763 ], [ 140.48162522722248, 35.716263441304818 ], [ 140.469767173216496, 35.701964027418001 ], [ 140.46723007780588, 35.69174846821727 ], [ 140.459865668066186, 35.691082666831676 ], [ 140.460058222808811, 35.696843505323557 ], [ 140.454024384317904, 35.699943223800801 ], [ 140.454234722254682, 35.705881837576783 ], [ 140.450084189134031, 35.705932386670383 ], [ 140.448138146158612, 35.712865999566304 ], [ 140.44328372176642, 35.712452946346446 ], [ 140.429539105045706, 35.721253532024946 ], [ 140.435968638042254, 35.731047107737879 ], [ 140.424543917867595, 35.754603802823283 ], [ 140.425076589013429, 35.769912999785163 ], [ 140.415300532093966, 35.773764666606155 ], [ 140.406355187941585, 35.770272467800226 ], [ 140.401866938708281, 35.778849693358723 ], [ 140.402391724598488, 35.783846359921597 ], [ 140.407494279137723, 35.786533865145827 ], [ 140.414043722340011, 35.785320251628377 ], [ 140.418482477384487, 35.775098838740462 ], [ 140.436255057724793, 35.780824081166486 ], [ 140.433082891662139, 35.786052413987761 ], [ 140.443018470326251, 35.788239333178751 ], [ 140.444468392402428, 35.803379331690849 ], [ 140.467933605751341, 35.820528135065445 ], [ 140.454967756057158, 35.818135972597133 ], [ 140.455993112692113, 35.826303198134156 ], [ 140.469499364104422, 35.834686441725978 ], [ 140.462458339780596, 35.842141468054365 ], [ 140.467968949107785, 35.846355612921229 ], [ 140.472046692900676, 35.843512837947173 ], [ 140.472468470443573, 35.851010026291704 ], [ 140.46523260709921, 35.850622558784096 ], [ 140.460380531736178, 35.862770892362846 ], [ 140.452393358566724, 35.87036789196469 ], [ 140.44644105081386, 35.864019306046202 ], [ 140.442211362064768, 35.868212108202272 ], [ 140.438431310057013, 35.86340599988705 ], [ 140.427790725861428, 35.863630503944648 ], [ 140.423065382961113, 35.859972197658863 ], [ 140.422558496277702, 35.86624053167526 ], [ 140.418147665182687, 35.866330559207995 ], [ 140.403084695402413, 35.853460865026932 ], [ 140.394356031205916, 35.852792837819266 ], [ 140.392753281039177, 35.855928666774616 ], [ 140.398430246059092, 35.855349505175582 ], [ 140.394169415586134, 35.857576440600326 ], [ 140.39800306089262, 35.858313666142806 ], [ 140.400551504848181, 35.867277558812361 ], [ 140.397989830966026, 35.870010918669038 ], [ 140.401027665294578, 35.872463108185968 ], [ 140.391375252565922, 35.886201224606907 ], [ 140.3850332811611, 35.885037332806689 ], [ 140.375675252510973, 35.894837612965546 ], [ 140.375885331442987, 35.902367891864742 ], [ 140.39831247803852, 35.909299531648116 ], [ 140.424799221906596, 35.907219387165014 ], [ 140.448465771877977, 35.91501866677811 ], [ 140.458438170585168, 35.926540225051383 ], [ 140.483773943213009, 35.909971225391814 ], [ 140.502802606654996, 35.905520279137647 ], [ 140.490778196956285, 35.914956720576242 ], [ 140.487176394175322, 35.928592000420508 ], [ 140.489815330613055, 35.93199280202623 ], [ 140.495529804556895, 35.931222774611399 ], [ 140.499695525428251, 35.94439772117795 ], [ 140.511244643425584, 35.95873541290905 ], [ 140.53493457756872, 35.940038387061975 ], [ 140.558333332817142, 35.930373721070396 ], [ 140.558342139877936, 35.930370333324277 ] ] ] ] } },
{ "type": "Feature", "properties": { "code": "120022", "name": "山武・長生", "PrefCode": "12", "regioncode": "120022" }, "geometry": { "type": "MultiPolygon", "coordinates": [ [ [ [ 140.452846056600265, 35.52499905496245 ], [ 140.451363722058204, 35.523237414375217 ], [ 140.452846783252539, 35.52500000014993 ], [ 140.452846056600265, 35.52499905496245 ] ] ], [ [ [ 140.407879921021618, 35.770068586096443 ], [ 140.415300532093966, 35.773764666606155 ], [ 140.425076589013429, 35.769912999785163 ], [ 140.424543917867595, 35.754603802823283 ], [ 140.435968638042254, 35.731047107737879 ], [ 140.429539105045706, 35.721253532024946 ], [ 140.44328372176642, 35.712452946346446 ], [ 140.448138146158612, 35.712865999566304 ], [ 140.450084189134031, 35.705932386670383 ], [ 140.454234722254682, 35.705881837576783 ], [ 140.454024384317904, 35.699943223800801 ], [ 140.460058222808811, 35.696843505323557 ], [ 140.459865668066186, 35.691082666831676 ], [ 140.46723007780588, 35.69174846821727 ], [ 140.469767173216496, 35.701964027418001 ], [ 140.48162522722248, 35.716263441304818 ], [ 140.478544059960427, 35.717756225069763 ], [ 140.480782943777854, 35.721699558887565 ], [ 140.486469883178643, 35.721250919494366 ], [ 140.50266169997758, 35.70601533294132 ], [ 140.499130466997485, 35.698207559231548 ], [ 140.500748443585849, 35.692119505111123 ], [ 140.504260610039182, 35.685943946056341 ], [ 140.51454260665605, 35.683683081908782 ], [ 140.516028390997462, 35.678635027184782 ], [ 140.512289753669279, 35.677062837779772 ], [ 140.518378637863862, 35.673698640379996 ], [ 140.525346005014171, 35.680389467799728 ], [ 140.532020389229615, 35.670654748218112 ], [ 140.54081680924844, 35.666760279063681 ], [ 140.529863839244854, 35.657168639820895 ], [ 140.559441893828421, 35.627904981929419 ], [ 140.494946640974717, 35.575961837568798 ], [ 140.466056834855067, 35.5412180807499 ], [ 140.467938974703998, 35.532563585441153 ], [ 140.466016497563373, 35.536984720968178 ], [ 140.453318832897935, 35.528393108055525 ], [ 140.420229104689497, 35.480516278903224 ], [ 140.405644448332737, 35.449042973254677 ], [ 140.392841803106762, 35.400236612929405 ], [ 140.39191994764758, 35.354406585895276 ], [ 140.397651179558352, 35.330505505324879 ], [ 140.387537107951289, 35.334785531826867 ], [ 140.383629584237951, 35.330415001151437 ], [ 140.372331244891143, 35.329108081173047 ], [ 140.373456329146393, 35.343329135331373 ], [ 140.344786355106294, 35.346039801695554 ], [ 140.337456641211134, 35.342215414010184 ], [ 140.318071672669589, 35.345712134607368 ], [ 140.306136329128321, 35.33692392000296 ], [ 140.296080505710847, 35.335523694463006 ], [ 140.288847367312201, 35.321108251844407 ], [ 140.27774038930761, 35.31895580186881 ], [ 140.271275057897697, 35.313386440731733 ], [ 140.262626719347736, 35.313582586467248 ], [ 140.256667056039873, 35.31891230615804 ], [ 140.253145641857941, 35.317248413783318 ], [ 140.251264306003009, 35.32442422489811 ], [ 140.246225161761913, 35.327292000125738 ], [ 140.225252048942934, 35.316730918696976 ], [ 140.220754916206488, 35.328121972750921 ], [ 140.212649415638111, 35.333189171343236 ], [ 140.213839493897581, 35.340214694052918 ], [ 140.205848859237562, 35.359699332658124 ], [ 140.209356136076849, 35.365618198221341 ], [ 140.197956744408316, 35.369890108341906 ], [ 140.199791802949449, 35.377813106789517 ], [ 140.206933774374306, 35.379683107589415 ], [ 140.201002217578321, 35.390638891571655 ], [ 140.194444189447836, 35.393276107606312 ], [ 140.188581244628836, 35.404180224637685 ], [ 140.190233256059969, 35.407388000256049 ], [ 140.18085055810684, 35.415435197776219 ], [ 140.18219394289622, 35.421298505022037 ], [ 140.173027081334794, 35.431277332982575 ], [ 140.182548248802732, 35.43545817055815 ], [ 140.182353864839001, 35.440752866151911 ], [ 140.186880559190513, 35.443460640296337 ], [ 140.186330336875585, 35.44838227911896 ], [ 140.170595422440897, 35.456541414354831 ], [ 140.174542944401423, 35.460536136333701 ], [ 140.173976355324612, 35.468862801776936 ], [ 140.185898340336166, 35.468267532420725 ], [ 140.186087833786587, 35.473847505558012 ], [ 140.196908911017545, 35.470851108391969 ], [ 140.20147152968741, 35.478603305798003 ], [ 140.207777638826997, 35.480080251602374 ], [ 140.206183528447127, 35.48458525160811 ], [ 140.211531607797497, 35.486742721599398 ], [ 140.236505745943532, 35.480264919290619 ], [ 140.248490506331905, 35.481753747837217 ], [ 140.247515006312597, 35.486075973227628 ], [ 140.253603112593623, 35.49020927893514 ], [ 140.251199248146804, 35.491851504843112 ], [ 140.262817613042444, 35.494305612613971 ], [ 140.260277444648409, 35.50215255899343 ], [ 140.270254669117776, 35.500214748411963 ], [ 140.272114837629715, 35.49360280232753 ], [ 140.27703455370181, 35.51177997326721 ], [ 140.28227069983302, 35.512782999735691 ], [ 140.286189105343055, 35.518888559159734 ], [ 140.292587976853724, 35.515316585991684 ], [ 140.300873917397439, 35.520336802201712 ], [ 140.287778884587965, 35.523390747884775 ], [ 140.292038170924911, 35.531238503654095 ], [ 140.280857392754569, 35.542126612753009 ], [ 140.281762994766495, 35.550076613345084 ], [ 140.291981051384482, 35.548284640423844 ], [ 140.290984162788959, 35.55577213497611 ], [ 140.294211970805918, 35.560625440611659 ], [ 140.287087055922939, 35.572909053809838 ], [ 140.292493995001905, 35.572674613142908 ], [ 140.316706082719634, 35.585692000285633 ], [ 140.338665811178316, 35.586323306375562 ], [ 140.336320025848522, 35.590433586740687 ], [ 140.326293605765386, 35.589901946217879 ], [ 140.323024278747539, 35.600998305927135 ], [ 140.312523995086394, 35.600359171238836 ], [ 140.30584557741156, 35.594236720748142 ], [ 140.311511219067597, 35.601610000501182 ], [ 140.321212048597204, 35.601419134685386 ], [ 140.330165719572392, 35.606265467877108 ], [ 140.32409713397567, 35.608956054178634 ], [ 140.314764306127927, 35.60413969359206 ], [ 140.315409338570134, 35.607996360643597 ], [ 140.311882165129873, 35.611985801803371 ], [ 140.309213801076112, 35.609921080693368 ], [ 140.308774111735943, 35.613511640150136 ], [ 140.315807497218316, 35.617514639489059 ], [ 140.307748391774908, 35.624695199024245 ], [ 140.31651124459836, 35.630895693581465 ], [ 140.32564147857147, 35.626128748043357 ], [ 140.329194617237818, 35.631514559349512 ], [ 140.321206328909057, 35.639690639611388 ], [ 140.325736108834462, 35.644003919445368 ], [ 140.319914746868108, 35.647042000188208 ], [ 140.3202992223313, 35.649672251872971 ], [ 140.328090611292737, 35.649689721203742 ], [ 140.326332943910302, 35.657914972797812 ], [ 140.330167367130343, 35.655563026212747 ], [ 140.333143256156404, 35.659852171840328 ], [ 140.340648521312232, 35.660604361202331 ], [ 140.354416835168877, 35.65670855925265 ], [ 140.353754137343572, 35.662957693642682 ], [ 140.338825252883225, 35.664525197579849 ], [ 140.349280336618335, 35.671537386041564 ], [ 140.346902607369543, 35.676657918927845 ], [ 140.352559611037236, 35.68339319803772 ], [ 140.360609636925233, 35.686884054155826 ], [ 140.365899882673489, 35.683590440946148 ], [ 140.367920778021585, 35.68839961325159 ], [ 140.373312361176545, 35.68090353197249 ], [ 140.371349274249724, 35.678639639807557 ], [ 140.377520998595287, 35.68285019817813 ], [ 140.390675913662562, 35.676090505172738 ], [ 140.400634033833626, 35.681587170511534 ], [ 140.404435228003422, 35.691901612869174 ], [ 140.394338003396228, 35.691840198166688 ], [ 140.393186861284676, 35.687136027106021 ], [ 140.381971633683975, 35.693636864649648 ], [ 140.37888466939205, 35.690886306158177 ], [ 140.380275524895637, 35.693346585976201 ], [ 140.373868366132228, 35.699332134470467 ], [ 140.369901388238532, 35.697079893022703 ], [ 140.373399466811975, 35.700082693361651 ], [ 140.369664501415627, 35.702730197640562 ], [ 140.382386160892679, 35.703619919423772 ], [ 140.383109830954027, 35.708553531820087 ], [ 140.380902580789552, 35.707035468112394 ], [ 140.386257950943786, 35.713216585876808 ], [ 140.377684890145588, 35.715764640425846 ], [ 140.377368029311128, 35.724679108154362 ], [ 140.365856640571565, 35.725909107319524 ], [ 140.368047301841557, 35.739409172295495 ], [ 140.37667758830014, 35.737898586450683 ], [ 140.379263060941526, 35.728921332553512 ], [ 140.387024694933757, 35.723269386672882 ], [ 140.393527496596789, 35.727789945849395 ], [ 140.388545032127581, 35.729036054570315 ], [ 140.385199584693169, 35.740540252330845 ], [ 140.381552089157708, 35.74084774762548 ], [ 140.403268755149043, 35.742074359943786 ], [ 140.400531854661381, 35.745321613102021 ], [ 140.401966938823193, 35.753312747785117 ], [ 140.389082528136214, 35.757774693647264 ], [ 140.395118910809174, 35.756244134759072 ], [ 140.39991511039409, 35.763789972829045 ], [ 140.392822607077733, 35.7643499725732 ], [ 140.395256524169326, 35.766171640209052 ], [ 140.389240699998368, 35.7685483334389 ], [ 140.393416808938696, 35.767866387423908 ], [ 140.403590245693294, 35.774904693996461 ], [ 140.40775325600805, 35.770078865347386 ], [ 140.407879921021618, 35.770068586096443 ] ] ] ] } },
{ "type": "Feature", "properties": { "code": "120031", "name": "君津", "PrefCode": "12", "regioncode": "120031" }, "geometry": { "type": "MultiPolygon", "coordinates": [ [ [ [ 139.823038521410695, 35.301469839061895 ], [ 139.819550506250948, 35.30154250518251 ], [ 139.82287727566586, 35.301471720443601 ], [ 139.823038521410695, 35.301469839061895 ] ] ], [ [ [ 139.744283333109365, 35.312294386776557 ], [ 139.739383671019709, 35.311839774086366 ], [ 139.744362503127036, 35.312418639808413 ], [ 139.744283333109365, 35.312294386776557 ] ] ], [ [ [ 139.768302464087469, 35.315733576843172 ], [ 139.770782100913266, 35.314376242669539 ], [ 139.768263190693801, 35.31575146795592 ], [ 139.768302464087469, 35.315733576843172 ] ] ], [ [ [ 139.875001387903808, 35.376895586062517 ], [ 139.882190725721443, 35.376890000373294 ], [ 139.869858833318517, 35.376820559221471 ], [ 139.875000000249884, 35.376895586062517 ], [ 139.875001387903808, 35.376895586062517 ] ] ], [ [ [ 139.869330829654132, 35.376898134741168 ], [ 139.861209753727167, 35.376832666794201 ], [ 139.866668028806544, 35.376903054032766 ], [ 139.869330829654132, 35.376898134741168 ] ] ], [ [ [ 139.891523969056038, 35.377486585437623 ], [ 139.882409339219748, 35.376832557976229 ], [ 139.891487756954461, 35.377554720773787 ], [ 139.891523969056038, 35.377486585437623 ] ] ], [ [ [ 139.893082412323565, 35.378165107733594 ], [ 139.896713838772712, 35.379715802442377 ], [ 139.893182282936095, 35.378210838259633 ], [ 139.893082412323565, 35.378165107733594 ] ] ], [ [ [ 139.908349467953599, 35.387225080373184 ], [ 139.913115356788353, 35.385502332766521 ], [ 139.908345499245456, 35.387234748085234 ], [ 139.908349467953599, 35.387225080373184 ] ] ], [ [ [ 139.917809247698642, 35.389133484922468 ], [ 139.914094864186723, 35.388446017969386 ], [ 139.917799454980923, 35.389137765695409 ], [ 139.917809247698642, 35.389133484922468 ] ] ], [ [ [ 139.873441413990122, 35.465478532408383 ], [ 139.879079221628785, 35.461821198289726 ], [ 139.872768003440683, 35.465936387154613 ], [ 139.873441413990122, 35.465478532408383 ] ] ], [ [ [ 140.004155421835321, 35.480504414147447 ], [ 140.02458474698858, 35.466376919159529 ], [ 140.039788002914065, 35.445545532300514 ], [ 140.043167691136091, 35.437372224648527 ], [ 140.041005667877357, 35.429184999987797 ], [ 140.032622554687237, 35.423570027035169 ], [ 140.060111556103493, 35.425787196721785 ], [ 140.080706666779292, 35.432318801871247 ], [ 140.087714694977308, 35.427461864773306 ], [ 140.092772607170104, 35.406698278702663 ], [ 140.087510310552489, 35.397752440822558 ], [ 140.092528612105866, 35.395821332888261 ], [ 140.089904331919456, 35.380861919142319 ], [ 140.102465162037674, 35.375453864903989 ], [ 140.105684358146732, 35.379232747793139 ], [ 140.102243838882146, 35.385160504953376 ], [ 140.105588002984064, 35.384425532212617 ], [ 140.12974522666093, 35.346588080575486 ], [ 140.119564034152972, 35.331359694894047 ], [ 140.108466743645408, 35.324513225405099 ], [ 140.108937833714094, 35.318946278947692 ], [ 140.101347782274388, 35.319719053791346 ], [ 140.107701607643094, 35.312570440873174 ], [ 140.118123917384992, 35.316177135066766 ], [ 140.12214136163459, 35.31371077493236 ], [ 140.114307638886544, 35.289156666946667 ], [ 140.120293359151219, 35.282576413870459 ], [ 140.117286523554299, 35.272767530796955 ], [ 140.12221255466568, 35.247695639941867 ], [ 140.141236939133478, 35.231205134909089 ], [ 140.139643838692223, 35.225992918838188 ], [ 140.148471776351471, 35.207538612816791 ], [ 140.152441555633345, 35.206501305990514 ], [ 140.161268469864012, 35.181243000064455 ], [ 140.154159804831238, 35.181286639666723 ], [ 140.138986938796279, 35.191081054447181 ], [ 140.129768520900598, 35.188459134981144 ], [ 140.121110947212514, 35.190889134625934 ], [ 140.11366839178288, 35.180019747613301 ], [ 140.098980245941675, 35.179965837753286 ], [ 140.095948053959546, 35.170598198048481 ], [ 140.090931581627274, 35.168351532397367 ], [ 140.075342438302982, 35.175392107959453 ], [ 140.050293606065111, 35.160704559268027 ], [ 140.03470613458046, 35.158985505176986 ], [ 140.029415887932942, 35.164342693760375 ], [ 140.015325330799442, 35.153864224954077 ], [ 140.008800505638874, 35.156543801755106 ], [ 139.971864670218451, 35.151642414765661 ], [ 139.963020532171868, 35.154827720822709 ], [ 139.946122191785776, 35.152927197931888 ], [ 139.938040532244827, 35.145956107588347 ], [ 139.931724422644038, 35.147624721403815 ], [ 139.931194112218577, 35.139158359770533 ], [ 139.913077133802744, 35.139152278554889 ], [ 139.901167197907967, 35.155526387033206 ], [ 139.893428859054666, 35.158727504071123 ], [ 139.875399390069902, 35.157909747836641 ], [ 139.873305188283894, 35.155166134809349 ], [ 139.854355746120859, 35.164277504603206 ], [ 139.817999584912968, 35.154933467605474 ], [ 139.819068001986807, 35.164278359858486 ], [ 139.822057393434079, 35.164535333039225 ], [ 139.815780505965677, 35.170446225213198 ], [ 139.818399079054302, 35.169763387070702 ], [ 139.815657690949706, 35.172358945608892 ], [ 139.818388249418263, 35.173841693839165 ], [ 139.816076328959525, 35.176568360041813 ], [ 139.818779999497451, 35.18997358611216 ], [ 139.829787834441049, 35.203238803028398 ], [ 139.867046834943494, 35.219694251588464 ], [ 139.870739105025791, 35.228592000020853 ], [ 139.868755304913407, 35.242543639777182 ], [ 139.863529248276222, 35.255404440562529 ], [ 139.846613139085207, 35.271724747998746 ], [ 139.848945550596795, 35.274604440142866 ], [ 139.846203450229154, 35.277957333064535 ], [ 139.850433747819238, 35.276361135358172 ], [ 139.853235384205732, 35.282861532233994 ], [ 139.846907223689527, 35.290842359787121 ], [ 139.826133969007515, 35.301614027365531 ], [ 139.783926213324094, 35.31287490095599 ], [ 139.806510117148264, 35.314532080790968 ], [ 139.814699493886565, 35.318747667271055 ], [ 139.813771140825565, 35.315182000149264 ], [ 139.819771556012597, 35.316487054034383 ], [ 139.815787885802365, 35.320036614298374 ], [ 139.822068911051474, 35.326913667032159 ], [ 139.820044423811169, 35.333655801673956 ], [ 139.821334085799435, 35.323329026913086 ], [ 139.840271310672506, 35.334410413809621 ], [ 139.836965279623996, 35.337761946057014 ], [ 139.824937419226558, 35.336141972973735 ], [ 139.827817885686954, 35.337752999601321 ], [ 139.821476588773635, 35.34624394600138 ], [ 139.837466666953219, 35.35906508128852 ], [ 139.847059933968808, 35.346861035608356 ], [ 139.854688781262325, 35.350635613442876 ], [ 139.854801166840389, 35.346824667024805 ], [ 139.857567458071799, 35.347284207100529 ], [ 139.855054889871326, 35.350804730054278 ], [ 139.85916481230629, 35.348053837914335 ], [ 139.839165498888747, 35.367304197730618 ], [ 139.845898444257841, 35.375473891906665 ], [ 139.863098301245714, 35.36710750520723 ], [ 139.89789972799008, 35.35837280116391 ], [ 139.887814837584756, 35.37088805364084 ], [ 139.8998428265852, 35.372111720679413 ], [ 139.902347587771033, 35.36817927855094 ], [ 139.907419363912595, 35.370340693868002 ], [ 139.90447839196429, 35.374983837833895 ], [ 139.8991026719508, 35.372694386936473 ], [ 139.897615837201215, 35.375029587245706 ], [ 139.914243112929398, 35.379407001332083 ], [ 139.913107224219061, 35.383032333075789 ], [ 139.917985862857336, 35.38168691941587 ], [ 139.914479221838633, 35.387240694402578 ], [ 139.918592580583208, 35.387494612586352 ], [ 139.91328464337164, 35.391372197868691 ], [ 139.906793747833262, 35.389476414405067 ], [ 139.907949688727172, 35.387456000194334 ], [ 139.903913191440665, 35.400619332915937 ], [ 139.900604941764755, 35.400886864137533 ], [ 139.897487664923915, 35.415944026995305 ], [ 139.904363216689148, 35.414518467553307 ], [ 139.896908300977316, 35.421496801935916 ], [ 139.901926329136813, 35.425320694094808 ], [ 139.901096446443944, 35.428704666687054 ], [ 139.902985887888462, 35.427064838371621 ], [ 139.903532283588106, 35.430820775058748 ], [ 139.90102678226026, 35.429647107627943 ], [ 139.917751582269716, 35.437481467995383 ], [ 139.918438274906521, 35.44127664030475 ], [ 139.918404086279679, 35.437784865079493 ], [ 139.921943773786211, 35.439250586445439 ], [ 139.918713358634704, 35.441831693777715 ], [ 139.924162308643645, 35.440778198255316 ], [ 139.922561698863433, 35.439049721067818 ], [ 139.940586939235914, 35.442563667279501 ], [ 139.939925188396842, 35.444856558983076 ], [ 139.948641673074803, 35.442221414087044 ], [ 139.951092283382195, 35.45613817093988 ], [ 139.962701478790223, 35.458757801631293 ], [ 139.96472817116819, 35.452982693596482 ], [ 139.964528780678734, 35.44992558589712 ], [ 139.957285304573247, 35.448093108410262 ], [ 139.952144915555436, 35.452967720783761 ], [ 139.955143384759481, 35.44380330627763 ], [ 139.974460557908515, 35.448472197833723 ], [ 139.965690077934823, 35.468513999721381 ], [ 139.982026199949246, 35.474791864752831 ], [ 139.992303476024631, 35.457353612779059 ], [ 139.989188171397018, 35.454286775314472 ], [ 139.993368339877065, 35.453239468027107 ], [ 139.998050856162195, 35.457308865211985 ], [ 139.988765965776793, 35.469895666851585 ], [ 139.992528365891417, 35.474276649447859 ], [ 139.999276082625215, 35.465963748128502 ], [ 140.003321777278302, 35.468282224645009 ], [ 139.996688885983417, 35.476169413887419 ], [ 140.005406394989222, 35.478770532034503 ], [ 140.002479196157992, 35.482524332831758 ], [ 140.004167133706346, 35.480512865076719 ], [ 140.004155421835321, 35.480504414147447 ] ] ] ] } },
{ "type": "Feature", "properties": { "code": "120032", "name": "夷隅・安房", "PrefCode": "12", "regioncode": "120032" }, "geometry": { "type": "MultiPolygon", "coordinates": [ [ [ [ 139.93068224419028, 34.911149467873713 ], [ 139.928351413686869, 34.910745863830584 ], [ 139.930638249355752, 34.911157414283309 ], [ 139.93068224419028, 34.911149467873713 ] ] ], [ [ [ 140.106150466870645, 35.074078359628629 ], [ 140.108966031057548, 35.072736973132862 ], [ 140.106123256083492, 35.074078359628629 ], [ 140.106150466870645, 35.074078359628629 ] ] ], [ [ [ 140.103630855179858, 35.078254359750929 ], [ 140.106546252207863, 35.075159225118171 ], [ 140.103633891291111, 35.078297359935277 ], [ 140.103630855179858, 35.078254359750929 ] ] ], [ [ [ 139.815629493606366, 35.110857864998536 ], [ 139.813428637621541, 35.108794802238378 ], [ 139.815588391890856, 35.110936747233154 ], [ 139.815629493606366, 35.110857864998536 ] ] ], [ [ [ 140.34555885925397, 35.345268694194942 ], [ 140.374403281985906, 35.342839413108493 ], [ 140.372956251230107, 35.328854467859458 ], [ 140.383629584237951, 35.330415001151437 ], [ 140.387537107951289, 35.334785531826867 ], [ 140.393033191428685, 35.330674414192913 ], [ 140.402674358135187, 35.330113215652432 ], [ 140.40085944170994, 35.328086179733475 ], [ 140.403365550979515, 35.331254567744168 ], [ 140.41506068740091, 35.305638550179026 ], [ 140.406223371611418, 35.290966144272204 ], [ 140.400067121000916, 35.269729540885635 ], [ 140.40100032410578, 35.258467071897883 ], [ 140.406141362434028, 35.255821603684126 ], [ 140.402202191577999, 35.255826485204182 ], [ 140.404879222398222, 35.252691532188521 ], [ 140.400940830355125, 35.254504071705583 ], [ 140.406161997378376, 35.251335945397614 ], [ 140.407107912400306, 35.256167134905411 ], [ 140.407040245610915, 35.250291188587539 ], [ 140.403651492222707, 35.246239269726573 ], [ 140.405020117384538, 35.237008828794444 ], [ 140.399554267315693, 35.231579910284665 ], [ 140.392233463004004, 35.210640630860496 ], [ 140.394126174383473, 35.20269273018539 ], [ 140.386093372311393, 35.19511339596653 ], [ 140.3843630865872, 35.187493387210111 ], [ 140.374145447254705, 35.179043693611618 ], [ 140.365786861274728, 35.178271613044558 ], [ 140.359395083616278, 35.182403135396441 ], [ 140.349130828824741, 35.180161053589813 ], [ 140.332830584364046, 35.163832270043258 ], [ 140.332755642059283, 35.156323387814155 ], [ 140.32652983068715, 35.149370279414939 ], [ 140.32682700356338, 35.139343531978454 ], [ 140.315279728276892, 35.138655413916297 ], [ 140.310201726128867, 35.134714198001916 ], [ 140.312477003710796, 35.147152721221175 ], [ 140.309913916993764, 35.14825202730924 ], [ 140.310334137810287, 35.144310109024389 ], [ 140.309939519793033, 35.148944820047461 ], [ 140.298093385401444, 35.150965585893118 ], [ 140.295099727570459, 35.145536945273875 ], [ 140.289915383288417, 35.145080945829022 ], [ 140.289643722379992, 35.139753693877935 ], [ 140.293097860078205, 35.138066721302209 ], [ 140.286181114866622, 35.134302386745787 ], [ 140.278633579775942, 35.13449866737966 ], [ 140.275199052694234, 35.130558027031384 ], [ 140.274155939844832, 35.137267278861884 ], [ 140.262666641152578, 35.133812386632371 ], [ 140.262917523225155, 35.137121837802624 ], [ 140.257775057672802, 35.137923279435824 ], [ 140.2567920492138, 35.134470025771122 ], [ 140.2479477169137, 35.133983720971969 ], [ 140.250264253592491, 35.128417892371886 ], [ 140.234348222892208, 35.121849018417493 ], [ 140.236376809242415, 35.116709586278432 ], [ 140.207821776653759, 35.113959532306637 ], [ 140.203382386687849, 35.109466864704075 ], [ 140.193353451200892, 35.120075387169436 ], [ 140.197078858602481, 35.118712559037419 ], [ 140.194269922419039, 35.121374108028704 ], [ 140.198104527302121, 35.122733333476617 ], [ 140.191790584168189, 35.127214801821708 ], [ 140.186103113268132, 35.12519758560012 ], [ 140.182046329074865, 35.11764555929517 ], [ 140.16690089506028, 35.123798666775087 ], [ 140.158100440682801, 35.121881531607471 ], [ 140.160437055625721, 35.119787586128268 ], [ 140.153608170580696, 35.121421864727324 ], [ 140.150053942835257, 35.11664469389757 ], [ 140.134270725813394, 35.121663946034346 ], [ 140.119582892036874, 35.114873532187801 ], [ 140.105285888333128, 35.10230266743423 ], [ 140.108172723792222, 35.098664666940863 ], [ 140.10581834004438, 35.09820083799832 ], [ 140.108996304036282, 35.098779693827851 ], [ 140.105490285348424, 35.097385532416467 ], [ 140.108393748372805, 35.09395813515988 ], [ 140.105642918286094, 35.096710558845245 ], [ 140.107977885670948, 35.093259054361909 ], [ 140.104812049036923, 35.091100837933368 ], [ 140.110188340119862, 35.092877026853387 ], [ 140.09983527907491, 35.089446612371319 ], [ 140.101654085967311, 35.086993027106587 ], [ 140.098216109086252, 35.084108531683455 ], [ 140.102286834569782, 35.076532468298808 ], [ 140.085360311229465, 35.073951414026567 ], [ 140.085699273802561, 35.069696612608652 ], [ 140.078300999191811, 35.067400918617579 ], [ 140.083242477058775, 35.06288891918831 ], [ 140.075866252026003, 35.062681054387212 ], [ 140.073014967666722, 35.055786332673165 ], [ 140.058562865983504, 35.059478838377743 ], [ 140.039407392737075, 35.053043359963169 ], [ 140.018114695037184, 35.035473865426582 ], [ 140.009069390340187, 35.03507477508083 ], [ 139.999815472606087, 35.028962054355361 ], [ 139.984446834953587, 35.01476213516446 ], [ 139.975131530395856, 35.001517803204081 ], [ 139.968151698642032, 34.976433802078361 ], [ 139.96080744540734, 34.967871414434285 ], [ 139.962777663958036, 34.955208612887247 ], [ 139.964991829009819, 34.952218892288101 ], [ 139.964876588983429, 34.956917027099166 ], [ 139.966317665328006, 34.953548305210177 ], [ 139.964966226210436, 34.942806918704377 ], [ 139.953063087391683, 34.931675801996732 ], [ 139.955884500769116, 34.931221918656661 ], [ 139.945940272425673, 34.923919440729662 ], [ 139.941844721157054, 34.925031667377596 ], [ 139.941904721226024, 34.917472225263054 ], [ 139.923725032184507, 34.911720612915985 ], [ 139.928033307291344, 34.90917625188257 ], [ 139.919785032153527, 34.91024755937741 ], [ 139.920282529015594, 34.907151720575484 ], [ 139.909267003969148, 34.907355667030458 ], [ 139.902662023133871, 34.903694278768 ], [ 139.892295668310453, 34.905846800689346 ], [ 139.887169273643167, 34.899405161918764 ], [ 139.887558716062017, 34.903493495228702 ], [ 139.872095136081725, 34.902741585555759 ], [ 139.864733774144383, 34.906869667101489 ], [ 139.836926835405166, 34.902957440833291 ], [ 139.835655187736734, 34.906818000150622 ], [ 139.82430526597534, 34.910464314876265 ], [ 139.822482877982452, 34.91435101928414 ], [ 139.825769428816102, 34.919615225162545 ], [ 139.822677522749586, 34.920643404769351 ], [ 139.827454929201735, 34.927238449894617 ], [ 139.81732381274378, 34.939993711640511 ], [ 139.779654125137881, 34.956142684737188 ], [ 139.770058948861447, 34.954944323721634 ], [ 139.753351880784749, 34.965324919309637 ], [ 139.754326446408413, 34.97803674829737 ], [ 139.759666380599015, 34.974557613043487 ], [ 139.773972374825348, 34.977723323772409 ], [ 139.784977288770961, 34.976224630562285 ], [ 139.783919961237302, 34.973118071841611 ], [ 139.796912257294935, 34.973807613530596 ], [ 139.806800868865025, 34.978881342100294 ], [ 139.822701283737274, 34.979975189303616 ], [ 139.827240129728239, 34.988483541182518 ], [ 139.82324094711214, 34.991355197884104 ], [ 139.842118066695434, 34.992047630893524 ], [ 139.845508729344488, 34.989545657606072 ], [ 139.841772943766387, 34.986107838106307 ], [ 139.848203035241909, 34.985006693803939 ], [ 139.857234332098756, 34.993989359821171 ], [ 139.85803453986216, 35.011021360147708 ], [ 139.850919013901489, 35.02429847689325 ], [ 139.845808533636955, 35.022668252437938 ], [ 139.849149066276482, 35.025345413659977 ], [ 139.844838898096782, 35.02554827912985 ], [ 139.844663515009302, 35.022911045108685 ], [ 139.834027134244934, 35.032152053974187 ], [ 139.824769026569356, 35.031191946750994 ], [ 139.810367638555704, 35.037533865095838 ], [ 139.815504332259138, 35.043482197845208 ], [ 139.82324988277594, 35.037573305763487 ], [ 139.822159274031378, 35.040286558577861 ], [ 139.824444890219524, 35.037795801635014 ], [ 139.831082698108048, 35.042602999928533 ], [ 139.83184658944856, 35.0512585321556 ], [ 139.8274743581552, 35.052272694029682 ], [ 139.825034941709305, 35.062212666781193 ], [ 139.819212166008697, 35.065915171148276 ], [ 139.821223021325409, 35.072224026817423 ], [ 139.838369999975612, 35.078547865191865 ], [ 139.842481634719775, 35.086276693714467 ], [ 139.837624747084419, 35.09873477538963 ], [ 139.823528079057724, 35.101009532264129 ], [ 139.827551698951766, 35.103932026741688 ], [ 139.823638391698523, 35.107070080619792 ], [ 139.82808810588142, 35.109989774608437 ], [ 139.824049494288829, 35.113664774110077 ], [ 139.828045331427006, 35.116085892050307 ], [ 139.826863411817044, 35.118940585739495 ], [ 139.835418417825736, 35.124433080922017 ], [ 139.834951970956809, 35.130619197118278 ], [ 139.839217056122266, 35.129807225323248 ], [ 139.83809233519321, 35.13357805388415 ], [ 139.8359388330108, 35.131568468410137 ], [ 139.836720973394222, 35.138047504588712 ], [ 139.828004863733554, 35.151527639688879 ], [ 139.816647911072323, 35.154820413831089 ], [ 139.854355746120859, 35.164277504603206 ], [ 139.873305188283894, 35.155166134809349 ], [ 139.875399390069902, 35.157909747836641 ], [ 139.893428859054666, 35.158727504071123 ], [ 139.901167197907967, 35.155526387033206 ], [ 139.913077133802744, 35.139152278554889 ], [ 139.931194112218577, 35.139158359770533 ], [ 139.931724422644038, 35.147624721403815 ], [ 139.938040532244827, 35.145956107588347 ], [ 139.946122191785776, 35.152927197931888 ], [ 139.963020532171868, 35.154827720822709 ], [ 139.971864670218451, 35.151642414765661 ], [ 140.008800505638874, 35.156543801755106 ], [ 140.015325330799442, 35.153864224954077 ], [ 140.029415887932942, 35.164342693760375 ], [ 140.03470613458046, 35.158985505176986 ], [ 140.050293606065111, 35.160704559268027 ], [ 140.075342438302982, 35.175392107959453 ], [ 140.090931581627274, 35.168351532397367 ], [ 140.095948053959546, 35.170598198048481 ], [ 140.098980245941675, 35.179965837753286 ], [ 140.11366839178288, 35.180019747613301 ], [ 140.121110947212514, 35.190889134625934 ], [ 140.129768520900598, 35.188459134981144 ], [ 140.138986938796279, 35.191081054447181 ], [ 140.154159804831238, 35.181286639666723 ], [ 140.161268469864012, 35.181243000064455 ], [ 140.156396005071656, 35.198139081353588 ], [ 140.139351893575054, 35.227873467786367 ], [ 140.151820816577469, 35.24974308957195 ], [ 140.156344124981501, 35.248587558768861 ], [ 140.153986096281415, 35.252537631206792 ], [ 140.158247510414299, 35.250520216235032 ], [ 140.157426692887611, 35.253299613286572 ], [ 140.166719804875129, 35.25595630593881 ], [ 140.174558974816932, 35.251351305818162 ], [ 140.177980583137469, 35.274736359895144 ], [ 140.190306161400258, 35.27741138702595 ], [ 140.202815135710011, 35.287712279298319 ], [ 140.204231309827151, 35.293803134806865 ], [ 140.198761634042285, 35.298970053824974 ], [ 140.199086720076139, 35.30806838704649 ], [ 140.212908585862579, 35.300985665656015 ], [ 140.225535032315975, 35.30680097338626 ], [ 140.230961115263312, 35.303968775338774 ], [ 140.225252048942934, 35.316730918696976 ], [ 140.246136004772893, 35.327292000125738 ], [ 140.251264306003009, 35.32442422489811 ], [ 140.253145641857941, 35.317248413783318 ], [ 140.256667056039873, 35.31891230615804 ], [ 140.262626719347736, 35.313582586467248 ], [ 140.271097833898011, 35.313331720582482 ], [ 140.27774038930761, 35.31895580186881 ], [ 140.288847367312201, 35.321108251844407 ], [ 140.296080505710847, 35.335523694463006 ], [ 140.306136329128321, 35.33692392000296 ], [ 140.318071672669589, 35.345712134607368 ], [ 140.337456641211134, 35.342215414010184 ], [ 140.345479144247179, 35.345453135254047 ], [ 140.34555885925397, 35.345268694194942 ] ] ] ] } }
]
}
