{
"type": "FeatureCollection",
"name": "16_toyama_region",
"crs": { "type": "name", "properties": { "name": "urn:ogc:def:crs:OGC:1.3:CRS84" } },
"features": [
{ "type": "Feature", "properties": { "code": "160011", "name": "東部南", "PrefCode": "16", "regioncode": "160011" }, "geometry": { "type": "MultiPolygon", "coordinates": [ [ [ [ 137.388880362938494, 36.724821135187312 ], [ 137.391269804957574, 36.721215000372013 ], [ 137.388833385052749, 36.719577252188515 ], [ 137.386294812056008, 36.722826694296543 ], [ 137.388759001226958, 36.724998918565291 ], [ 137.388880362938494, 36.724821135187312 ] ] ], [ [ [ 137.230865031396092, 36.766633108231417 ], [ 137.299142309370154, 36.75841171203092 ], [ 137.296953165256468, 36.757053757325082 ], [ 137.3010667200532, 36.75566661242425 ], [ 137.299342322190455, 36.759178874205759 ], [ 137.315984656166961, 36.758619864615127 ], [ 137.315686446372411, 36.754599279033528 ], [ 137.328049493989056, 36.751068171059273 ], [ 137.330762282753199, 36.744506774967761 ], [ 137.337775887647126, 36.742159000337665 ], [ 137.346773112789037, 36.731140387019309 ], [ 137.349589493560302, 36.732841774828103 ], [ 137.360335356891255, 36.727942306092586 ], [ 137.361685057619411, 36.720382864877365 ], [ 137.373484527089317, 36.726694801623864 ], [ 137.382815085048151, 36.721830053913891 ], [ 137.379356199828862, 36.726108946370857 ], [ 137.39184228279521, 36.716644170891811 ], [ 137.405299804442507, 36.724104666896892 ], [ 137.419485356963719, 36.721069892061905 ], [ 137.42614119266193, 36.727739026934614 ], [ 137.437100337410698, 36.718783440403513 ], [ 137.432860855943773, 36.707000666847364 ], [ 137.449990000138428, 36.698595054418263 ], [ 137.448058106196754, 36.71354116988914 ], [ 137.456590558107791, 36.701748639588118 ], [ 137.462089169579599, 36.701831387108882 ], [ 137.46455975382969, 36.706936359925123 ], [ 137.46989333341071, 36.70293997330117 ], [ 137.476320337513584, 36.716388802101562 ], [ 137.47515286641169, 36.722850467874821 ], [ 137.495675914412004, 36.722404279134253 ], [ 137.509417834065857, 36.710401251716462 ], [ 137.511171167615316, 36.705818468447603 ], [ 137.506884449257996, 36.690602972749048 ], [ 137.516032477217095, 36.678825505192947 ], [ 137.526135006025811, 36.680640250747047 ], [ 137.535395549964733, 36.676266387184057 ], [ 137.542087250626196, 36.67809833317159 ], [ 137.552771413270193, 36.673775864964227 ], [ 137.562396161054039, 36.675781170564619 ], [ 137.57255063560342, 36.672630919181643 ], [ 137.588329856937435, 36.676067333041033 ], [ 137.590421025310093, 36.681192054070095 ], [ 137.606981828548669, 36.666739892132341 ], [ 137.614332088355241, 36.655238531732891 ], [ 137.620711283598894, 36.653812135022065 ], [ 137.62736622537102, 36.639651893020471 ], [ 137.668193332856049, 36.634878332968754 ], [ 137.681975939637937, 36.63947253223165 ], [ 137.685079584555297, 36.644940027160601 ], [ 137.718013774116457, 36.625931171286595 ], [ 137.729695720181439, 36.622603107747295 ], [ 137.74677852141167, 36.62455589204086 ], [ 137.743940661232614, 36.612745054240918 ], [ 137.753059973838731, 36.593520891675837 ], [ 137.747863280965703, 36.586853945753035 ], [ 137.724307691147146, 36.586490613351202 ], [ 137.713205966082569, 36.577080054401051 ], [ 137.6938872496969, 36.569059504692461 ], [ 137.687737755692979, 36.562074505434111 ], [ 137.689537717291842, 36.553794252203033 ], [ 137.684597638770128, 36.537807333341789 ], [ 137.710553280809336, 36.535742053752813 ], [ 137.702751803253136, 36.52469572153035 ], [ 137.705440388563147, 36.517820468340005 ], [ 137.694296160639396, 36.510682441341658 ], [ 137.677354747223831, 36.514386026693842 ], [ 137.66874555076663, 36.509461305894604 ], [ 137.666820751576438, 36.493815802057668 ], [ 137.657649637121153, 36.493108585992502 ], [ 137.652000700372128, 36.488200251740295 ], [ 137.650820117154694, 36.479815559340636 ], [ 137.656717613027467, 36.470223108010089 ], [ 137.655410051832519, 36.459172305257709 ], [ 137.645293358701565, 36.454530333108437 ], [ 137.639912217574874, 36.445829775423874 ], [ 137.636544915715376, 36.428412054073078 ], [ 137.61740263282536, 36.418600865137876 ], [ 137.608079026625887, 36.419416359577383 ], [ 137.603805084037504, 36.41067664001497 ], [ 137.605361166584657, 36.402538333077644 ], [ 137.592204694790894, 36.389596360383791 ], [ 137.576743605932734, 36.392980746664193 ], [ 137.559505252565373, 36.387451559142221 ], [ 137.540902502648464, 36.391441774618272 ], [ 137.531199753965552, 36.402447025809636 ], [ 137.515045863375917, 36.411345586329787 ], [ 137.511497563062107, 36.423693332881044 ], [ 137.504238663583578, 36.425709972637208 ], [ 137.47410775616811, 36.425409135023642 ], [ 137.46071155569382, 36.412226108048515 ], [ 137.449369299753471, 36.416818890879142 ], [ 137.445309001009605, 36.412964440656481 ], [ 137.436010362688194, 36.420393305706568 ], [ 137.409723864564739, 36.424680801977502 ], [ 137.395221634670747, 36.43639746816865 ], [ 137.396205887791552, 36.450464694190316 ], [ 137.38993594039141, 36.459921640171615 ], [ 137.378017249596496, 36.452719720838502 ], [ 137.361497781897128, 36.450051387361668 ], [ 137.358589922087276, 36.436843612842495 ], [ 137.351206550142251, 36.432902531826414 ], [ 137.338397107840365, 36.433853946202703 ], [ 137.319793165422311, 36.424525359557776 ], [ 137.313451219198441, 36.425031748016806 ], [ 137.305006835197332, 36.43583538739324 ], [ 137.31387464340014, 36.441667891959696 ], [ 137.312042724392313, 36.444904837987963 ], [ 137.317788301389101, 36.451182025829894 ], [ 137.317011699030786, 36.460803170929637 ], [ 137.30661002603199, 36.463876774893322 ], [ 137.298512503349457, 36.45822986521614 ], [ 137.279028365666591, 36.465064639921252 ], [ 137.256378585603329, 36.451141332406621 ], [ 137.247085577937128, 36.461716919000651 ], [ 137.232064358283537, 36.444502467814686 ], [ 137.213869610993811, 36.438792774666865 ], [ 137.213980973143407, 36.430749694243048 ], [ 137.208944304735951, 36.431690838361533 ], [ 137.205629830852104, 36.427604170596055 ], [ 137.204870725703472, 36.436773892001554 ], [ 137.19312574705566, 36.448011666505238 ], [ 137.191675252111281, 36.45521336010853 ], [ 137.177998832779963, 36.454199747720224 ], [ 137.174939364360284, 36.450062252071348 ], [ 137.171244667907217, 36.454726693781936 ], [ 137.159696614707059, 36.45644419834116 ], [ 137.152832698370389, 36.447654748967523 ], [ 137.144191828690055, 36.445521135292211 ], [ 137.143389584861552, 36.438469748080479 ], [ 137.132267613359772, 36.434563108400766 ], [ 137.12200031076577, 36.417150053632099 ], [ 137.111510310852282, 36.415382838147536 ], [ 137.10192577175701, 36.399193107775773 ], [ 137.091944111831367, 36.396540332570339 ], [ 137.094882671797905, 36.383966721287209 ], [ 137.076593216903461, 36.383643945611652 ], [ 137.066353994741121, 36.375462305740882 ], [ 137.050502581229239, 36.369773693601132 ], [ 137.046963450402927, 36.373228414060122 ], [ 137.058386303585053, 36.397773413712116 ], [ 137.056111088955618, 36.411991467732093 ], [ 137.062260052359647, 36.426497559314953 ], [ 137.054683695796029, 36.437612559272225 ], [ 137.064303748219459, 36.452370891803241 ], [ 137.050223670885771, 36.503072837741342 ], [ 137.041324500625251, 36.505913108103528 ], [ 137.031304188737408, 36.49998366741238 ], [ 137.028177274761447, 36.505366467788292 ], [ 137.034594837781583, 36.513950919399463 ], [ 137.032630195027537, 36.533450666615011 ], [ 137.037473554161238, 36.544714278641095 ], [ 137.03966092121459, 36.580222360273751 ], [ 137.045623164677409, 36.584477613151364 ], [ 137.044429830872105, 36.58963761278568 ], [ 137.049355422215058, 36.594382613067182 ], [ 137.049646278253249, 36.600647613296758 ], [ 137.05399600491171, 36.600461504894611 ], [ 137.056123838644339, 36.618633171084014 ], [ 137.053780779159638, 36.622099838137046 ], [ 137.057956939361361, 36.632743415276423 ], [ 137.065370271321058, 36.638395918736705 ], [ 137.058595861809636, 36.644925081327472 ], [ 137.051658910630294, 36.646053135144143 ], [ 137.063974227628592, 36.656851170844902 ], [ 137.068184228419454, 36.654580333215847 ], [ 137.063640052146752, 36.654664224674264 ], [ 137.066571725105064, 36.651888945618396 ], [ 137.079443385204172, 36.648356720686138 ], [ 137.071657002768575, 36.655449775286968 ], [ 137.076748106240188, 36.654543107578377 ], [ 137.080848690114976, 36.665070864628774 ], [ 137.083618690150502, 36.658449748157409 ], [ 137.087362866403282, 36.659100027244506 ], [ 137.099930999016465, 36.683710000216365 ], [ 137.107735720427172, 36.680749441033925 ], [ 137.111287951677696, 36.685418305610369 ], [ 137.121647950992156, 36.686031359959372 ], [ 137.125332139766556, 36.696772748263754 ], [ 137.11907883342144, 36.711155225333414 ], [ 137.126715524601877, 36.713772441345156 ], [ 137.124544695181612, 36.717709386379113 ], [ 137.130848300608704, 36.719913559063571 ], [ 137.132193892334271, 36.72530019774598 ], [ 137.145883891428525, 36.724479918013856 ], [ 137.151199195886193, 36.740615748418122 ], [ 137.178018689810756, 36.746834054048406 ], [ 137.18037273721211, 36.758226118040966 ], [ 137.189433307001536, 36.757460865126859 ], [ 137.193017288816918, 36.761599829368663 ], [ 137.221296743949665, 36.761072910286657 ], [ 137.225734968394136, 36.765473775094677 ], [ 137.224635305275228, 36.762186612722076 ], [ 137.228304968199836, 36.761562252096326 ], [ 137.22774482456407, 36.765703873834752 ], [ 137.23415457787155, 36.764366531590213 ], [ 137.230785161705967, 36.766651332992694 ], [ 137.230865031396092, 36.766633108231417 ] ] ] ] } },
{ "type": "Feature", "properties": { "code": "160012", "name": "東部北", "PrefCode": "16", "regioncode": "160012" }, "geometry": { "type": "Polygon", "coordinates": [ [ [ 137.632865330570667, 36.979676360375777 ], [ 137.651536393889501, 36.969020386981299 ], [ 137.666506109369493, 36.950239027209363 ], [ 137.673475863320505, 36.950681774244515 ], [ 137.687728664446354, 36.943144306164868 ], [ 137.711155083740209, 36.944234837567762 ], [ 137.713738079648692, 36.933841558840925 ], [ 137.720456667341409, 36.926689640014899 ], [ 137.716282191569917, 36.921390748184535 ], [ 137.717831854756355, 36.907673864757101 ], [ 137.712571855007127, 36.904080558770829 ], [ 137.712983475606961, 36.893758080970713 ], [ 137.734129493881142, 36.868832080835887 ], [ 137.734438586371766, 36.831399468011114 ], [ 137.730081362065221, 36.826425892441023 ], [ 137.749328221720134, 36.809576081271189 ], [ 137.754293748357895, 36.796589081321088 ], [ 137.749554553200142, 36.780024919114794 ], [ 137.763386744103059, 36.768233468899496 ], [ 137.751772309244757, 36.751108198084921 ], [ 137.759294254126644, 36.740740666948284 ], [ 137.750753450211619, 36.726583999751824 ], [ 137.75002510997092, 36.704745359610683 ], [ 137.756704551973598, 36.695562586344352 ], [ 137.754222049008376, 36.687459801728494 ], [ 137.759738417594008, 36.685932305931203 ], [ 137.758479780417588, 36.675968135121366 ], [ 137.761863865425084, 36.66600700042278 ], [ 137.753454086437046, 36.65776810791192 ], [ 137.756382334776958, 36.647624224678282 ], [ 137.751674383865748, 36.626975891224447 ], [ 137.72766627767669, 36.622819224727493 ], [ 137.685079584555297, 36.644940027160601 ], [ 137.681975939637937, 36.63947253223165 ], [ 137.668193332856049, 36.634878332968754 ], [ 137.62736622537102, 36.639651893020471 ], [ 137.620711283598894, 36.653812135022065 ], [ 137.614332088355241, 36.655238531732891 ], [ 137.606981828548669, 36.666739892132341 ], [ 137.590421025310093, 36.681192054070095 ], [ 137.588329856937435, 36.676067333041033 ], [ 137.57255063560342, 36.672630919181643 ], [ 137.562396161054039, 36.675781170564619 ], [ 137.552771413270193, 36.673775864964227 ], [ 137.542087250626196, 36.67809833317159 ], [ 137.535395549964733, 36.676266387184057 ], [ 137.526135006025811, 36.680640250747047 ], [ 137.516032477217095, 36.678825505192947 ], [ 137.506884449257996, 36.690602972749048 ], [ 137.511171167615316, 36.705818468447603 ], [ 137.509417834065857, 36.710401251716462 ], [ 137.495675914412004, 36.722404279134253 ], [ 137.47515286641169, 36.722850467874821 ], [ 137.476320337513584, 36.716388802101562 ], [ 137.46989333341071, 36.70293997330117 ], [ 137.46455975382969, 36.706936359925123 ], [ 137.462089169579599, 36.701831387108882 ], [ 137.456590558107791, 36.701748639588118 ], [ 137.448058106196754, 36.71354116988914 ], [ 137.449990000138428, 36.698595054418263 ], [ 137.432860855943773, 36.707000666847364 ], [ 137.437100337410698, 36.718783440403513 ], [ 137.42614119266193, 36.727739026934614 ], [ 137.419485356963719, 36.721069892061905 ], [ 137.405299804442507, 36.724104666896892 ], [ 137.39184228279521, 36.716644170891811 ], [ 137.379356199828862, 36.726108946370857 ], [ 137.382815085048151, 36.721830053913891 ], [ 137.373484527089317, 36.726694801623864 ], [ 137.361685057619411, 36.720382864877365 ], [ 137.360335356891255, 36.727942306092586 ], [ 137.349589493560302, 36.732841774828103 ], [ 137.346773112789037, 36.731140387019309 ], [ 137.337775887647126, 36.742159000337665 ], [ 137.330762282753199, 36.744506774967761 ], [ 137.328049493989056, 36.751068171059273 ], [ 137.315686446372411, 36.754599279033528 ], [ 137.316011193361987, 36.758596359934131 ], [ 137.333727108319408, 36.762772666725255 ], [ 137.342906549597615, 36.771809387393375 ], [ 137.343526160903707, 36.777279252035896 ], [ 137.357323799853589, 36.787718360214228 ], [ 137.392923995446154, 36.807281279407562 ], [ 137.391961335946917, 36.820326252354732 ], [ 137.394493605595471, 36.821748666867506 ], [ 137.392343035202998, 36.823638522899557 ], [ 137.391416264948703, 36.820523649047232 ], [ 137.392055693715406, 36.823668955058281 ], [ 137.411204838432582, 36.84777610808095 ], [ 137.412601413624429, 36.853186360262384 ], [ 137.411052942939023, 36.855086197869809 ], [ 137.409085641789034, 36.851187531579399 ], [ 137.408917613357289, 36.860147773900678 ], [ 137.418737301785086, 36.874103224983912 ], [ 137.414807107961678, 36.890617386683118 ], [ 137.418619974432318, 36.893279585884216 ], [ 137.414560077685451, 36.889651468940201 ], [ 137.408916277864023, 36.897250027067173 ], [ 137.428887134034085, 36.925714441268497 ], [ 137.425810000231422, 36.925021099044557 ], [ 137.492666861086832, 36.954857170921741 ], [ 137.574582892086823, 36.964133026717889 ], [ 137.589963917001228, 36.974277332632823 ], [ 137.585055694264952, 36.972646666610444 ], [ 137.587606938709314, 36.974814531865206 ], [ 137.632718301308614, 36.979691252249552 ], [ 137.632865330570667, 36.979676360375777 ] ], [ [ 137.388362827382593, 36.724998918565291 ], [ 137.388833385052749, 36.719577252188515 ], [ 137.391269804957574, 36.721215000372013 ], [ 137.388363449713552, 36.725000000449711 ], [ 137.388362827382593, 36.724998918565291 ] ] ] } },
{ "type": "Feature", "properties": { "code": "160021", "name": "西部北", "PrefCode": "16", "regioncode": "160021" }, "geometry": { "type": "MultiPolygon", "coordinates": [ [ [ [ 136.908566108938885, 36.620862747817625 ], [ 136.906077522959436, 36.622657747856806 ], [ 136.908704721445815, 36.621044134779027 ], [ 136.908566108938885, 36.620862747817625 ] ] ], [ [ [ 137.075319143763522, 36.802415000152166 ], [ 137.064376588808614, 36.81162741507319 ], [ 137.075004525838267, 36.802682640191733 ], [ 137.075319143763522, 36.802415000152166 ] ] ], [ [ [ 137.031358833343575, 36.92835080204793 ], [ 137.028755642259171, 36.932356802424522 ], [ 137.03093752344796, 36.929161225210407 ], [ 137.031358833343575, 36.92835080204793 ] ] ], [ [ [ 136.988006550062323, 36.967052918557386 ], [ 136.996266860827063, 36.967014333145016 ], [ 137.006727133650315, 36.961131054654516 ], [ 137.027238559711805, 36.96242500011374 ], [ 137.03767080426428, 36.967119196793533 ], [ 137.05169666686777, 36.959174324135802 ], [ 137.027578301097833, 36.940401197657195 ], [ 137.032585279287218, 36.923774413858155 ], [ 137.025490532162394, 36.91420310828687 ], [ 137.01814983124973, 36.910997080950551 ], [ 137.009274422876388, 36.895185108106318 ], [ 136.995181478942186, 36.885006252036931 ], [ 136.993377055806491, 36.879378441262133 ], [ 136.984976446306064, 36.877060080758156 ], [ 136.988399845176787, 36.863069702704649 ], [ 136.993251440301833, 36.86321574810836 ], [ 136.988910635817206, 36.862569197610412 ], [ 136.989553256277873, 36.858602413970289 ], [ 136.990730636110015, 36.862714278940871 ], [ 136.992285161930795, 36.85987002728001 ], [ 136.991113748200974, 36.856224692815374 ], [ 136.993081219322903, 36.862330387137717 ], [ 136.99108364519418, 36.853998333856055 ], [ 136.998526589130847, 36.844141414394812 ], [ 137.020546355430042, 36.826834054248252 ], [ 137.044846939135027, 36.814095359813052 ], [ 137.056820155825562, 36.801604153409016 ], [ 137.057908470399639, 36.806501999767534 ], [ 137.059071997974343, 36.801943892096972 ], [ 137.063001829371046, 36.805002721098731 ], [ 137.069297198806794, 36.801705532184599 ], [ 137.064132634213706, 36.797595946096067 ], [ 137.084117471244326, 36.787553721327242 ], [ 137.079196304565812, 36.788272973019332 ], [ 137.08280569402757, 36.784102530707287 ], [ 137.091157562071885, 36.784732135279853 ], [ 137.096484111652444, 36.781047054378121 ], [ 137.09091158220383, 36.786145694168511 ], [ 137.114295421296674, 36.782042774754302 ], [ 137.107850078218576, 36.779322892137827 ], [ 137.113604578288687, 36.774565440742549 ], [ 137.093920116620097, 36.775636197852293 ], [ 137.097356445943319, 36.771423305740996 ], [ 137.092629144319631, 36.772939891862563 ], [ 137.092605188178936, 36.769742748029444 ], [ 137.112101439729713, 36.767891891997294 ], [ 137.109047172988653, 36.763111251583041 ], [ 137.113944720772338, 36.765163505391513 ], [ 137.13315858699923, 36.756887891762858 ], [ 137.134419272831224, 36.760628531881309 ], [ 137.118319105042701, 36.766506170723233 ], [ 137.120637808188349, 36.772325918406466 ], [ 137.117554694793398, 36.77604519872699 ], [ 137.121918807906695, 36.779466720712662 ], [ 137.118930219554045, 36.777948306269366 ], [ 137.118929169145872, 36.784219613444463 ], [ 137.119988911359201, 36.780209945632521 ], [ 137.141117716609415, 36.772762134564914 ], [ 137.136602022765146, 36.77337489213761 ], [ 137.137935667896841, 36.769453973022507 ], [ 137.13936914407077, 36.772126134913265 ], [ 137.139133644901904, 36.769617467971841 ], [ 137.149113281352925, 36.768435278565278 ], [ 137.155574501062461, 36.763227613063918 ], [ 137.180130219733883, 36.757958666859054 ], [ 137.178998145048467, 36.748219613444462 ], [ 137.151199195886193, 36.740615748418122 ], [ 137.145883891428525, 36.724479918013856 ], [ 137.132193892334271, 36.72530019774598 ], [ 137.130848300608704, 36.719913559063571 ], [ 137.124598858650415, 36.717771891959273 ], [ 137.126715524601877, 36.713772441345156 ], [ 137.118568833285053, 36.709097440694393 ], [ 137.124248832617582, 36.704124946109403 ], [ 137.125332139766556, 36.696772748263754 ], [ 137.121647950992156, 36.686031359959372 ], [ 137.111287951677696, 36.685418305610369 ], [ 137.107735720427172, 36.680749441033925 ], [ 137.099930999016465, 36.683710000216365 ], [ 137.087362866403282, 36.659100027244506 ], [ 137.083618690150502, 36.658449748157409 ], [ 137.080848690114976, 36.665070864628774 ], [ 137.076748106240188, 36.654543107578377 ], [ 137.071657002768575, 36.655449775286968 ], [ 137.073972554689703, 36.651286171419713 ], [ 137.080825616209268, 36.650169504818848 ], [ 137.079126446128612, 36.648193107925636 ], [ 137.066571725105064, 36.651888945618396 ], [ 137.063640052146752, 36.654664224674264 ], [ 137.068184228419454, 36.654580333215847 ], [ 137.063974227628592, 36.656851170844902 ], [ 137.051658910630294, 36.646053135144143 ], [ 137.054277523289102, 36.652133946124763 ], [ 137.047110336672745, 36.65975783725446 ], [ 137.042749494393661, 36.656952000134766 ], [ 137.032636446215065, 36.660283386668993 ], [ 137.03373175121942, 36.663619775232519 ], [ 137.022120077279851, 36.666416414086314 ], [ 137.021448171296129, 36.672547224674759 ], [ 137.011431529541483, 36.672776387220551 ], [ 137.007510078027735, 36.659205306379818 ], [ 136.986707328280659, 36.656909170821621 ], [ 136.989944864264089, 36.666286640116425 ], [ 136.987396278215783, 36.670564946215336 ], [ 136.978014449007674, 36.67074830718866 ], [ 136.973813216606686, 36.664846613280645 ], [ 136.966091828175422, 36.66487546802847 ], [ 136.965354331037588, 36.659624667444518 ], [ 136.956338222830823, 36.660512414316543 ], [ 136.95672105073595, 36.670056278874199 ], [ 136.952300532143909, 36.670932838179965 ], [ 136.950085525326813, 36.679902891205529 ], [ 136.944900557814549, 36.67941758555321 ], [ 136.944561971158123, 36.684303946669843 ], [ 136.941507224179077, 36.68140950474492 ], [ 136.940462801916851, 36.685305612464106 ], [ 136.936246420435964, 36.682503387021768 ], [ 136.927591166998809, 36.686357224806159 ], [ 136.923423139366491, 36.684712225388921 ], [ 136.937592749605756, 36.671591748060791 ], [ 136.924565279264243, 36.673246999749267 ], [ 136.921920441475208, 36.676542837881698 ], [ 136.916364448760419, 36.670504467707076 ], [ 136.918054694868374, 36.667599775309441 ], [ 136.913866108733941, 36.665085054132021 ], [ 136.918298002850634, 36.660300918952316 ], [ 136.915690219827866, 36.659103971671016 ], [ 136.917617134223406, 36.6555998379622 ], [ 136.912093527894058, 36.651170945782553 ], [ 136.917209858248384, 36.641272387710558 ], [ 136.922305667872365, 36.641489081156237 ], [ 136.903183644909404, 36.625891055228067 ], [ 136.910429143590136, 36.614764999904878 ], [ 136.905891362396574, 36.615278612617942 ], [ 136.900401828681538, 36.602140585919358 ], [ 136.856894280147003, 36.604410802116888 ], [ 136.851208884882226, 36.587406440654775 ], [ 136.84441802856918, 36.585626441307284 ], [ 136.830870000050481, 36.597857251710877 ], [ 136.817547223825386, 36.602925837957116 ], [ 136.810778301077789, 36.601457774756568 ], [ 136.813406496912421, 36.616277972550449 ], [ 136.801334033738726, 36.617063251567856 ], [ 136.79675649801402, 36.613172413875873 ], [ 136.799606445980771, 36.60922717079734 ], [ 136.795755031869248, 36.604911053602279 ], [ 136.789500894550656, 36.605415774718267 ], [ 136.783348197161672, 36.615334332813234 ], [ 136.784212996033034, 36.627403999994669 ], [ 136.799903358952861, 36.63640453194364 ], [ 136.800568716073485, 36.646571972918252 ], [ 136.807303720890104, 36.647705865133616 ], [ 136.810305772093784, 36.657954136274441 ], [ 136.823835861835619, 36.670171864240217 ], [ 136.82057569441281, 36.683929864671597 ], [ 136.810025694430351, 36.686586250655012 ], [ 136.815581608004891, 36.700507026578066 ], [ 136.789215357103103, 36.719026440817629 ], [ 136.79306092112472, 36.720646441779934 ], [ 136.796101478600463, 36.729577278968293 ], [ 136.819861440253362, 36.730649802346534 ], [ 136.821960856308579, 36.740300080984014 ], [ 136.839314227569616, 36.74520230614155 ], [ 136.849164772636186, 36.759234251759381 ], [ 136.852665615725641, 36.770328667134322 ], [ 136.843155032378945, 36.782541504586845 ], [ 136.850870920556645, 36.78696977533491 ], [ 136.854053450406468, 36.794973360232461 ], [ 136.84799124460028, 36.809845000146709 ], [ 136.860018053690283, 36.829076774573537 ], [ 136.856441699025254, 36.839791468301655 ], [ 136.861794228221129, 36.841075864759375 ], [ 136.861918689895674, 36.847747224554837 ], [ 136.867229532816737, 36.850918612703879 ], [ 136.861110920632541, 36.854624720654385 ], [ 136.862388689986119, 36.860326694021751 ], [ 136.871243385174125, 36.862677837512251 ], [ 136.883031673373125, 36.876824279417008 ], [ 136.882072749657709, 36.882137054081852 ], [ 136.885609416341595, 36.885192640128309 ], [ 136.879010505930182, 36.892734891701934 ], [ 136.878976302914111, 36.906271026686568 ], [ 136.895581478702297, 36.924719693958764 ], [ 136.915612244109866, 36.930807775058838 ], [ 136.930953606223966, 36.950602559260744 ], [ 136.95378691273595, 36.956056774800345 ], [ 136.973746887109201, 36.944311802447771 ], [ 136.98241574638962, 36.952740999597495 ], [ 136.987477392567712, 36.967296802105807 ], [ 136.988006550062323, 36.967052918557386 ] ] ] ] } },
{ "type": "Feature", "properties": { "code": "160022", "name": "西部南", "PrefCode": "16", "regioncode": "160022" }, "geometry": { "type": "Polygon", "coordinates": [ [ [ 136.930103112868437, 36.685197504960911 ], [ 136.936637249609475, 36.682474505294238 ], [ 136.940462801916851, 36.685305612464106 ], [ 136.941507224179077, 36.68140950474492 ], [ 136.944561971158123, 36.684303946669843 ], [ 136.944900557814549, 36.67941758555321 ], [ 136.950085525326813, 36.679902891205529 ], [ 136.958466550291178, 36.659994359851851 ], [ 136.965354331037588, 36.659624667444518 ], [ 136.966091828175422, 36.66487546802847 ], [ 136.973813216606686, 36.664846613280645 ], [ 136.978014449007674, 36.67074830718866 ], [ 136.989673190765188, 36.669326360323339 ], [ 136.986707328280659, 36.656909170821621 ], [ 137.007510078027735, 36.659205306379818 ], [ 137.011431529541483, 36.672776387220551 ], [ 137.023173165409275, 36.671994198273694 ], [ 137.022120077279851, 36.666416414086314 ], [ 137.03373175121942, 36.663619775232519 ], [ 137.032636446215065, 36.660283386668993 ], [ 137.042749494393661, 36.656952000134766 ], [ 137.047110336672745, 36.65975783725446 ], [ 137.054277523289102, 36.652133946124763 ], [ 137.051691698113473, 36.646013135098144 ], [ 137.058595861809636, 36.644925081327472 ], [ 137.065370272220321, 36.638473972695749 ], [ 137.057956939361361, 36.632743415276423 ], [ 137.053780779159638, 36.622099838137046 ], [ 137.056123838644339, 36.618633171084014 ], [ 137.05399600491171, 36.600461504894611 ], [ 137.049646278253249, 36.600647613296758 ], [ 137.049355422215058, 36.594382613067182 ], [ 137.044429830872105, 36.58963761278568 ], [ 137.045623164677409, 36.584477613151364 ], [ 137.03966092121459, 36.580222360273751 ], [ 137.037473554161238, 36.544714278641095 ], [ 137.032630195027537, 36.533450666615011 ], [ 137.034594837781583, 36.513950919399463 ], [ 137.028177274761447, 36.505366467788292 ], [ 137.031304188737408, 36.49998366741238 ], [ 137.041324500625251, 36.505913108103528 ], [ 137.050223670885771, 36.503072837741342 ], [ 137.064303748219459, 36.452370891803241 ], [ 137.054683695796029, 36.437612559272225 ], [ 137.062223112706533, 36.426007278613042 ], [ 137.056111088955618, 36.411991467732093 ], [ 137.058386303585053, 36.397773413712116 ], [ 137.046963450402927, 36.373228414060122 ], [ 137.050665084226353, 36.369745359560739 ], [ 137.058447328881243, 36.371975081085168 ], [ 137.0620209208289, 36.366872306212031 ], [ 137.048904423000749, 36.345494802443227 ], [ 137.058735524724739, 36.342500333423686 ], [ 137.052533280986154, 36.338539774890762 ], [ 137.051514915680855, 36.328132838160002 ], [ 137.037744034259845, 36.317508945381576 ], [ 137.019567911929698, 36.318121198434596 ], [ 137.018201505395268, 36.311452306378897 ], [ 137.02125121886877, 36.30917646761992 ], [ 137.01080949366326, 36.298028693669323 ], [ 137.012595576924355, 36.293099801814435 ], [ 137.002680830156237, 36.286925667285743 ], [ 136.986216108686563, 36.286274559023752 ], [ 136.986524968252752, 36.282464558692482 ], [ 136.975305771943908, 36.274364026878402 ], [ 136.970722191875666, 36.277749027395771 ], [ 136.967889391282483, 36.275241532270968 ], [ 136.957734694600504, 36.277936802241697 ], [ 136.973288715801687, 36.309852360298237 ], [ 136.961408780390911, 36.322947081043026 ], [ 136.954896886582105, 36.339350440870192 ], [ 136.93964389095288, 36.349208224579968 ], [ 136.932756666886689, 36.34829322555197 ], [ 136.907474227653552, 36.36084155869105 ], [ 136.890090532152385, 36.345558468148852 ], [ 136.874756913201054, 36.342792891878503 ], [ 136.875741115060464, 36.350105667042953 ], [ 136.869578053884197, 36.350716197894258 ], [ 136.876304188687413, 36.35794483788402 ], [ 136.871220921008785, 36.367549000186273 ], [ 136.864134748020319, 36.355200640297369 ], [ 136.865100271860115, 36.349660359637937 ], [ 136.85206413655078, 36.347428665900281 ], [ 136.844063333256258, 36.351111693649784 ], [ 136.837151920125052, 36.347215585930599 ], [ 136.842496589246252, 36.332715865145133 ], [ 136.832518755036631, 36.31541805400002 ], [ 136.832367639255267, 36.306811414315348 ], [ 136.826184552874906, 36.302548333738685 ], [ 136.80939204920378, 36.302540774936858 ], [ 136.804176808712782, 36.306191053874102 ], [ 136.792287082383041, 36.299211026967384 ], [ 136.788357638594221, 36.312333505287086 ], [ 136.790420168955734, 36.322075720717976 ], [ 136.783650751581035, 36.329591559203152 ], [ 136.786931051227043, 36.333429333297147 ], [ 136.784658611905456, 36.34378713466856 ], [ 136.78752194628089, 36.348534919251165 ], [ 136.793336667653193, 36.348487972841724 ], [ 136.80819002614885, 36.358688586209325 ], [ 136.800134527886257, 36.370299693576044 ], [ 136.795142995552851, 36.401263892114969 ], [ 136.778856693281796, 36.414371386830112 ], [ 136.770178079954462, 36.414678305659322 ], [ 136.771302282874103, 36.422534999790457 ], [ 136.768355616418603, 36.42350972099689 ], [ 136.769615914642827, 36.430860279378464 ], [ 136.778176472166479, 36.430882505223508 ], [ 136.796725135956308, 36.444688080690412 ], [ 136.790098754853716, 36.447401694132907 ], [ 136.78820238683079, 36.452685305582463 ], [ 136.798362697980224, 36.461648639772932 ], [ 136.794882722759553, 36.463881694184863 ], [ 136.798292724429757, 36.4684528015556 ], [ 136.795550532331276, 36.474885584702008 ], [ 136.802817782914417, 36.48500700017297 ], [ 136.802516135011729, 36.490347278803938 ], [ 136.793950052053333, 36.496981135071394 ], [ 136.797090609643988, 36.501994225053522 ], [ 136.795106199791348, 36.510807802338263 ], [ 136.81285538336931, 36.538099252378629 ], [ 136.817219027036572, 36.552138693845677 ], [ 136.802444059745653, 36.568771720738368 ], [ 136.791008249131437, 36.569621973075641 ], [ 136.795318560303372, 36.584841135310171 ], [ 136.794165772432507, 36.589883892127943 ], [ 136.78831250341932, 36.593023586369441 ], [ 136.789500894550656, 36.605415774718267 ], [ 136.795755031869248, 36.604911053602279 ], [ 136.799606445980771, 36.60922717079734 ], [ 136.79675649801402, 36.613172413875873 ], [ 136.801334033738726, 36.617063251567856 ], [ 136.813406496912421, 36.616277972550449 ], [ 136.810778301077789, 36.601457774756568 ], [ 136.817547223825386, 36.602925837957116 ], [ 136.830870000050481, 36.597857251710877 ], [ 136.84441802856918, 36.585626441307284 ], [ 136.851208884882226, 36.587406440654775 ], [ 136.856894280147003, 36.604410802116888 ], [ 136.900401828681538, 36.602140585919358 ], [ 136.905891362396574, 36.615278612617942 ], [ 136.910429143590136, 36.614764999904878 ], [ 136.903183644909404, 36.625891055228067 ], [ 136.922305667872365, 36.641489081156237 ], [ 136.917209858248384, 36.641272387710558 ], [ 136.912093527894058, 36.651170945782553 ], [ 136.917617134223406, 36.6555998379622 ], [ 136.915690219827866, 36.659103971671016 ], [ 136.918298002850634, 36.660300918952316 ], [ 136.913866108733941, 36.665085054132021 ], [ 136.918054694868374, 36.667599775309441 ], [ 136.916364448760419, 36.670504467707076 ], [ 136.921920441475208, 36.676542837881698 ], [ 136.924565279264243, 36.673246999749267 ], [ 136.937592749605756, 36.671591748060791 ], [ 136.923423139366491, 36.684712225388921 ], [ 136.929979222263341, 36.685283892038058 ], [ 136.930103112868437, 36.685197504960911 ] ], [ [ 136.90835999961439, 36.620768306412288 ], [ 136.906077522959436, 36.622657747856806 ], [ 136.908337496778131, 36.620773748209956 ], [ 136.90835999961439, 36.620768306412288 ] ] ] } }
]
}
