{
"type": "FeatureCollection",
"name": "20_nagano_region",
"crs": { "type": "name", "properties": { "name": "urn:ogc:def:crs:OGC:1.3:CRS84" } },
"features": [
{ "type": "Feature", "properties": { "code": "200011", "name": "長野地域", "PrefCode": "20", "regioncode": "200011" }, "geometry": { "type": "Polygon", "coordinates": [ [ [ 138.21740905278557, 36.866375441473508 ], [ 138.242373450374544, 36.864026532798277 ], [ 138.254708171145239, 36.870021251679475 ], [ 138.258228144613213, 36.863511532431346 ], [ 138.268261141438643, 36.860526251785132 ], [ 138.27164613476134, 36.85546180152096 ], [ 138.270570246119973, 36.844091838367717 ], [ 138.274901633803438, 36.840854332961158 ], [ 138.276125746006414, 36.828383505194665 ], [ 138.282935006045705, 36.815880891789789 ], [ 138.275670557750118, 36.813746467825297 ], [ 138.273917496695162, 36.80937383813216 ], [ 138.280801529966652, 36.804898774758726 ], [ 138.279247327901885, 36.797081837856581 ], [ 138.283035382976664, 36.794160170755333 ], [ 138.279858418131539, 36.790064080792774 ], [ 138.293922308567744, 36.790241560199888 ], [ 138.30122674431891, 36.786397945908504 ], [ 138.29988255463627, 36.771938531837804 ], [ 138.304252528631309, 36.763986026633859 ], [ 138.299989689072959, 36.75594353256804 ], [ 138.294412995763196, 36.754374640077629 ], [ 138.297830194707785, 36.750442134996604 ], [ 138.29410600498818, 36.745872694069647 ], [ 138.311522943928821, 36.742760198024769 ], [ 138.308390973065002, 36.739086305588557 ], [ 138.311103061257313, 36.720786027353313 ], [ 138.318561700162377, 36.724720747464573 ], [ 138.323720311243392, 36.722168802448323 ], [ 138.334705616371139, 36.724020171094082 ], [ 138.343738612047332, 36.715641559010805 ], [ 138.338579973986725, 36.708479639723635 ], [ 138.351437419401464, 36.695388251866405 ], [ 138.356179363786623, 36.694924920248923 ], [ 138.368216912580465, 36.704212387191944 ], [ 138.395016667285404, 36.696037081246345 ], [ 138.405699195861303, 36.699090134801907 ], [ 138.434100078355982, 36.696738747595191 ], [ 138.439960920560111, 36.692023747797748 ], [ 138.469418469586799, 36.686026559378263 ], [ 138.473563747968683, 36.6763379462393 ], [ 138.492517951142645, 36.676884081135483 ], [ 138.513497496812079, 36.667567747753424 ], [ 138.534338197050261, 36.666268667165298 ], [ 138.529443993845348, 36.655288359570193 ], [ 138.52407761239192, 36.650377251808777 ], [ 138.490081854993718, 36.641195802344441 ], [ 138.481209105016205, 36.645247721205408 ], [ 138.473097172496523, 36.644048279204753 ], [ 138.467065447412551, 36.637207720959623 ], [ 138.458597638770129, 36.634378837813188 ], [ 138.460575667932744, 36.626472198033582 ], [ 138.454973646116969, 36.613850838145709 ], [ 138.44158333260475, 36.610669441441644 ], [ 138.438943307088039, 36.605575837854701 ], [ 138.441297445320856, 36.599689468394331 ], [ 138.431983838683323, 36.599280586230122 ], [ 138.426596030882138, 36.594528359895946 ], [ 138.427029585047421, 36.587752279444203 ], [ 138.420295083851101, 36.573964532137495 ], [ 138.428429494025977, 36.568696198370901 ], [ 138.426162243792533, 36.560393720194099 ], [ 138.42890697827454, 36.556450666964736 ], [ 138.418094694614524, 36.543338467896035 ], [ 138.408680506000564, 36.540947918811469 ], [ 138.391553580433424, 36.553628467579756 ], [ 138.378739389711086, 36.554555108331613 ], [ 138.356345136718801, 36.5492862250793 ], [ 138.351953994481278, 36.541282640181748 ], [ 138.333961439968562, 36.537351531747845 ], [ 138.323707834049401, 36.546153999707371 ], [ 138.315536135284447, 36.546348171431021 ], [ 138.311172529388841, 36.550338440866426 ], [ 138.293877418907869, 36.532298721408893 ], [ 138.277700143247102, 36.535701774917015 ], [ 138.266486977791828, 36.513231531909696 ], [ 138.249855005803965, 36.515696802065804 ], [ 138.246755253152514, 36.510002081730761 ], [ 138.23936800333081, 36.509489306286525 ], [ 138.229486056636233, 36.514163198073163 ], [ 138.220891829394532, 36.507159027067473 ], [ 138.200218469606739, 36.51167430632421 ], [ 138.201766200150132, 36.50098430618084 ], [ 138.219483696115731, 36.490587081228853 ], [ 138.221691996688378, 36.483039892377178 ], [ 138.230765084141353, 36.479485440700557 ], [ 138.228898053802254, 36.464014918853479 ], [ 138.240050829782035, 36.45890825171449 ], [ 138.241948612438591, 36.450910468343466 ], [ 138.249781945780228, 36.44413907965486 ], [ 138.248690506062076, 36.433313000394719 ], [ 138.216152308682126, 36.429395252289112 ], [ 138.172215447185181, 36.419350027381938 ], [ 138.167529026943157, 36.415392558919507 ], [ 138.139859610732515, 36.434015864640514 ], [ 138.128857689730694, 36.438203081107361 ], [ 138.12160849483621, 36.436830864952526 ], [ 138.117952749819665, 36.449024170928794 ], [ 138.106038910867142, 36.459197747977726 ], [ 138.105950921198087, 36.468707467975321 ], [ 138.085323721812415, 36.473458558465779 ], [ 138.0870420879221, 36.477754946333732 ], [ 138.073536004682978, 36.48257797269531 ], [ 138.074574449151555, 36.490750747948709 ], [ 138.046251894009743, 36.494917639737309 ], [ 138.033371582432665, 36.484908197955008 ], [ 138.005308222696385, 36.480159559016499 ], [ 137.977122581242156, 36.460701532249971 ], [ 137.963591777438637, 36.463467891829794 ], [ 137.964826809209967, 36.467824558556572 ], [ 137.959354864435454, 36.46791955934026 ], [ 137.949410778184983, 36.482319774637915 ], [ 137.957632192371875, 36.488338386707255 ], [ 137.949841725215492, 36.501448081164085 ], [ 137.963522827316638, 36.505303919040671 ], [ 137.961238418018638, 36.508919467959117 ], [ 137.966938197040236, 36.516506666749308 ], [ 137.956325746336233, 36.527188865273956 ], [ 137.939866524220747, 36.516706360310309 ], [ 137.933544616690824, 36.517955801019468 ], [ 137.923341088620418, 36.53110213475577 ], [ 137.925183358825052, 36.53703797322396 ], [ 137.917125615854502, 36.540069080623596 ], [ 137.917659273556637, 36.549982386677868 ], [ 137.926564060083365, 36.558731837804146 ], [ 137.926093838759698, 36.565173505353016 ], [ 137.935628300905478, 36.572970721021989 ], [ 137.932482217880079, 36.576414306075435 ], [ 137.941768715353987, 36.594782081128187 ], [ 137.927921283640444, 36.59965344065381 ], [ 137.927937716952101, 36.606995387127483 ], [ 137.914386718872038, 36.61858674897934 ], [ 137.913659804956069, 36.623922585858679 ], [ 137.920602360710404, 36.636170360174049 ], [ 137.912490441680575, 36.641851721080116 ], [ 137.905252776094812, 36.660160891811756 ], [ 137.910105836215394, 36.66157727906824 ], [ 137.917020636193456, 36.680103109071297 ], [ 137.914478754590959, 36.693564225308819 ], [ 137.923960169326392, 36.69965953156219 ], [ 137.929517445373904, 36.712603694105269 ], [ 137.930452476800383, 36.719121107952844 ], [ 137.9271738912621, 36.723203135216579 ], [ 137.933750311427843, 36.725402613439883 ], [ 137.95321824872326, 36.748338775414197 ], [ 137.952888833353086, 36.755482667790943 ], [ 137.967925330689468, 36.77103294601369 ], [ 137.967769000638896, 36.781313197945792 ], [ 137.975472087866592, 36.786456250755407 ], [ 137.980730467037461, 36.801670640287853 ], [ 138.003289533385328, 36.826470559069094 ], [ 138.017040078436935, 36.818826387327988 ], [ 138.028878689999601, 36.817113891992562 ], [ 138.033797275623783, 36.808833332991981 ], [ 138.051519779913974, 36.807641667429039 ], [ 138.054152217850628, 36.800077225983273 ], [ 138.070703384853346, 36.80529969432547 ], [ 138.07528372196623, 36.810703027123054 ], [ 138.07301680897865, 36.816846892270291 ], [ 138.081576394335229, 36.830072946409416 ], [ 138.1123940600379, 36.849494000247944 ], [ 138.147426199759366, 36.849377720605389 ], [ 138.165701361728566, 36.844488918728644 ], [ 138.176071336323162, 36.847697278906367 ], [ 138.177500245739793, 36.851784505150817 ], [ 138.203385447480514, 36.85713877543418 ], [ 138.213788275208799, 36.87114986487444 ], [ 138.217204889594086, 36.866404612782731 ], [ 138.21740905278557, 36.866375441473508 ] ] ] } },
{ "type": "Feature", "properties": { "code": "200012", "name": "中野飯山地域", "PrefCode": "20", "regioncode": "200012" }, "geometry": { "type": "Polygon", "coordinates": [ [ [ 138.526516667310375, 37.028078559078267 ], [ 138.536510972603423, 37.020926667231947 ], [ 138.552640532034957, 37.023643252034503 ], [ 138.565888858783865, 37.021260559427333 ], [ 138.575865772087809, 36.996288279280691 ], [ 138.586663891425474, 36.988246802348101 ], [ 138.586978494961613, 36.954707279117713 ], [ 138.582924189300002, 36.928688000151112 ], [ 138.59208503259822, 36.925349413644597 ], [ 138.58876416273597, 36.913972053567477 ], [ 138.596411698840939, 36.907013945836979 ], [ 138.612867055670108, 36.908548971657751 ], [ 138.621014863944879, 36.904081973404402 ], [ 138.617772334925348, 36.892040748182012 ], [ 138.625424578081834, 36.882446505401958 ], [ 138.635546549333867, 36.883425666561322 ], [ 138.635014059851073, 36.879860359168276 ], [ 138.650972140152248, 36.874420612821098 ], [ 138.657356278069869, 36.868046135420855 ], [ 138.681522943728964, 36.865424413805727 ], [ 138.69320263339489, 36.854816892285783 ], [ 138.690207030330271, 36.83266405420278 ], [ 138.679587250151485, 36.821050694034341 ], [ 138.686998637776924, 36.818223170662861 ], [ 138.695846419876489, 36.807940612869061 ], [ 138.686697133765733, 36.790340305760537 ], [ 138.671714306170315, 36.783589721088788 ], [ 138.668992049343615, 36.778816080997387 ], [ 138.672702308564794, 36.770412748349713 ], [ 138.688090078394453, 36.76574717079535 ], [ 138.695931634237581, 36.738512666726251 ], [ 138.676158780903052, 36.730600693966892 ], [ 138.648925084425173, 36.727119558620814 ], [ 138.630330830403523, 36.719510053945896 ], [ 138.622034721225418, 36.720321999660598 ], [ 138.610861581896529, 36.706380837905385 ], [ 138.595728560324915, 36.714535532289062 ], [ 138.584055719895673, 36.701197973008107 ], [ 138.574768520950556, 36.707234360177608 ], [ 138.559777173178077, 36.707037639775308 ], [ 138.543639143931387, 36.703834531638392 ], [ 138.537084694203372, 36.697130332199151 ], [ 138.514335641576622, 36.690785251837951 ], [ 138.519899195791368, 36.689194171274039 ], [ 138.518271946293339, 36.676208891727015 ], [ 138.534089027286882, 36.666228107741006 ], [ 138.513497496812079, 36.667567747753424 ], [ 138.492517951142645, 36.676884081135483 ], [ 138.473563747968683, 36.6763379462393 ], [ 138.469418469586799, 36.686026559378263 ], [ 138.439960920560111, 36.692023747797748 ], [ 138.434100078355982, 36.696738747595191 ], [ 138.405699195861303, 36.699090134801907 ], [ 138.395016667285404, 36.696037081246345 ], [ 138.368216912580465, 36.704212387191944 ], [ 138.356129364178855, 36.694902695303199 ], [ 138.348264357614084, 36.696706586040193 ], [ 138.338542191668921, 36.708567413555329 ], [ 138.343738612047332, 36.715641559010805 ], [ 138.334705616371139, 36.724020171094082 ], [ 138.323720311243392, 36.722168802448323 ], [ 138.318561700162377, 36.724720747464573 ], [ 138.311507497173352, 36.720674360333533 ], [ 138.308391141238189, 36.723809639803108 ], [ 138.308390973065002, 36.739086305588557 ], [ 138.311522943928821, 36.742760198024769 ], [ 138.29410600498818, 36.745872694069647 ], [ 138.297830194707785, 36.750442134996604 ], [ 138.294412995763196, 36.754374640077629 ], [ 138.299989689072959, 36.75594353256804 ], [ 138.304252528631309, 36.763986026633859 ], [ 138.29988255463627, 36.771938531837804 ], [ 138.303037860209201, 36.782073224899477 ], [ 138.294026200049188, 36.790217107633453 ], [ 138.279858418131539, 36.790064080792774 ], [ 138.283035382976664, 36.794160170755333 ], [ 138.279247327901885, 36.797081837856581 ], [ 138.280801529966652, 36.804898774758726 ], [ 138.273917496695162, 36.80937383813216 ], [ 138.275670557750118, 36.813746467825297 ], [ 138.282935006045705, 36.815880891789789 ], [ 138.276125746006414, 36.828383505194665 ], [ 138.274853580328568, 36.84075461343474 ], [ 138.287712166083679, 36.845775972683043 ], [ 138.289959973873806, 36.852914586938709 ], [ 138.296109390536003, 36.855783197636526 ], [ 138.288527781931634, 36.868950134840929 ], [ 138.29936808127195, 36.886721225004578 ], [ 138.290289274130714, 36.896811225357794 ], [ 138.296165135912361, 36.910533693575132 ], [ 138.317569830683169, 36.925185054446786 ], [ 138.329890077764958, 36.926846720999436 ], [ 138.343204448926258, 36.92079674777176 ], [ 138.349171115254876, 36.929242558996975 ], [ 138.357560000293802, 36.933582557688965 ], [ 138.364669195926695, 36.944554505186318 ], [ 138.36367564201737, 36.953077801999029 ], [ 138.369373773480902, 36.96387138695502 ], [ 138.382274383655954, 36.97642105378867 ], [ 138.378699441825802, 36.980504108078151 ], [ 138.388957807856627, 36.986430748280441 ], [ 138.394681555609395, 36.997175413714444 ], [ 138.41054849501711, 36.998445946223512 ], [ 138.412248559923114, 37.002427054265183 ], [ 138.431378909708997, 37.006077279243073 ], [ 138.455132049104805, 37.01961466608401 ], [ 138.490570363131837, 37.019898721448897 ], [ 138.497438275156355, 37.026445440604675 ], [ 138.523411414405359, 37.030422332624596 ], [ 138.526523060590876, 37.028246054212104 ], [ 138.526516667310375, 37.028078559078267 ] ] ] } },
{ "type": "Feature", "properties": { "code": "200013", "name": "大北地域", "PrefCode": "20", "regioncode": "200013" }, "geometry": { "type": "Polygon", "coordinates": [ [ [ 137.923258780868082, 36.918598333446369 ], [ 137.948489947952794, 36.912783332384947 ], [ 137.957865772387549, 36.902796639853079 ], [ 137.962566082658668, 36.9022196941836 ], [ 137.969575031762361, 36.910812747810098 ], [ 137.976445615672674, 36.90829163964753 ], [ 137.991401776570797, 36.910748558699083 ], [ 138.013637951230521, 36.90406905374391 ], [ 138.015683191226344, 36.893096278870246 ], [ 138.031062139606092, 36.891361251920273 ], [ 138.032880752244978, 36.8844704143782 ], [ 138.020959753789725, 36.863487694101877 ], [ 138.013675279390668, 36.860432721393011 ], [ 138.020229921573673, 36.842391892172145 ], [ 137.980730467037461, 36.801670640287853 ], [ 137.975472087866592, 36.786456250755407 ], [ 137.967769000638896, 36.781313197945792 ], [ 137.967925330689468, 36.77103294601369 ], [ 137.952888833353086, 36.755482667790943 ], [ 137.95321824872326, 36.748338775414197 ], [ 137.933750311427843, 36.725402613439883 ], [ 137.9271738912621, 36.723203135216579 ], [ 137.930452476800383, 36.719121107952844 ], [ 137.929517445373904, 36.712603694105269 ], [ 137.923960169326392, 36.69965953156219 ], [ 137.914478754590959, 36.693564225308819 ], [ 137.917020636193456, 36.680103109071297 ], [ 137.910105836215394, 36.66157727906824 ], [ 137.905252776094812, 36.660218666957974 ], [ 137.912446277773597, 36.64192089243528 ], [ 137.920602360710404, 36.636170360174049 ], [ 137.913659804956069, 36.623922585858679 ], [ 137.914386718872038, 36.61858674897934 ], [ 137.927937716952101, 36.606995387127483 ], [ 137.927921283640444, 36.59965344065381 ], [ 137.941768715353987, 36.594782081128187 ], [ 137.932482217880079, 36.576414306075435 ], [ 137.935628300905478, 36.572970721021989 ], [ 137.926093838759698, 36.565173505353016 ], [ 137.926564060083365, 36.558731837804146 ], [ 137.917659273556637, 36.549982386677868 ], [ 137.917125615854502, 36.540069080623596 ], [ 137.925183358825052, 36.53703797322396 ], [ 137.923341088620418, 36.53110213475577 ], [ 137.933544616690824, 36.517955801019468 ], [ 137.939866524220747, 36.516706360310309 ], [ 137.956325746336233, 36.527188865273956 ], [ 137.967262087875156, 36.515498053692284 ], [ 137.961273695724572, 36.509024747993749 ], [ 137.963522827316638, 36.505303919040671 ], [ 137.949841725215492, 36.501448081164085 ], [ 137.954890583034057, 36.495482801590072 ], [ 137.956543838227617, 36.485296440678269 ], [ 137.946931361693032, 36.489375612594472 ], [ 137.939069417319843, 36.487943080708646 ], [ 137.939034111734941, 36.480769224720007 ], [ 137.926341283623401, 36.471155332652529 ], [ 137.930323773023815, 36.466942305642931 ], [ 137.937019300300562, 36.467049252121342 ], [ 137.928888975745735, 36.450215946209028 ], [ 137.922229532866709, 36.449923171017588 ], [ 137.917602282619328, 36.443022333014312 ], [ 137.905326445858805, 36.439360946550494 ], [ 137.919383307193925, 36.42517099994177 ], [ 137.913739144046303, 36.421864333072563 ], [ 137.925022697639406, 36.412209893272006 ], [ 137.916755498967177, 36.411630171395359 ], [ 137.918375472949833, 36.409377107967202 ], [ 137.909773256130961, 36.402746027906915 ], [ 137.915603476419392, 36.392572973364054 ], [ 137.912726808695311, 36.389491864557954 ], [ 137.907210441009056, 36.394439919166985 ], [ 137.901860169111615, 36.392348532259007 ], [ 137.905766782710884, 36.37604022537613 ], [ 137.911969805262402, 36.368237999584039 ], [ 137.906615913593555, 36.370052172269993 ], [ 137.888228689802304, 36.363911891820408 ], [ 137.867372412407008, 36.386566333069879 ], [ 137.853427470801194, 36.393786333272715 ], [ 137.831066056553368, 36.380977505207738 ], [ 137.825314721197515, 36.391162506344642 ], [ 137.810216160747245, 36.394866972133116 ], [ 137.790610388858454, 36.392096748166466 ], [ 137.776287665443419, 36.397690667090671 ], [ 137.76830544573977, 36.392438468060902 ], [ 137.753953890959338, 36.403026864598189 ], [ 137.753876719235222, 36.410712387166996 ], [ 137.747125940309957, 36.418290748319407 ], [ 137.727004668930363, 36.425264945820629 ], [ 137.712216057125374, 36.416885027022431 ], [ 137.715317327832508, 36.40004474776697 ], [ 137.706321672906938, 36.387060252428739 ], [ 137.709010466859581, 36.376746332577227 ], [ 137.701013697024564, 36.365004053694179 ], [ 137.692859804836189, 36.362696225150728 ], [ 137.68757085591028, 36.35569646891696 ], [ 137.680883748086558, 36.337971945648803 ], [ 137.658796834806139, 36.33735299984113 ], [ 137.635714112116602, 36.342423468368395 ], [ 137.617998171078852, 36.365125946005662 ], [ 137.587086549604692, 36.371964171409445 ], [ 137.586664424023979, 36.388023586419422 ], [ 137.605361166584657, 36.402538333077644 ], [ 137.603805084037504, 36.41067664001497 ], [ 137.608079026625887, 36.419416359577383 ], [ 137.61740263282536, 36.418600865137876 ], [ 137.636544915715376, 36.428412054073078 ], [ 137.639912217574874, 36.445829775423874 ], [ 137.645293358701565, 36.454530333108437 ], [ 137.655410051832519, 36.459172305257709 ], [ 137.656717613027467, 36.470223108010089 ], [ 137.650820117154694, 36.479815559340636 ], [ 137.652000700372128, 36.488200251740295 ], [ 137.657649637121153, 36.493108585992502 ], [ 137.666820751576438, 36.493815802057668 ], [ 137.66874555076663, 36.509461305894604 ], [ 137.677354747223831, 36.514386026693842 ], [ 137.694296160639396, 36.510682441341658 ], [ 137.705440388563147, 36.517820468340005 ], [ 137.702751803253136, 36.52469572153035 ], [ 137.710553280809336, 36.535742053752813 ], [ 137.684597638770128, 36.537807333341789 ], [ 137.689537717291842, 36.553794252203033 ], [ 137.687737755692979, 36.562074505434111 ], [ 137.6938872496969, 36.569059504692461 ], [ 137.713205966082569, 36.577080054401051 ], [ 137.724307691147146, 36.586490613351202 ], [ 137.751036329263229, 36.588498668179056 ], [ 137.752936913307963, 36.594766720707639 ], [ 137.744245421688902, 36.617509225370497 ], [ 137.746678807281228, 36.624472837851215 ], [ 137.751808560017139, 36.627104225379753 ], [ 137.754621698732421, 36.639119224572596 ], [ 137.756472633005728, 36.65205172111007 ], [ 137.753454086437046, 36.65776810791192 ], [ 137.761863865425084, 36.66600700042278 ], [ 137.758479780417588, 36.675968135121366 ], [ 137.759738417594008, 36.685932305931203 ], [ 137.754222049008376, 36.687459801728494 ], [ 137.756704551973598, 36.695562586344352 ], [ 137.75002510997092, 36.704745359610683 ], [ 137.750753450211619, 36.726583999751824 ], [ 137.759294254126644, 36.740740666948284 ], [ 137.752115084043908, 36.752705135034034 ], [ 137.767418393144339, 36.770524586240697 ], [ 137.784786938666343, 36.774344559154144 ], [ 137.791222775910455, 36.778555080652495 ], [ 137.793275525245349, 36.78665674741103 ], [ 137.819982632692358, 36.798221667396092 ], [ 137.822781244658813, 36.805983865263215 ], [ 137.830623449812379, 36.807683279060143 ], [ 137.831556472153579, 36.819449639988932 ], [ 137.854225836753017, 36.8404589999829 ], [ 137.858157250057161, 36.853052586107992 ], [ 137.876457133490021, 36.866206802402075 ], [ 137.877772477417921, 36.873328225217449 ], [ 137.868656913186101, 36.87730846811138 ], [ 137.86666031122445, 36.886599613281589 ], [ 137.861578664124067, 36.890943505138694 ], [ 137.871681556258864, 36.90143325234277 ], [ 137.862259637072611, 36.907326053754446 ], [ 137.863804383665411, 36.913327720797724 ], [ 137.874650272292342, 36.915852748205793 ], [ 137.893776394365204, 36.910003027018149 ], [ 137.910979273974363, 36.917863332826585 ], [ 137.922781555624397, 36.918745558760577 ], [ 137.923258780868082, 36.918598333446369 ] ] ] } },
{ "type": "Feature", "properties": { "code": "200021", "name": "上田地域", "PrefCode": "20", "regioncode": "200021" }, "geometry": { "type": "Polygon", "coordinates": [ [ [ 138.382073280857298, 36.554661251715459 ], [ 138.391553580433424, 36.553628467579756 ], [ 138.407885772410509, 36.5412745858535 ], [ 138.412388560084082, 36.54148625208893 ], [ 138.413899662139784, 36.53340127944557 ], [ 138.404078222731869, 36.521710440884192 ], [ 138.40603180292544, 36.507364080587877 ], [ 138.397089532655855, 36.490453000405694 ], [ 138.403349196308454, 36.466870278940291 ], [ 138.39869778217701, 36.453155838071496 ], [ 138.403461115138384, 36.452048054973829 ], [ 138.400788560243882, 36.435009198215994 ], [ 138.446970362492266, 36.419314585999416 ], [ 138.456964773005893, 36.420240134974279 ], [ 138.457715304917429, 36.411574333388842 ], [ 138.438110168849221, 36.39045683801271 ], [ 138.437671504736272, 36.383902387385319 ], [ 138.428678106209645, 36.377438225094068 ], [ 138.4167836062785, 36.376494026877879 ], [ 138.407254383582995, 36.369550414420132 ], [ 138.409600829914439, 36.376057361058429 ], [ 138.394927691060161, 36.369116225333585 ], [ 138.3949771726584, 36.374239838397898 ], [ 138.381325330899358, 36.351592613308526 ], [ 138.386967859978768, 36.352243720671197 ], [ 138.379693021815569, 36.344122946017194 ], [ 138.386620531912058, 36.334238748319649 ], [ 138.366625473187128, 36.33292066685533 ], [ 138.36506902731378, 36.321349305925764 ], [ 138.37300121863143, 36.317007665971062 ], [ 138.376498105603105, 36.305051027383058 ], [ 138.383574501162343, 36.303293802467067 ], [ 138.386305616311233, 36.297566026650884 ], [ 138.375696354603178, 36.285971613399283 ], [ 138.375087223996275, 36.295123531825595 ], [ 138.368817523010307, 36.299561305709744 ], [ 138.341892411805475, 36.292424613305286 ], [ 138.341048586023476, 36.305166801606674 ], [ 138.337226666977131, 36.307474864873143 ], [ 138.340954187785655, 36.316330667126635 ], [ 138.338074527117783, 36.323722305639933 ], [ 138.32711610902129, 36.317693694008824 ], [ 138.32876277578157, 36.314411504887119 ], [ 138.324684383577505, 36.30712317059789 ], [ 138.31779269797471, 36.306260666796391 ], [ 138.316218274653693, 36.312773135272039 ], [ 138.315698248875151, 36.306648441872142 ], [ 138.296177081607084, 36.307657866117665 ], [ 138.298775746403635, 36.319148413968207 ], [ 138.293537977895426, 36.319136171497178 ], [ 138.290831854906287, 36.323193386465675 ], [ 138.2834070556911, 36.306802585670823 ], [ 138.28573978016675, 36.28981594624895 ], [ 138.280996394168369, 36.281441505221323 ], [ 138.288444694467103, 36.266978748370605 ], [ 138.286219921911879, 36.258481531897246 ], [ 138.295956589425145, 36.252712107577736 ], [ 138.299279637445352, 36.245187667077232 ], [ 138.28284505765339, 36.220381837052173 ], [ 138.284454720009421, 36.19368822483176 ], [ 138.275399027243338, 36.151034360447454 ], [ 138.255026978112596, 36.125337170973694 ], [ 138.234736056823635, 36.110484108354967 ], [ 138.216961828925378, 36.105175504745773 ], [ 138.199533774364227, 36.107733027357369 ], [ 138.200309338904958, 36.110477170984723 ], [ 138.190038494780765, 36.116127999907349 ], [ 138.191261855150515, 36.122311053912085 ], [ 138.188487133674357, 36.124094947324011 ], [ 138.161346551202428, 36.121501918578758 ], [ 138.149758560009559, 36.141763801658158 ], [ 138.134660219893249, 36.148282414302003 ], [ 138.133877780934881, 36.162942107392382 ], [ 138.127832775562183, 36.166483467637988 ], [ 138.126980025807597, 36.17235125170896 ], [ 138.131238080073445, 36.176735414307984 ], [ 138.126123113091239, 36.183699278598908 ], [ 138.125731505104909, 36.200983440733239 ], [ 138.129458781297785, 36.211550080871575 ], [ 138.106934668899953, 36.226116721109861 ], [ 138.103924423073749, 36.235547837662637 ], [ 138.092480829726583, 36.237184774657692 ], [ 138.090889467674856, 36.243302252796809 ], [ 138.085037808448192, 36.243747802119401 ], [ 138.079115862706999, 36.251116972870079 ], [ 138.078325304669193, 36.256387838228193 ], [ 138.082801413954144, 36.261780054505948 ], [ 138.072891946206369, 36.272237558316704 ], [ 138.074711673105298, 36.277713972721699 ], [ 138.069070830254645, 36.284883413938473 ], [ 138.074269169786476, 36.292003414026397 ], [ 138.072855836627582, 36.297680918639514 ], [ 138.083239728230978, 36.309438720720436 ], [ 138.071007224403957, 36.316545386560392 ], [ 138.071515836886419, 36.324913720291988 ], [ 138.064423087155774, 36.33348150476769 ], [ 138.067889468224394, 36.336726774920805 ], [ 138.066668392132669, 36.345279838393878 ], [ 138.078004772802046, 36.360879865313564 ], [ 138.076147588240701, 36.367078439818215 ], [ 138.080043450444919, 36.371065387157955 ], [ 138.072972633380346, 36.378324559131158 ], [ 138.072442114312139, 36.385156197900244 ], [ 138.063506355134223, 36.398782278579347 ], [ 138.071669170395921, 36.404645891594669 ], [ 138.096892218401194, 36.40719174820066 ], [ 138.112561607332395, 36.399527053930456 ], [ 138.115502476757911, 36.404016749273637 ], [ 138.113310584316082, 36.41367230603214 ], [ 138.117316199782863, 36.421040332845109 ], [ 138.114144306214826, 36.43381530593166 ], [ 138.128393527139679, 36.438191693891611 ], [ 138.16877958371083, 36.415216999564905 ], [ 138.172215447185181, 36.419350027381938 ], [ 138.216152308682126, 36.429395252289112 ], [ 138.248690506062076, 36.433313000394719 ], [ 138.249781945780228, 36.44413907965486 ], [ 138.241948612438591, 36.450910468343466 ], [ 138.240050829782035, 36.45890825171449 ], [ 138.228898053802254, 36.464014918853479 ], [ 138.230765084141353, 36.479485440700557 ], [ 138.221691996688378, 36.483039892377178 ], [ 138.219483696115731, 36.490587081228853 ], [ 138.201766200150132, 36.50098430618084 ], [ 138.200218469606739, 36.51167430632421 ], [ 138.220891829394532, 36.507159027067473 ], [ 138.229486056636233, 36.514163198073163 ], [ 138.23936800333081, 36.509489306286525 ], [ 138.246755253152514, 36.510002081730761 ], [ 138.249855005803965, 36.515696802065804 ], [ 138.266486977791828, 36.513231531909696 ], [ 138.277700143247102, 36.535701774917015 ], [ 138.293877418907869, 36.532298721408893 ], [ 138.311005031556988, 36.550285108371099 ], [ 138.315536135284447, 36.546348171431021 ], [ 138.323707834049401, 36.546153999707371 ], [ 138.333961439968562, 36.537351531747845 ], [ 138.351953994481278, 36.541282640181748 ], [ 138.356345136718801, 36.5492862250793 ], [ 138.381808274932041, 36.554670135218601 ], [ 138.382073280857298, 36.554661251715459 ] ] ] } },
{ "type": "Feature", "properties": { "code": "200022", "name": "佐久地域", "PrefCode": "20", "regioncode": "200022" }, "geometry": { "type": "Polygon", "coordinates": [ [ [ 138.5927627239206, 36.424386775829078 ], [ 138.612999973669957, 36.422621504678773 ], [ 138.625133579950784, 36.415651532192499 ], [ 138.637151387726476, 36.417216224848971 ], [ 138.647835838153469, 36.409282054123537 ], [ 138.65218744529443, 36.3953934406548 ], [ 138.649558780913026, 36.379237639905227 ], [ 138.657163476013693, 36.368901531980157 ], [ 138.650080609832344, 36.352483253299567 ], [ 138.653305772043836, 36.324260171269941 ], [ 138.647828807253745, 36.315577135076751 ], [ 138.65378766476897, 36.306932945099391 ], [ 138.644504279848661, 36.293255720874868 ], [ 138.612508910557835, 36.285655224708933 ], [ 138.607178859017154, 36.279595504628901 ], [ 138.600335524564912, 36.278399945900844 ], [ 138.605952165759959, 36.266794667040301 ], [ 138.602118470091341, 36.249052973016319 ], [ 138.612496809280401, 36.240917972886166 ], [ 138.611762334763966, 36.229502972584157 ], [ 138.622244526763552, 36.214585720854359 ], [ 138.631442022831152, 36.217302667184413 ], [ 138.63466119285988, 36.213674865003043 ], [ 138.636707003925153, 36.204270414248299 ], [ 138.622797250093072, 36.19692791918817 ], [ 138.637069143826011, 36.174980107645922 ], [ 138.635901361558695, 36.170932613449395 ], [ 138.630908301277145, 36.172781775158853 ], [ 138.613166589266712, 36.168731531734863 ], [ 138.607804617189345, 36.161650946234261 ], [ 138.594490999660024, 36.165629865326082 ], [ 138.588292387383831, 36.172638747879944 ], [ 138.590581581974448, 36.17793791939954 ], [ 138.583389610941822, 36.178831278940436 ], [ 138.577274864043829, 36.168073198319519 ], [ 138.593240972592866, 36.15322677539541 ], [ 138.594297613044432, 36.144194279742294 ], [ 138.600767587654104, 36.135512332628082 ], [ 138.622478715620332, 36.131932027241305 ], [ 138.634323722262025, 36.133947026634019 ], [ 138.637568690242915, 36.123833134891299 ], [ 138.645377029626275, 36.120196748681053 ], [ 138.640165641831004, 36.117225919240809 ], [ 138.647595304579681, 36.106586468190983 ], [ 138.645183061149396, 36.098806747933111 ], [ 138.63053302228127, 36.091180918764451 ], [ 138.632939921939965, 36.080045945763857 ], [ 138.642815382723825, 36.068742333691773 ], [ 138.644191115227841, 36.049689332796504 ], [ 138.631852360997755, 36.027212972600637 ], [ 138.66133199737385, 36.016426585818351 ], [ 138.661988053705727, 36.011504386718116 ], [ 138.679583605199241, 36.011714387409086 ], [ 138.688695382386072, 35.991774666667595 ], [ 138.712791724658473, 35.985160504653606 ], [ 138.711360467111945, 35.971872197643847 ], [ 138.714183748381402, 35.965515251627608 ], [ 138.72676477277605, 35.95670610800056 ], [ 138.731135498604431, 35.945145279031465 ], [ 138.739254331622192, 35.939108053693758 ], [ 138.737627250297464, 35.927294467565673 ], [ 138.72810627798242, 35.917832280335517 ], [ 138.72901128374383, 35.909220613440596 ], [ 138.708060195321877, 35.909752837623387 ], [ 138.685845577411555, 35.893865613107607 ], [ 138.676176472366365, 35.86980141440381 ], [ 138.657461245140439, 35.875876135175531 ], [ 138.64248824893366, 35.874764747595066 ], [ 138.634234112014724, 35.870053080685182 ], [ 138.62824080506914, 35.87335697314586 ], [ 138.621870803594788, 35.870438360142259 ], [ 138.610873645402421, 35.873610305870955 ], [ 138.606749223198108, 35.878481694174923 ], [ 138.60498841808112, 35.893751134807076 ], [ 138.612255940259502, 35.90915336033936 ], [ 138.602699027438234, 35.909762803011006 ], [ 138.591017418619003, 35.919768667290214 ], [ 138.580981855128584, 35.917050053617118 ], [ 138.576510194789762, 35.911422000025311 ], [ 138.564415226981168, 35.917333946204678 ], [ 138.556213838897634, 35.916315332686509 ], [ 138.55539910528455, 35.919136999672844 ], [ 138.540158833263604, 35.913673945596145 ], [ 138.529057690959689, 35.914535891817991 ], [ 138.510571854707337, 35.922338945885713 ], [ 138.502757911648359, 35.912195053658877 ], [ 138.494701505070452, 35.911341440555077 ], [ 138.495549558565358, 35.903638945980617 ], [ 138.490132308759144, 35.89637477467619 ], [ 138.482575616771328, 35.898828693589394 ], [ 138.471602243848565, 35.896196747581882 ], [ 138.459444137337186, 35.903708972591062 ], [ 138.454634422740469, 35.89982455875645 ], [ 138.444335252669816, 35.917881505627008 ], [ 138.454333410658478, 35.938306198372402 ], [ 138.450562892363678, 35.945411467565236 ], [ 138.424193190763162, 35.958974801645809 ], [ 138.413855421790345, 35.959462306140551 ], [ 138.381355693810292, 35.971440918763449 ], [ 138.370460415315961, 35.97138063990468 ], [ 138.374077444518548, 35.989411441684751 ], [ 138.362627496561799, 36.012336134604993 ], [ 138.359120830362144, 36.012893359940676 ], [ 138.361201750960049, 36.031672802358003 ], [ 138.355719533229944, 36.034186973150327 ], [ 138.353473748015176, 36.046655000427961 ], [ 138.348104863748517, 36.047655559156794 ], [ 138.345413800806341, 36.061386945950858 ], [ 138.334402166227051, 36.068534441911027 ], [ 138.333940557710662, 36.085438585622285 ], [ 138.319491387817379, 36.086369694206098 ], [ 138.327968079962943, 36.091376918809829 ], [ 138.324657003717789, 36.100921081043111 ], [ 138.327351478687888, 36.107207198253661 ], [ 138.318288145281713, 36.112391919351637 ], [ 138.302270609900802, 36.111340252150967 ], [ 138.286655253137496, 36.089899134837253 ], [ 138.275558833173704, 36.086340252200955 ], [ 138.267254942161912, 36.091218864758844 ], [ 138.246631855375881, 36.094954135025375 ], [ 138.247544112370974, 36.100839946006772 ], [ 138.243459663232898, 36.105621054068422 ], [ 138.233869390060363, 36.108106613829193 ], [ 138.259308080203823, 36.129534108212567 ], [ 138.27552847026277, 36.151497135384545 ], [ 138.284454720009421, 36.19368822483176 ], [ 138.28284505765339, 36.220381837052173 ], [ 138.299279637445352, 36.245187667077232 ], [ 138.295956589425145, 36.252712107577736 ], [ 138.286219921911879, 36.258481531897246 ], [ 138.288444694467103, 36.266978748370605 ], [ 138.280996394168369, 36.281441505221323 ], [ 138.28573978016675, 36.28981594624895 ], [ 138.2834070556911, 36.306802585670823 ], [ 138.290966303552182, 36.323316440701205 ], [ 138.293383799922481, 36.319216999864693 ], [ 138.298775746403635, 36.319148413968207 ], [ 138.296177081607084, 36.307657866117665 ], [ 138.315698248875151, 36.306648441872142 ], [ 138.316218274653693, 36.312773135272039 ], [ 138.317549078827028, 36.306258171177717 ], [ 138.324684383577505, 36.30712317059789 ], [ 138.32876277578157, 36.314411504887119 ], [ 138.32711610902129, 36.317693694008824 ], [ 138.338074527117783, 36.323722305639933 ], [ 138.340954187785655, 36.316330667126635 ], [ 138.337226666977131, 36.307474864873143 ], [ 138.341048586023476, 36.305166801606674 ], [ 138.341892411805475, 36.292424613305286 ], [ 138.368817523010307, 36.299561305709744 ], [ 138.375087223996275, 36.295123531825595 ], [ 138.375696354603178, 36.285971613399283 ], [ 138.386305616311233, 36.297566026650884 ], [ 138.383574501162343, 36.303293802467067 ], [ 138.377574228068283, 36.303712972875473 ], [ 138.37300121863143, 36.317007665971062 ], [ 138.366897055854452, 36.319306252181832 ], [ 138.363396523930533, 36.325735667367212 ], [ 138.366959079398043, 36.333191504884098 ], [ 138.386620531912058, 36.334238748319649 ], [ 138.379693021815569, 36.344122946017194 ], [ 138.386967859978768, 36.352243720671197 ], [ 138.381325330899358, 36.351592613308526 ], [ 138.3949771726584, 36.374239838397898 ], [ 138.394927691060161, 36.369116225333585 ], [ 138.409600829914439, 36.376057361058429 ], [ 138.407254383582995, 36.369550414420132 ], [ 138.4167836062785, 36.376494026877879 ], [ 138.428678106209645, 36.377438225094068 ], [ 138.437671504736272, 36.383902387385319 ], [ 138.438110168849221, 36.39045683801271 ], [ 138.457715304917429, 36.411574333388842 ], [ 138.459650000247393, 36.404750441379804 ], [ 138.488957419149642, 36.400933504577608 ], [ 138.491822750019992, 36.413075693988162 ], [ 138.505163554054889, 36.414870414338225 ], [ 138.529346808608352, 36.403042666585861 ], [ 138.538925966160491, 36.402502387175502 ], [ 138.55500797663683, 36.417773747860224 ], [ 138.583842166882505, 36.422545108170254 ], [ 138.586861894261119, 36.420385135365734 ], [ 138.59239688690684, 36.424391505363758 ], [ 138.5927627239206, 36.424386775829078 ] ] ] } },
{ "type": "Feature", "properties": { "code": "200023", "name": "松本地域", "PrefCode": "20", "regioncode": "200023" }, "geometry": { "type": "Polygon", "coordinates": [ [ [ 138.04910383847141, 36.493516801759029 ], [ 138.074574449151555, 36.490750747948709 ], [ 138.073536004682978, 36.48257797269531 ], [ 138.0870420879221, 36.477754946333732 ], [ 138.085323721812415, 36.473458558465779 ], [ 138.105950921198087, 36.468707467975321 ], [ 138.10610252890865, 36.459072747609241 ], [ 138.111575279475687, 36.456818306419734 ], [ 138.121758249043978, 36.440218918668222 ], [ 138.121361283796318, 36.436541694243829 ], [ 138.113976524197255, 36.433167251767316 ], [ 138.117316199782863, 36.421040332845109 ], [ 138.113310584316082, 36.41367230603214 ], [ 138.114191336261229, 36.400583170976631 ], [ 138.097088884844197, 36.40716897286984 ], [ 138.08345194665003, 36.40683450510835 ], [ 138.066049441828341, 36.402435054034584 ], [ 138.06356219224142, 36.398887837403834 ], [ 138.072442114312139, 36.385156197900244 ], [ 138.072972633380346, 36.378324559131158 ], [ 138.080043450444919, 36.371065387157955 ], [ 138.076147588240701, 36.367078439818215 ], [ 138.078004772802046, 36.360879865313564 ], [ 138.066668392132669, 36.345279838393878 ], [ 138.067889468224394, 36.336726774920805 ], [ 138.064423087155774, 36.33348150476769 ], [ 138.071515836886419, 36.324913720291988 ], [ 138.071007224403957, 36.316545386560392 ], [ 138.083239728230978, 36.309438720720436 ], [ 138.072855836627582, 36.297680918639514 ], [ 138.074269169786476, 36.292003414026397 ], [ 138.069070830254645, 36.284883413938473 ], [ 138.074711673105298, 36.277713972721699 ], [ 138.072891946206369, 36.272237558316704 ], [ 138.082801413954144, 36.261780054505948 ], [ 138.078325304669193, 36.256387838228193 ], [ 138.079115862706999, 36.251116972870079 ], [ 138.085037808448192, 36.243747802119401 ], [ 138.090889467674856, 36.243302252796809 ], [ 138.092480829726583, 36.237184774657692 ], [ 138.103924423073749, 36.235547837662637 ], [ 138.106934668899953, 36.226116721109861 ], [ 138.12951600515953, 36.211443135292484 ], [ 138.125731505104909, 36.200983440733239 ], [ 138.126123113091239, 36.183699278598908 ], [ 138.131238080073445, 36.176735414307984 ], [ 138.126980025807597, 36.17235125170896 ], [ 138.128214162753466, 36.16666791769029 ], [ 138.121047755849304, 36.162704305958982 ], [ 138.103657197621601, 36.163869865102242 ], [ 138.077885447155722, 36.156769026869142 ], [ 138.072125187827169, 36.162042612676487 ], [ 138.053162943814868, 36.167957306284734 ], [ 138.045519856656142, 36.161288414228977 ], [ 138.043021166793437, 36.142947613441663 ], [ 138.034763022495554, 36.126824279117216 ], [ 138.034230506033055, 36.118334837282987 ], [ 138.030563553665161, 36.115887891712873 ], [ 138.028722334767963, 36.085523171357352 ], [ 138.023363995052364, 36.081583999601946 ], [ 138.022901193135567, 36.075888171302097 ], [ 138.017132865989083, 36.07870233344596 ], [ 138.0126211669334, 36.069854278851949 ], [ 138.015955031999169, 36.062197333140489 ], [ 138.008250829612166, 36.054351224929121 ], [ 138.00086250330196, 36.054505359734605 ], [ 137.978179974426325, 36.044451441081208 ], [ 137.959595836878407, 36.054028081430886 ], [ 137.950642775643701, 36.054443918951733 ], [ 137.950452775874965, 36.063464468010864 ], [ 137.943162217562303, 36.063638333042661 ], [ 137.938705279125429, 36.061516108381738 ], [ 137.938127782171478, 36.053113333313718 ], [ 137.927601946072969, 36.049260000049003 ], [ 137.927292475867148, 36.04237277508355 ], [ 137.915283306979063, 36.034719171252789 ], [ 137.905133061041965, 36.034344413863664 ], [ 137.896646973678912, 36.02452698453277 ], [ 137.883006632450247, 36.038376030529435 ], [ 137.885981811011789, 36.041099493347019 ], [ 137.87799343365009, 36.04473862338881 ], [ 137.869356933775521, 36.04711574469593 ], [ 137.863791971222554, 36.040580066516895 ], [ 137.851404267792759, 36.038619459020879 ], [ 137.83575926487822, 36.049159444153076 ], [ 137.827943785777165, 36.049433449594062 ], [ 137.823631114784234, 36.056796108353751 ], [ 137.815277755663942, 36.054472225113159 ], [ 137.803589390238244, 36.056847775304618 ], [ 137.804430777958146, 36.064416108116973 ], [ 137.797978559562921, 36.068455279087914 ], [ 137.796338560376284, 36.078376919159552 ], [ 137.789189663272396, 36.078452748195843 ], [ 137.781939948569857, 36.073193333005975 ], [ 137.754716667140542, 36.086476108285808 ], [ 137.748157994196163, 36.096448686857457 ], [ 137.755499714040639, 36.111777819990436 ], [ 137.752707783137794, 36.12827076758191 ], [ 137.770208018185599, 36.151925322395755 ], [ 137.769215301545046, 36.155265633802003 ], [ 137.786544012496279, 36.166958567783752 ], [ 137.788037634429315, 36.175288739683651 ], [ 137.784955501295372, 36.181414265855722 ], [ 137.789410579934383, 36.18391252224518 ], [ 137.79741991419769, 36.180920229584956 ], [ 137.811030111050854, 36.187639025920362 ], [ 137.800711882547375, 36.196745669776874 ], [ 137.791348148598217, 36.198894412746995 ], [ 137.788616991181243, 36.204577546216854 ], [ 137.788570894631107, 36.219517956388643 ], [ 137.795695966895437, 36.226749690945553 ], [ 137.78839492968234, 36.228948804044137 ], [ 137.785396933521724, 36.234306076264488 ], [ 137.789275525145399, 36.249923026626448 ], [ 137.799182023331809, 36.264686360287328 ], [ 137.793462166046197, 36.282711667209753 ], [ 137.787086057275815, 36.283382774595395 ], [ 137.782293502643142, 36.276232505126075 ], [ 137.744648495131969, 36.275210802436618 ], [ 137.738350505971084, 36.283247747685436 ], [ 137.725832477287099, 36.287501360199656 ], [ 137.721907250419349, 36.294021359598105 ], [ 137.721307613055956, 36.30492666733187 ], [ 137.728088585819592, 36.320885891570697 ], [ 137.726991284320434, 36.342319558900556 ], [ 137.721161089212956, 36.352923749331637 ], [ 137.715265811068434, 36.353372081156692 ], [ 137.701013697024564, 36.365004053694179 ], [ 137.709010466859581, 36.376746332577227 ], [ 137.706321672906938, 36.387060252428739 ], [ 137.715285668099114, 36.399655306247439 ], [ 137.712216057125374, 36.416885027022431 ], [ 137.729446886764435, 36.425351054107921 ], [ 137.750629247541838, 36.415325721305067 ], [ 137.753953890959338, 36.403026864598189 ], [ 137.768147108402445, 36.392487359703921 ], [ 137.776287665443419, 36.397690667090671 ], [ 137.790610388858454, 36.392096748166466 ], [ 137.810216160747245, 36.394866972133116 ], [ 137.825314721197515, 36.391162506344642 ], [ 137.831066056553368, 36.380977505207738 ], [ 137.853427470801194, 36.393786333272715 ], [ 137.867372412407008, 36.386566333069879 ], [ 137.888228689802304, 36.363911891820408 ], [ 137.906615913593555, 36.370052172269993 ], [ 137.909619779629224, 36.367097721282846 ], [ 137.9119789747499, 36.368471891664512 ], [ 137.905766782710884, 36.37604022537613 ], [ 137.902214060430651, 36.393394918640638 ], [ 137.907210441009056, 36.394439919166985 ], [ 137.912726808695311, 36.389491864557954 ], [ 137.915603476419392, 36.392572973364054 ], [ 137.909773256130961, 36.402746027906915 ], [ 137.918375472949833, 36.409377107967202 ], [ 137.916755498967177, 36.411630171395359 ], [ 137.925022697639406, 36.412209893272006 ], [ 137.913739144046303, 36.421864333072563 ], [ 137.919383307193925, 36.42517099994177 ], [ 137.905326445858805, 36.439360946550494 ], [ 137.929379533438805, 36.450879000165799 ], [ 137.937019300300562, 36.467049252121342 ], [ 137.930323773023815, 36.466942305642931 ], [ 137.926341283623401, 36.471155332652529 ], [ 137.939034111734941, 36.480769224720007 ], [ 137.93717802884305, 36.486579748056954 ], [ 137.950930804213272, 36.488131171216651 ], [ 137.953221051010814, 36.484979224611607 ], [ 137.949410778184983, 36.482319774637915 ], [ 137.959354864435454, 36.46791955934026 ], [ 137.964826809209967, 36.467824558556572 ], [ 137.963591777438637, 36.463467891829794 ], [ 137.977122581242156, 36.460701532249971 ], [ 138.005308222696385, 36.480159559016499 ], [ 138.033371582432665, 36.484908197955008 ], [ 138.046025498677864, 36.494857918458194 ], [ 138.049021608060798, 36.493562080825427 ], [ 138.04910383847141, 36.493516801759029 ] ] ] } },
{ "type": "Feature", "properties": { "code": "200024", "name": "乗鞍上高地地域", "PrefCode": "20", "regioncode": "200024" }, "geometry": { "type": "Polygon", "coordinates": [ [ [ 137.788119933188455, 36.24308735979389 ], [ 137.785808995688626, 36.23180763641335 ], [ 137.795695966895437, 36.226749690945553 ], [ 137.788570894631107, 36.219517956388643 ], [ 137.790203827844493, 36.200477288795867 ], [ 137.800711882547375, 36.196745669776874 ], [ 137.811030111050854, 36.187639025920362 ], [ 137.79741991419769, 36.180920229584956 ], [ 137.789410579934383, 36.18391252224518 ], [ 137.784955501295372, 36.181414265855722 ], [ 137.788037634429315, 36.175288739683651 ], [ 137.786544012496279, 36.166958567783752 ], [ 137.769215301545046, 36.155265633802003 ], [ 137.770208018185599, 36.151925322395755 ], [ 137.752707783137794, 36.12827076758191 ], [ 137.755499714040639, 36.111777819990436 ], [ 137.748157994196163, 36.096448686857457 ], [ 137.754841731360898, 36.086699009751555 ], [ 137.735710583876426, 36.06955502674316 ], [ 137.737919416847717, 36.046847000288892 ], [ 137.732193022390106, 36.045094774704125 ], [ 137.722902749562309, 36.034262559369665 ], [ 137.720001606788742, 36.025213386688506 ], [ 137.709016030965131, 36.017005081019704 ], [ 137.708158248604377, 36.012412307182274 ], [ 137.701154643272275, 36.009632026996485 ], [ 137.695205473254077, 36.014760359702905 ], [ 137.68165466942753, 36.016811440795436 ], [ 137.671757977448806, 36.01050727868801 ], [ 137.662562139730994, 36.011553108389307 ], [ 137.651891608111328, 36.020454775167764 ], [ 137.63349328128993, 36.026797251991638 ], [ 137.612938495315348, 36.018420279372435 ], [ 137.607192387718555, 36.025345837940108 ], [ 137.599494059703147, 36.025936080985389 ], [ 137.597859363818657, 36.042407441250475 ], [ 137.605423280959712, 36.048685801808347 ], [ 137.606971362238596, 36.055831053960048 ], [ 137.61372333276563, 36.059616892205838 ], [ 137.610909442217007, 36.067571332750845 ], [ 137.613950051853521, 36.076387170931241 ], [ 137.596814448727855, 36.075841027041804 ], [ 137.592790310824284, 36.080944640083146 ], [ 137.573427497081411, 36.08768263874282 ], [ 137.55020033697599, 36.112892865113679 ], [ 137.557084811814661, 36.118057864978539 ], [ 137.560551335875516, 36.130241747858406 ], [ 137.554721440242361, 36.140198973204122 ], [ 137.567959558786697, 36.147668693555431 ], [ 137.57051547341041, 36.155616197629456 ], [ 137.590842477298565, 36.163799558802623 ], [ 137.595063644971333, 36.172048170286871 ], [ 137.590933476099053, 36.185932865409484 ], [ 137.595088781022469, 36.190739802000337 ], [ 137.578569974324864, 36.197538694655066 ], [ 137.573057639198737, 36.218654802377273 ], [ 137.58302538301507, 36.220396468122544 ], [ 137.583197107660453, 36.226910053556196 ], [ 137.589679299560089, 36.228603414016391 ], [ 137.596350219587066, 36.2429761712134 ], [ 137.605923280635011, 36.248786720630733 ], [ 137.61473944077261, 36.264777000258391 ], [ 137.620924449004178, 36.266675053610868 ], [ 137.629043086869046, 36.27862591855137 ], [ 137.647820609233804, 36.289051749138991 ], [ 137.646858715957023, 36.296452333208663 ], [ 137.653056835404641, 36.304674558584054 ], [ 137.648831854606442, 36.309107081326772 ], [ 137.652433917291546, 36.322009332764537 ], [ 137.646365668041199, 36.330231837829103 ], [ 137.64560713396213, 36.341260721405206 ], [ 137.658796834806139, 36.33735299984113 ], [ 137.679589299906297, 36.337211666884969 ], [ 137.692717030266749, 36.362562612874342 ], [ 137.701013697024564, 36.365004053694179 ], [ 137.715265811068434, 36.353372081156692 ], [ 137.721161089212956, 36.352923749331637 ], [ 137.728148145220757, 36.333693413820072 ], [ 137.726749078906892, 36.313050586015777 ], [ 137.721025939095853, 36.302408053888655 ], [ 137.725682475765666, 36.287652198090541 ], [ 137.734473307397252, 36.285556918916711 ], [ 137.744079339390055, 36.275526918632465 ], [ 137.749458469632714, 36.274584694428142 ], [ 137.782293502643142, 36.276232505126075 ], [ 137.787086057275815, 36.283382774595395 ], [ 137.793329105054227, 36.282837773744291 ], [ 137.799182023331809, 36.264686360287328 ], [ 137.78796769055657, 36.24346580170544 ], [ 137.788119933188455, 36.24308735979389 ] ] ] } },
{ "type": "Feature", "properties": { "code": "200025", "name": "諏訪地域", "PrefCode": "20", "regioncode": "200025" }, "geometry": { "type": "Polygon", "coordinates": [ [ [ 138.057200725333246, 36.167725945795837 ], [ 138.077885447155722, 36.156769026869142 ], [ 138.103657197621601, 36.163869865102242 ], [ 138.121047755849304, 36.162704305958982 ], [ 138.127832775562183, 36.166483467637988 ], [ 138.133877780934881, 36.162942107392382 ], [ 138.134660219893249, 36.148282414302003 ], [ 138.149758560009559, 36.141763801658158 ], [ 138.161346551202428, 36.121501918578758 ], [ 138.188487133674357, 36.124094947324011 ], [ 138.191261855150515, 36.122311053912085 ], [ 138.190265720186858, 36.115824387885255 ], [ 138.202696549706047, 36.106637467844905 ], [ 138.216961828925378, 36.105175504745773 ], [ 138.234736056823635, 36.110484108354967 ], [ 138.233918002913583, 36.108067441159506 ], [ 138.243354669182736, 36.105706054390964 ], [ 138.247544112370974, 36.100839946006772 ], [ 138.246631855375881, 36.094954135025375 ], [ 138.267254942161912, 36.091218864758844 ], [ 138.27540021974437, 36.086346640085424 ], [ 138.286655253137496, 36.089899134837253 ], [ 138.302019779988882, 36.11120774783933 ], [ 138.320761478759323, 36.111657747906804 ], [ 138.327451751297303, 36.107093026621953 ], [ 138.324657003717789, 36.100921081043111 ], [ 138.327986978316517, 36.091461919132314 ], [ 138.319491387817379, 36.086369694206098 ], [ 138.333940557710662, 36.085438585622285 ], [ 138.334402166227051, 36.068534441911027 ], [ 138.345413800806341, 36.061386945950858 ], [ 138.348104863748517, 36.047655559156794 ], [ 138.353473748015176, 36.046655000427961 ], [ 138.355719533229944, 36.034186973150327 ], [ 138.361201750960049, 36.031672802358003 ], [ 138.359120830362144, 36.012893359940676 ], [ 138.362627496561799, 36.012336134604993 ], [ 138.364910531695728, 36.003167279246611 ], [ 138.372067445356379, 35.994715613434892 ], [ 138.374518806597735, 35.983088945998134 ], [ 138.369443995244296, 35.9672245318867 ], [ 138.361755084029937, 35.96231508067649 ], [ 138.359915331027764, 35.950713134703449 ], [ 138.34504666697012, 35.941333134716444 ], [ 138.342225226612982, 35.926016504857841 ], [ 138.333126278255236, 35.917216224948902 ], [ 138.326466524210787, 35.90329402719766 ], [ 138.307288664140628, 35.887103467650945 ], [ 138.296115550892068, 35.870074026794953 ], [ 138.283640777799747, 35.859315721343535 ], [ 138.272841088245741, 35.864929305742919 ], [ 138.251455836817513, 35.885010387319596 ], [ 138.23866858618635, 35.882890107892194 ], [ 138.232354669132746, 35.875679000185755 ], [ 138.226821556070036, 35.857451252273506 ], [ 138.204700078246105, 35.828139027394229 ], [ 138.205692866832351, 35.815734306093418 ], [ 138.185587809329945, 35.795532918609354 ], [ 138.185174188637916, 35.791079892223308 ], [ 138.190950856097174, 35.784719332731072 ], [ 138.198320856022747, 35.781557386564202 ], [ 138.187740310566937, 35.781517107728405 ], [ 138.177495551278753, 35.786185171008867 ], [ 138.174003917247092, 35.793693467779349 ], [ 138.175526718583228, 35.823241801567917 ], [ 138.180675083688243, 35.832724558991231 ], [ 138.175855642024317, 35.838997332960616 ], [ 138.176681192682963, 35.844084278866433 ], [ 138.188891530020214, 35.857813440737743 ], [ 138.187829585367126, 35.863087333213912 ], [ 138.177051529904247, 35.867637026827367 ], [ 138.183665719797204, 35.873436467818806 ], [ 138.177654060386658, 35.87806953218319 ], [ 138.180882411594098, 35.88915064028987 ], [ 138.174211309904081, 35.890522586648103 ], [ 138.169332165846868, 35.904772000027833 ], [ 138.173708613162034, 35.913723386724996 ], [ 138.165261388202566, 35.920012558932513 ], [ 138.165795577404083, 35.926074774631218 ], [ 138.160843644918373, 35.933407531832188 ], [ 138.146651970711901, 35.941321413852222 ], [ 138.15244063602654, 35.950574198440563 ], [ 138.150218144152063, 35.95458753188916 ], [ 138.133735083707165, 35.962013055058492 ], [ 138.12283399469311, 35.972604171145633 ], [ 138.113153165186532, 35.974853613003916 ], [ 138.101718417570964, 35.967690531792641 ], [ 138.092283385370024, 35.96761413528418 ], [ 138.086917522825502, 35.960251918990934 ], [ 138.079629195730831, 35.960503026793276 ], [ 138.0740144494074, 35.950315801632996 ], [ 138.054954137023856, 35.946867440280187 ], [ 138.035011114871168, 35.960267972788756 ], [ 138.044083087164836, 35.96359435999176 ], [ 138.048821724742879, 35.971357414013482 ], [ 138.045339584853991, 36.000114639379149 ], [ 138.036788196817838, 36.001359332567176 ], [ 138.034310998953515, 36.00883517100641 ], [ 138.03732600489127, 36.012297107625443 ], [ 138.024311581914048, 36.014314865238873 ], [ 138.014750168885257, 36.009592359699695 ], [ 138.006122943718992, 36.013955107642175 ], [ 138.000759881663271, 36.011209000794793 ], [ 137.992026004096829, 36.014094278628136 ], [ 137.997121025015304, 36.023011224888194 ], [ 137.999641634054228, 36.040690360271981 ], [ 138.015955031999169, 36.062197333140489 ], [ 138.014192283447187, 36.072996224995848 ], [ 138.017132865989083, 36.07870233344596 ], [ 138.022901193135567, 36.075888171302097 ], [ 138.023363995052364, 36.081583999601946 ], [ 138.028722334767963, 36.085523171357352 ], [ 138.030188520184083, 36.114332891949459 ], [ 138.043460894804525, 36.14428955931578 ], [ 138.045519856656142, 36.161288414228977 ], [ 138.056968495199953, 36.167762612954277 ], [ 138.057200725333246, 36.167725945795837 ] ] ] } },
{ "type": "Feature", "properties": { "code": "200031", "name": "上伊那地域", "PrefCode": "20", "regioncode": "200031" }, "geometry": { "type": "Polygon", "coordinates": [ [ [ 137.947655279067931, 36.063830838322588 ], [ 137.950452775874965, 36.063464468010864 ], [ 137.950642775643701, 36.054443918951733 ], [ 137.959595836878407, 36.054028081430886 ], [ 137.978179974426325, 36.044451441081208 ], [ 138.00086250330196, 36.054505359734605 ], [ 138.006851388281007, 36.05318733312896 ], [ 137.999641634054228, 36.040690360271981 ], [ 137.997121025015304, 36.023011224888194 ], [ 137.992026004096829, 36.014094278628136 ], [ 138.000759881663271, 36.011209000794793 ], [ 138.006122943718992, 36.013955107642175 ], [ 138.014750168885257, 36.009592359699695 ], [ 138.024311581914048, 36.014314865238873 ], [ 138.03732600489127, 36.012297107625443 ], [ 138.034310998953515, 36.00883517100641 ], [ 138.036788196817838, 36.001359332567176 ], [ 138.045339584853991, 36.000114639379149 ], [ 138.048821724742879, 35.971357414013482 ], [ 138.044083087164836, 35.96359435999176 ], [ 138.034868611896968, 35.961448531724386 ], [ 138.043999973619975, 35.953397693748627 ], [ 138.054954137023856, 35.946867440280187 ], [ 138.063217197915378, 35.947096892407728 ], [ 138.0740144494074, 35.950315801632996 ], [ 138.079271414844015, 35.960211359566642 ], [ 138.086917522825502, 35.960251918990934 ], [ 138.092283385370024, 35.96761413528418 ], [ 138.100033139318043, 35.967207198353549 ], [ 138.117225940225012, 35.974494171069182 ], [ 138.149864253732403, 35.954971693488915 ], [ 138.15244063602654, 35.950574198440563 ], [ 138.146651970711901, 35.941321413852222 ], [ 138.160843644918373, 35.933407531832188 ], [ 138.165795577404083, 35.926074774631218 ], [ 138.165261388202566, 35.920012558932513 ], [ 138.173708613162034, 35.913723386724996 ], [ 138.169332165846868, 35.904772000027833 ], [ 138.174211309904081, 35.890522586648103 ], [ 138.180882411594098, 35.88915064028987 ], [ 138.177654060386658, 35.87806953218319 ], [ 138.183665719797204, 35.873436467818806 ], [ 138.177051529904247, 35.867637026827367 ], [ 138.187829585367126, 35.863087333213912 ], [ 138.188898196694481, 35.857748441337549 ], [ 138.175828145252808, 35.839604837593242 ], [ 138.180679248448655, 35.832988171866702 ], [ 138.175526718583228, 35.823241801567917 ], [ 138.172250583697519, 35.800908197955039 ], [ 138.175990311004171, 35.788375999552784 ], [ 138.187740310566937, 35.781517107728405 ], [ 138.205933645021787, 35.782697108185062 ], [ 138.236900272629555, 35.757986838321983 ], [ 138.22200333298747, 35.750427666903363 ], [ 138.180145525096009, 35.714537693559748 ], [ 138.193604384035211, 35.696928802422349 ], [ 138.193340752273912, 35.672153251671261 ], [ 138.205573217430128, 35.664178775130438 ], [ 138.208114060315665, 35.6556643339419 ], [ 138.218670661321994, 35.64454930610566 ], [ 138.210541219002153, 35.634590972795195 ], [ 138.203371529572451, 35.632115694084064 ], [ 138.202377054757335, 35.618309026840166 ], [ 138.206073410459567, 35.608179000360622 ], [ 138.184790920964247, 35.573262053900692 ], [ 138.167269247877584, 35.582903467920744 ], [ 138.151810363257709, 35.570959865005818 ], [ 138.135938418223532, 35.581620198313544 ], [ 138.130878105740067, 35.581254640089639 ], [ 138.125083695556214, 35.59394077544647 ], [ 138.111026744288893, 35.600149972743111 ], [ 138.1010484442304, 35.614973891931641 ], [ 138.105940466579341, 35.626830026784376 ], [ 138.10253391740639, 35.648677305813067 ], [ 138.099169999695846, 35.64780925229519 ], [ 138.09195830113481, 35.654888108399518 ], [ 138.085546328300438, 35.672951972855287 ], [ 138.079520440715783, 35.678909440918005 ], [ 138.077113502386283, 35.694324414340315 ], [ 138.061372606560553, 35.703539639642713 ], [ 138.050630051835469, 35.701945197412954 ], [ 138.043408637898438, 35.691386865211712 ], [ 138.044050026287778, 35.674672440680638 ], [ 138.035235252904613, 35.666130748235503 ], [ 138.037977418922765, 35.636326613082758 ], [ 138.022912555170365, 35.614029360066979 ], [ 138.003673022292219, 35.597210694218234 ], [ 137.991686394011936, 35.60968097339827 ], [ 137.971447470624298, 35.607283999557012 ], [ 137.960804668700575, 35.601985387415766 ], [ 137.94145469457851, 35.609364531647884 ], [ 137.932658002964558, 35.602499531628155 ], [ 137.904180556687379, 35.623976747728761 ], [ 137.904940583641064, 35.639506748038059 ], [ 137.888826693097485, 35.639591197076129 ], [ 137.886369195781867, 35.635339802290105 ], [ 137.881466420239121, 35.635033973439192 ], [ 137.868738910672278, 35.639792864649053 ], [ 137.865325032024657, 35.648463386775916 ], [ 137.844893943300917, 35.652712278748709 ], [ 137.83571031118197, 35.638724505131847 ], [ 137.831231699083673, 35.638849504601012 ], [ 137.821995615805122, 35.643486169850917 ], [ 137.808669532772797, 35.643924504812105 ], [ 137.809948689780299, 35.648342278673283 ], [ 137.801303409824527, 35.655680892259397 ], [ 137.805314527343626, 35.674415332601598 ], [ 137.803112334966386, 35.681373666961235 ], [ 137.813655357109155, 35.692268107287362 ], [ 137.810893138907318, 35.701274467742564 ], [ 137.815502580779594, 35.706368666680703 ], [ 137.817540361798365, 35.718218640278053 ], [ 137.805036225841263, 35.726200027209529 ], [ 137.803284279945615, 35.740464468260654 ], [ 137.813818171271691, 35.75330836089222 ], [ 137.809350414889764, 35.78262669396679 ], [ 137.804646808603366, 35.789540838339065 ], [ 137.825365472638509, 35.801033333221824 ], [ 137.82829464278359, 35.806176108140903 ], [ 137.824097444741369, 35.813123612864501 ], [ 137.84741975401846, 35.834839973086332 ], [ 137.846282581076366, 35.856778279693913 ], [ 137.854125940060158, 35.859572440915485 ], [ 137.857489611356527, 35.876001864894192 ], [ 137.847211855043156, 35.890266865323611 ], [ 137.858085862772441, 35.916483225320633 ], [ 137.850881413646334, 35.924362918713769 ], [ 137.834807249754817, 35.928241801717832 ], [ 137.828881997206508, 35.938009027294811 ], [ 137.829306744310884, 35.945865694446297 ], [ 137.839047081957347, 35.956881504577836 ], [ 137.849449611110686, 35.961439837978219 ], [ 137.851268714779394, 35.968005172201003 ], [ 137.862009663315348, 35.971454801597872 ], [ 137.879540921376474, 36.000668360056807 ], [ 137.901241309638749, 36.013548891967844 ], [ 137.904505472749406, 36.018241387130388 ], [ 137.896661608346562, 36.024544999751981 ], [ 137.900501920327429, 36.029953305800461 ], [ 137.905133061041965, 36.034344413863664 ], [ 137.921675811289674, 36.038088892288613 ], [ 137.927346641134591, 36.042444171361467 ], [ 137.927643606267452, 36.04930083826315 ], [ 137.938127782171478, 36.053113333313718 ], [ 137.938780557776568, 36.061602224762908 ], [ 137.947499441845821, 36.063871386055666 ], [ 137.947655279067931, 36.063830838322588 ] ] ] } },
{ "type": "Feature", "properties": { "code": "200032", "name": "木曽地域", "PrefCode": "20", "regioncode": "200032" }, "geometry": { "type": "Polygon", "coordinates": [ [ [ 137.776160855639091, 36.074999440571787 ], [ 137.781939948569857, 36.073193333005975 ], [ 137.789189663272396, 36.078452748195843 ], [ 137.796338560376284, 36.078376919159552 ], [ 137.797978559562921, 36.068455279087914 ], [ 137.804430777958146, 36.064416108116973 ], [ 137.803589390238244, 36.056847775304618 ], [ 137.815277755663942, 36.054472225113159 ], [ 137.823631114784234, 36.056796108353751 ], [ 137.827943785777165, 36.049433449594062 ], [ 137.83575926487822, 36.049159444153076 ], [ 137.851404267792759, 36.038619459020879 ], [ 137.863791971222554, 36.040580066516895 ], [ 137.869356933775521, 36.04711574469593 ], [ 137.87799343365009, 36.04473862338881 ], [ 137.885981811011789, 36.041099493347019 ], [ 137.883006632450247, 36.038376030529435 ], [ 137.904513527976974, 36.018182225229566 ], [ 137.879540921376474, 36.000668360056807 ], [ 137.862009663315348, 35.971454801597872 ], [ 137.851268714779394, 35.968005172201003 ], [ 137.849449611110686, 35.961439837978219 ], [ 137.839047081957347, 35.956881504577836 ], [ 137.829306744310884, 35.945865694446297 ], [ 137.828881997206508, 35.938009027294811 ], [ 137.834807249754817, 35.928241801717832 ], [ 137.850881413646334, 35.924362918713769 ], [ 137.858085862772441, 35.916483225320633 ], [ 137.847211855043156, 35.890266865323611 ], [ 137.857489611356527, 35.876001864894192 ], [ 137.854125940060158, 35.859572440915485 ], [ 137.846282581076366, 35.856778279693913 ], [ 137.84741975401846, 35.834839973086332 ], [ 137.824097444741369, 35.813123612864501 ], [ 137.82829464278359, 35.806176108140903 ], [ 137.825365472638509, 35.801033333221824 ], [ 137.804646808603366, 35.789540838339065 ], [ 137.809350414889764, 35.78262669396679 ], [ 137.813818171271691, 35.75330836089222 ], [ 137.803284279945615, 35.740464468260654 ], [ 137.805036225841263, 35.726200027209529 ], [ 137.817540361798365, 35.718218640278053 ], [ 137.815502580779594, 35.706368666680703 ], [ 137.810893138907318, 35.701274467742564 ], [ 137.813655357109155, 35.692268107287362 ], [ 137.803112334966386, 35.681373666961235 ], [ 137.805314527343626, 35.674415332601598 ], [ 137.801406472131021, 35.655810332580813 ], [ 137.777098470817805, 35.631428387210349 ], [ 137.759868520715713, 35.627542531762458 ], [ 137.753589390338107, 35.619896693577573 ], [ 137.737455253357325, 35.612950865190328 ], [ 137.728679390041862, 35.612950865190328 ], [ 137.715194034377305, 35.599063080896542 ], [ 137.72044649870702, 35.586162279165876 ], [ 137.700406134835362, 35.57765783843854 ], [ 137.689475810660156, 35.568782278979029 ], [ 137.6942608037931, 35.55408699971531 ], [ 137.68791771722897, 35.550537279372008 ], [ 137.684338806690675, 35.536434225259313 ], [ 137.674165162192594, 35.531598387155896 ], [ 137.648563410573047, 35.53063866664121 ], [ 137.643487562301175, 35.520095053643843 ], [ 137.644095057940604, 35.51118810784493 ], [ 137.632728340440622, 35.508861171406011 ], [ 137.607809416171676, 35.533295360192767 ], [ 137.602381050744953, 35.530723134565051 ], [ 137.573946834878598, 35.544724531112251 ], [ 137.572061309082187, 35.561248413583485 ], [ 137.564118494972604, 35.568612864692 ], [ 137.571303527735722, 35.584160918891371 ], [ 137.550520169170568, 35.587706198382421 ], [ 137.537603191334256, 35.584451468260681 ], [ 137.530982918426957, 35.588981748209164 ], [ 137.532036004757856, 35.593231197761611 ], [ 137.513808781150374, 35.608022837583917 ], [ 137.516826304290589, 35.618281172138438 ], [ 137.522652411979266, 35.619402559280729 ], [ 137.527691335886516, 35.628705332685001 ], [ 137.526598559775721, 35.634259506071373 ], [ 137.53844357990738, 35.63855033253185 ], [ 137.539723021999976, 35.646833109260626 ], [ 137.545447497304167, 35.651082280023275 ], [ 137.535373915873606, 35.66580505425992 ], [ 137.497196445859345, 35.688481946184936 ], [ 137.497633968732771, 35.698138891496683 ], [ 137.485719273625591, 35.706028332641495 ], [ 137.485212360861851, 35.724704135387583 ], [ 137.479024864206167, 35.726558863900493 ], [ 137.46655795118852, 35.741168837971543 ], [ 137.464752140399014, 35.756371612759779 ], [ 137.452629637148107, 35.763424359746466 ], [ 137.4499415824381, 35.75929241381391 ], [ 137.440179339105271, 35.758553252030993 ], [ 137.434402697726341, 35.771046837141853 ], [ 137.423543216746111, 35.775157387303636 ], [ 137.393261529895767, 35.777727081339776 ], [ 137.391130973016061, 35.780675134549881 ], [ 137.396958470157301, 35.785351531847766 ], [ 137.39179263302367, 35.798582613197084 ], [ 137.380960972570847, 35.801312891976409 ], [ 137.36028594004415, 35.795968441390528 ], [ 137.352542581175271, 35.801533413836012 ], [ 137.336723411056596, 35.798600640107509 ], [ 137.332321192768859, 35.809334802359274 ], [ 137.324551750862724, 35.81202091903026 ], [ 137.32883814456477, 35.821867305631713 ], [ 137.32721535660346, 35.82574146719503 ], [ 137.336045616312163, 35.844217559292986 ], [ 137.354267587878894, 35.8422214411666 ], [ 137.361127030088483, 35.846207838121302 ], [ 137.367585330598558, 35.860667000381795 ], [ 137.368185887968366, 35.874205306329884 ], [ 137.364370025856033, 35.878872532341575 ], [ 137.380816161037046, 35.892422225505356 ], [ 137.419401828831383, 35.904471693913592 ], [ 137.43489910550943, 35.905488918878575 ], [ 137.447670000170433, 35.893419506205305 ], [ 137.458329754314718, 35.889394504053143 ], [ 137.476520389004804, 35.894168692731057 ], [ 137.481932088195322, 35.900527864569369 ], [ 137.484214617011048, 35.916102559385649 ], [ 137.497749688997033, 35.92881946774429 ], [ 137.50355610872748, 35.939887801880616 ], [ 137.524519000751297, 35.942463640084952 ], [ 137.532557392109993, 35.961617225654493 ], [ 137.541982723324054, 35.966628053841646 ], [ 137.543458028765031, 35.982870801945978 ], [ 137.569113942954118, 35.995693585690503 ], [ 137.575715887678143, 35.995492775171499 ], [ 137.59029594040544, 36.006541108385477 ], [ 137.599494059703147, 36.025936080985389 ], [ 137.607192387718555, 36.025345837940108 ], [ 137.612938495315348, 36.018420279372435 ], [ 137.63349328128993, 36.026797251991638 ], [ 137.651891608111328, 36.020454775167764 ], [ 137.657063799854541, 36.013500333073978 ], [ 137.665540466819152, 36.010809504854819 ], [ 137.672351855553757, 36.010701170722484 ], [ 137.68165466942753, 36.016811440795436 ], [ 137.695205473254077, 36.014760359702905 ], [ 137.702833255750193, 36.009722306339427 ], [ 137.720001606788742, 36.025213386688506 ], [ 137.732193022390106, 36.045094774704125 ], [ 137.737919416847717, 36.046847000288892 ], [ 137.73551444893269, 36.06912308056576 ], [ 137.747109728231408, 36.081346108236346 ], [ 137.754639169861889, 36.086546387605779 ], [ 137.776159753969523, 36.07499999995008 ], [ 137.776160855639091, 36.074999440571787 ] ] ] } },
{ "type": "Feature", "properties": { "code": "200033", "name": "下伊那地域", "PrefCode": "20", "regioncode": "200033" }, "geometry": { "type": "Polygon", "coordinates": [ [ [ 138.063838170795066, 35.702369919336377 ], [ 138.077113502386283, 35.694324414340315 ], [ 138.079520440715783, 35.678909440918005 ], [ 138.085546328300438, 35.672951972855287 ], [ 138.09195830113481, 35.654888108399518 ], [ 138.099169999695846, 35.64780925229519 ], [ 138.10253391740639, 35.648677305813067 ], [ 138.105940466579341, 35.626830026784376 ], [ 138.101083165255886, 35.614890558952197 ], [ 138.111026744288893, 35.600149972743111 ], [ 138.125325084385167, 35.593691612877706 ], [ 138.130878105740067, 35.581254640089639 ], [ 138.135938418223532, 35.581620198313544 ], [ 138.151565357355366, 35.572417639962168 ], [ 138.146271997254985, 35.557205135408708 ], [ 138.14139335861671, 35.555076252167339 ], [ 138.154213942619435, 35.553480387210129 ], [ 138.159433383843634, 35.54498677521957 ], [ 138.138276667234436, 35.521628693609387 ], [ 138.146330026009991, 35.518642838296387 ], [ 138.14018082968164, 35.499733359307129 ], [ 138.147493605745353, 35.50042225168562 ], [ 138.16462364476547, 35.493871694223344 ], [ 138.15844308727867, 35.486913639552881 ], [ 138.156349195758821, 35.476650305667135 ], [ 138.160157808436225, 35.46734138719529 ], [ 138.155201945913177, 35.45905277476578 ], [ 138.141019104847828, 35.458994720829764 ], [ 138.13157461717492, 35.453340279330462 ], [ 138.122607393416502, 35.45660694615367 ], [ 138.119785135575626, 35.453393892414283 ], [ 138.123962554828154, 35.435660838177171 ], [ 138.120353061044966, 35.430099999915114 ], [ 138.13980302179209, 35.422654748318052 ], [ 138.134778755035541, 35.407823080570779 ], [ 138.144502607209574, 35.406039224930339 ], [ 138.153130025730206, 35.397235891823016 ], [ 138.14129866360247, 35.369628440700012 ], [ 138.129471996835264, 35.365277865081453 ], [ 138.124018144621687, 35.368047305738628 ], [ 138.118118418430299, 35.366195359728124 ], [ 138.09690005239554, 35.354225332932799 ], [ 138.093774188827865, 35.349970332764713 ], [ 138.096798884960663, 35.34721394576701 ], [ 138.095989104813384, 35.339642027357741 ], [ 138.0844316339128, 35.337945891589698 ], [ 138.070631192675478, 35.347333360446271 ], [ 138.061209274388602, 35.347145838309814 ], [ 138.051033385182677, 35.335644468017847 ], [ 138.037556718767632, 35.332924749077961 ], [ 138.039206667154076, 35.326140865208799 ], [ 138.026182750033968, 35.320406720393862 ], [ 138.027710752149574, 35.311563386341277 ], [ 138.019723501638396, 35.301496198191046 ], [ 138.005677107512611, 35.304395080968277 ], [ 137.992093216728676, 35.301703973059944 ], [ 137.982357613113436, 35.29239344120441 ], [ 137.973658715577358, 35.293240667323005 ], [ 137.966983384375794, 35.282847640406317 ], [ 137.951890336769679, 35.28308153158747 ], [ 137.944021439737753, 35.27620517133164 ], [ 137.929252554561799, 35.275470170711856 ], [ 137.924902528429016, 35.260508774860114 ], [ 137.9184075229889, 35.254253532274731 ], [ 137.895425939855272, 35.257988504865637 ], [ 137.882465382671285, 35.248096305899821 ], [ 137.884891724773297, 35.236249640008907 ], [ 137.872337807743747, 35.218814640883011 ], [ 137.864804228332559, 35.222705467783157 ], [ 137.847337082040781, 35.221884359775459 ], [ 137.837292359854587, 35.2162140812149 ], [ 137.838115667604029, 35.212466585564528 ], [ 137.821519363627772, 35.215648531754368 ], [ 137.795320195070985, 35.204068801733854 ], [ 137.783564111594501, 35.205988532344918 ], [ 137.779186303605115, 35.202731865083535 ], [ 137.767719973597991, 35.206894890686726 ], [ 137.768096693307825, 35.218405170562221 ], [ 137.75956756259302, 35.222102386915651 ], [ 137.743671388923531, 35.218802386720824 ], [ 137.735519468049119, 35.222697387374581 ], [ 137.723183023278011, 35.221625721050259 ], [ 137.721640025866577, 35.230850441394807 ], [ 137.711883021983908, 35.228822387443302 ], [ 137.704383022358684, 35.233937386801017 ], [ 137.687223527843571, 35.230726000404673 ], [ 137.681537135230656, 35.235234891776884 ], [ 137.678821555870172, 35.230966278570975 ], [ 137.668143476240516, 35.227349054215551 ], [ 137.653983410506044, 35.226776278702346 ], [ 137.65368953274583, 35.217743224570199 ], [ 137.64476477317578, 35.213772107996419 ], [ 137.644578911187864, 35.208991278724568 ], [ 137.633238910747195, 35.212202387230434 ], [ 137.614859727794283, 35.210460440896668 ], [ 137.5914838387082, 35.199339053954247 ], [ 137.577980219611504, 35.198929892100864 ], [ 137.57872583672804, 35.219435136222614 ], [ 137.562631115233899, 35.235365108213216 ], [ 137.552558053611392, 35.240348170731522 ], [ 137.545996692593349, 35.251785665775913 ], [ 137.547612528795185, 35.25897483811832 ], [ 137.557895887885024, 35.265230107683351 ], [ 137.555759780389621, 35.274545946438309 ], [ 137.570807030020433, 35.28291455895976 ], [ 137.56708897547594, 35.28984566724381 ], [ 137.56133980478819, 35.289260107867733 ], [ 137.556384526824559, 35.295537332581887 ], [ 137.559307327970828, 35.302884279286104 ], [ 137.556607055970971, 35.309399279353329 ], [ 137.565070388687559, 35.310825667070958 ], [ 137.571466251966058, 35.318348719917537 ], [ 137.583367912299423, 35.318995667016452 ], [ 137.590595421841272, 35.330595945646451 ], [ 137.603914616966108, 35.333234277739791 ], [ 137.600417107663475, 35.342257333209432 ], [ 137.602555745851078, 35.358261224975593 ], [ 137.59783800312141, 35.366272332702067 ], [ 137.598543306328565, 35.379028170913386 ], [ 137.586415253361338, 35.389557332704783 ], [ 137.577363307170913, 35.390436224851953 ], [ 137.575227782436286, 35.40000872112563 ], [ 137.590342750117884, 35.393679837554487 ], [ 137.613098054831426, 35.391688171072303 ], [ 137.634292827152308, 35.399750945749588 ], [ 137.632045914187643, 35.410703693620633 ], [ 137.62149367129598, 35.41238480171728 ], [ 137.615537588189227, 35.430594531712302 ], [ 137.593011194211272, 35.44710674817793 ], [ 137.618175745814028, 35.467769252249241 ], [ 137.631750219796913, 35.470043973150894 ], [ 137.624546356129486, 35.500606198117623 ], [ 137.628331946162461, 35.501467306171321 ], [ 137.631755005988794, 35.509175613064144 ], [ 137.644095057940604, 35.51118810784493 ], [ 137.643487562301175, 35.520095053643843 ], [ 137.648301479429847, 35.530464504833105 ], [ 137.674165162192594, 35.531598387155896 ], [ 137.684338806690675, 35.536434225259313 ], [ 137.68791771722897, 35.550537279372008 ], [ 137.6942608037931, 35.55408699971531 ], [ 137.689475810660156, 35.568782278979029 ], [ 137.700406134835362, 35.57765783843854 ], [ 137.72044649870702, 35.586162279165876 ], [ 137.715070699553166, 35.59796974810547 ], [ 137.721969337814699, 35.606453919013177 ], [ 137.729418559918713, 35.613391972761406 ], [ 137.737455253357325, 35.612950865190328 ], [ 137.753589390338107, 35.619896693577573 ], [ 137.759868520715713, 35.627542531762458 ], [ 137.777098470817805, 35.631428387210349 ], [ 137.801303409824527, 35.655680892259397 ], [ 137.809948689780299, 35.648342278673283 ], [ 137.808669532772797, 35.643924504812105 ], [ 137.821995615805122, 35.643486169850917 ], [ 137.831231699083673, 35.638849504601012 ], [ 137.83571031118197, 35.638724505131847 ], [ 137.844893943300917, 35.652712278748709 ], [ 137.865325032024657, 35.648463386775916 ], [ 137.868738910672278, 35.639792864649053 ], [ 137.881466420239121, 35.635033973439192 ], [ 137.886369195781867, 35.635339802290105 ], [ 137.888826693097485, 35.639591197076129 ], [ 137.904940583641064, 35.639506748038059 ], [ 137.904180556687379, 35.623976747728761 ], [ 137.932658002964558, 35.602499531628155 ], [ 137.94145469457851, 35.609364531647884 ], [ 137.960804668700575, 35.601985387415766 ], [ 137.971447470624298, 35.607283999557012 ], [ 137.991686394011936, 35.60968097339827 ], [ 138.004677756573301, 35.597477918771006 ], [ 138.022912555170365, 35.614029360066979 ], [ 138.038331581837042, 35.636980504746532 ], [ 138.035318301698339, 35.666943252429235 ], [ 138.043716134991655, 35.67367689207498 ], [ 138.044678366413564, 35.694771586039906 ], [ 138.050630051835469, 35.701945197412954 ], [ 138.063661219289884, 35.702484639554541 ], [ 138.063838170795066, 35.702369919336377 ] ] ] } }
]
}
