{
"type": "FeatureCollection",
"name": "23_aichi_region",
"crs": { "type": "name", "properties": { "name": "urn:ogc:def:crs:OGC:1.3:CRS84" } },
"features": [
{ "type": "Feature", "properties": { "code": "230011", "name": "尾張東部", "PrefCode": "23", "regioncode": "230011" }, "geometry": { "type": "MultiPolygon", "coordinates": [ [ [ [ 136.848669754305774, 35.056045251986859 ], [ 136.85495644618311, 35.055308468011447 ], [ 136.85202849461939, 35.043851278713589 ], [ 136.846176550307632, 35.045527918978337 ], [ 136.850235161923251, 35.04060019804075 ], [ 136.844082698357852, 35.041621558987799 ], [ 136.848150117034379, 35.036701027230663 ], [ 136.84552233488796, 35.033911838360723 ], [ 136.837977108356881, 35.051836946418007 ], [ 136.840585031673982, 35.056035945802307 ], [ 136.84865557739306, 35.056049720718079 ], [ 136.848669754305774, 35.056045251986859 ] ] ], [ [ [ 136.878157302017939, 35.071924891620483 ], [ 136.882259779864967, 35.069421504598836 ], [ 136.876445863385925, 35.053661838123389 ], [ 136.873160869278763, 35.049686766331263 ], [ 136.865253839193429, 35.050006504996247 ], [ 136.869457587897386, 35.068062054320421 ], [ 136.87815880658377, 35.07194074756751 ], [ 136.878157302017939, 35.071924891620483 ] ] ], [ [ [ 136.869987392903909, 35.084753386959278 ], [ 136.869510557965896, 35.087926170856178 ], [ 136.870077275645826, 35.08491002727601 ], [ 136.869987392903909, 35.084753386959278 ] ] ], [ [ [ 136.989451193118157, 35.421685224293697 ], [ 136.978264721339883, 35.403176054231551 ], [ 136.988963022225789, 35.401164413806725 ], [ 136.990112723623383, 35.394856667001648 ], [ 136.998445746374159, 35.391330025959974 ], [ 137.002236523696638, 35.381373946350607 ], [ 137.014906250922763, 35.381580080856111 ], [ 137.020013722055637, 35.375720945565263 ], [ 137.028337885584961, 35.376064559431939 ], [ 137.033981724976684, 35.368045972943321 ], [ 137.046952555116377, 35.366131279435024 ], [ 137.049849754362754, 35.359600468386986 ], [ 137.045241388079717, 35.350597135049782 ], [ 137.047184941731757, 35.336778000504353 ], [ 137.049898559670851, 35.334369386737876 ], [ 137.061357445090039, 35.339122170651706 ], [ 137.068217716474464, 35.335681919385138 ], [ 137.072978807426125, 35.326456919351415 ], [ 137.063522114154352, 35.318196918852777 ], [ 137.066769584948474, 35.308971640029199 ], [ 137.081840699888403, 35.305120838356061 ], [ 137.081310661058183, 35.29219083833658 ], [ 137.096033449684001, 35.290554171138126 ], [ 137.102333748303863, 35.301647504628704 ], [ 137.131714449362448, 35.293609892082884 ], [ 137.145601219220907, 35.279826135967426 ], [ 137.165226783389357, 35.283414748391976 ], [ 137.177109272874759, 35.269241693749223 ], [ 137.17287289227022, 35.265008919426123 ], [ 137.176467030129402, 35.260255026648224 ], [ 137.189488144961956, 35.252569198309914 ], [ 137.180374254368417, 35.244462532220155 ], [ 137.177545615837516, 35.23628697266571 ], [ 137.184463645281085, 35.229573919400934 ], [ 137.1759547214333, 35.222860278878841 ], [ 137.169765006150215, 35.206403612636677 ], [ 137.15314500593729, 35.203766667297884 ], [ 137.143199999680292, 35.197226387287969 ], [ 137.142967223658502, 35.193432775302369 ], [ 137.129636108919385, 35.188805278640757 ], [ 137.126056109302112, 35.182415000152162 ], [ 137.109185005783502, 35.185718333234547 ], [ 137.105913060839157, 35.178892225296011 ], [ 137.09567027196556, 35.179387505329146 ], [ 137.094699442125602, 35.160121667281146 ], [ 137.098667497407178, 35.146406945823969 ], [ 137.086808612427603, 35.137651107712486 ], [ 137.091407497158343, 35.130319721078308 ], [ 137.084560829818543, 35.127378053954089 ], [ 137.089282218399717, 35.123377505267683 ], [ 137.085298612041356, 35.104858612634928 ], [ 137.087814720872757, 35.101030278724409 ], [ 137.055869999600873, 35.091214441193586 ], [ 137.049717497364668, 35.075388054015548 ], [ 137.041481945835244, 35.066137505141796 ], [ 137.042371673014372, 35.061767225377196 ], [ 137.005347782274384, 35.033528612955195 ], [ 137.001650271842664, 35.027041386650751 ], [ 136.997039999896174, 35.038949720852997 ], [ 136.989757781896174, 35.036618332769876 ], [ 136.989171673034321, 35.041588053845658 ], [ 136.973876938969624, 35.049006386935275 ], [ 136.972252775944867, 35.043064441171055 ], [ 136.9592563942673, 35.039195000149164 ], [ 136.961615836701526, 35.041052225180124 ], [ 136.956359999914184, 35.047847224669738 ], [ 136.946335006155664, 35.044193054366019 ], [ 136.93838666661145, 35.053406386595498 ], [ 136.93275778204611, 35.048715558776053 ], [ 136.926661946092054, 35.059317224810115 ], [ 136.922226109347548, 35.060765558683613 ], [ 136.924423891449464, 35.064417504963956 ], [ 136.916439169831847, 35.061057504700159 ], [ 136.913148885013129, 35.068463892094996 ], [ 136.883963060746737, 35.067267774887966 ], [ 136.885251140827563, 35.074534892371446 ], [ 136.889586861444513, 35.070340721447167 ], [ 136.890089856761506, 35.076697251976668 ], [ 136.896083021614231, 35.076490279303016 ], [ 136.89007469509113, 35.077840721072448 ], [ 136.89056919631139, 35.084305666673231 ], [ 136.896600467237818, 35.0849836943421 ], [ 136.890138002866593, 35.08621638697673 ], [ 136.892015253101476, 35.092517054318648 ], [ 136.888213773846701, 35.093661892182638 ], [ 136.884817108223046, 35.088758333330475 ], [ 136.879239779991963, 35.091749973082869 ], [ 136.868536744175458, 35.088206747643369 ], [ 136.867553839138395, 35.078991251644993 ], [ 136.864696135418399, 35.073960251664346 ], [ 136.863544423136659, 35.079339080634099 ], [ 136.861017249946144, 35.074856278594439 ], [ 136.862601634158182, 35.069795252049289 ], [ 136.856513748211, 35.072512774844711 ], [ 136.855089000856765, 35.077580198267583 ], [ 136.855077301576216, 35.069258694033579 ], [ 136.859931777229804, 35.068321747950336 ], [ 136.858045693853796, 35.058732640299183 ], [ 136.847439274003364, 35.056660333407706 ], [ 136.847671945703837, 35.059471613224446 ], [ 136.842596834876076, 35.059278224810271 ], [ 136.84984574558473, 35.078516828688748 ], [ 136.847336939248407, 35.083053991148802 ], [ 136.824864513586476, 35.080103523259027 ], [ 136.810059442389388, 35.093378891722523 ], [ 136.797944163392458, 35.096936107915099 ], [ 136.791969170241032, 35.112259999799221 ], [ 136.797416393551771, 35.128165279104394 ], [ 136.802824448689421, 35.129259720759535 ], [ 136.800079170117669, 35.132720559306392 ], [ 136.800909999796772, 35.148040279235545 ], [ 136.808959999604326, 35.147605278960498 ], [ 136.809412775878968, 35.153571386810086 ], [ 136.801952502905692, 35.154724720569448 ], [ 136.80415250273586, 35.165110837994803 ], [ 136.813678340383149, 35.167493332751178 ], [ 136.818363605895797, 35.164640837904415 ], [ 136.817183061349283, 35.158983053625093 ], [ 136.836021672861989, 35.157803892235904 ], [ 136.831327691120123, 35.164906333060856 ], [ 136.85630055762465, 35.188171666689129 ], [ 136.869101945598345, 35.193207225333254 ], [ 136.87928000037175, 35.206864721130046 ], [ 136.86837333286303, 35.211912224569573 ], [ 136.864316938975662, 35.205885559071362 ], [ 136.860189727973648, 35.207972225437913 ], [ 136.86464221836377, 35.213328612725377 ], [ 136.856935005945843, 35.2185422254434 ], [ 136.855718611724569, 35.23058250457899 ], [ 136.872046666820324, 35.231358332621028 ], [ 136.874792502971673, 35.225065278939496 ], [ 136.900522503310981, 35.235305838393799 ], [ 136.902405005586616, 35.240212224714469 ], [ 136.908726939196981, 35.240372504587469 ], [ 136.911966394333717, 35.236117505318646 ], [ 136.931511388239983, 35.246580279156603 ], [ 136.928057223562064, 35.255259720759568 ], [ 136.93094333326826, 35.259416945735495 ], [ 136.922529727664823, 35.263827775031871 ], [ 136.914463060721687, 35.264432775052569 ], [ 136.904223333140408, 35.255468612586469 ], [ 136.898512503249435, 35.255501945958088 ], [ 136.896203606311474, 35.262855278748191 ], [ 136.881296938702803, 35.264776387120605 ], [ 136.885479727807251, 35.278612775159502 ], [ 136.884812217709737, 35.303861666982414 ], [ 136.906662218086922, 35.313243053724023 ], [ 136.907193605900261, 35.320202225352489 ], [ 136.914003061092444, 35.325977774954424 ], [ 136.913726938647414, 35.319969999715738 ], [ 136.921753060555375, 35.319285837771247 ], [ 136.932331388283046, 35.32996250456597 ], [ 136.941943747905725, 35.358691585648216 ], [ 136.936516615449477, 35.362506251662239 ], [ 136.934522502811319, 35.370534558922827 ], [ 136.921009663864993, 35.366626802285168 ], [ 136.916874967805597, 35.371474279414542 ], [ 136.923171946128491, 35.375459802228136 ], [ 136.921450025898025, 35.379029531587662 ], [ 136.960982193273708, 35.399051891931322 ], [ 136.964372606810457, 35.420939027114457 ], [ 136.993215641888469, 35.424195775314843 ], [ 136.989865357000667, 35.422039387208031 ], [ 136.989451193118157, 35.421685224293697 ] ] ] ] } },
{ "type": "Feature", "properties": { "code": "230012", "name": "尾張西部", "PrefCode": "23", "regioncode": "230012" }, "geometry": { "type": "MultiPolygon", "coordinates": [ [ [ [ 136.800808248701742, 35.040183468392399 ], [ 136.80079250337144, 35.043174639597964 ], [ 136.80080538256243, 35.040820972609822 ], [ 136.800808248701742, 35.040183468392399 ] ] ], [ [ [ 136.800792244366676, 35.043625747630188 ], [ 136.801204578128818, 35.046781386851592 ], [ 136.800796978397898, 35.044284640423882 ], [ 136.800792244366676, 35.043625747630188 ] ] ], [ [ [ 136.830902606769996, 35.049372000017854 ], [ 136.83897133585856, 35.030196694022266 ], [ 136.81085352756827, 35.026652559368188 ], [ 136.807844332150239, 35.048509468337329 ], [ 136.829984332411073, 35.049371532370401 ], [ 136.830902606769996, 35.049372000017854 ] ] ], [ [ [ 136.922336977769419, 35.377627584745312 ], [ 136.916874967805597, 35.371474279414542 ], [ 136.921760220058218, 35.366417918552145 ], [ 136.935237497112894, 35.370217332963591 ], [ 136.936516615449477, 35.362506251662239 ], [ 136.941801530016619, 35.359174080019841 ], [ 136.941570310721318, 35.352320801763653 ], [ 136.935579727822301, 35.345950559270932 ], [ 136.932331388283046, 35.32996250456597 ], [ 136.921753060555375, 35.319285837771247 ], [ 136.913726938647414, 35.319969999715738 ], [ 136.914003061092444, 35.325977774954424 ], [ 136.907193605900261, 35.320202225352489 ], [ 136.906662218086922, 35.313243053724023 ], [ 136.902960829778522, 35.313971946148456 ], [ 136.89502888487516, 35.306020837591632 ], [ 136.88533360596125, 35.304829440926028 ], [ 136.883102217993041, 35.289493892029554 ], [ 136.885479727807251, 35.278612775159502 ], [ 136.880599170015785, 35.266464440681432 ], [ 136.896203606311474, 35.262855278748191 ], [ 136.897351387656499, 35.255553054429981 ], [ 136.904223333140408, 35.255468612586469 ], [ 136.914463060721687, 35.264432775052569 ], [ 136.923555551047912, 35.263437775033367 ], [ 136.93094333326826, 35.259416945735495 ], [ 136.928057223562064, 35.255259720759568 ], [ 136.931511388239983, 35.246580279156603 ], [ 136.911966394333717, 35.236117505318646 ], [ 136.908726939196981, 35.240372504587469 ], [ 136.902405005586616, 35.240212224714469 ], [ 136.900522503310981, 35.235305838393799 ], [ 136.874792502971673, 35.225065278939496 ], [ 136.872046666820324, 35.231358332621028 ], [ 136.855718611724569, 35.23058250457899 ], [ 136.856935005945843, 35.2185422254434 ], [ 136.86464221836377, 35.213328612725377 ], [ 136.860189727973648, 35.207972225437913 ], [ 136.864316938975662, 35.205885559071362 ], [ 136.86837333286303, 35.211912224569573 ], [ 136.878899999935129, 35.208794441410419 ], [ 136.869840830390103, 35.194001666643658 ], [ 136.85630055762465, 35.188171666689129 ], [ 136.835726667351878, 35.169663892374786 ], [ 136.831293917080643, 35.164762224796903 ], [ 136.836021672861989, 35.157803892235904 ], [ 136.817183061349283, 35.158983053625093 ], [ 136.818363605895797, 35.164640837904415 ], [ 136.813079728246976, 35.167610278791358 ], [ 136.807530026289783, 35.168253107894657 ], [ 136.803000830024303, 35.163555838231389 ], [ 136.801952502905692, 35.154724720569448 ], [ 136.809412775878968, 35.153571386810086 ], [ 136.808959999604326, 35.147605278960498 ], [ 136.800909999796772, 35.148040279235545 ], [ 136.800079170117669, 35.132720559306392 ], [ 136.802824448689421, 35.129259720759535 ], [ 136.797416393551771, 35.128165279104394 ], [ 136.791969170241032, 35.112259999799221 ], [ 136.797944163392458, 35.096936107915099 ], [ 136.810059442389388, 35.093378891722523 ], [ 136.824864513586476, 35.080103523259027 ], [ 136.821401309822704, 35.07773858596704 ], [ 136.823635863404434, 35.072275225221517 ], [ 136.819800505788749, 35.072075108079844 ], [ 136.819307029795709, 35.06344033310495 ], [ 136.823586160572972, 35.063354305756661 ], [ 136.823600169312385, 35.068251558562622 ], [ 136.833607030040412, 35.063928468024415 ], [ 136.833626808830218, 35.059594666560656 ], [ 136.830082580646604, 35.050249838159573 ], [ 136.796922633372901, 35.051481694424695 ], [ 136.796940169253503, 35.044693108000558 ], [ 136.800655006023817, 35.044709694197081 ], [ 136.800677055601682, 35.041262386849723 ], [ 136.796918366089812, 35.041241081011151 ], [ 136.796928365651638, 35.038553504740491 ], [ 136.800812087907616, 35.038929279262902 ], [ 136.800246783062676, 35.028802802407483 ], [ 136.786138975133667, 35.035669531823487 ], [ 136.780755811431618, 35.033530414297218 ], [ 136.796766666648409, 35.022119693868831 ], [ 136.793880661263529, 35.014462467568876 ], [ 136.796929728124496, 35.012456413732536 ], [ 136.785790194661786, 35.019564171349487 ], [ 136.770624007891684, 35.021437882752139 ], [ 136.772707496953444, 35.024389999998562 ], [ 136.760857497275765, 35.037714171072196 ], [ 136.753401114769645, 35.053015559220739 ], [ 136.750139170286502, 35.08024805420439 ], [ 136.731275278831163, 35.097281107637059 ], [ 136.71407167256973, 35.105166946097711 ], [ 136.69506605695301, 35.12470161308903 ], [ 136.676393281324977, 35.12886717118306 ], [ 136.672202723876694, 35.136100198065719 ], [ 136.674626304160711, 35.154627135134206 ], [ 136.67231739283352, 35.188777387066807 ], [ 136.68336797705058, 35.202296559039041 ], [ 136.678433528284813, 35.242971531810781 ], [ 136.696019948062258, 35.258640441403315 ], [ 136.707892723970076, 35.280088252371002 ], [ 136.725733307446262, 35.295614360414447 ], [ 136.759600077781442, 35.358086027148488 ], [ 136.770633722368416, 35.368432387344853 ], [ 136.794455667994725, 35.368334613052014 ], [ 136.792886782698929, 35.363457693917496 ], [ 136.800753721906858, 35.360933531657224 ], [ 136.833768715553788, 35.355922693577497 ], [ 136.864931828840895, 35.372605414308453 ], [ 136.888542724267381, 35.377912891966446 ], [ 136.922131140939427, 35.377985639925384 ], [ 136.922336977769419, 35.377627584745312 ] ] ] ] } },
{ "type": "Feature", "properties": { "code": "230013", "name": "知多地域", "PrefCode": "23", "regioncode": "230013" }, "geometry": { "type": "MultiPolygon", "coordinates": [ [ [ [ 137.008631504740265, 34.659648865003192 ], [ 137.007743917048174, 34.656629586386373 ], [ 137.008611970566108, 34.659653973152388 ], [ 137.008631504740265, 34.659648865003192 ] ] ], [ [ [ 136.999492049118885, 34.681103134901832 ], [ 136.997771751265418, 34.679416387156607 ], [ 136.999483501962118, 34.681122613317996 ], [ 136.999492049118885, 34.681103134901832 ] ] ], [ [ [ 137.005724864411036, 34.68074380178507 ], [ 137.00223046676274, 34.679305559204238 ], [ 137.001811633600028, 34.682552612712982 ], [ 137.003556303980304, 34.680746613065764 ], [ 137.005724864411036, 34.68074380178507 ] ] ], [ [ [ 136.999999999700321, 34.681651440761414 ], [ 137.004312218334235, 34.685517108227998 ], [ 137.000004422566121, 34.681660532007982 ], [ 136.999999999700321, 34.681651440761414 ] ] ], [ [ [ 137.008373332763199, 34.685602495258991 ], [ 137.010147328236712, 34.677322973176729 ], [ 137.005343890907852, 34.674704694166337 ], [ 137.006060505787786, 34.666806829071959 ], [ 137.003220025883593, 34.6664878017707 ], [ 137.002102048970414, 34.670291414217445 ], [ 136.998113501736725, 34.670440135104229 ], [ 136.999410362798017, 34.678081874179213 ], [ 137.006942335120698, 34.678868720714945 ], [ 137.004418197142172, 34.682549892263751 ], [ 137.008383890803998, 34.685620828838239 ], [ 137.008373332763199, 34.685602495258991 ] ] ], [ [ [ 136.9753723082855, 34.700866975230781 ], [ 136.974685914223642, 34.698242413556613 ], [ 136.975466445719917, 34.70091780221486 ], [ 136.9753723082855, 34.700866975230781 ] ] ], [ [ [ 136.999999999700321, 34.709129829278254 ], [ 136.99771997369794, 34.707905973382026 ], [ 137.000024942397204, 34.709149081065277 ], [ 136.999999999700321, 34.709129829278254 ] ] ], [ [ [ 137.007616394081424, 34.709139720921428 ], [ 137.013795252748764, 34.706564225358761 ], [ 137.01081306127378, 34.702626387297983 ], [ 136.996216393571785, 34.701373585822353 ], [ 136.996021166943365, 34.705162559104849 ], [ 137.007452503430386, 34.709580558695905 ], [ 137.007616394081424, 34.709139720921428 ] ] ], [ [ [ 136.805831479439234, 34.877642197929163 ], [ 136.819848715745707, 34.867114305980465 ], [ 136.822743306958159, 34.861384108289997 ], [ 136.819028755272939, 34.861233441270372 ], [ 136.819666160564907, 34.858579864769013 ], [ 136.823472554614796, 34.859173107952643 ], [ 136.824217081752977, 34.853009919072576 ], [ 136.824469636564572, 34.848743693566632 ], [ 136.812648003302797, 34.8467490269461 ], [ 136.814197522597624, 34.840170586003808 ], [ 136.808751505277769, 34.839274999741519 ], [ 136.798433410773328, 34.87566927871427 ], [ 136.80570822285631, 34.877685801558528 ], [ 136.805831479439234, 34.877642197929163 ] ] ], [ [ [ 136.822054578256257, 34.960939225165134 ], [ 136.825745473274992, 34.96049402657809 ], [ 136.820272139947406, 34.949768774809172 ], [ 136.811019222259347, 34.954777108276971 ], [ 136.818691166863914, 34.964349440874059 ], [ 136.82163944220656, 34.96117453187918 ], [ 136.822054578256257, 34.960939225165134 ] ] ], [ [ [ 136.90195082996695, 35.068928613165042 ], [ 136.913148885013129, 35.068463892094996 ], [ 136.916439169831847, 35.061057504700159 ], [ 136.924423891449464, 35.064417504963956 ], [ 136.922226109347548, 35.060765558683613 ], [ 136.926661946092054, 35.059317224810115 ], [ 136.93275778204611, 35.048715558776053 ], [ 136.93838666661145, 35.053406386595498 ], [ 136.946335006155664, 35.044193054366019 ], [ 136.957150557951991, 35.047498053892127 ], [ 136.961635279144843, 35.040978612972651 ], [ 136.9592563942673, 35.039195000149164 ], [ 136.972252775944867, 35.043064441171055 ], [ 136.973876938969624, 35.049006386935275 ], [ 136.989171673034321, 35.041588053845658 ], [ 136.989757781896174, 35.036618332769876 ], [ 136.997039999896174, 35.038949720852997 ], [ 137.001650271842664, 35.027041386650751 ], [ 136.990632217902544, 35.022333054426952 ], [ 136.98885221765579, 35.009971945748759 ], [ 136.981225837202715, 35.003607774579166 ], [ 136.978796939227436, 34.982848332584524 ], [ 136.983245550841616, 34.955807775408573 ], [ 136.981035771783468, 34.956849918788748 ], [ 136.977961919606969, 34.943596224885937 ], [ 136.97461147913657, 34.944377667395486 ], [ 136.977522399339364, 34.94186059539021 ], [ 136.973247004345808, 34.917425973130207 ], [ 136.968345084058456, 34.914662494978188 ], [ 136.972556939251376, 34.911816027387829 ], [ 136.969308715724765, 34.901211945774719 ], [ 136.957178053824236, 34.881110080865597 ], [ 136.964193060761204, 34.87652113544209 ], [ 136.958764189016165, 34.871080387250117 ], [ 136.957834449200504, 34.876133026717866 ], [ 136.944160778197443, 34.880888639898842 ], [ 136.934243891042797, 34.874610559030145 ], [ 136.946013086634707, 34.874162747912521 ], [ 136.939721945811243, 34.86144333314337 ], [ 136.927703138888774, 34.864947197954848 ], [ 136.928065811188276, 34.858574306059438 ], [ 136.93660238739028, 34.856099252178808 ], [ 136.934895357235064, 34.848490531712741 ], [ 136.929852606712529, 34.846859026622838 ], [ 136.929573112709022, 34.852290197934337 ], [ 136.92622238715353, 34.851462945758385 ], [ 136.927287419179152, 34.846103945940399 ], [ 136.930640856190621, 34.84598941368057 ], [ 136.929369545767941, 34.839071252036717 ], [ 136.936009273709033, 34.835831386809105 ], [ 136.935395784987577, 34.830043063236815 ], [ 136.923771025012911, 34.829373359692852 ], [ 136.922985615593802, 34.831932919268866 ], [ 136.922071984434638, 34.827716080932419 ], [ 136.926871855052127, 34.827625225124109 ], [ 136.926081335685126, 34.821227000225917 ], [ 136.938046719280692, 34.820873224919467 ], [ 136.926270973027044, 34.821174999626578 ], [ 136.92536552479919, 34.813988802241454 ], [ 136.92006383877515, 34.811145162119601 ], [ 136.921456589150353, 34.793282135162485 ], [ 136.914501699194147, 34.7730639726243 ], [ 136.919178145055412, 34.766005333279566 ], [ 136.92701386519775, 34.764083494657598 ], [ 136.92743011730613, 34.757101973077624 ], [ 136.942804747141395, 34.747704585598171 ], [ 136.950034423150214, 34.73880577506651 ], [ 136.966590531927523, 34.732068441005822 ], [ 136.970053786952803, 34.724827577430801 ], [ 136.962072827199336, 34.720470468237579 ], [ 136.972891582380726, 34.71740119810687 ], [ 136.967686887340051, 34.709788892043775 ], [ 136.97023491580876, 34.710933972724717 ], [ 136.977812088057476, 34.701757613423183 ], [ 136.970734941564388, 34.69945082899261 ], [ 136.974872438112584, 34.69773082881477 ], [ 136.972230636434801, 34.694721081213004 ], [ 136.964576939074504, 34.701181666900482 ], [ 136.943510830060859, 34.700371107940327 ], [ 136.935660557988399, 34.708196467892719 ], [ 136.933161115393204, 34.704404532243416 ], [ 136.93664258079059, 34.703986891581849 ], [ 136.929843722310011, 34.703077864951581 ], [ 136.906983606108611, 34.715866945703056 ], [ 136.888591945961593, 34.720716108161923 ], [ 136.867361582071453, 34.733157359924292 ], [ 136.870293838689804, 34.734258414294459 ], [ 136.866120998785163, 34.737398693994578 ], [ 136.859099922323594, 34.738468026578232 ], [ 136.858966835251294, 34.742726053864374 ], [ 136.840284254314952, 34.763903721079942 ], [ 136.858087691294031, 34.799099666916163 ], [ 136.866539196127064, 34.839131000295481 ], [ 136.861336135154602, 34.850618387028987 ], [ 136.855656718582736, 34.854321225044544 ], [ 136.858441284038122, 34.853053775411468 ], [ 136.855218521217807, 34.865517225139854 ], [ 136.837218638129684, 34.875869802349541 ], [ 136.836316226013082, 34.878406225067295 ], [ 136.84107900139486, 34.877833919000238 ], [ 136.837929857077256, 34.884386413602158 ], [ 136.830419376752843, 34.871864640141098 ], [ 136.832770194688806, 34.874447467876394 ], [ 136.829856550439558, 34.876486721085371 ], [ 136.829627536281805, 34.872834252298958 ], [ 136.820745032257491, 34.886399027093489 ], [ 136.826891141213309, 34.893071829401435 ], [ 136.821439727961092, 34.904494586356122 ], [ 136.824771556062501, 34.904153693837941 ], [ 136.820544668701586, 34.907455107767078 ], [ 136.824314864139751, 34.928569360187851 ], [ 136.821564279567951, 34.933512946065662 ], [ 136.825767664945829, 34.940368333232072 ], [ 136.828892049128854, 34.961370945612714 ], [ 136.820133385347503, 34.966436558700252 ], [ 136.831088443576846, 34.978731026715536 ], [ 136.836120440905688, 34.976375278696196 ], [ 136.838674253813792, 34.980051639771432 ], [ 136.833909856954392, 34.982289667434259 ], [ 136.836830584264135, 34.986491972726412 ], [ 136.825391310360715, 34.993905613153572 ], [ 136.837739144146212, 34.986703279232984 ], [ 136.846237885869755, 34.998967467974296 ], [ 136.85150697776487, 34.998254134720582 ], [ 136.854564527031357, 35.002628108000863 ], [ 136.843839274363063, 35.004736748402252 ], [ 136.849438223195534, 35.010923747732818 ], [ 136.865926719142863, 35.008873252098965 ], [ 136.867135084216784, 35.004730026869311 ], [ 136.870582826836085, 35.012620198263619 ], [ 136.852005694107561, 35.01639955869274 ], [ 136.869093411032168, 35.041653748421822 ], [ 136.889263280875753, 35.042253467623482 ], [ 136.889300921100698, 35.045472640350113 ], [ 136.879219415743478, 35.047394891760916 ], [ 136.886156886730987, 35.064887107554 ], [ 136.883963060746737, 35.067267774887966 ], [ 136.901602502753349, 35.068924171413414 ], [ 136.90195082996695, 35.068928613165042 ] ] ] ] } },
{ "type": "Feature", "properties": { "code": "230014", "name": "西三河南部", "PrefCode": "23", "regioncode": "230014" }, "geometry": { "type": "MultiPolygon", "coordinates": [ [ [ [ 137.04632968916394, 34.719857000200477 ], [ 137.044424863916447, 34.715880252072054 ], [ 137.046647056316715, 34.720417161822638 ], [ 137.04632968916394, 34.719857000200477 ] ] ], [ [ [ 137.04095108862191, 34.732421828704503 ], [ 137.054230000414236, 34.727423225001871 ], [ 137.049359494345254, 34.723673359637871 ], [ 137.056278833201645, 34.722470000190413 ], [ 137.052459442149598, 34.715752197605866 ], [ 137.046767173366447, 34.713838225353868 ], [ 137.050207807744187, 34.719061864613423 ], [ 137.044054773109337, 34.72650972064713 ], [ 137.037672217998534, 34.724277802078973 ], [ 137.037663969416712, 34.720256441281776 ], [ 137.031184500664267, 34.723509279229916 ], [ 137.034208910812595, 34.725959135006121 ], [ 137.030328365861465, 34.727830721310795 ], [ 137.040934059959, 34.732425613051646 ], [ 137.04095108862191, 34.732421828704503 ] ] ], [ [ [ 137.102455771916425, 34.769464332712857 ], [ 137.103314941931103, 34.766845720953313 ], [ 137.098591089207503, 34.76602649522664 ], [ 137.102375525410253, 34.769550027311936 ], [ 137.102455771916425, 34.769464332712857 ] ] ], [ [ [ 137.147503112678578, 34.773409720582208 ], [ 137.144282918322119, 34.771162161904329 ], [ 137.147509221773248, 34.773421332628459 ], [ 137.147503112678578, 34.773409720582208 ] ] ], [ [ [ 137.14590756158475, 34.78001713498287 ], [ 137.141932801857365, 34.778890865421147 ], [ 137.145913113099709, 34.780033532321738 ], [ 137.14590756158475, 34.78001713498287 ] ] ], [ [ [ 137.083012724257856, 34.779184387049895 ], [ 137.081166550096327, 34.783171278631642 ], [ 137.082794772660691, 34.779452973176205 ], [ 137.083012724257856, 34.779184387049895 ] ] ], [ [ [ 137.14057077771929, 34.785030108053093 ], [ 137.137243332913499, 34.784963972809123 ], [ 137.141666667282948, 34.785126802260152 ], [ 137.14057077771929, 34.785030108053093 ] ] ], [ [ [ 137.108333333416681, 34.785750586420477 ], [ 137.106308301187255, 34.783889414265104 ], [ 137.108505031981736, 34.785911585751137 ], [ 137.108333333416681, 34.785750586420477 ] ] ], [ [ [ 136.957136328878505, 34.827601359814935 ], [ 136.943367418771459, 34.818636441019009 ], [ 136.946081414425748, 34.82488380194593 ], [ 136.954891828794871, 34.83048938687574 ], [ 136.957100584424552, 34.827646639780653 ], [ 136.957136328878505, 34.827601359814935 ] ] ], [ [ [ 136.979356173648512, 34.929907135006317 ], [ 136.978794085678601, 34.926412577278654 ], [ 136.97930976683233, 34.929913846646741 ], [ 136.979356173648512, 34.929907135006317 ] ] ], [ [ [ 136.982987938242786, 34.949243360292883 ], [ 136.982418235713112, 34.946835242952147 ], [ 136.982948663949742, 34.949247712112253 ], [ 136.982987938242786, 34.949243360292883 ] ] ], [ [ [ 137.045117496575244, 35.06791027933599 ], [ 137.05079917044543, 35.064221387107409 ], [ 137.061426394312662, 35.066083613268177 ], [ 137.068774720576926, 35.061567774633147 ], [ 137.063368053992576, 35.050722775435815 ], [ 137.057008612357663, 35.048747505393123 ], [ 137.045985550992441, 35.033202505291456 ], [ 137.049023333160335, 35.028416108316776 ], [ 137.046082218219908, 35.022847775104765 ], [ 137.039713332804126, 35.021814721172518 ], [ 137.050672502733846, 35.013453054115189 ], [ 137.048104449061157, 35.010854999958326 ], [ 137.053822503205993, 35.013239171050941 ], [ 137.062407782193418, 35.009527224701685 ], [ 137.073638053653326, 35.018000000299821 ], [ 137.077693890860473, 35.008093892419254 ], [ 137.08635888485469, 35.011070838148726 ], [ 137.090145551376168, 35.007798054136913 ], [ 137.103736108834369, 35.007727225331223 ], [ 137.100210557771106, 35.001657774586704 ], [ 137.108442776413085, 35.005295278654216 ], [ 137.116367497062356, 34.991346945705004 ], [ 137.11684693913503, 34.994901386589788 ], [ 137.117311672795495, 34.991471386695196 ], [ 137.12296082987848, 34.990609999851642 ], [ 137.126793890625663, 34.997362775271938 ], [ 137.13434083036509, 34.999873891966615 ], [ 137.140861945822166, 34.997893612700125 ], [ 137.142740830125263, 34.992484161814673 ], [ 137.146432503057667, 34.996182495126106 ], [ 137.147882218289851, 34.992497774852495 ], [ 137.160205550945534, 34.996538053788186 ], [ 137.166197223822905, 35.003256386972737 ], [ 137.159292218361202, 35.020502774883198 ], [ 137.160655836997307, 35.027371386580285 ], [ 137.171719441599066, 35.03550083789338 ], [ 137.185373891392032, 35.03123917105097 ], [ 137.194788612404636, 35.038726108023525 ], [ 137.207380829761519, 35.032672505132041 ], [ 137.212624720854251, 35.041513613362611 ], [ 137.217728611786015, 35.037662225331474 ], [ 137.23702722382734, 35.039274171066211 ], [ 137.242244720717395, 35.029083613018372 ], [ 137.25412472087919, 35.029180559035638 ], [ 137.255153060565362, 35.022650278587548 ], [ 137.259840558195265, 35.024333892195443 ], [ 137.261473890707521, 35.016786667370866 ], [ 137.267231114824199, 35.017802224992749 ], [ 137.270321387721879, 35.027890000423213 ], [ 137.268133332687171, 35.03046833334696 ], [ 137.278274721201456, 35.027251667030839 ], [ 137.277214449287499, 35.024375838374283 ], [ 137.289396666622906, 35.017812224554575 ], [ 137.308643891402539, 35.016133053597571 ], [ 137.315346393821073, 35.020407224613791 ], [ 137.319557782265861, 35.015519170972993 ], [ 137.326620557592719, 35.0179355593786 ], [ 137.345561946326825, 35.009197775157247 ], [ 137.34758277602441, 35.015311108321043 ], [ 137.371276667184475, 35.015274171365945 ], [ 137.37683693887368, 35.007240559004629 ], [ 137.375068611827032, 34.997937225322744 ], [ 137.384394720839737, 34.988917494646728 ], [ 137.38853917004667, 34.989668612916205 ], [ 137.388829728409291, 34.98368861323894 ], [ 137.405559442314484, 34.978787495146832 ], [ 137.390538339572799, 34.965302494714422 ], [ 137.407992775746038, 34.958390279387913 ], [ 137.402034448830818, 34.948146108256367 ], [ 137.410451945800673, 34.946779720607651 ], [ 137.412713890933333, 34.942860000288817 ], [ 137.409515836986316, 34.938286667096065 ], [ 137.411165005660564, 34.927657224601262 ], [ 137.417123332575784, 34.923496666737833 ], [ 137.420759727779227, 34.909933053867405 ], [ 137.403243891292618, 34.902582494586511 ], [ 137.40450444942087, 34.894044440798382 ], [ 137.39425194607054, 34.883313892022557 ], [ 137.375522503260981, 34.893731946172409 ], [ 137.360945551396185, 34.88576749527374 ], [ 137.358506108869847, 34.891169999795693 ], [ 137.352159442104607, 34.891375558735092 ], [ 137.349865278759694, 34.898272494579999 ], [ 137.337002217978011, 34.894092774861747 ], [ 137.333031945867674, 34.888227224706725 ], [ 137.323231115323779, 34.888254720578971 ], [ 137.303473606222042, 34.877739721311116 ], [ 137.296842502779327, 34.886287494971953 ], [ 137.283155005599042, 34.880775278556314 ], [ 137.274351673391038, 34.885028891969853 ], [ 137.266097496902034, 34.884396945562628 ], [ 137.256184448953263, 34.869396108143917 ], [ 137.258093332841099, 34.864556946146195 ], [ 137.255427496781635, 34.860431945677817 ], [ 137.238681388235591, 34.866791667001905 ], [ 137.231441388009671, 34.864735279009949 ], [ 137.224971388219046, 34.870262495218014 ], [ 137.211199170405507, 34.86746138673368 ], [ 137.205193890785495, 34.862973613241707 ], [ 137.205604163301587, 34.856472225312984 ], [ 137.192897497321724, 34.848481107717021 ], [ 137.197995550754172, 34.841498891860397 ], [ 137.191660272103945, 34.833008054278309 ], [ 137.199599728145017, 34.825170828670878 ], [ 137.19060972815646, 34.824697531665834 ], [ 137.191478054168897, 34.820853892193441 ], [ 137.187810557711146, 34.818877224604307 ], [ 137.185951114952104, 34.823741386855545 ], [ 137.180031387838312, 34.822929162350988 ], [ 137.178488611660214, 34.826228613060096 ], [ 137.163694163255059, 34.814958332561048 ], [ 137.171063890686014, 34.811949999592855 ], [ 137.168313994994946, 34.784949134894703 ], [ 137.161021283705395, 34.786606865114777 ], [ 137.164216446332034, 34.783819440714694 ], [ 137.152536939228412, 34.781320305687586 ], [ 137.144261672738025, 34.785831000200574 ], [ 137.148035667811882, 34.785352134593381 ], [ 137.145549196138518, 34.788503305982829 ], [ 137.13875416337396, 34.789292468272834 ], [ 137.134432697910711, 34.788708828949325 ], [ 137.137232335104272, 34.787003919395431 ], [ 137.13001752309026, 34.781925386647345 ], [ 137.114938638007857, 34.789232666954092 ], [ 137.117173774350249, 34.790281494995043 ], [ 137.106767250408325, 34.791250892214975 ], [ 137.107828520569797, 34.787133694264639 ], [ 137.102859779755136, 34.786785558606709 ], [ 137.105571361629131, 34.784236585849783 ], [ 137.098727198001825, 34.783640945972934 ], [ 137.088335966132036, 34.775084558605556 ], [ 137.076262360819328, 34.787057531579876 ], [ 137.045523722142093, 34.776160585742502 ], [ 137.029894383618966, 34.774968359901948 ], [ 137.032842244374137, 34.776024892434862 ], [ 137.025524577797114, 34.777657278860374 ], [ 137.014219143698597, 34.787492225186099 ], [ 137.020288911004513, 34.78945166716079 ], [ 137.013763890691052, 34.790871559075242 ], [ 137.012150751555964, 34.796024775123328 ], [ 137.000484915946231, 34.804213332579309 ], [ 136.996718392439902, 34.814345414009722 ], [ 137.00152114088803, 34.813199026613859 ], [ 136.964393450397438, 34.822775559044885 ], [ 136.956743528391144, 34.833290026813359 ], [ 136.954217664613566, 34.848332135020087 ], [ 136.964213293708553, 34.850263305906878 ], [ 136.964657886152622, 34.852986224634606 ], [ 136.955289636707448, 34.854840613203805 ], [ 136.968082386692799, 34.874897027276063 ], [ 136.97588430581618, 34.874211946224364 ], [ 136.970606718924955, 34.877478306378805 ], [ 136.976798832700069, 34.893303667430359 ], [ 136.983834318998674, 34.893260991001966 ], [ 136.983067638860462, 34.89702877535774 ], [ 136.977351556029589, 34.894608531558561 ], [ 136.976885641559193, 34.897758225361883 ], [ 136.978747497199265, 34.926052441067327 ], [ 136.982149104597511, 34.92938969387933 ], [ 136.979529883097712, 34.93583480223441 ], [ 136.986299248311752, 34.951462666768691 ], [ 136.983330038550548, 34.951372387425806 ], [ 136.986386031090547, 34.951980775192681 ], [ 136.983402969971166, 34.951782053798809 ], [ 136.978796939227436, 34.982848332584524 ], [ 136.98133749702788, 35.003928053736729 ], [ 136.98885221765579, 35.009971945748759 ], [ 136.990632217902544, 35.022333054426952 ], [ 136.997844448862338, 35.023623333350201 ], [ 137.005347782274384, 35.033528612955195 ], [ 137.034823333030431, 35.053579170642251 ], [ 137.045078054109013, 35.067918613353356 ], [ 137.045117496575244, 35.06791027933599 ] ] ] ] } },
{ "type": "Feature", "properties": { "code": "230015", "name": "西三河北西部", "PrefCode": "23", "regioncode": "230015" }, "geometry": { "type": "Polygon", "coordinates": [ [ [ 137.307889663277365, 35.29018958598067 ], [ 137.346406614773514, 35.271232891684633 ], [ 137.340014086181213, 35.264872891570747 ], [ 137.342564829703178, 35.26115490537461 ], [ 137.330465127863476, 35.254593167540691 ], [ 137.334525926630249, 35.251328991839557 ], [ 137.33159518087291, 35.246916489804221 ], [ 137.333380566260189, 35.239734426602581 ], [ 137.3437800916779, 35.231318406319474 ], [ 137.32102271852375, 35.219068370209186 ], [ 137.321941465026612, 35.212191180778404 ], [ 137.314035557295142, 35.204448053934584 ], [ 137.289074524070088, 35.195811655683428 ], [ 137.280118264846124, 35.197569682794665 ], [ 137.272138887899473, 35.190364331648652 ], [ 137.269816144099877, 35.18236483147183 ], [ 137.260882887735193, 35.177823669726649 ], [ 137.253144257501503, 35.164457157671734 ], [ 137.242173919790616, 35.159620574929647 ], [ 137.248202397422801, 35.154783842900088 ], [ 137.256336232930835, 35.154255706135984 ], [ 137.258179563436215, 35.145077095831368 ], [ 137.264988300070058, 35.140764292638039 ], [ 137.279922165875291, 35.138826432593817 ], [ 137.286135587287617, 35.123626246953791 ], [ 137.27865668485822, 35.117947304324673 ], [ 137.273724035635837, 35.121196325550045 ], [ 137.261456759521934, 35.116453147294976 ], [ 137.257224918695101, 35.106600095817839 ], [ 137.240873527990971, 35.107562885718664 ], [ 137.243870186859681, 35.101930001868141 ], [ 137.237395006974111, 35.09507959424792 ], [ 137.247904390874965, 35.090705629061574 ], [ 137.242973665302429, 35.087938935833279 ], [ 137.244595932556308, 35.085981567695228 ], [ 137.2561560087928, 35.0866038481891 ], [ 137.264560294721832, 35.076385782577859 ], [ 137.284193833178961, 35.074235806637205 ], [ 137.28828807593402, 35.078392019875878 ], [ 137.303242038889039, 35.067688678289926 ], [ 137.300521343285482, 35.057656818207647 ], [ 137.28683467797805, 35.050533425876949 ], [ 137.28097863635503, 35.053744155768243 ], [ 137.270873826865682, 35.050038867999433 ], [ 137.273707029455863, 35.04138147597439 ], [ 137.268144847606663, 35.034255430643668 ], [ 137.270321387721879, 35.027890000423213 ], [ 137.266966938973155, 35.017443333443111 ], [ 137.261137781683374, 35.016904440787357 ], [ 137.259840558195265, 35.024333892195443 ], [ 137.254917781730342, 35.022959999704256 ], [ 137.25445416322907, 35.029042774804282 ], [ 137.242244720717395, 35.029083613018372 ], [ 137.23702722382734, 35.039274171066211 ], [ 137.217728611786015, 35.037662225331474 ], [ 137.212624720854251, 35.041513613362611 ], [ 137.207172776102766, 35.032621107977775 ], [ 137.195015836911352, 35.038747225004499 ], [ 137.185373891392032, 35.03123917105097 ], [ 137.170504163436476, 35.034858891924387 ], [ 137.159488884804205, 35.024988333344936 ], [ 137.166101387569029, 35.002951107607601 ], [ 137.160205550945534, 34.996538053788186 ], [ 137.147882218289851, 34.992497774852495 ], [ 137.146432503057667, 34.996182495126106 ], [ 137.142683891348611, 34.992500278565046 ], [ 137.140861945822166, 34.997893612700125 ], [ 137.13434083036509, 34.999873891966615 ], [ 137.126793890625663, 34.997362775271938 ], [ 137.12296082987848, 34.990609999851642 ], [ 137.117311672795495, 34.991471386695196 ], [ 137.11684693913503, 34.994901386589788 ], [ 137.116367497062356, 34.991346945705004 ], [ 137.108442776413085, 35.005295278654216 ], [ 137.100210557771106, 35.001657774586704 ], [ 137.103736108834369, 35.007727225331223 ], [ 137.090145551376168, 35.007798054136913 ], [ 137.08635888485469, 35.011070838148726 ], [ 137.077693890860473, 35.008093892419254 ], [ 137.073561114853646, 35.018015278882046 ], [ 137.062407782193418, 35.009527224701685 ], [ 137.053822503205993, 35.013239171050941 ], [ 137.048104449061157, 35.010854999958326 ], [ 137.050672502733846, 35.013453054115189 ], [ 137.039713332804126, 35.021814721172518 ], [ 137.046082218219908, 35.022847775104765 ], [ 137.049023333160335, 35.028416108316776 ], [ 137.045985550992441, 35.033202505291456 ], [ 137.057008612357663, 35.048747505393123 ], [ 137.063368053992576, 35.050722775435815 ], [ 137.068774720576926, 35.061567774633147 ], [ 137.061426394312662, 35.066083613268177 ], [ 137.05079917044543, 35.064221387107409 ], [ 137.044685278802604, 35.06819638695373 ], [ 137.055869999600873, 35.091214441193586 ], [ 137.087928885309907, 35.10122610789864 ], [ 137.085298612041356, 35.104858612634928 ], [ 137.089282218399717, 35.123377505267683 ], [ 137.084560829818543, 35.127378053954089 ], [ 137.091407497158343, 35.130319721078308 ], [ 137.086808612427603, 35.137651107712486 ], [ 137.098667497407178, 35.146406945823969 ], [ 137.094699442125602, 35.160121667281146 ], [ 137.09567027196556, 35.179387505329146 ], [ 137.105913060839157, 35.178892225296011 ], [ 137.109185005783502, 35.185718333234547 ], [ 137.126056109302112, 35.182415000152162 ], [ 137.129636108919385, 35.188805278640757 ], [ 137.142967223658502, 35.193432775302369 ], [ 137.143199999680292, 35.197226387287969 ], [ 137.15314500593729, 35.203766667297884 ], [ 137.169765006150215, 35.206403612636677 ], [ 137.1759547214333, 35.222860278878841 ], [ 137.184463645281085, 35.229573919400934 ], [ 137.177545615837516, 35.23628697266571 ], [ 137.180374254368417, 35.244462532220155 ], [ 137.190723968136695, 35.25394641289671 ], [ 137.207009559043968, 35.253061414352828 ], [ 137.212255939460078, 35.259947251664357 ], [ 137.221012606746513, 35.260371693898605 ], [ 137.22399732801432, 35.256200864878053 ], [ 137.23538929937672, 35.26465808130547 ], [ 137.242218470406101, 35.264463918575018 ], [ 137.243655965650305, 35.268652251999868 ], [ 137.257197108060154, 35.272413054019296 ], [ 137.262663772914834, 35.285201946812435 ], [ 137.271428249014548, 35.285978586042972 ], [ 137.275086588575277, 35.290491892187106 ], [ 137.282670752153535, 35.287661613292869 ], [ 137.307857717559727, 35.290586532342672 ], [ 137.307889663277365, 35.29018958598067 ] ] ] } },
{ "type": "Feature", "properties": { "code": "230021", "name": "西三河北東部", "PrefCode": "23", "regioncode": "230021" }, "geometry": { "type": "Polygon", "coordinates": [ [ [ 137.268419280225658, 35.030392724644571 ], [ 137.273707029455863, 35.04138147597439 ], [ 137.271775428693104, 35.051057824159329 ], [ 137.28097863635503, 35.053744155768243 ], [ 137.28683467797805, 35.050533425876949 ], [ 137.300521343285482, 35.057656818207647 ], [ 137.303242038889039, 35.067688678289926 ], [ 137.28828807593402, 35.078392019875878 ], [ 137.284193833178961, 35.074235806637205 ], [ 137.264560294721832, 35.076385782577859 ], [ 137.2561560087928, 35.0866038481891 ], [ 137.244595932556308, 35.085981567695228 ], [ 137.242973665302429, 35.087938935833279 ], [ 137.247904390874965, 35.090705629061574 ], [ 137.237395006974111, 35.09507959424792 ], [ 137.243870186859681, 35.101930001868141 ], [ 137.240873527990971, 35.107562885718664 ], [ 137.257224918695101, 35.106600095817839 ], [ 137.261456759521934, 35.116453147294976 ], [ 137.273724035635837, 35.121196325550045 ], [ 137.27865668485822, 35.117947304324673 ], [ 137.286135587287617, 35.123626246953791 ], [ 137.279922165875291, 35.138826432593817 ], [ 137.264988300070058, 35.140764292638039 ], [ 137.258179563436215, 35.145077095831368 ], [ 137.256336232930835, 35.154255706135984 ], [ 137.248202397422801, 35.154783842900088 ], [ 137.242173919790616, 35.159620574929647 ], [ 137.253144257501503, 35.164457157671734 ], [ 137.260882887735193, 35.177823669726649 ], [ 137.269816144099877, 35.18236483147183 ], [ 137.272138887899473, 35.190364331648652 ], [ 137.280118264846124, 35.197569682794665 ], [ 137.289074524070088, 35.195811655683428 ], [ 137.314035557295142, 35.204448053934584 ], [ 137.321941465026612, 35.212191180778404 ], [ 137.32102271852375, 35.219068370209186 ], [ 137.327034151305156, 35.220003029316388 ], [ 137.329322585968612, 35.225209599443531 ], [ 137.340170665343976, 35.227326799592163 ], [ 137.343679795686057, 35.233818697874653 ], [ 137.333380566260189, 35.239734426602581 ], [ 137.33159518087291, 35.246916489804221 ], [ 137.334525926630249, 35.251328991839557 ], [ 137.330465127863476, 35.254593167540691 ], [ 137.336004066734404, 35.259690068941552 ], [ 137.344928521434213, 35.26187899991595 ], [ 137.344099079409034, 35.25785789182828 ], [ 137.349981310189378, 35.257115945744374 ], [ 137.372739390210768, 35.263429252158289 ], [ 137.37774328102762, 35.258834801984563 ], [ 137.383180245771769, 35.260208693576374 ], [ 137.386827445430299, 35.252048972881823 ], [ 137.382784941571913, 35.247310640173964 ], [ 137.387022995814618, 35.240884253005902 ], [ 137.400744383946176, 35.241755080932307 ], [ 137.40841827468364, 35.234801199116077 ], [ 137.417078003147367, 35.240322585019328 ], [ 137.429814358445924, 35.222881224988612 ], [ 137.435526328677156, 35.224560386952362 ], [ 137.441887717344343, 35.233623973067949 ], [ 137.450450220101629, 35.235092332145484 ], [ 137.453365525398794, 35.240507586356102 ], [ 137.460735811308723, 35.240182612737442 ], [ 137.476498885315323, 35.25336397326879 ], [ 137.496985552141609, 35.259125918826157 ], [ 137.496985577322562, 35.264170639763279 ], [ 137.504802244428106, 35.262944837734153 ], [ 137.516141439975513, 35.274982586177487 ], [ 137.520675058207416, 35.273476468164517 ], [ 137.518935331400485, 35.283327306410115 ], [ 137.543780610187127, 35.280586775359438 ], [ 137.551394812021044, 35.284232054066081 ], [ 137.561761751403765, 35.283205945597956 ], [ 137.562087589270845, 35.289865107888488 ], [ 137.567295913975272, 35.289613720396915 ], [ 137.570752308971919, 35.282727053910435 ], [ 137.555759780389621, 35.274545946438309 ], [ 137.557895887885024, 35.265230107683351 ], [ 137.547612528795185, 35.25897483811832 ], [ 137.546005576995867, 35.251680667229039 ], [ 137.552558053611392, 35.240348170731522 ], [ 137.562631115233899, 35.235365108213216 ], [ 137.57872583672804, 35.219435136222614 ], [ 137.576640219870342, 35.202893504731492 ], [ 137.581115161835328, 35.190239919436806 ], [ 137.5704583925409, 35.185382747615733 ], [ 137.568391775659961, 35.188462719678796 ], [ 137.546919221644771, 35.186950801937996 ], [ 137.539798910391482, 35.191809413573651 ], [ 137.517987782310342, 35.177928892204648 ], [ 137.512604448636466, 35.185251666930924 ], [ 137.49996888485623, 35.184731946022566 ], [ 137.502782776304116, 35.197231386619251 ], [ 137.486956393622677, 35.193712504928214 ], [ 137.48158472055843, 35.183617775040318 ], [ 137.483180271652259, 35.179532504821282 ], [ 137.461992218166415, 35.160074720871705 ], [ 137.474776394015407, 35.150158054051019 ], [ 137.473596939447248, 35.146151107587571 ], [ 137.457329999579883, 35.133449171142388 ], [ 137.443920272402693, 35.136321108432469 ], [ 137.448438053573341, 35.125526107943585 ], [ 137.444697497091852, 35.111742225023704 ], [ 137.429323060610841, 35.104214171047204 ], [ 137.433448612363577, 35.087173891561918 ], [ 137.442768884776228, 35.081166387019209 ], [ 137.443182217685262, 35.072674999951346 ], [ 137.446346666665363, 35.071935278790136 ], [ 137.445288054000571, 35.063539171295758 ], [ 137.429261946281827, 35.0521199999381 ], [ 137.432066393948958, 35.045363891630359 ], [ 137.429775279305773, 35.038669440842057 ], [ 137.435479170027747, 35.030220278742945 ], [ 137.425808054098525, 35.023565559103304 ], [ 137.426185005833418, 35.008441386860568 ], [ 137.407474162802487, 35.012413332609242 ], [ 137.398248053904581, 35.008383054134697 ], [ 137.393507497173346, 34.994861107753991 ], [ 137.385147224065236, 34.990747224704705 ], [ 137.375068611827032, 34.997937225322744 ], [ 137.37683693887368, 35.007240559004629 ], [ 137.37081888528337, 35.015446946419502 ], [ 137.34758277602441, 35.015311108321043 ], [ 137.345561946326825, 35.009197775157247 ], [ 137.326620557592719, 35.0179355593786 ], [ 137.319557782265861, 35.015519170972993 ], [ 137.315346393821073, 35.020407224613791 ], [ 137.308643891402539, 35.016133053597571 ], [ 137.289396666622906, 35.017812224554575 ], [ 137.277214449287499, 35.024375838374283 ], [ 137.278274721201456, 35.027251667030839 ], [ 137.268430271739703, 35.030389171423167 ], [ 137.268419280225658, 35.030392724644571 ] ] ] } },
{ "type": "Feature", "properties": { "code": "230022", "name": "東三河北部", "PrefCode": "23", "regioncode": "230022" }, "geometry": { "type": "Polygon", "coordinates": [ [ [ 137.686321024895392, 35.230874053994455 ], [ 137.705649416187725, 35.233885441060295 ], [ 137.711883021983908, 35.228822387443302 ], [ 137.721894747144916, 35.230758224912222 ], [ 137.723183023278011, 35.221625721050259 ], [ 137.735519468049119, 35.222697387374581 ], [ 137.743671388923531, 35.218802386720824 ], [ 137.75956756259302, 35.222102386915651 ], [ 137.768096693307825, 35.218405170562221 ], [ 137.766093306860739, 35.209997108379923 ], [ 137.77394966284669, 35.203250747823802 ], [ 137.783564111594501, 35.205988532344918 ], [ 137.795320195070985, 35.204068801733854 ], [ 137.822963799839499, 35.215880198912089 ], [ 137.838115667604029, 35.212466585564528 ], [ 137.827786252433611, 35.211324360231117 ], [ 137.83106316523299, 35.205300468242058 ], [ 137.821972606650547, 35.203732135129997 ], [ 137.816376303623542, 35.187994693600274 ], [ 137.807400194563343, 35.187825251434276 ], [ 137.803208885281947, 35.183405278730675 ], [ 137.810441946338869, 35.174813892447219 ], [ 137.817529728214481, 35.174985838325824 ], [ 137.825471946073549, 35.168200279019686 ], [ 137.821290829708119, 35.158440278596061 ], [ 137.829002776157267, 35.151960837722527 ], [ 137.821860829913476, 35.148007505242219 ], [ 137.814650830171786, 35.152383054134702 ], [ 137.812188053835712, 35.144608333208055 ], [ 137.814942217709245, 35.140575559114836 ], [ 137.805861673077857, 35.131124440740393 ], [ 137.800987496875564, 35.130860279278522 ], [ 137.797295551448656, 35.136384999867914 ], [ 137.793136938818748, 35.135217505383594 ], [ 137.792078339643695, 35.128777505177766 ], [ 137.798976109160208, 35.125442505167541 ], [ 137.801093061095912, 35.105833054152185 ], [ 137.795033061326762, 35.10290333272269 ], [ 137.792644449381896, 35.095365837663337 ], [ 137.778268340411614, 35.099623053760979 ], [ 137.773361388417356, 35.09049527943364 ], [ 137.775532217837622, 35.077614721442274 ], [ 137.741080558121325, 35.057110559205 ], [ 137.728752503125634, 35.040336945793456 ], [ 137.717137497197768, 35.035044720637416 ], [ 137.716520000197875, 35.027468891975843 ], [ 137.704919441878815, 35.014756107908113 ], [ 137.701029442354979, 35.003488332920256 ], [ 137.701904721026153, 34.998582774875217 ], [ 137.708131672738546, 34.994456946131208 ], [ 137.699836938623889, 34.984431667287652 ], [ 137.70712138784188, 34.971947224684698 ], [ 137.694631673413028, 34.970257775376069 ], [ 137.68950972769187, 34.956736667163511 ], [ 137.682976108960361, 34.955034999665543 ], [ 137.675821115352278, 34.94545972088946 ], [ 137.669293333220821, 34.948305828751074 ], [ 137.659280000072044, 34.944357494702672 ], [ 137.650998340301271, 34.933356386687933 ], [ 137.653140271806137, 34.926592224951264 ], [ 137.646951115002025, 34.918761945707274 ], [ 137.646383060929566, 34.908416108017036 ], [ 137.640525836698089, 34.904973333252769 ], [ 137.641251673226179, 34.893083332629772 ], [ 137.633592775985903, 34.885486386987225 ], [ 137.616252775844941, 34.875340829215929 ], [ 137.597450558096853, 34.872447224559835 ], [ 137.595265005875376, 34.859188332575513 ], [ 137.587251673226206, 34.849575829061337 ], [ 137.551589442398949, 34.851864440891291 ], [ 137.542273606341951, 34.842049161839384 ], [ 137.52979306140071, 34.843585828922926 ], [ 137.495126393568285, 34.827490279153096 ], [ 137.48800916968753, 34.831023891739278 ], [ 137.487234162726509, 34.84312166723123 ], [ 137.479193890885426, 34.848385829042854 ], [ 137.48144082993042, 34.857002774958175 ], [ 137.472098884755837, 34.861297775172261 ], [ 137.461324449064136, 34.858732225212066 ], [ 137.453663333196346, 34.861625559172296 ], [ 137.453628053691773, 34.868087224945555 ], [ 137.46011583667655, 34.87123833338245 ], [ 137.45582055767261, 34.879500000324811 ], [ 137.443676939239367, 34.891376108220868 ], [ 137.442884721053133, 34.896388892433492 ], [ 137.422826666617425, 34.903800279159611 ], [ 137.421057496905973, 34.915709161948314 ], [ 137.411165005660564, 34.927657224601262 ], [ 137.409515836986316, 34.938286667096065 ], [ 137.412713890933333, 34.942860000288817 ], [ 137.410451945800673, 34.946779720607651 ], [ 137.402034448830818, 34.948146108256367 ], [ 137.407992775746038, 34.958390279387913 ], [ 137.390538339572799, 34.965302494714422 ], [ 137.405559442314484, 34.978787495146832 ], [ 137.38898082980154, 34.983602774748306 ], [ 137.38853917004667, 34.989668612916205 ], [ 137.383475550756089, 34.989631387278735 ], [ 137.393507497173346, 34.994861107753991 ], [ 137.398307782378311, 35.008411945754744 ], [ 137.409368611672107, 35.0129708376341 ], [ 137.426185005833418, 35.008441386860568 ], [ 137.425808054098525, 35.023565559103304 ], [ 137.435469999640873, 35.030151387076899 ], [ 137.429775279305773, 35.038669440842057 ], [ 137.432066393948958, 35.045363891630359 ], [ 137.429261946281827, 35.0521199999381 ], [ 137.445288054000571, 35.063539171295758 ], [ 137.446346666665363, 35.071935278790136 ], [ 137.443182217685262, 35.072674999951346 ], [ 137.442768884776228, 35.081166387019209 ], [ 137.433448612363577, 35.087173891561918 ], [ 137.429264163110702, 35.10391833276492 ], [ 137.444697497091852, 35.111742225023704 ], [ 137.448438053573341, 35.125526107943585 ], [ 137.443726938847249, 35.136084720733322 ], [ 137.457329999579883, 35.133449171142388 ], [ 137.473596939447248, 35.146151107587571 ], [ 137.474776394015407, 35.150158054051019 ], [ 137.461992218166415, 35.160074720871705 ], [ 137.483180271652259, 35.179532504821282 ], [ 137.482155550838115, 35.185232774872702 ], [ 137.490600829664572, 35.195589170603796 ], [ 137.502846939334859, 35.197196946182146 ], [ 137.49996888485623, 35.184731946022566 ], [ 137.512604448636466, 35.185251666930924 ], [ 137.517918611854498, 35.177934720710823 ], [ 137.539798910391482, 35.191809413573651 ], [ 137.546919221644771, 35.186950801937996 ], [ 137.563392918348541, 35.188784918888928 ], [ 137.575197561618211, 35.185549694163115 ], [ 137.581115161835328, 35.190239919436806 ], [ 137.578655227356876, 35.198469054303473 ], [ 137.5914838387082, 35.199339053954247 ], [ 137.614859727794283, 35.210460440896668 ], [ 137.633238910747195, 35.212202387230434 ], [ 137.644578911187864, 35.208991278724568 ], [ 137.64476477317578, 35.213772107996419 ], [ 137.653655357608727, 35.217682666921576 ], [ 137.652377029776176, 35.223109613218128 ], [ 137.656060116881008, 35.228018505050045 ], [ 137.668143476240516, 35.227349054215551 ], [ 137.678821555870172, 35.230966278570975 ], [ 137.681537135230656, 35.235234891776884 ], [ 137.686023528263263, 35.230924612980573 ], [ 137.686321024895392, 35.230874053994455 ] ] ] } },
{ "type": "Feature", "properties": { "code": "230023", "name": "東三河南部", "PrefCode": "23", "regioncode": "230023" }, "geometry": { "type": "MultiPolygon", "coordinates": [ [ [ [ 137.114305006271138, 34.646087693792083 ], [ 137.115523191042485, 34.643214865273876 ], [ 137.11426572028688, 34.646094721094528 ], [ 137.114305006271138, 34.646087693792083 ] ] ], [ [ [ 137.124428689832257, 34.649726748290846 ], [ 137.128363281340398, 34.648307333017044 ], [ 137.124389079192724, 34.649745413719927 ], [ 137.124428689832257, 34.649726748290846 ] ] ], [ [ [ 137.125826938662385, 34.65278177495901 ], [ 137.125305811214275, 34.650115332756457 ], [ 137.125812088157431, 34.652792135148957 ], [ 137.125826938662385, 34.65278177495901 ] ] ], [ [ [ 137.093343280667909, 34.653255919125399 ], [ 137.09568727634678, 34.650726639722677 ], [ 137.093266355358082, 34.653260198099701 ], [ 137.093343280667909, 34.653255919125399 ] ] ], [ [ [ 137.237789442428834, 34.690482251754588 ], [ 137.234757418620006, 34.689165414052695 ], [ 137.23773878092004, 34.6905894680296 ], [ 137.237789442428834, 34.690482251754588 ] ] ], [ [ [ 137.253259857256694, 34.715445532385445 ], [ 137.251593358646687, 34.711361666907464 ], [ 137.246521414331824, 34.712034107987733 ], [ 137.253367911699797, 34.715636387409404 ], [ 137.253259857256694, 34.715445532385445 ] ] ], [ [ [ 137.275191581726176, 34.729932721118246 ], [ 137.272835551319758, 34.732527161799112 ], [ 137.275000000049999, 34.730154000206994 ], [ 137.275191581726176, 34.729932721118246 ] ] ], [ [ [ 137.275000000049999, 34.739724559340971 ], [ 137.270926161113493, 34.737479107774675 ], [ 137.286683865268287, 34.746420198133706 ], [ 137.278388974671543, 34.741666666883248 ], [ 137.275000000049999, 34.739724559340971 ] ] ], [ [ [ 137.318809415921919, 34.748491693836627 ], [ 137.318687886037196, 34.733119198092595 ], [ 137.308058754707872, 34.735051225133986 ], [ 137.314250441304921, 34.748553468267971 ], [ 137.318390142990779, 34.748496721046877 ], [ 137.318809415921919, 34.748491693836627 ] ] ], [ [ [ 137.172540894946451, 34.780741135095354 ], [ 137.174646278003365, 34.778215891849982 ], [ 137.172534112259541, 34.780747720830732 ], [ 137.172540894946451, 34.780741135095354 ] ] ], [ [ [ 137.235769663139536, 34.789467441269437 ], [ 137.234763748048636, 34.786626467637404 ], [ 137.228684669162249, 34.787799775339408 ], [ 137.235698974628008, 34.789478027189261 ], [ 137.235769663139536, 34.789467441269437 ] ] ], [ [ [ 137.192967496952519, 34.793503936757304 ], [ 137.191950259397004, 34.787251224864178 ], [ 137.19252037561489, 34.794014820027996 ], [ 137.192967496952519, 34.793503936757304 ] ] ], [ [ [ 137.298628443947564, 34.809903666920718 ], [ 137.308039805093017, 34.805074667262147 ], [ 137.311373501985599, 34.799063694034317 ], [ 137.301462166345914, 34.798045495103565 ], [ 137.298563411272426, 34.809564332927664 ], [ 137.298628443947564, 34.809903666920718 ] ] ], [ [ [ 137.231915161655479, 34.812164918676103 ], [ 137.231392502661947, 34.809815054021556 ], [ 137.231891919576469, 34.812177278958302 ], [ 137.231915161655479, 34.812164918676103 ] ] ], [ [ [ 137.225000000149976, 34.814727026930825 ], [ 137.230542698187037, 34.815064946290306 ], [ 137.225072140167185, 34.814805802146111 ], [ 137.225000000149976, 34.814727026930825 ] ] ], [ [ [ 137.422311945939668, 34.907946946094739 ], [ 137.428692502756917, 34.899750559141069 ], [ 137.442884721053133, 34.896388892433492 ], [ 137.443676939239367, 34.891376108220868 ], [ 137.45582055767261, 34.879500000324811 ], [ 137.46011583667655, 34.87123833338245 ], [ 137.453628053691773, 34.868087224945555 ], [ 137.453622503076076, 34.861668332727447 ], [ 137.461324449064136, 34.858732225212066 ], [ 137.472098884755837, 34.861297775172261 ], [ 137.48144082993042, 34.857002774958175 ], [ 137.479181387610993, 34.848420828858195 ], [ 137.487234162726509, 34.84312166723123 ], [ 137.48800916968753, 34.831023891739278 ], [ 137.501657781981066, 34.823350558581467 ], [ 137.486853333114937, 34.811406945773967 ], [ 137.494281672960938, 34.802232775422283 ], [ 137.492942218208896, 34.78686610818437 ], [ 137.481951115151901, 34.782239721286146 ], [ 137.476630271769636, 34.774583333154339 ], [ 137.479052775565151, 34.771407225363191 ], [ 137.474106938684372, 34.749940559209506 ], [ 137.480550557762058, 34.740682775289883 ], [ 137.47823083028868, 34.735463891645338 ], [ 137.481858885179463, 34.721265828655135 ], [ 137.487762502737382, 34.716422494702442 ], [ 137.491789999608841, 34.702459721339096 ], [ 137.489272775618133, 34.68880333260779 ], [ 137.484679728386823, 34.684031946217374 ], [ 137.484963890771041, 34.674105108064339 ], [ 137.308222775760555, 34.639581495389734 ], [ 137.207117419233555, 34.610661694181886 ], [ 137.191998444172896, 34.604886586147074 ], [ 137.189194721359399, 34.600607306082338 ], [ 137.186694060182845, 34.608710251676825 ], [ 137.187129156685273, 34.602369342371333 ], [ 137.179588145276739, 34.602828531711395 ], [ 137.142913994585228, 34.590025774969604 ], [ 137.117264112149087, 34.58714227869325 ], [ 137.09613869014845, 34.590946197808819 ], [ 137.038317717188988, 34.578292467723259 ], [ 137.015417276286371, 34.579801387124348 ], [ 137.020306641138632, 34.589271748292617 ], [ 137.018486200178017, 34.58469082931839 ], [ 137.020938249400729, 34.583834802434239 ], [ 137.027256329416105, 34.590498107901396 ], [ 137.033743113254104, 34.608998306326839 ], [ 137.055283645224108, 34.646089360235862 ], [ 137.069949468093569, 34.661923639864142 ], [ 137.091380998634236, 34.657916251833626 ], [ 137.089957691094583, 34.649716081432075 ], [ 137.085076808647841, 34.647176720629204 ], [ 137.09116561640019, 34.64881169440423 ], [ 137.106429636818348, 34.642723359695367 ], [ 137.102266719133809, 34.639504026889369 ], [ 137.102558300924898, 34.632808360217723 ], [ 137.105532724056047, 34.637125053878208 ], [ 137.119292580688125, 34.634318413663891 ], [ 137.140813722375469, 34.645571586359665 ], [ 137.126830219639032, 34.654945693988623 ], [ 137.148310752439329, 34.654176305991768 ], [ 137.158034449030652, 34.657406107805684 ], [ 137.156546419981396, 34.655228721428387 ], [ 137.162729753675308, 34.654948053809676 ], [ 137.175084357557125, 34.659196559074019 ], [ 137.187444332190239, 34.669923468293462 ], [ 137.197675525205341, 34.668690720800157 ], [ 137.207183773912107, 34.678271360434962 ], [ 137.225227587982886, 34.676458197687737 ], [ 137.232259663152945, 34.682525640246126 ], [ 137.229200726232648, 34.684098333271493 ], [ 137.232673605802347, 34.68897813473319 ], [ 137.243471970655037, 34.68886191894245 ], [ 137.232669247687681, 34.699144386804051 ], [ 137.245475694347874, 34.70620846794651 ], [ 137.245482087628261, 34.709383494752558 ], [ 137.245557134254454, 34.706217332563881 ], [ 137.252173165059617, 34.705211386896053 ], [ 137.2606779897975, 34.695834819621268 ], [ 137.266905473009274, 34.708615441349593 ], [ 137.258465473203046, 34.715673945796027 ], [ 137.284827003563464, 34.730946775073676 ], [ 137.300929688554334, 34.728071828652048 ], [ 137.30088399490046, 34.693776972929015 ], [ 137.290460751662408, 34.693729414081247 ], [ 137.286155654759682, 34.680209081084286 ], [ 137.29411525291664, 34.683749053675911 ], [ 137.307165148752688, 34.67975798204526 ], [ 137.31150710796669, 34.681968252133174 ], [ 137.315828781173423, 34.688512829103843 ], [ 137.308247133898135, 34.692076586065639 ], [ 137.311776938754747, 34.696334532412777 ], [ 137.322322166035178, 34.693775559194762 ], [ 137.32506443637476, 34.702355378398067 ], [ 137.311793358576665, 34.69835949539447 ], [ 137.308483748226422, 34.70210974836624 ], [ 137.308342970152012, 34.724984775327187 ], [ 137.327922671594138, 34.724690613381142 ], [ 137.328109053390222, 34.727445467934047 ], [ 137.332923475937719, 34.7189797484167 ], [ 137.342926589190824, 34.727346865365575 ], [ 137.351755525097474, 34.727463865365166 ], [ 137.347310052117223, 34.73207564007879 ], [ 137.338832022679753, 34.728546775013683 ], [ 137.320314228119173, 34.7328344412565 ], [ 137.320573384853901, 34.770231413948636 ], [ 137.325752412344059, 34.770999693980741 ], [ 137.331039559028454, 34.780511945569856 ], [ 137.325601088819212, 34.785525666876083 ], [ 137.319822308852508, 34.780112053928178 ], [ 137.308571414139465, 34.778769919196463 ], [ 137.303326588651203, 34.792984802206888 ], [ 137.316803359387563, 34.796680774797949 ], [ 137.310278301302674, 34.805071999872951 ], [ 137.28864372183034, 34.812932613249529 ], [ 137.294801777380144, 34.810241251732407 ], [ 137.293273943437839, 34.804672467960074 ], [ 137.28070092121061, 34.804455305967622 ], [ 137.278828885244934, 34.810254414209908 ], [ 137.274774111935812, 34.808416494925325 ], [ 137.280962218331752, 34.803670107889218 ], [ 137.274574772707638, 34.805837305847035 ], [ 137.270552192429818, 34.803640864634247 ], [ 137.273126134863332, 34.801581667160235 ], [ 137.268144085880976, 34.809047387327098 ], [ 137.266843800201286, 34.803589532231172 ], [ 137.251401776970511, 34.805264891861327 ], [ 137.246464033987991, 34.814240413664209 ], [ 137.242663553879993, 34.814894639875774 ], [ 137.24592131022041, 34.812961639767934 ], [ 137.243911633914877, 34.809967775092787 ], [ 137.21607211363721, 34.823185720944309 ], [ 137.223572049410564, 34.815552973291119 ], [ 137.214454423033317, 34.815883332949511 ], [ 137.219129441670475, 34.812496972657186 ], [ 137.213721245339229, 34.806231252070688 ], [ 137.215587108358477, 34.804778459358488 ], [ 137.209669779736601, 34.802748161598458 ], [ 137.199034747055975, 34.807539225155153 ], [ 137.198568003410742, 34.811073612956932 ], [ 137.195941025258207, 34.80870044057292 ], [ 137.198379053150802, 34.806877531872658 ], [ 137.193439260613445, 34.808848621866446 ], [ 137.193571271197243, 34.798235702615614 ], [ 137.189787458224714, 34.797710531815653 ], [ 137.189875421813326, 34.793959000007874 ], [ 137.188234305668743, 34.797583999901747 ], [ 137.185774423351063, 34.791920972574871 ], [ 137.190615058438311, 34.792842891885982 ], [ 137.18660325563576, 34.78771469407792 ], [ 137.191276550272619, 34.788919225342056 ], [ 137.186995642435022, 34.782777612996483 ], [ 137.189509831213854, 34.775906252071934 ], [ 137.178017081822986, 34.765703251903631 ], [ 137.171465913721022, 34.764916586131619 ], [ 137.167448806717175, 34.771977802033973 ], [ 137.173731855440792, 34.770314053550806 ], [ 137.175322114024425, 34.778967000226942 ], [ 137.178292114289661, 34.778511026862475 ], [ 137.175377717307924, 34.783089828832601 ], [ 137.173399610803472, 34.780978639752448 ], [ 137.17464427970981, 34.784810865029442 ], [ 137.168352387053119, 34.787180476997491 ], [ 137.171063890686014, 34.811949999592855 ], [ 137.163694163255059, 34.814958332561048 ], [ 137.178488611660214, 34.826228613060096 ], [ 137.180031387838312, 34.822929162350988 ], [ 137.185951114952104, 34.823741386855545 ], [ 137.187810557711146, 34.818877224604307 ], [ 137.191478054168897, 34.820853892193441 ], [ 137.19060972815646, 34.824697531665834 ], [ 137.199599728145017, 34.825170828670878 ], [ 137.191660272103945, 34.833008054278309 ], [ 137.197995550754172, 34.841498891860397 ], [ 137.192897497321724, 34.848481107717021 ], [ 137.205604163301587, 34.856472225312984 ], [ 137.205193890785495, 34.862973613241707 ], [ 137.211363061056431, 34.867531666952914 ], [ 137.224971388219046, 34.870262495218014 ], [ 137.231441388009671, 34.864735279009949 ], [ 137.238681388235591, 34.866791667001905 ], [ 137.255427496781635, 34.860431945677817 ], [ 137.258093332841099, 34.864556946146195 ], [ 137.256184448953263, 34.869396108143917 ], [ 137.266097496902034, 34.884396945562628 ], [ 137.274351673391038, 34.885028891969853 ], [ 137.283155005599042, 34.880775278556314 ], [ 137.296842502779327, 34.886287494971953 ], [ 137.303473606222042, 34.877739721311116 ], [ 137.323231115323779, 34.888254720578971 ], [ 137.333031945867674, 34.888227224706725 ], [ 137.337002217978011, 34.894092774861747 ], [ 137.349865278759694, 34.898272494579999 ], [ 137.352159442104607, 34.891375558735092 ], [ 137.358506108869847, 34.891169999795693 ], [ 137.360945551396185, 34.88576749527374 ], [ 137.375522503260981, 34.893731946172409 ], [ 137.39425194607054, 34.883313892022557 ], [ 137.40450444942087, 34.894044440798382 ], [ 137.403243891292618, 34.902582494586511 ], [ 137.412010272156408, 34.908552775290389 ], [ 137.422243890643131, 34.907967224907566 ], [ 137.422311945939668, 34.907946946094739 ] ] ] ] } }
]
}
