{
"type": "FeatureCollection",
"name": "26_kyoto_region",
"crs": { "type": "name", "properties": { "name": "urn:ogc:def:crs:OGC:1.3:CRS84" } },
"features": [
{ "type": "Feature", "properties": { "code": "260011", "name": "京都・亀岡", "PrefCode": "26", "regioncode": "260011" }, "geometry": { "type": "Polygon", "coordinates": [ [ [ 135.804814721422304, 35.317083333329208 ], [ 135.81103666660897, 35.313993892304325 ], [ 135.810158885124565, 35.309183891723251 ], [ 135.821366938833194, 35.297057224611251 ], [ 135.820094720994689, 35.290794720899726 ], [ 135.829623333050449, 35.27673527940965 ], [ 135.840081673230657, 35.275554170988244 ], [ 135.849203060572904, 35.279693891559873 ], [ 135.857084449188051, 35.289040559074579 ], [ 135.860755279432624, 35.282959999904108 ], [ 135.854933332907081, 35.271421666576714 ], [ 135.844673061212916, 35.261985279097416 ], [ 135.846089169679544, 35.257112225249045 ], [ 135.839923605689933, 35.243851108342028 ], [ 135.834526108593082, 35.241119171212858 ], [ 135.83805639368768, 35.226105000445443 ], [ 135.82930805412343, 35.220346386876315 ], [ 135.841908054213377, 35.189839721126305 ], [ 135.840213060584347, 35.181914441098627 ], [ 135.845313332644196, 35.165544440723409 ], [ 135.856088611899963, 35.159563891560424 ], [ 135.856763061166362, 35.153615000332024 ], [ 135.848767782407322, 35.142184721447791 ], [ 135.852294162645535, 35.134266946262585 ], [ 135.8498661091337, 35.120589170753703 ], [ 135.835046109190671, 35.091326946381514 ], [ 135.839850272272315, 35.08586000003902 ], [ 135.831891945756752, 35.07145555882704 ], [ 135.83485250314061, 35.055553892098487 ], [ 135.814757497360688, 35.045199721290146 ], [ 135.827739442221514, 35.030378613382368 ], [ 135.82737444877182, 35.022132775407329 ], [ 135.834517781770273, 35.022080558970686 ], [ 135.835464162641074, 35.012328612875251 ], [ 135.820239170101672, 35.015194441070662 ], [ 135.824279441842805, 35.008717225119881 ], [ 135.832681672820968, 35.009425279353195 ], [ 135.836558884884653, 35.001226386888277 ], [ 135.832357496901068, 35.000835278925024 ], [ 135.826904721175993, 34.991203892345823 ], [ 135.849267223603533, 34.991733891605861 ], [ 135.849117782359826, 34.984812495100641 ], [ 135.856695279263818, 34.982457495317192 ], [ 135.852437781678304, 34.970788891594111 ], [ 135.863878339813596, 34.957601666583685 ], [ 135.874203890597187, 34.955018053740218 ], [ 135.878441945739269, 34.947434161757201 ], [ 135.862015550677143, 34.951100829040058 ], [ 135.859465279299229, 34.957089440625225 ], [ 135.850795278779174, 34.957334720820768 ], [ 135.844579441787914, 34.948336108024989 ], [ 135.849942502944259, 34.939227224856609 ], [ 135.847274163172187, 34.930842775273902 ], [ 135.840020000422783, 34.930457494917505 ], [ 135.844694162905398, 34.935503892190923 ], [ 135.830503333162369, 34.93623110827906 ], [ 135.829412775679089, 34.927392224971243 ], [ 135.818136939168426, 34.926648053964584 ], [ 135.810838340017426, 34.936531441372949 ], [ 135.798119169863867, 34.934146108356288 ], [ 135.796887497060425, 34.937877224654244 ], [ 135.789837496603241, 34.916993332676213 ], [ 135.776128054166406, 34.916136107895113 ], [ 135.75306583691895, 34.90416722503744 ], [ 135.745803061362267, 34.911576386840807 ], [ 135.740284162983812, 34.904788613403809 ], [ 135.725959999754195, 34.902808333238056 ], [ 135.719573061347774, 34.89810222503769 ], [ 135.713938611777621, 34.901537494959484 ], [ 135.717131115108941, 34.891792225430891 ], [ 135.720098340066443, 34.892860000388737 ], [ 135.719418340184347, 34.888243613052339 ], [ 135.728712502580038, 34.885154720613912 ], [ 135.73247221821839, 34.874915558706107 ], [ 135.715441672994871, 34.882784441348917 ], [ 135.711945278851658, 34.89320361335615 ], [ 135.70317416305727, 34.898693333230824 ], [ 135.693507223579559, 34.892089161785464 ], [ 135.680239441796857, 34.889173891561882 ], [ 135.671608339653176, 34.902241666819521 ], [ 135.663907497133323, 34.902175829251178 ], [ 135.663712218344244, 34.905146108306326 ], [ 135.648502218402768, 34.909547494721153 ], [ 135.648248612283737, 34.916854441379428 ], [ 135.653514162648548, 34.917289721343593 ], [ 135.64947000044026, 34.925133333036968 ], [ 135.632806393900069, 34.934705558614667 ], [ 135.623750272157395, 34.934908053563845 ], [ 135.615199441700952, 34.927624721303914 ], [ 135.599452218245347, 34.928154440874778 ], [ 135.603439441676983, 34.936033612661163 ], [ 135.613148612418627, 34.941703613331129 ], [ 135.618705551220273, 34.958136387284469 ], [ 135.613263606030614, 34.971195279038966 ], [ 135.594761387727885, 34.969711108081242 ], [ 135.592364720555452, 34.966040278735932 ], [ 135.582551946115473, 34.976756108307825 ], [ 135.572730557968953, 34.971237774703582 ], [ 135.571231114724242, 34.963915559355655 ], [ 135.578287781855693, 34.960587225120378 ], [ 135.578577781739341, 34.955885000192666 ], [ 135.563131387803423, 34.953663892374777 ], [ 135.557327223572543, 34.934685829287616 ], [ 135.559131115208856, 34.93305166670109 ], [ 135.56471250297966, 34.942364440566507 ], [ 135.562800000219909, 34.933418054099945 ], [ 135.571799728174938, 34.939063612995369 ], [ 135.581053332944975, 34.937035828840465 ], [ 135.581258053716283, 34.922451667110806 ], [ 135.57245055764713, 34.91640722471368 ], [ 135.553408053638805, 34.915536386894814 ], [ 135.54947027223534, 34.918554161845123 ], [ 135.54160306143217, 34.915166666608457 ], [ 135.536065005695491, 34.920468892225642 ], [ 135.538145837260686, 34.925399721220231 ], [ 135.51727138816409, 34.933479720612695 ], [ 135.514593606409903, 34.94411972114824 ], [ 135.504198340181347, 34.94639805372725 ], [ 135.494355005878901, 34.940854720768812 ], [ 135.481137497097848, 34.949739440722681 ], [ 135.487328885120064, 34.957167494584269 ], [ 135.481936393649676, 34.965229720675097 ], [ 135.487121673226738, 34.966771387089921 ], [ 135.486251672676644, 34.963923333095408 ], [ 135.490916394076407, 34.968021945656346 ], [ 135.48826277620617, 34.967293892299324 ], [ 135.483162775741562, 34.981868333257012 ], [ 135.49277722359011, 34.989238054392729 ], [ 135.440184162569153, 35.007693332581312 ], [ 135.421013333398719, 35.002156386608021 ], [ 135.409767223978292, 35.011525558757569 ], [ 135.403247223680523, 35.006691945576904 ], [ 135.397473890907349, 35.010641667279174 ], [ 135.381581114876667, 35.010311386761146 ], [ 135.377650000147469, 35.02033694619314 ], [ 135.38207277603783, 35.030898053702288 ], [ 135.386023333210346, 35.028012224584529 ], [ 135.393188339870107, 35.029471666883978 ], [ 135.397717496565292, 35.024741667294165 ], [ 135.426465005655587, 35.028517505078867 ], [ 135.434294721024571, 35.024576666879739 ], [ 135.442883061304315, 35.036755838211434 ], [ 135.448897496921973, 35.036721946360785 ], [ 135.469257496936052, 35.054213332978975 ], [ 135.476747496999451, 35.072319720978385 ], [ 135.484046667220014, 35.068993892254355 ], [ 135.50555082970709, 35.069118891723519 ], [ 135.505601387793831, 35.063228612910223 ], [ 135.523350557882054, 35.06156944107687 ], [ 135.526366938883143, 35.05729889163058 ], [ 135.538858340440129, 35.059714720657894 ], [ 135.537040271891101, 35.065173892361315 ], [ 135.540720830102259, 35.066693612620156 ], [ 135.551516393566772, 35.060928612965142 ], [ 135.556598054156893, 35.064408892156678 ], [ 135.557010830385593, 35.070263892364778 ], [ 135.551788885448786, 35.084991108352995 ], [ 135.560847497414102, 35.0900472245998 ], [ 135.564798884660831, 35.098636946238116 ], [ 135.571403333097464, 35.101290000233348 ], [ 135.577842775723639, 35.097835278875095 ], [ 135.587046666870265, 35.099240558604947 ], [ 135.605258340300225, 35.092642224659016 ], [ 135.614405279180346, 35.097251386842061 ], [ 135.61647778212398, 35.103879721272165 ], [ 135.604279727727317, 35.112203891996046 ], [ 135.597309442277037, 35.110060278758908 ], [ 135.592264162860943, 35.116778612842779 ], [ 135.59096610929862, 35.124173891811722 ], [ 135.597339727846247, 35.125896386708916 ], [ 135.595541946203866, 35.128884720553458 ], [ 135.577613060994054, 35.127690278783405 ], [ 135.575200271675271, 35.132528332816378 ], [ 135.567196109412976, 35.12765222487036 ], [ 135.55900555096548, 35.136888333329978 ], [ 135.562428340095835, 35.148020558901749 ], [ 135.560815836781558, 35.155510837755003 ], [ 135.572497224367453, 35.165841946348792 ], [ 135.57617583734509, 35.179143891577382 ], [ 135.596541673059846, 35.202547225274259 ], [ 135.597148612018941, 35.211437225147847 ], [ 135.589622503276019, 35.219019440794625 ], [ 135.609020271868076, 35.22845583816644 ], [ 135.619197496567267, 35.225497774602673 ], [ 135.620014448807865, 35.233070559059115 ], [ 135.629709441737418, 35.235996107634321 ], [ 135.628888885014135, 35.245430000394265 ], [ 135.639481672940974, 35.257919721118299 ], [ 135.655447782389274, 35.263354720843722 ], [ 135.676570271700712, 35.256915837595898 ], [ 135.702116667350424, 35.25706138657381 ], [ 135.717705005781454, 35.265376386910759 ], [ 135.72629693885267, 35.266101666758573 ], [ 135.725665550924532, 35.271709440638233 ], [ 135.731557223686991, 35.277818892328071 ], [ 135.729359441585075, 35.284172504557489 ], [ 135.73495111490206, 35.287575837754787 ], [ 135.767861946371795, 35.289818333249514 ], [ 135.775411945604901, 35.28437555888496 ], [ 135.781536666883767, 35.290267505041356 ], [ 135.777695836893372, 35.29433361340557 ], [ 135.777413891338028, 35.305096107899089 ], [ 135.787793060601302, 35.308047225099415 ], [ 135.794029727689804, 35.320769441256743 ], [ 135.804781673135722, 35.317091667346631 ], [ 135.804814721422304, 35.317083333329208 ] ] ] } },
{ "type": "Feature", "properties": { "code": "260012", "name": "南丹・京丹波", "PrefCode": "26", "regioncode": "260012" }, "geometry": { "type": "Polygon", "coordinates": [ [ [ 135.554605694297379, 35.377075532310016 ], [ 135.579050168630488, 35.37508691902616 ], [ 135.588102387315416, 35.368257468307547 ], [ 135.595730194992598, 35.372921640221591 ], [ 135.606906304782228, 35.371655802173564 ], [ 135.611145473284978, 35.366800802215323 ], [ 135.61499522724796, 35.37105997253974 ], [ 135.636438028991961, 35.363718586343737 ], [ 135.642056353717862, 35.366906360140433 ], [ 135.660904162597035, 35.356407197933891 ], [ 135.66819836586194, 35.357066359624866 ], [ 135.675192801706544, 35.350271918614226 ], [ 135.700883695925882, 35.34367777460966 ], [ 135.718385162145637, 35.355416666645908 ], [ 135.731479077997164, 35.350552224705439 ], [ 135.740752995754178, 35.354044999976793 ], [ 135.740235227273956, 35.358409441342701 ], [ 135.759639728191019, 35.353089467604889 ], [ 135.768785304598168, 35.356014467593639 ], [ 135.76407275005738, 35.344557531904627 ], [ 135.780818521357787, 35.340561972656985 ], [ 135.794606938659399, 35.318770278925285 ], [ 135.787793060601302, 35.308047225099415 ], [ 135.777413891338028, 35.305096107899089 ], [ 135.777695836893372, 35.29433361340557 ], [ 135.781536666883767, 35.290267505041356 ], [ 135.775411945604901, 35.28437555888496 ], [ 135.767861946371795, 35.289818333249514 ], [ 135.73495111490206, 35.287575837754787 ], [ 135.729359441585075, 35.284172504557489 ], [ 135.731557223686991, 35.277818892328071 ], [ 135.725665550924532, 35.271709440638233 ], [ 135.72629693885267, 35.266101666758573 ], [ 135.717705005781454, 35.265376386910759 ], [ 135.702116667350424, 35.25706138657381 ], [ 135.676570271700712, 35.256915837595898 ], [ 135.655447782389274, 35.263354720843722 ], [ 135.639481672940974, 35.257919721118299 ], [ 135.628888885014135, 35.245430000394265 ], [ 135.629709441737418, 35.235996107634321 ], [ 135.620014448807865, 35.233070559059115 ], [ 135.619197496567267, 35.225497774602673 ], [ 135.609020271868076, 35.22845583816644 ], [ 135.589622503276019, 35.219019440794625 ], [ 135.597148612018941, 35.211437225147847 ], [ 135.596541673059846, 35.202547225274259 ], [ 135.57617583734509, 35.179143891577382 ], [ 135.572497224367453, 35.165841946348792 ], [ 135.560815836781558, 35.155510837755003 ], [ 135.562428340095835, 35.148020558901749 ], [ 135.55900555096548, 35.136888333329978 ], [ 135.567196109412976, 35.12765222487036 ], [ 135.575200271675271, 35.132528332816378 ], [ 135.577613060994054, 35.127690278783405 ], [ 135.595541946203866, 35.128884720553458 ], [ 135.597339727846247, 35.125896386708916 ], [ 135.59096610929862, 35.124173891811722 ], [ 135.592264162860943, 35.116778612842779 ], [ 135.597309442277037, 35.110060278758908 ], [ 135.604279727727317, 35.112203891996046 ], [ 135.61647778212398, 35.103879721272165 ], [ 135.614405279180346, 35.097251386842061 ], [ 135.605258340300225, 35.092642224659016 ], [ 135.587046666870265, 35.099240558604947 ], [ 135.577842775723639, 35.097835278875095 ], [ 135.571403333097464, 35.101290000233348 ], [ 135.564798884660831, 35.098636946238116 ], [ 135.560847497414102, 35.0900472245998 ], [ 135.551788885448786, 35.084991108352995 ], [ 135.557010830385593, 35.070263892364778 ], [ 135.556598054156893, 35.064408892156678 ], [ 135.551516393566772, 35.060928612965142 ], [ 135.540720830102259, 35.066693612620156 ], [ 135.537040271891101, 35.065173892361315 ], [ 135.538858340440129, 35.059714720657894 ], [ 135.526366938883143, 35.05729889163058 ], [ 135.523350557882054, 35.06156944107687 ], [ 135.505601387793831, 35.063228612910223 ], [ 135.50555082970709, 35.069118891723519 ], [ 135.484046667220014, 35.068993892254355 ], [ 135.476747496999451, 35.072319720978385 ], [ 135.469257496936052, 35.054213332978975 ], [ 135.448897496921973, 35.036721946360785 ], [ 135.442883061304315, 35.036755838211434 ], [ 135.434294721024571, 35.024576666879739 ], [ 135.426465005655587, 35.028517505078867 ], [ 135.397975550731189, 35.024716387351475 ], [ 135.393188339870107, 35.029471666883978 ], [ 135.385899727690344, 35.028054721148521 ], [ 135.376221115012527, 35.043978891612596 ], [ 135.371245551041397, 35.045288891769019 ], [ 135.3687288846304, 35.054889721183713 ], [ 135.377381673025866, 35.061020558751864 ], [ 135.378283605803858, 35.067259440870544 ], [ 135.399686394011951, 35.076163332571809 ], [ 135.400109169802363, 35.085958054021035 ], [ 135.404346667364848, 35.088850000327284 ], [ 135.397319169743923, 35.095850000277323 ], [ 135.388026109017801, 35.097125279408147 ], [ 135.389172502708902, 35.108333612806064 ], [ 135.393365551279203, 35.111507775363577 ], [ 135.385914721187532, 35.120311387260756 ], [ 135.391203891346549, 35.126484440804347 ], [ 135.360028612030874, 35.132080558570976 ], [ 135.354711672605617, 35.136655279417653 ], [ 135.342208612237755, 35.135993053736513 ], [ 135.337421115392203, 35.144015000092224 ], [ 135.340843605947725, 35.145535838208446 ], [ 135.340458339980501, 35.150092774961649 ], [ 135.29397805364431, 35.14156972096589 ], [ 135.27993000026936, 35.146967225257299 ], [ 135.278398053727301, 35.151058612664883 ], [ 135.283392775955917, 35.150885837611384 ], [ 135.292227782286432, 35.161078892177159 ], [ 135.283426109327593, 35.198319441289243 ], [ 135.29384722387033, 35.198352225175086 ], [ 135.29998639365715, 35.210515838235381 ], [ 135.293079442062663, 35.218980000126976 ], [ 135.299361114823682, 35.220642774644375 ], [ 135.288748054379312, 35.234615278672209 ], [ 135.299241945659332, 35.23516500006474 ], [ 135.302948053609839, 35.243961386808621 ], [ 135.324175278866051, 35.25460861339684 ], [ 135.318626939381829, 35.273846945680077 ], [ 135.332253333024937, 35.27103694559861 ], [ 135.337266394228777, 35.279290837901897 ], [ 135.345124163049718, 35.281893892289361 ], [ 135.351598885180465, 35.289456386702909 ], [ 135.367252217615828, 35.291995558648182 ], [ 135.378996108983301, 35.302399170585318 ], [ 135.384612776258678, 35.314942224703941 ], [ 135.403266393629224, 35.326331107794431 ], [ 135.414281673160758, 35.328554999913365 ], [ 135.416803061012502, 35.334741386805604 ], [ 135.428538053588341, 35.342302775053099 ], [ 135.441271388064138, 35.341602775148033 ], [ 135.45532944190029, 35.348539999721254 ], [ 135.457875837200163, 35.344636108369741 ], [ 135.486259441919742, 35.345657505289694 ], [ 135.498103333402128, 35.342152775330362 ], [ 135.4997836060287, 35.347594440830846 ], [ 135.505887223816444, 35.349592225400954 ], [ 135.500713942994139, 35.360434972695884 ], [ 135.516362023388751, 35.364700801600748 ], [ 135.52178036317332, 35.36968080192753 ], [ 135.532440637125774, 35.370021081108064 ], [ 135.534502049629964, 35.377439135407826 ], [ 135.554414034380216, 35.377203863767363 ], [ 135.554605694297379, 35.377075532310016 ] ] ] } },
{ "type": "Feature", "properties": { "code": "260013", "name": "山城中部", "PrefCode": "26", "regioncode": "260013" }, "geometry": { "type": "MultiPolygon", "coordinates": [ [ [ [ 135.851559727699282, 34.800341666634665 ], [ 135.860851945760714, 34.793949162324054 ], [ 135.863678053599301, 34.796656386982704 ], [ 135.860751114672212, 34.79328916156561 ], [ 135.851290830407606, 34.800379162068737 ], [ 135.851559727699282, 34.800341666634665 ] ] ], [ [ [ 135.851011946144467, 34.957366667437782 ], [ 135.859465279299229, 34.957089440625225 ], [ 135.862015550677143, 34.951100829040058 ], [ 135.878747781784796, 34.947045278716701 ], [ 135.876028339836125, 34.943229720575175 ], [ 135.879924449353894, 34.93452499992884 ], [ 135.868654449443397, 34.919524999778957 ], [ 135.871178340108372, 34.909948613038125 ], [ 135.862933605601484, 34.903387225040433 ], [ 135.866637224228612, 34.892140279250555 ], [ 135.886931387573554, 34.883205828586199 ], [ 135.88860111474969, 34.879879999862169 ], [ 135.88500194608298, 34.875546387256009 ], [ 135.897891387577488, 34.871267494799099 ], [ 135.90742250334597, 34.87401861266892 ], [ 135.912655551312696, 34.883516386971735 ], [ 135.923225837302653, 34.883617495051396 ], [ 135.941006938719283, 34.893683333319245 ], [ 135.939658884649816, 34.881382775095062 ], [ 135.943749170387946, 34.874961666947399 ], [ 135.940926938627399, 34.863890559301922 ], [ 135.946595550744178, 34.852346946054752 ], [ 135.932510000136517, 34.844706108100468 ], [ 135.924010557841029, 34.83301833262999 ], [ 135.911600558419082, 34.834499999875163 ], [ 135.904412776428558, 34.830799161951802 ], [ 135.906884721352867, 34.82712027917762 ], [ 135.897486666576469, 34.822463613005368 ], [ 135.886099170240527, 34.825910828621886 ], [ 135.889491115322812, 34.820808613127042 ], [ 135.886095006379492, 34.81906194625185 ], [ 135.860975551280717, 34.813589162409983 ], [ 135.860381945670269, 34.810781945730241 ], [ 135.866749441633488, 34.812948891877909 ], [ 135.877366939332887, 34.804971107630593 ], [ 135.872482217680272, 34.808111945809685 ], [ 135.868649170422941, 34.798972775273398 ], [ 135.87204972831239, 34.808419720793552 ], [ 135.864130829873943, 34.812690828718814 ], [ 135.86137693939429, 34.810726945891872 ], [ 135.867182217885102, 34.807613054099193 ], [ 135.86810833972811, 34.80267722487406 ], [ 135.836748339664155, 34.800626107808682 ], [ 135.795798339821545, 34.78761777504036 ], [ 135.789190000018493, 34.790088333210065 ], [ 135.782069728335387, 34.780052224730412 ], [ 135.760498884715844, 34.779749720673124 ], [ 135.753925279428131, 34.769089161635577 ], [ 135.761850830151729, 34.763669441391642 ], [ 135.755775279305794, 34.763956108387731 ], [ 135.736707782238454, 34.751809720941935 ], [ 135.73207000003049, 34.757336667353343 ], [ 135.728634721115554, 34.777998053567387 ], [ 135.740775550751096, 34.788468612836255 ], [ 135.746024720864284, 34.803642495105123 ], [ 135.732493333400726, 34.822418892418 ], [ 135.724167782217478, 34.823283613048375 ], [ 135.7077213880317, 34.849272494929721 ], [ 135.702256666611902, 34.851730000339273 ], [ 135.694914449442308, 34.848282225344462 ], [ 135.690651387751359, 34.856519161829908 ], [ 135.694848885267902, 34.860886107807687 ], [ 135.691381945720309, 34.861380829361849 ], [ 135.691117781560479, 34.868889440895032 ], [ 135.68228082999633, 34.872443612882478 ], [ 135.681524162909909, 34.886030558663379 ], [ 135.70317416305727, 34.898693333230824 ], [ 135.711945278851658, 34.89320361335615 ], [ 135.715441672994871, 34.882784441348917 ], [ 135.73247221821839, 34.874915558706107 ], [ 135.728712502580038, 34.885154720613912 ], [ 135.719418340184347, 34.888243613052339 ], [ 135.720098340066443, 34.892860000388737 ], [ 135.717131115108941, 34.891792225430891 ], [ 135.713938611777621, 34.901537494959484 ], [ 135.719573061347774, 34.89810222503769 ], [ 135.725959999754195, 34.902808333238056 ], [ 135.740284162983812, 34.904788613403809 ], [ 135.745803061362267, 34.911576386840807 ], [ 135.75306583691895, 34.90416722503744 ], [ 135.776128054166406, 34.916136107895113 ], [ 135.789837496603241, 34.916993332676213 ], [ 135.796887497060425, 34.937877224654244 ], [ 135.798119169863867, 34.934146108356288 ], [ 135.810838340017426, 34.936531441372949 ], [ 135.818136939168426, 34.926648053964584 ], [ 135.829412775679089, 34.927392224971243 ], [ 135.830503333162369, 34.93623110827906 ], [ 135.844694162905398, 34.935503892190923 ], [ 135.840020000422783, 34.930457494917505 ], [ 135.847274163172187, 34.930842775273902 ], [ 135.849942502944259, 34.939227224856609 ], [ 135.844579441787914, 34.948336108024989 ], [ 135.851007782283432, 34.957366108059489 ], [ 135.851011946144467, 34.957366667437782 ] ] ] ] } },
{ "type": "Feature", "properties": { "code": "260014", "name": "山城南部", "PrefCode": "26", "regioncode": "260014" }, "geometry": { "type": "Polygon", "coordinates": [ [ [ 135.958782503010184, 34.855005000280585 ], [ 135.972054448653921, 34.846048892142733 ], [ 135.969866667013093, 34.837778613292414 ], [ 136.003858884679858, 34.844389721208699 ], [ 136.002327781701865, 34.832761945807192 ], [ 136.005656938816742, 34.826258892334067 ], [ 136.012166108579095, 34.825173612971923 ], [ 136.016273333047934, 34.828911386951006 ], [ 136.027857781811235, 34.821664720950139 ], [ 136.028534721300389, 34.815919161939803 ], [ 136.016695551258749, 34.811070000380255 ], [ 136.010171387999208, 34.798455828773513 ], [ 136.022288884724276, 34.79155527855329 ], [ 136.01994861223875, 34.786487495401616 ], [ 136.022605837289575, 34.78231055908509 ], [ 136.033577497003989, 34.779439441077386 ], [ 136.028600000389815, 34.757456946281081 ], [ 136.038139169587112, 34.756451387321704 ], [ 136.039102776072355, 34.749523333135357 ], [ 136.055476394420111, 34.738555559391614 ], [ 136.043003891216699, 34.736109999676785 ], [ 136.039474162802435, 34.720155558931936 ], [ 136.028893890740505, 34.713246108121439 ], [ 136.028764721115067, 34.706313613082841 ], [ 136.013344721381827, 34.707988053605845 ], [ 136.009322502631449, 34.716614161814164 ], [ 135.992149727827723, 34.712153054120222 ], [ 135.986255006363535, 34.715195000149208 ], [ 135.983711673255129, 34.734406666634413 ], [ 135.972927497006481, 34.742044161808678 ], [ 135.958550000382274, 34.740299162276585 ], [ 135.954924449203986, 34.748285278742685 ], [ 135.942895836973321, 34.737491945596844 ], [ 135.92556917018112, 34.740339441112383 ], [ 135.92313194628241, 34.744794161821176 ], [ 135.929008612057828, 34.75668222530453 ], [ 135.925300829569665, 34.7577236132542 ], [ 135.920971114625331, 34.752996387173596 ], [ 135.916156109317058, 34.753686386617517 ], [ 135.903020830047353, 34.732915829002366 ], [ 135.89738639396694, 34.730871946083482 ], [ 135.890171115204907, 34.708315558816025 ], [ 135.885158884974658, 34.713620279152622 ], [ 135.87613749684806, 34.713877495150314 ], [ 135.863740558280256, 34.706353333439665 ], [ 135.851037781868172, 34.705753613338629 ], [ 135.83181555104693, 34.713415278692196 ], [ 135.819968054182368, 34.711661107873908 ], [ 135.810284449367941, 34.714489721223686 ], [ 135.812085278812674, 34.71758944060025 ], [ 135.799155278793137, 34.723110278816364 ], [ 135.795844448962157, 34.720614440703912 ], [ 135.791396108943331, 34.724882495430847 ], [ 135.777726666552439, 34.723108892061759 ], [ 135.755513606267982, 34.727531945842657 ], [ 135.756956394022382, 34.73611582908228 ], [ 135.74716722408823, 34.746465279349195 ], [ 135.73626306119138, 34.7502322246375 ], [ 135.741970272210324, 34.756878333268503 ], [ 135.747389169574603, 34.756113333063922 ], [ 135.755775279305794, 34.763956108387731 ], [ 135.761850830151729, 34.763669441391642 ], [ 135.753925279428131, 34.769089161635577 ], [ 135.760498884715844, 34.779749720673124 ], [ 135.782069728335387, 34.780052224730412 ], [ 135.789190000018493, 34.790088333210065 ], [ 135.795798339821545, 34.78761777504036 ], [ 135.836748339664155, 34.800626107808682 ], [ 135.86810833972811, 34.80267722487406 ], [ 135.867182217885102, 34.807613054099193 ], [ 135.86137693939429, 34.810726945891872 ], [ 135.864130829873943, 34.812690828718814 ], [ 135.87204972831239, 34.808419720793552 ], [ 135.868649170422941, 34.798972775273398 ], [ 135.872482217680272, 34.808111945809685 ], [ 135.877366939332887, 34.804971107630593 ], [ 135.866749441633488, 34.812948891877909 ], [ 135.860381945670269, 34.810781945730241 ], [ 135.861070558359643, 34.813652495366398 ], [ 135.886095006379492, 34.81906194625185 ], [ 135.889491115322812, 34.820808613127042 ], [ 135.886099170240527, 34.825910828621886 ], [ 135.897486666576469, 34.822463613005368 ], [ 135.906884721352867, 34.82712027917762 ], [ 135.904412776428558, 34.830799161951802 ], [ 135.911600558419082, 34.834499999875163 ], [ 135.924010557841029, 34.83301833262999 ], [ 135.932510000136517, 34.844706108100468 ], [ 135.958741672889914, 34.855013333398688 ], [ 135.958782503010184, 34.855005000280585 ] ], [ [ 135.855484449148094, 34.79904555920524 ], [ 135.849611387855361, 34.799704999686014 ], [ 135.860751114672212, 34.79328916156561 ], [ 135.863678053599301, 34.796656386982704 ], [ 135.860851945760714, 34.793949162324054 ], [ 135.855548612178723, 34.799031107999269 ], [ 135.855484449148094, 34.79904555920524 ] ] ] } },
{ "type": "Feature", "properties": { "code": "260021", "name": "丹後", "PrefCode": "26", "regioncode": "260021" }, "geometry": { "type": "MultiPolygon", "coordinates": [ [ [ [ 135.285654721088576, 35.665685278952537 ], [ 135.28177360596726, 35.666116946340026 ], [ 135.285733332627274, 35.665718613223476 ], [ 135.285654721088576, 35.665685278952537 ] ] ], [ [ [ 134.965025330654498, 35.674356694106223 ], [ 134.961765772072795, 35.674231279150263 ], [ 134.964942801669054, 35.67444394633111 ], [ 134.965025330654498, 35.674356694106223 ] ] ], [ [ [ 135.223592360998737, 35.779108802429334 ], [ 135.246688612189814, 35.757236387349451 ], [ 135.255153891039299, 35.758994721129511 ], [ 135.250863332576841, 35.7513597206746 ], [ 135.256966393684138, 35.744493612690121 ], [ 135.274600557569784, 35.742740837619635 ], [ 135.27345111517684, 35.730953053940311 ], [ 135.284741387604981, 35.729565278614757 ], [ 135.288869442171062, 35.724399170785148 ], [ 135.285979441997711, 35.705319171342751 ], [ 135.291900830159193, 35.706287224975483 ], [ 135.306521388351484, 35.699207504622677 ], [ 135.308641388089654, 35.693593054176176 ], [ 135.304912217924539, 35.693106946328555 ], [ 135.298448612313678, 35.679461666922464 ], [ 135.302900000134969, 35.662249170862594 ], [ 135.294728340040933, 35.659774721326357 ], [ 135.287722218405747, 35.664607505332185 ], [ 135.295011114771228, 35.671118333444383 ], [ 135.287398611756544, 35.675828333011225 ], [ 135.279792724154959, 35.668062081000301 ], [ 135.274946393661253, 35.671985838375804 ], [ 135.274982775734543, 35.667539171095939 ], [ 135.265132606584643, 35.664833333191837 ], [ 135.263467108020677, 35.660731197986422 ], [ 135.265943138565035, 35.66154833278938 ], [ 135.251134383744898, 35.645535170811513 ], [ 135.244627690715447, 35.620446000382685 ], [ 135.235293112786962, 35.61632244062821 ], [ 135.2226106997241, 35.600927972647867 ], [ 135.214014889675468, 35.597958386970049 ], [ 135.205180726009758, 35.58216086533173 ], [ 135.189769636759365, 35.566743999735877 ], [ 135.187370894851028, 35.547404748230576 ], [ 135.198829052718679, 35.536924360271087 ], [ 135.206713306573874, 35.540410973387736 ], [ 135.210874279924155, 35.549689332896435 ], [ 135.203993747713298, 35.555267251982173 ], [ 135.204234864047748, 35.559630170795799 ], [ 135.225365616330237, 35.567931080554956 ], [ 135.230073060923132, 35.576598332746926 ], [ 135.228005615766619, 35.585560135391972 ], [ 135.237759169849824, 35.581565667021948 ], [ 135.254457302262722, 35.599679360214338 ], [ 135.256294253876831, 35.588240919083205 ], [ 135.24741664126509, 35.586566973187303 ], [ 135.247996498040038, 35.579981837691719 ], [ 135.25341221809947, 35.577577666576076 ], [ 135.250689338941925, 35.57082605397926 ], [ 135.255056419817947, 35.567612892321165 ], [ 135.268148171001371, 35.56746261290931 ], [ 135.27484425405919, 35.560180197957834 ], [ 135.261682049087312, 35.553617171395388 ], [ 135.254205473204138, 35.555712865156636 ], [ 135.253729882927814, 35.552458531635978 ], [ 135.249333747654418, 35.555289801583115 ], [ 135.251158858794383, 35.560726027084513 ], [ 135.244624188755324, 35.561228532271002 ], [ 135.237483890968861, 35.554084612914608 ], [ 135.237100856219627, 35.546360558892729 ], [ 135.244731335782603, 35.535585134846144 ], [ 135.269106886973304, 35.533491837778115 ], [ 135.273213695955405, 35.52865538723637 ], [ 135.27205058386744, 35.524714504970461 ], [ 135.288650143389418, 35.516251603928424 ], [ 135.28403805391315, 35.489801946302805 ], [ 135.273668611717085, 35.49216694564808 ], [ 135.254164721324855, 35.510493054211111 ], [ 135.241734720980617, 35.507330278869347 ], [ 135.234214162853391, 35.511182225379457 ], [ 135.221282502685426, 35.500744171206577 ], [ 135.218808885022099, 35.492964720745306 ], [ 135.201063061311288, 35.490024441275011 ], [ 135.201102502878257, 35.481132224572548 ], [ 135.185958884594925, 35.469885838160963 ], [ 135.185108339978001, 35.462627224666733 ], [ 135.174456938736853, 35.456919721368081 ], [ 135.159426394012939, 35.455363892429716 ], [ 135.148618612359087, 35.459400279099668 ], [ 135.143686108826955, 35.4660088922966 ], [ 135.124817224335516, 35.469725278598787 ], [ 135.109904721026169, 35.463412504583459 ], [ 135.105706939323909, 35.457858054205872 ], [ 135.106977223619992, 35.450706945669083 ], [ 135.094527224152102, 35.44382944057628 ], [ 135.069563061286317, 35.444938333437392 ], [ 135.059171115354729, 35.452163332971509 ], [ 135.047781115306293, 35.452180558585951 ], [ 135.040956109037211, 35.473468333396909 ], [ 135.035343890708077, 35.474976107961083 ], [ 135.042703891071824, 35.492268613106035 ], [ 135.032163605565984, 35.497157774711582 ], [ 135.045155836872482, 35.508693053941329 ], [ 135.035662218336824, 35.539718332635005 ], [ 135.008008339713115, 35.533632775032572 ], [ 134.993415279191822, 35.534307774684123 ], [ 134.979494994298648, 35.524065278989497 ], [ 134.971717497164832, 35.52419138732273 ], [ 134.960547781554965, 35.512928054086501 ], [ 134.953911945879668, 35.516157505164756 ], [ 134.929725836877878, 35.511726666852269 ], [ 134.915129170075147, 35.527708053983531 ], [ 134.919291945666828, 35.538121107902839 ], [ 134.914568611852019, 35.545308612902204 ], [ 134.90305444870387, 35.549442504967658 ], [ 134.900875550566298, 35.556063332756651 ], [ 134.881051659806303, 35.564033613060872 ], [ 134.875763333211353, 35.573951666636162 ], [ 134.867757497310663, 35.576138891596599 ], [ 134.86895472068386, 35.579769171410192 ], [ 134.862594448974733, 35.587051386712176 ], [ 134.853726666852253, 35.589079721252176 ], [ 134.865356938771811, 35.599012774619894 ], [ 134.866378611783603, 35.613434441446373 ], [ 134.873877223754903, 35.620928612565478 ], [ 134.871259169575069, 35.636445559215247 ], [ 134.865843891082818, 35.638069170955532 ], [ 134.867688611939911, 35.649679171256821 ], [ 134.864101114674781, 35.651658332665988 ], [ 134.870093358621716, 35.659804864802709 ], [ 134.879285135900318, 35.661015053701817 ], [ 134.882465887790545, 35.659074694441642 ], [ 134.880105473189133, 35.656423720578289 ], [ 134.885622892182823, 35.656741693874153 ], [ 134.884372217603868, 35.646184108110162 ], [ 134.892271581868044, 35.648804441172047 ], [ 134.895192335258116, 35.645420946119827 ], [ 134.900546744037115, 35.649357972992107 ], [ 134.90930007843599, 35.645264532432293 ], [ 134.931414617090923, 35.64833583772878 ], [ 134.963367223618548, 35.6624283329013 ], [ 134.967181439971569, 35.669014838064356 ], [ 134.963683865018425, 35.671891342111792 ], [ 134.967543060963521, 35.672782775304881 ], [ 134.96539997382979, 35.674788748202218 ], [ 134.972178690194482, 35.675774279259656 ], [ 134.973867393065802, 35.683054721098529 ], [ 134.978994721229469, 35.681954441044695 ], [ 134.985713359284205, 35.692800279309495 ], [ 134.993251504553314, 35.689823134829851 ], [ 135.015416809038584, 35.694317081268366 ], [ 135.014997885943785, 35.690197467738983 ], [ 135.017555057819777, 35.693846666590446 ], [ 135.025568366187258, 35.689509694117135 ], [ 135.029949754377753, 35.69187005385993 ], [ 135.032556744198473, 35.700939748170867 ], [ 135.042522865637807, 35.699644837739129 ], [ 135.061711530163052, 35.707875918738694 ], [ 135.0680919970481, 35.718242721424531 ], [ 135.075510143078759, 35.718512586386794 ], [ 135.085328054446222, 35.725850413965475 ], [ 135.087865498793803, 35.731501440738953 ], [ 135.085758469977463, 35.739873467986229 ], [ 135.092909467897698, 35.738086026748761 ], [ 135.094423553903994, 35.742950612580785 ], [ 135.102989364367772, 35.741811414365316 ], [ 135.110445110153819, 35.747008225049626 ], [ 135.114162892203808, 35.743740333349763 ], [ 135.124353747927216, 35.745686720765605 ], [ 135.13858610926161, 35.757651775209297 ], [ 135.146257223791963, 35.749783505004814 ], [ 135.154511529783349, 35.752140108279434 ], [ 135.154636252261298, 35.755341081425797 ], [ 135.162480363078316, 35.754004559362954 ], [ 135.16582644633354, 35.759451306032986 ], [ 135.1703123609268, 35.75707972095239 ], [ 135.176235188003602, 35.762377558777359 ], [ 135.183365005990254, 35.76051750537863 ], [ 135.1863119710207, 35.766313197995771 ], [ 135.18967488958458, 35.763245170728112 ], [ 135.193820467440673, 35.767695027003924 ], [ 135.206914332030806, 35.763883026580459 ], [ 135.222010414848796, 35.771866919023125 ], [ 135.219105057852175, 35.776258748342627 ], [ 135.2235701693279, 35.779116667000608 ], [ 135.223592360998737, 35.779108802429334 ] ] ] ] } },
{ "type": "Feature", "properties": { "code": "260022", "name": "舞鶴・綾部", "PrefCode": "26", "regioncode": "260022" }, "geometry": { "type": "MultiPolygon", "coordinates": [ [ [ [ 135.314099441935809, 35.455664559172135 ], [ 135.315517197960389, 35.458159774953685 ], [ 135.31475605674666, 35.455846305862394 ], [ 135.314099441935809, 35.455664559172135 ] ] ], [ [ [ 135.334293449583129, 35.474657999766919 ], [ 135.334144720602467, 35.470799468420807 ], [ 135.329505188313874, 35.470348251570613 ], [ 135.333671698789885, 35.474173748120052 ], [ 135.334293449583129, 35.474657999766919 ] ] ], [ [ [ 135.36798749702541, 35.49843346842988 ], [ 135.368503891341561, 35.495972801903349 ], [ 135.367951088871678, 35.498467171422874 ], [ 135.36798749702541, 35.49843346842988 ] ] ], [ [ [ 135.342391777158809, 35.497521054053436 ], [ 135.347751829183608, 35.496251694260309 ], [ 135.338294669163702, 35.493531306224838 ], [ 135.339163281160609, 35.498323467853822 ], [ 135.34217027234024, 35.497541838285258 ], [ 135.342391777158809, 35.497521054053436 ] ] ], [ [ [ 135.477487977188503, 35.568076053966763 ], [ 135.481279922730323, 35.56656189241744 ], [ 135.477466861106791, 35.568083558809235 ], [ 135.477487977188503, 35.568076053966763 ] ] ], [ [ [ 135.392453332955029, 35.577896666897686 ], [ 135.393832217582826, 35.573400559388347 ], [ 135.392434720585925, 35.577916387231539 ], [ 135.392453332955029, 35.577896666897686 ] ] ], [ [ [ 135.462629728179422, 35.603751666706103 ], [ 135.463119999888136, 35.59258972123871 ], [ 135.457727781811741, 35.59570305365304 ], [ 135.457081672880918, 35.591942224654019 ], [ 135.45176083039803, 35.590766666848253 ], [ 135.456105837414498, 35.584779441118371 ], [ 135.447866277606636, 35.578528586325262 ], [ 135.451182192204442, 35.568715721053763 ], [ 135.46508469480284, 35.571204891592515 ], [ 135.46859914373556, 35.566200864977986 ], [ 135.465850946863725, 35.561952776099815 ], [ 135.473160116646113, 35.563424801713268 ], [ 135.473312631772615, 35.55703650533053 ], [ 135.486599635664675, 35.557936332795578 ], [ 135.460484578000887, 35.548456892971274 ], [ 135.449442049011395, 35.526047468415982 ], [ 135.449926199934225, 35.520796079675392 ], [ 135.476224552920826, 35.50549274809191 ], [ 135.472575940427419, 35.50117636020093 ], [ 135.476206783216526, 35.489447467726507 ], [ 135.470435642091275, 35.489139135162986 ], [ 135.458381439651816, 35.468179414148722 ], [ 135.470943696094764, 35.453963307160961 ], [ 135.486120636058558, 35.44857302712353 ], [ 135.488210921297082, 35.439138306088012 ], [ 135.497943450130151, 35.43742358582989 ], [ 135.500789558891142, 35.433007748209093 ], [ 135.495276200336434, 35.426149693653485 ], [ 135.502048974880381, 35.420031360259145 ], [ 135.510796226264915, 35.424560532242822 ], [ 135.525793476287959, 35.42041910835519 ], [ 135.530031505349712, 35.408646613150722 ], [ 135.525148443845637, 35.402460252338813 ], [ 135.531695940015652, 35.392966640098393 ], [ 135.526155109870501, 35.386002468239383 ], [ 135.527587860291533, 35.380113306384033 ], [ 135.534502049629964, 35.377439135407826 ], [ 135.534360635734856, 35.371166919018151 ], [ 135.52178036317332, 35.36968080192753 ], [ 135.516362023388751, 35.364700801600748 ], [ 135.500316161162004, 35.360139693791893 ], [ 135.505887223816444, 35.349592225400954 ], [ 135.4997836060287, 35.347594440830846 ], [ 135.498103333402128, 35.342152775330362 ], [ 135.486259441919742, 35.345657505289694 ], [ 135.457875837200163, 35.344636108369741 ], [ 135.45532944190029, 35.348539999721254 ], [ 135.441271388064138, 35.341602775148033 ], [ 135.428538053588341, 35.342302775053099 ], [ 135.416803061012502, 35.334741386805604 ], [ 135.414281673160758, 35.328554999913365 ], [ 135.403266393629224, 35.326331107794431 ], [ 135.384612776258678, 35.314942224703941 ], [ 135.378996108983301, 35.302399170585318 ], [ 135.368430557923944, 35.29296944078709 ], [ 135.351484163163718, 35.289387504929437 ], [ 135.345124163049718, 35.281893892289361 ], [ 135.337266394228777, 35.279290837901897 ], [ 135.332253333024937, 35.27103694559861 ], [ 135.318999728154949, 35.274035000215122 ], [ 135.291562218321815, 35.265288613079065 ], [ 135.27224555059172, 35.271677774609657 ], [ 135.246668612166786, 35.263851107942344 ], [ 135.238593890895459, 35.264882775120043 ], [ 135.221185006283122, 35.277306107890638 ], [ 135.202572218133469, 35.284278054388778 ], [ 135.197616666775843, 35.30820889172702 ], [ 135.185268611757124, 35.311224440855312 ], [ 135.185988611685161, 35.31572138743212 ], [ 135.193480557881458, 35.32109277541133 ], [ 135.189510829860978, 35.338756667286418 ], [ 135.172829170330033, 35.345251386742177 ], [ 135.188924163419415, 35.360162225406441 ], [ 135.173606109034722, 35.370618891948368 ], [ 135.183460829653654, 35.373103612641671 ], [ 135.18887360623205, 35.370627504755589 ], [ 135.193143606192507, 35.374725000358524 ], [ 135.202605279010527, 35.37168527925229 ], [ 135.203112776333569, 35.383261108013755 ], [ 135.208316108901386, 35.392974721406347 ], [ 135.214470558169751, 35.39539333293601 ], [ 135.225842503428908, 35.391497225216824 ], [ 135.229156393652715, 35.396277774799501 ], [ 135.223009999611804, 35.399715838015538 ], [ 135.216754162574603, 35.411312225279005 ], [ 135.203601115399238, 35.41429222510618 ], [ 135.20482194597605, 35.424304170601033 ], [ 135.200600829564678, 35.427121108052745 ], [ 135.185263061141427, 35.431646108081452 ], [ 135.169685005558676, 35.429228612610416 ], [ 135.171021114832683, 35.437076666954681 ], [ 135.166774721176466, 35.441846108111463 ], [ 135.172563891010782, 35.448893053571624 ], [ 135.159426394012939, 35.455363892429716 ], [ 135.17418888500913, 35.456820838211172 ], [ 135.184939441901747, 35.462476667364342 ], [ 135.185958884594925, 35.469885838160963 ], [ 135.201477224294536, 35.481656945711507 ], [ 135.201063061311288, 35.490024441275011 ], [ 135.218808885022099, 35.492964720745306 ], [ 135.221282502685426, 35.500744171206577 ], [ 135.234214162853391, 35.511182225379457 ], [ 135.241734720980617, 35.507330278869347 ], [ 135.254164721324855, 35.510493054211111 ], [ 135.273668611717085, 35.49216694564808 ], [ 135.28403805391315, 35.489801946302805 ], [ 135.288482502565557, 35.516114999607623 ], [ 135.310658144757667, 35.512303170954624 ], [ 135.317078080189276, 35.522634918966389 ], [ 135.32332483767118, 35.525835946072107 ], [ 135.3268419971605, 35.518043387092689 ], [ 135.331818418185549, 35.516017801780208 ], [ 135.334867562388126, 35.504496775006203 ], [ 135.33043221757282, 35.492423864869522 ], [ 135.323868080347665, 35.489109026760218 ], [ 135.32488564165908, 35.480916387281525 ], [ 135.316778755235418, 35.479599838262004 ], [ 135.316801997314428, 35.476122972896917 ], [ 135.321959363733754, 35.47580105427528 ], [ 135.315197691320463, 35.471431386949007 ], [ 135.320207327905905, 35.471407134931383 ], [ 135.316208145289693, 35.458816946444983 ], [ 135.310914150267877, 35.458070793332524 ], [ 135.313373501985552, 35.452432667333767 ], [ 135.321728274840098, 35.452441666849495 ], [ 135.32107082995492, 35.458000693876954 ], [ 135.325211192642541, 35.456235838213388 ], [ 135.327510609826845, 35.459953891858675 ], [ 135.326327418575602, 35.464887053694611 ], [ 135.337318080065415, 35.473011585716165 ], [ 135.347505305225695, 35.475264864981568 ], [ 135.345654189289462, 35.479179720867478 ], [ 135.348970895290677, 35.481670135168656 ], [ 135.340787029597777, 35.479845387354771 ], [ 135.349552826801528, 35.486394198333642 ], [ 135.347444059595773, 35.49445917095403 ], [ 135.360600946876275, 35.487523531885529 ], [ 135.379503799660711, 35.49045761322833 ], [ 135.382684306035912, 35.484729667440263 ], [ 135.372664811631807, 35.481371640289012 ], [ 135.371845188404791, 35.476870721406726 ], [ 135.383236200190595, 35.478167720963597 ], [ 135.386071971244519, 35.475172359816611 ], [ 135.385414967926522, 35.478652333238642 ], [ 135.391862827307705, 35.482838585632294 ], [ 135.394074059670174, 35.477580279306494 ], [ 135.398220725705983, 35.478885441110265 ], [ 135.394884942386284, 35.484706838150089 ], [ 135.400864111989222, 35.50048130566779 ], [ 135.393921309820712, 35.49963233306579 ], [ 135.390542826690194, 35.507689801743027 ], [ 135.397392581402528, 35.514694505147361 ], [ 135.395096226409805, 35.516871387004983 ], [ 135.388826718778091, 35.516382135127458 ], [ 135.380035162292984, 35.502393919044152 ], [ 135.372421971297058, 35.506267171392892 ], [ 135.35558191957, 35.50234467576621 ], [ 135.343500466773207, 35.504097693653705 ], [ 135.345354915596886, 35.506541864815233 ], [ 135.342102217943079, 35.507402918909634 ], [ 135.347400414597473, 35.509798891805474 ], [ 135.343951115251798, 35.515698332911768 ], [ 135.349745668427886, 35.519188946212921 ], [ 135.337665421621978, 35.525173892161433 ], [ 135.338674889934282, 35.547768468240292 ], [ 135.343751581770107, 35.551927919038292 ], [ 135.3439103372923, 35.54457313474245 ], [ 135.348442750432696, 35.542986612841958 ], [ 135.367780337292743, 35.551818612738828 ], [ 135.37937130973819, 35.56203586536293 ], [ 135.39013296966084, 35.556547170715419 ], [ 135.399231505229864, 35.560822919142481 ], [ 135.398557224136653, 35.566663414185257 ], [ 135.402242892295703, 35.561232386765312 ], [ 135.413148340323687, 35.570231945647834 ], [ 135.426786640990713, 35.566513224705602 ], [ 135.425175771744534, 35.574447387337102 ], [ 135.428868611996904, 35.577280839039531 ], [ 135.426215279211874, 35.580356945816447 ], [ 135.435572217883646, 35.582036667158491 ], [ 135.434102502628434, 35.590807505062344 ], [ 135.444655551312735, 35.590856946191138 ], [ 135.449613061393734, 35.593498891760476 ], [ 135.45085167336606, 35.599410837939843 ], [ 135.462530558138837, 35.6037763872705 ], [ 135.462629728179422, 35.603751666706103 ] ] ], [ [ [ 135.478911673235189, 35.605153892338308 ], [ 135.480229170140205, 35.592891108338051 ], [ 135.474429169770474, 35.595016108306822 ], [ 135.478916938765792, 35.60518861336385 ], [ 135.478911673235189, 35.605153892338308 ] ] ], [ [ [ 135.425222218130898, 35.687415837670812 ], [ 135.427687782365297, 35.681394999779457 ], [ 135.423481946334846, 35.676404441411876 ], [ 135.421299727900191, 35.680262774907192 ], [ 135.425222218130898, 35.687460837947356 ], [ 135.425222218130898, 35.687415837670812 ] ] ], [ [ [ 135.436935006445424, 35.712942225203562 ], [ 135.438619999613366, 35.708717775005368 ], [ 135.436907223689445, 35.712964720845264 ], [ 135.436935006445424, 35.712942225203562 ] ] ] ] } },
{ "type": "Feature", "properties": { "code": "260023", "name": "福知山", "PrefCode": "26", "regioncode": "260023" }, "geometry": { "type": "Polygon", "coordinates": [ [ [ 135.126637497122829, 35.469487225355238 ], [ 135.144659728363877, 35.465594721219475 ], [ 135.148794162720492, 35.45929389199955 ], [ 135.17043999990608, 35.450557775121297 ], [ 135.171192218046485, 35.444667224712703 ], [ 135.166774721176466, 35.441846108111463 ], [ 135.171021114832683, 35.437076666954681 ], [ 135.169685005558676, 35.429228612610416 ], [ 135.185263061141427, 35.431646108081452 ], [ 135.200600829564678, 35.427121108052745 ], [ 135.20482194597605, 35.424304170601033 ], [ 135.203601115399238, 35.41429222510618 ], [ 135.216754162574603, 35.411312225279005 ], [ 135.223009999611804, 35.399715838015538 ], [ 135.229156393652715, 35.396277774799501 ], [ 135.225842503428908, 35.391497225216824 ], [ 135.214470558169751, 35.39539333293601 ], [ 135.208316108901386, 35.392974721406347 ], [ 135.203112776333569, 35.383261108013755 ], [ 135.202605279010527, 35.37168527925229 ], [ 135.193143606192507, 35.374725000358524 ], [ 135.18887360623205, 35.370627504755589 ], [ 135.183460829653654, 35.373103612641671 ], [ 135.173606109034722, 35.370618891948368 ], [ 135.188924163419415, 35.360162225406441 ], [ 135.172829170330033, 35.345251386742177 ], [ 135.189510829860978, 35.338756667286418 ], [ 135.193480557881458, 35.32109277541133 ], [ 135.185988611685161, 35.31572138743212 ], [ 135.185268611757124, 35.311224440855312 ], [ 135.197616666775843, 35.30820889172702 ], [ 135.202572218133469, 35.284278054388778 ], [ 135.221185006283122, 35.277306107890638 ], [ 135.238593890895459, 35.264882775120043 ], [ 135.246668612166786, 35.263851107942344 ], [ 135.27224555059172, 35.271677774609657 ], [ 135.291706108949825, 35.26529861264089 ], [ 135.318626939381829, 35.273846945680077 ], [ 135.324175278866051, 35.25460861339684 ], [ 135.302948053609839, 35.243961386808621 ], [ 135.299241945659332, 35.23516500006474 ], [ 135.288748054379312, 35.234615278672209 ], [ 135.299361114823682, 35.220642774644375 ], [ 135.293079442062663, 35.218980000126976 ], [ 135.29998639365715, 35.210515838235381 ], [ 135.29384722387033, 35.198352225175086 ], [ 135.283426109327593, 35.198319441289243 ], [ 135.289318884658883, 35.17241694558561 ], [ 135.28343250260798, 35.171453054015274 ], [ 135.273874449446339, 35.177276945774452 ], [ 135.232189441789387, 35.177504171180601 ], [ 135.228010271556855, 35.165333612656127 ], [ 135.206213061383778, 35.160684721123062 ], [ 135.194860557668676, 35.171293332621246 ], [ 135.186866666563446, 35.173166107829672 ], [ 135.190140000060978, 35.183186107652773 ], [ 135.186713060559327, 35.190223891719256 ], [ 135.199103890931838, 35.193581945850156 ], [ 135.197057782190996, 35.203017505053879 ], [ 135.188835006430509, 35.206828613349899 ], [ 135.182311945739798, 35.215924171263566 ], [ 135.175131388003251, 35.214600837758496 ], [ 135.17096666717805, 35.220266946162667 ], [ 135.163067223773396, 35.22009055943181 ], [ 135.154777782168935, 35.226501667118271 ], [ 135.161981115236358, 35.231241107790936 ], [ 135.166858340140379, 35.240344720932171 ], [ 135.161978612423127, 35.257818333349462 ], [ 135.15752972831433, 35.261092774811743 ], [ 135.137763890591145, 35.265249720997872 ], [ 135.128674448966763, 35.260716946330035 ], [ 135.108770272130414, 35.266280279311502 ], [ 135.098904449380939, 35.258820000043045 ], [ 135.093346109435515, 35.259780000246849 ], [ 135.08289972843977, 35.246379721347125 ], [ 135.067874720841701, 35.23735110806723 ], [ 135.055821945626349, 35.259211386796096 ], [ 135.056789170084244, 35.264602774798277 ], [ 135.049593061270798, 35.261962775361837 ], [ 135.04229055816279, 35.264129720610185 ], [ 135.03747000044018, 35.260688613189018 ], [ 135.010851388081164, 35.269581945950108 ], [ 135.011726939246955, 35.281119720798529 ], [ 134.999877782233966, 35.28733110794434 ], [ 134.999116667100566, 35.290938332737937 ], [ 134.99285888482973, 35.289053612734108 ], [ 134.96005333339474, 35.297912505058093 ], [ 134.945680558211279, 35.307351945735775 ], [ 134.934243332963547, 35.307752504674397 ], [ 134.921603891306631, 35.315133613025864 ], [ 134.928050272202313, 35.330439171330738 ], [ 134.925583061309339, 35.336678054348795 ], [ 134.917148612118808, 35.340291945816716 ], [ 134.918867223743405, 35.350124999968841 ], [ 134.923466393559238, 35.354238053843176 ], [ 134.918927497206255, 35.364514721077569 ], [ 134.927174994430516, 35.379554721273394 ], [ 134.923408053638809, 35.394282504733837 ], [ 134.933567496942487, 35.407070278770391 ], [ 134.946604448836297, 35.413286667046123 ], [ 134.961146393691138, 35.408205838328854 ], [ 134.970946666655436, 35.398951107607559 ], [ 134.985478326863358, 35.396213612668134 ], [ 134.990553605864307, 35.385713053814413 ], [ 135.001966108749002, 35.387050279147104 ], [ 135.019445005582611, 35.394256107833144 ], [ 135.030034448930792, 35.410100279104654 ], [ 135.049166939102975, 35.407742774709334 ], [ 135.050184449153107, 35.419836387239513 ], [ 135.046911388150079, 35.427486667176026 ], [ 135.05183472129545, 35.442538891856429 ], [ 135.050116108771476, 35.451181107821924 ], [ 135.059171115354729, 35.452163332971509 ], [ 135.070494721154546, 35.444776108330814 ], [ 135.094363061006561, 35.443771946018558 ], [ 135.106977223619992, 35.450706945669083 ], [ 135.105706939323909, 35.457858054205872 ], [ 135.109904721026169, 35.463412504583459 ], [ 135.126445837205665, 35.469508613032133 ], [ 135.126637497122829, 35.469487225355238 ] ] ] } }
]
}
