{
"type": "FeatureCollection",
"name": "28_hyogo_region",
"crs": { "type": "name", "properties": { "name": "urn:ogc:def:crs:OGC:1.3:CRS84" } },
"features": [
{ "type": "Feature", "properties": { "code": "280011", "name": "阪神", "PrefCode": "28", "regioncode": "280011" }, "geometry": { "type": "MultiPolygon", "coordinates": [ [ [ [ 135.050394085618564, 34.623887802280308 ], [ 135.055908002652245, 34.623285332951809 ], [ 135.045573021577752, 34.624045054135991 ], [ 135.050000000000068, 34.623907224938534 ], [ 135.050394085618564, 34.623887802280308 ] ] ], [ [ [ 135.131652918147665, 34.640521224874703 ], [ 135.137026394352688, 34.640133612576221 ], [ 135.131453281244035, 34.640199612921833 ], [ 135.131652918147665, 34.640521224874703 ] ] ], [ [ [ 135.120747613111917, 34.64063258612498 ], [ 135.118339001144022, 34.640527585779523 ], [ 135.120773113388509, 34.640688495177983 ], [ 135.120747613111917, 34.64063258612498 ] ] ], [ [ [ 135.125974500722691, 34.641008559397562 ], [ 135.123147055592199, 34.640909080889401 ], [ 135.125972387315869, 34.641016333137316 ], [ 135.125974500722691, 34.641008559397562 ] ] ], [ [ [ 135.236549169808427, 34.640808864937242 ], [ 135.240492088139376, 34.633106161720036 ], [ 135.209276692765229, 34.630138586026987 ], [ 135.2131606101741, 34.639910251556898 ], [ 135.236289584996371, 34.641293999718357 ], [ 135.236549169808427, 34.640808864937242 ] ] ], [ [ [ 135.202460363155296, 34.653470586398498 ], [ 135.20443824932579, 34.651516559241884 ], [ 135.202401997154539, 34.653533386956269 ], [ 135.202460363155296, 34.653470586398498 ] ] ], [ [ [ 135.200880168884737, 34.654068252447928 ], [ 135.190301556071972, 34.653048945552428 ], [ 135.20093474694113, 34.654082387092558 ], [ 135.200880168884737, 34.654068252447928 ] ] ], [ [ [ 135.280192230886769, 34.651352099319979 ], [ 135.276807859894916, 34.651300909909139 ], [ 135.274535486223726, 34.665417044660956 ], [ 135.280457601037483, 34.666075504880723 ], [ 135.282847302061441, 34.651410261174647 ], [ 135.280192230886769, 34.651352099319979 ] ] ], [ [ [ 135.247167029934531, 34.667361279099794 ], [ 135.250427275598327, 34.663697468063731 ], [ 135.244967665025797, 34.66981733300355 ], [ 135.247167029934531, 34.667361279099794 ] ] ], [ [ [ 135.254231556241393, 34.669179450171555 ], [ 135.295781439861571, 34.676258828781954 ], [ 135.254439313123839, 34.669483955220414 ], [ 135.254231556241393, 34.669179450171555 ] ] ], [ [ [ 135.359681088811271, 34.672298666850054 ], [ 135.353736667213525, 34.676430108262934 ], [ 135.317054331792065, 34.677626468286917 ], [ 135.353761413858251, 34.676501721277475 ], [ 135.35833333331675, 34.673500305894436 ], [ 135.359681088811271, 34.672298666850054 ] ] ], [ [ [ 135.219998806799595, 34.682779224781427 ], [ 135.225523112801511, 34.677888197981986 ], [ 135.216313554127282, 34.675055197739255 ], [ 135.217775057672839, 34.67267786509143 ], [ 135.228021970837403, 34.675812360352211 ], [ 135.231886328891051, 34.673434387387147 ], [ 135.219566446034719, 34.669657027050221 ], [ 135.220992140375074, 34.667287026575082 ], [ 135.245367328239695, 34.670681747864421 ], [ 135.234020804116881, 34.669327287924034 ], [ 135.236447729878932, 34.665288116953093 ], [ 135.22572269844386, 34.661996027194959 ], [ 135.228148196981806, 34.657969161647543 ], [ 135.238893061165868, 34.661247134747498 ], [ 135.245113670859268, 34.650815495438792 ], [ 135.249474668721064, 34.650804892431893 ], [ 135.217171115254814, 34.650074865063004 ], [ 135.204271633728922, 34.656216305638054 ], [ 135.201441996950621, 34.673629306447367 ], [ 135.20424574584456, 34.675917197920398 ], [ 135.201609441722439, 34.675652864688004 ], [ 135.217732723886115, 34.682440495132823 ], [ 135.219998806799595, 34.682779224781427 ] ] ], [ [ [ 135.228242437838276, 34.68442816232988 ], [ 135.240503943002636, 34.685784586389616 ], [ 135.230185966309364, 34.684649359580305 ], [ 135.228242437838276, 34.68442816232988 ] ] ], [ [ [ 135.363034345059077, 34.688478350895252 ], [ 135.362051970622019, 34.68596833317207 ], [ 135.362994642688705, 34.688487729924873 ], [ 135.363034345059077, 34.688478350895252 ] ] ], [ [ [ 135.28139891063131, 34.697300333243845 ], [ 135.288158300565215, 34.696667721338315 ], [ 135.289103553686118, 34.690871667193733 ], [ 135.278333086702673, 34.692444918698072 ], [ 135.278769728240377, 34.689669386932735 ], [ 135.289470219874829, 34.688029694414922 ], [ 135.290505136303068, 34.681703586151627 ], [ 135.254463086702117, 34.677761107589106 ], [ 135.252217224145625, 34.693315865334966 ], [ 135.264187562106372, 34.697782892366661 ], [ 135.281397977135043, 34.697323414344169 ], [ 135.28139891063131, 34.697300333243845 ] ] ], [ [ [ 135.356409493703268, 34.702350441120018 ], [ 135.35873416295135, 34.70409327868191 ], [ 135.356580337013042, 34.702484225166927 ], [ 135.356409493703268, 34.702350441120018 ] ] ], [ [ [ 135.332370699947887, 34.707446224663613 ], [ 135.334959753689759, 34.707334467711576 ], [ 135.325519662802208, 34.70744902695111 ], [ 135.332370699947887, 34.707446224663613 ] ] ], [ [ [ 135.34326180288997, 34.715366892068459 ], [ 135.353051153587899, 34.707332008965068 ], [ 135.347107690667485, 34.702868000058231 ], [ 135.343202996221407, 34.7152434142522 ], [ 135.34326180288997, 34.715366892068459 ] ] ], [ [ [ 135.32210522657499, 34.712075666558803 ], [ 135.322042437708433, 34.708450413955518 ], [ 135.32046619955554, 34.712054585550732 ], [ 135.315852088403176, 34.708375828681596 ], [ 135.322037807998527, 34.707958134959995 ], [ 135.320951310054966, 34.704850197578594 ], [ 135.306941556107972, 34.706157224576316 ], [ 135.306151633890863, 34.713279919033084 ], [ 135.322017587641653, 34.716429081337083 ], [ 135.322104695075723, 34.712580531566346 ], [ 135.32210522657499, 34.712075666558803 ] ] ], [ [ [ 135.303948222932263, 34.709984829136602 ], [ 135.304071166551125, 34.705699413896866 ], [ 135.293351530149039, 34.704727639768805 ], [ 135.293779754032471, 34.718325306367831 ], [ 135.303288418225975, 34.716876774643481 ], [ 135.303858859099137, 34.710484135434569 ], [ 135.303948222932263, 34.709984829136602 ] ] ], [ [ [ 135.330307951051168, 34.72210682876721 ], [ 135.340731971303512, 34.718085467970013 ], [ 135.334526445938764, 34.708209224775942 ], [ 135.339652244355648, 34.707813162447565 ], [ 135.341032826903529, 34.70328763991273 ], [ 135.334441970820308, 34.710350891880182 ], [ 135.325411802612621, 34.708545108070325 ], [ 135.324795772407015, 34.716959828833069 ], [ 135.330260609839343, 34.722111026802509 ], [ 135.330307951051168, 34.72210682876721 ] ] ], [ [ [ 135.241822776300182, 35.034361386968499 ], [ 135.251814449277504, 35.025301945828176 ], [ 135.24849639429317, 35.023148892407505 ], [ 135.253525836648123, 35.021532225232079 ], [ 135.252104720756279, 35.014470000290316 ], [ 135.259045550711676, 35.010968613111061 ], [ 135.285019441793906, 35.01584805394458 ], [ 135.287753890729505, 35.011535559218714 ], [ 135.29922055798238, 35.013178332813879 ], [ 135.308913890763506, 35.009671108135194 ], [ 135.315658611855497, 35.015939999731245 ], [ 135.323288339585247, 35.016077224584308 ], [ 135.322809441602544, 35.02471417142192 ], [ 135.354407224214128, 35.025011107776436 ], [ 135.352562775851538, 34.990388891634097 ], [ 135.359532776216724, 34.982515559145781 ], [ 135.349592503091571, 34.97897833308366 ], [ 135.346481388405437, 34.964496107709238 ], [ 135.35424805410446, 34.962617225204838 ], [ 135.360384721078049, 34.954469720900931 ], [ 135.382632218202389, 34.955991387292727 ], [ 135.392351946085455, 34.941365828869948 ], [ 135.395956667166502, 34.944439440927511 ], [ 135.410690000343266, 34.94267499985142 ], [ 135.409100272359751, 34.945494441015683 ], [ 135.412118884578945, 34.943003613026349 ], [ 135.410284720863274, 34.939961945787218 ], [ 135.417455005644115, 34.9417741624477 ], [ 135.418484721292884, 34.933894441175596 ], [ 135.441656939116456, 34.939394999679564 ], [ 135.452541673059841, 34.92978777518573 ], [ 135.468311115165875, 34.927398612855768 ], [ 135.463596109073251, 34.918305558654652 ], [ 135.439302775702572, 34.920504440627496 ], [ 135.418600830064292, 34.908691386898056 ], [ 135.427204448926204, 34.906045828752042 ], [ 135.432442775913387, 34.895988891973843 ], [ 135.430741945684304, 34.892430558823264 ], [ 135.443579169842906, 34.898938892216165 ], [ 135.445890271918529, 34.896872224973265 ], [ 135.434012776368604, 34.872212495210533 ], [ 135.431358340115366, 34.856415279341718 ], [ 135.416878339663754, 34.852224720994116 ], [ 135.424329999829638, 34.837122774596423 ], [ 135.423336667153535, 34.828572495424396 ], [ 135.415990557718146, 34.817692775201465 ], [ 135.423691387647523, 34.80207444078286 ], [ 135.428636939443209, 34.803181107821899 ], [ 135.442787496645678, 34.79117444084784 ], [ 135.444696667417361, 34.768529161891365 ], [ 135.450408884962144, 34.76632249538693 ], [ 135.451920558087295, 34.758183612883499 ], [ 135.45628888542376, 34.760347495040889 ], [ 135.456665006185176, 34.751668054337301 ], [ 135.459937223624024, 34.751000000149929 ], [ 135.460295006309593, 34.733135558559241 ], [ 135.447369170151092, 34.733351386857066 ], [ 135.446516939305411, 34.718661667202241 ], [ 135.406353449651988, 34.697598386556365 ], [ 135.391967950860362, 34.680036910375179 ], [ 135.376181114966585, 34.676569441126844 ], [ 135.373836394434079, 34.678582774975155 ], [ 135.392833864891031, 34.688220802148351 ], [ 135.401048663664938, 34.699113774780926 ], [ 135.392339753976557, 34.701291278969393 ], [ 135.393850946863722, 34.69695182886386 ], [ 135.389306719329738, 34.691915693754311 ], [ 135.38521922238931, 34.69276216174444 ], [ 135.385312360676949, 34.696413305829481 ], [ 135.381656809014544, 34.691113801560732 ], [ 135.377608170880421, 34.692660945746127 ], [ 135.375290362560236, 34.687341495413762 ], [ 135.377682218359723, 34.684869829279251 ], [ 135.371230830038826, 34.680771946068489 ], [ 135.368503748349326, 34.683160153318454 ], [ 135.373754527349661, 34.69301789206213 ], [ 135.368491335906469, 34.696312251709116 ], [ 135.369953060685248, 34.694057413918586 ], [ 135.365219169729016, 34.693851945810707 ], [ 135.36885538326942, 34.692678495116525 ], [ 135.363235927196342, 34.688462063273676 ], [ 135.353904694745893, 34.696816161636605 ], [ 135.363823294209737, 34.705286622379788 ], [ 135.338948975414951, 34.722307775083777 ], [ 135.337470311006086, 34.72710902706001 ], [ 135.334683943309415, 34.721757693962445 ], [ 135.322350998699676, 34.725819305716414 ], [ 135.323882048617747, 34.718021134967444 ], [ 135.306154812094974, 34.714482801839893 ], [ 135.305333748153998, 34.718611693674802 ], [ 135.291842892235763, 34.72070261293527 ], [ 135.291223721597589, 34.714823108000076 ], [ 135.281733230004647, 34.712440251716316 ], [ 135.28678243765944, 34.71189661333807 ], [ 135.287979636750947, 34.7039858285832 ], [ 135.271872969561969, 34.702229333017328 ], [ 135.267914812218919, 34.706967775442536 ], [ 135.268195382710815, 34.701838494850733 ], [ 135.227988170717595, 34.700046666720368 ], [ 135.23495422755559, 34.698542027192843 ], [ 135.238310609846849, 34.693269999910626 ], [ 135.224019753908578, 34.691697467863889 ], [ 135.218903216710146, 34.695493468448888 ], [ 135.214496498214885, 34.692750666610038 ], [ 135.218184617026509, 34.690018494757794 ], [ 135.207498637751996, 34.684285667449672 ], [ 135.201832437616986, 34.685003161866462 ], [ 135.202394863732025, 34.678637387205697 ], [ 135.200756057046419, 34.683767414234808 ], [ 135.199591388232079, 34.680099360197346 ], [ 135.197754552630613, 34.683111026952361 ], [ 135.195821387946808, 34.679710053576173 ], [ 135.195291051440904, 34.682879386774346 ], [ 135.19313741885685, 34.679422332574632 ], [ 135.193163256379194, 34.685595801605018 ], [ 135.190146004834332, 34.685519585860277 ], [ 135.188760636094571, 34.678908108322616 ], [ 135.184378053604405, 34.682043494811467 ], [ 135.186019000676424, 34.677982559347697 ], [ 135.182077004150528, 34.676817666602062 ], [ 135.18695752327119, 34.676861666832508 ], [ 135.188745615617677, 34.67086577523537 ], [ 135.17707197119455, 34.668057413718714 ], [ 135.187377587605624, 34.666883053809954 ], [ 135.182714475093007, 34.661658224747327 ], [ 135.177412969832744, 34.663844748236613 ], [ 135.180667419365932, 34.655433801928496 ], [ 135.184271751040569, 34.659294026698035 ], [ 135.187609299729502, 34.652775639784011 ], [ 135.183357886057706, 34.649501387179328 ], [ 135.151284773073826, 34.646089360235862 ], [ 135.149301893867346, 34.649017999780938 ], [ 135.146174642645747, 34.64772602743426 ], [ 135.15052505818494, 34.645669946111184 ], [ 135.136559273891407, 34.641032252036837 ], [ 135.129934228282082, 34.642414613443691 ], [ 135.131556108827453, 34.639524332681844 ], [ 135.127457223771898, 34.642524972849287 ], [ 135.110300920950749, 34.641069585592959 ], [ 135.074621140753152, 34.630899441256247 ], [ 135.074519467899222, 34.628320774684084 ], [ 135.057955370444006, 34.627401711619768 ], [ 135.055979882765428, 34.624220748388893 ], [ 135.05351654974902, 34.625077946190288 ], [ 135.057293606115081, 34.627225973300085 ], [ 135.051650336893545, 34.624437801563317 ], [ 135.038364085734088, 34.627460440946663 ], [ 135.018716964816122, 34.64313832397454 ], [ 135.032504721116084, 34.658439721116281 ], [ 135.026865551004448, 34.661865828745078 ], [ 135.022087497040388, 34.65731222487932 ], [ 135.014664721299937, 34.656942494700445 ], [ 135.017609170027185, 34.659661945642313 ], [ 135.013991945671819, 34.661602775247957 ], [ 134.999730557819021, 34.656906666609416 ], [ 134.98648306114444, 34.657409161903331 ], [ 134.981291659882231, 34.661207775018852 ], [ 134.979949442412931, 34.657708054283319 ], [ 134.976675278841071, 34.658630559053108 ], [ 134.970045551361181, 34.671475279060928 ], [ 134.971668885210988, 34.677213612917967 ], [ 134.964398885400328, 34.685264720690384 ], [ 134.966704994439965, 34.68973555904887 ], [ 134.963156393752683, 34.703360829438793 ], [ 134.966115836876384, 34.709270000310312 ], [ 134.962124993673569, 34.714252495356448 ], [ 134.942878327373023, 34.712626108308314 ], [ 134.929853061269796, 34.698201387384188 ], [ 134.921459442199534, 34.708884162374261 ], [ 134.913085836642153, 34.709750559340875 ], [ 134.910052218335295, 34.720325558677644 ], [ 134.923189727923614, 34.727773892251378 ], [ 134.949223060595841, 34.732905000265589 ], [ 134.966511945969614, 34.75133361265614 ], [ 134.961010829885936, 34.762815278802123 ], [ 134.97219166021705, 34.762361107679055 ], [ 134.982729442010168, 34.772211387445623 ], [ 135.001776939054594, 34.775665829114757 ], [ 135.000625278933512, 34.770262495417853 ], [ 135.024981115186392, 34.762428332901322 ], [ 135.038668612366678, 34.764731946322343 ], [ 135.040573605787358, 34.769844720757305 ], [ 135.047210558420602, 34.771661107574118 ], [ 135.054194448814769, 34.764798053687286 ], [ 135.061204720821252, 34.763754440814864 ], [ 135.078186394186787, 34.771156667046625 ], [ 135.08306555083459, 34.778606107685789 ], [ 135.094692775850945, 34.778660828734303 ], [ 135.092526393578282, 34.785546107566859 ], [ 135.095580830291169, 34.788117225229826 ], [ 135.086665837358623, 34.792669721130778 ], [ 135.081906393965028, 34.801514720727823 ], [ 135.074953605724431, 34.805718892113248 ], [ 135.075992502552026, 34.816052495426391 ], [ 135.081164721274945, 34.817052494776874 ], [ 135.086634163236113, 34.826054721048592 ], [ 135.092259169924773, 34.828065559278173 ], [ 135.092409999721781, 34.832317494556776 ], [ 135.100996393868513, 34.834548054249353 ], [ 135.111422218160897, 34.846370279265045 ], [ 135.122680272376783, 34.837565829199718 ], [ 135.140157223976757, 34.834493054410984 ], [ 135.150793605640501, 34.841834721195482 ], [ 135.155354449048673, 34.841117224979996 ], [ 135.158522218325743, 34.87616749503394 ], [ 135.154451672706614, 34.88268999994358 ], [ 135.16750610921963, 34.889144440563541 ], [ 135.15939778208201, 34.89385027896725 ], [ 135.155832218382216, 34.911714162078965 ], [ 135.150712502979673, 34.914606666864245 ], [ 135.152815551396657, 34.924857224980997 ], [ 135.145744163262634, 34.942635828980372 ], [ 135.12156167313276, 34.92914472125193 ], [ 135.107530271604787, 34.92981472067288 ], [ 135.103719999678333, 34.947634721365375 ], [ 135.096248885377804, 34.949533891675799 ], [ 135.092672502833807, 34.964569999605828 ], [ 135.100325279288313, 34.958196107664264 ], [ 135.116209727596924, 34.964595278649256 ], [ 135.121910557925958, 34.955600559018649 ], [ 135.126859727694296, 34.955944440883286 ], [ 135.139771387839346, 34.969938332588015 ], [ 135.141637782357861, 34.991617225254799 ], [ 135.157596109073211, 34.987711946249362 ], [ 135.166403332647747, 35.001118053655318 ], [ 135.170202218257828, 34.99540499974097 ], [ 135.175037223589015, 34.996466667402842 ], [ 135.175474448786872, 35.009112774834762 ], [ 135.188682776389101, 35.01439138695298 ], [ 135.196806667193982, 35.027281108136663 ], [ 135.210254449183594, 35.026249440958964 ], [ 135.220316939275335, 35.035297774572712 ], [ 135.227023060565898, 35.02833694639304 ], [ 135.235347781674818, 35.028688891579122 ], [ 135.237523333435206, 35.036144721002131 ], [ 135.241666666583455, 35.034480441019582 ], [ 135.241822776300182, 35.034361386968499 ] ] ] ] } },
{ "type": "Feature", "properties": { "code": "280012", "name": "北播丹波", "PrefCode": "28", "regioncode": "280012" }, "geometry": { "type": "Polygon", "coordinates": [ [ [ 134.941718612024374, 35.308303612821533 ], [ 134.96005333339474, 35.297912505058093 ], [ 134.99285888482973, 35.289053612734108 ], [ 134.99929138828702, 35.290843054063771 ], [ 134.999877782233966, 35.28733110794434 ], [ 135.011726939246955, 35.281119720798529 ], [ 135.010851388081164, 35.269581945950108 ], [ 135.03747000044018, 35.260688613189018 ], [ 135.04229055816279, 35.264129720610185 ], [ 135.049593061270798, 35.261962775361837 ], [ 135.056789170084244, 35.264602774798277 ], [ 135.055821945626349, 35.259211386796096 ], [ 135.067874720841701, 35.23735110806723 ], [ 135.08289972843977, 35.246379721347125 ], [ 135.093346109435515, 35.259780000246849 ], [ 135.098904449380939, 35.258820000043045 ], [ 135.108770272130414, 35.266280279311502 ], [ 135.128674448966763, 35.260716946330035 ], [ 135.137763890591145, 35.265249720997872 ], [ 135.15752972831433, 35.261092774811743 ], [ 135.161978612423127, 35.257818333349462 ], [ 135.166858340140379, 35.240344720932171 ], [ 135.161981115236358, 35.231241107790936 ], [ 135.154777782168935, 35.226501667118271 ], [ 135.163067223773396, 35.22009055943181 ], [ 135.17096666717805, 35.220266946162667 ], [ 135.175131388003251, 35.214600837758496 ], [ 135.182311945739798, 35.215924171263566 ], [ 135.188835006430509, 35.206828613349899 ], [ 135.197057782190996, 35.203017505053879 ], [ 135.200131946432293, 35.195520278937749 ], [ 135.187200000279859, 35.1911663866195 ], [ 135.190140000060978, 35.183186107652773 ], [ 135.187259170274501, 35.171758613069585 ], [ 135.194860557668676, 35.171293332621246 ], [ 135.20662999967476, 35.160614440903771 ], [ 135.228010271556855, 35.165333612656127 ], [ 135.232189441789387, 35.177504171180601 ], [ 135.273985005803411, 35.177262775156976 ], [ 135.28343250260798, 35.171453054015274 ], [ 135.289784163308582, 35.171753612839041 ], [ 135.291966394333713, 35.160494440765888 ], [ 135.283392775955917, 35.150885837611384 ], [ 135.278376109370015, 35.151023054370512 ], [ 135.287770830359591, 35.142643053733991 ], [ 135.340458339980501, 35.150092774961649 ], [ 135.340843605947725, 35.145535838208446 ], [ 135.337421115392203, 35.144015000092224 ], [ 135.342470000190474, 35.135873891766721 ], [ 135.354711672605617, 35.136655279417653 ], [ 135.372561946276846, 35.128969441186825 ], [ 135.38980999973171, 35.128765278894548 ], [ 135.385965550869514, 35.119985838075991 ], [ 135.393343891107747, 35.110794441210544 ], [ 135.389172502708902, 35.108333612806064 ], [ 135.388026109017801, 35.097125279408147 ], [ 135.397319169743923, 35.095850000277323 ], [ 135.404281388275535, 35.088993053686522 ], [ 135.400057496556315, 35.085816107727226 ], [ 135.399686394011951, 35.076163332571809 ], [ 135.376613606133105, 35.066024440575518 ], [ 135.377381673025866, 35.061020558751864 ], [ 135.3687288846304, 35.054889721183713 ], [ 135.371245551041397, 35.045288891769019 ], [ 135.351435278715257, 35.051286667445822 ], [ 135.348023061115441, 35.045363612840504 ], [ 135.338086939260847, 35.043603892305839 ], [ 135.330203891396536, 35.035223612879463 ], [ 135.336484720593489, 35.032718613373333 ], [ 135.339802775577709, 35.025877225053932 ], [ 135.322809441602544, 35.02471417142192 ], [ 135.323288339585247, 35.016077224584308 ], [ 135.315658611855497, 35.015939999731245 ], [ 135.308913890763506, 35.009671108135194 ], [ 135.29922055798238, 35.013178332813879 ], [ 135.287753890729505, 35.011535559218714 ], [ 135.285019441793906, 35.01584805394458 ], [ 135.25491500592284, 35.011511666929948 ], [ 135.251513606267963, 35.015460278868829 ], [ 135.254646667110023, 35.016247774715055 ], [ 135.253525836648123, 35.021532225232079 ], [ 135.24849639429317, 35.023148892407505 ], [ 135.251814449277504, 35.025301945828176 ], [ 135.238979441947777, 35.037093054301067 ], [ 135.235347781674818, 35.028688891579122 ], [ 135.227023060565898, 35.02833694639304 ], [ 135.220316939275335, 35.035297774572712 ], [ 135.210254449183594, 35.026249440958964 ], [ 135.196806667193982, 35.027281108136663 ], [ 135.188682776389101, 35.01439138695298 ], [ 135.175474448786872, 35.009112774834762 ], [ 135.175037223589015, 34.996466667402842 ], [ 135.170202218257828, 34.99540499974097 ], [ 135.166403332647747, 35.001118053655318 ], [ 135.159369727730791, 34.988135829105261 ], [ 135.145568054422256, 34.99237277538333 ], [ 135.1395452793912, 34.989927775046851 ], [ 135.139771387839346, 34.969938332588015 ], [ 135.124012217789641, 34.955121386742633 ], [ 135.116209727596924, 34.964595278649256 ], [ 135.098267782432231, 34.959103892330802 ], [ 135.092672502833807, 34.964569999605828 ], [ 135.093656939416292, 34.99098582923267 ], [ 135.079688611840083, 34.988272775168468 ], [ 135.08007834024329, 34.994655279017991 ], [ 135.072537782093036, 34.993314162318768 ], [ 135.070427781916692, 35.003216666615913 ], [ 135.06593917025657, 35.00276083804232 ], [ 135.059433333381662, 35.008902224658016 ], [ 135.04419360634995, 34.993790278698441 ], [ 135.0452002723747, 34.987018053640327 ], [ 135.052405279080403, 34.98166638689429 ], [ 135.051337224433382, 34.976743333438151 ], [ 135.031657496796129, 34.965350828777787 ], [ 135.017505551040358, 34.966533892325344 ], [ 135.009969441836347, 34.962332224652471 ], [ 135.003995006264631, 34.964658332815873 ], [ 135.001308611703166, 34.959762494643485 ], [ 134.984511114996053, 34.959866946402485 ], [ 134.973122775995421, 34.952835829010326 ], [ 134.96662360579478, 34.954916387181584 ], [ 134.963340557820516, 34.961084721083068 ], [ 134.933847497264196, 34.960565000174654 ], [ 134.925865550954427, 34.956549440904041 ], [ 134.894773333022954, 34.964338891826458 ], [ 134.89197527863621, 34.981160558712872 ], [ 134.885579169842913, 34.983309162288037 ], [ 134.873427497081366, 34.980422495002188 ], [ 134.862101946048028, 34.984645278756659 ], [ 134.86060749673868, 35.00595694585644 ], [ 134.849891945956642, 35.012223332840563 ], [ 134.848186109201606, 35.024286666996147 ], [ 134.837937223823928, 35.037558612639941 ], [ 134.848120830112293, 35.047283053869876 ], [ 134.835018611719647, 35.064068891765999 ], [ 134.842473060683233, 35.070201667373112 ], [ 134.845003061342254, 35.083958612899721 ], [ 134.856236939083487, 35.0891516671158 ], [ 134.849589170304057, 35.103978892212183 ], [ 134.853394994183645, 35.112817504824022 ], [ 134.86546916966654, 35.117672774578921 ], [ 134.865733332926993, 35.124476946254106 ], [ 134.872582775574642, 35.128770837604122 ], [ 134.875445836556196, 35.139516387071637 ], [ 134.890662775666669, 35.146244171231558 ], [ 134.903621387617022, 35.160936945883407 ], [ 134.902479727957143, 35.16873138714385 ], [ 134.897642775593681, 35.171676387155571 ], [ 134.903163060726683, 35.182063332856558 ], [ 134.907332502992631, 35.182664721199956 ], [ 134.907533605791286, 35.188781107562136 ], [ 134.90147832656362, 35.194512504948193 ], [ 134.906423890949895, 35.201580278706956 ], [ 134.915435551109908, 35.205323891984108 ], [ 134.91870805363385, 35.212010559140026 ], [ 134.912130830373599, 35.220016108156926 ], [ 134.899351115161949, 35.226175558555212 ], [ 134.906703332792631, 35.228919721068337 ], [ 134.909104162926837, 35.234581667410055 ], [ 134.903740271696279, 35.238646666910199 ], [ 134.902008326722921, 35.250604999820951 ], [ 134.90712693865737, 35.260514999967313 ], [ 134.915223891169717, 35.266539170746171 ], [ 134.915580000216892, 35.272839440587745 ], [ 134.922994449134535, 35.277390279038173 ], [ 134.925234720605886, 35.2891433326987 ], [ 134.938168885385835, 35.300437224898076 ], [ 134.937614448847853, 35.307610559279965 ], [ 134.941666667182972, 35.308321252124131 ], [ 134.941718612024374, 35.308303612821533 ] ] ] } },
{ "type": "Feature", "properties": { "code": "280013", "name": "播磨北西部", "PrefCode": "28", "regioncode": "280013" }, "geometry": { "type": "Polygon", "coordinates": [ [ [ 134.525262775756573, 35.325092774611903 ], [ 134.579619728367788, 35.295997225191854 ], [ 134.583110830000919, 35.278096945617619 ], [ 134.600612503064667, 35.266621667356105 ], [ 134.613369999625888, 35.269442774964148 ], [ 134.6197519458957, 35.277962774862203 ], [ 134.627759441944704, 35.280753333399673 ], [ 134.641325551333239, 35.274313333193845 ], [ 134.65379138786227, 35.253412774979608 ], [ 134.660951659591433, 35.251934721210489 ], [ 134.668380557916521, 35.256257225390698 ], [ 134.670276109354973, 35.25023305371252 ], [ 134.682036938553892, 35.241653891913643 ], [ 134.694428611591206, 35.248844999597111 ], [ 134.697114993562195, 35.241816386816822 ], [ 134.690408327282512, 35.234736386774898 ], [ 134.697741946034057, 35.228592505439849 ], [ 134.697751659611413, 35.214482801739962 ], [ 134.703541115430198, 35.210755279132854 ], [ 134.710400271655317, 35.212056108003026 ], [ 134.71404221837372, 35.205172775303367 ], [ 134.720203605911706, 35.20227805368927 ], [ 134.721288885273907, 35.195774440837852 ], [ 134.72824138842941, 35.193265837748243 ], [ 134.717529442130058, 35.179346945904854 ], [ 134.728573891172232, 35.165737505381628 ], [ 134.723515279306753, 35.159947224884547 ], [ 134.729578885357341, 35.147233892230417 ], [ 134.735282502685436, 35.141071386835108 ], [ 134.755211945974565, 35.136605558599683 ], [ 134.767514721027624, 35.145352225424915 ], [ 134.766656393677636, 35.136306387429897 ], [ 134.774140272056002, 35.125467224832619 ], [ 134.79028999968375, 35.142491667256706 ], [ 134.805435836594597, 35.140050278597528 ], [ 134.816888612019852, 35.14394027902074 ], [ 134.825692502706943, 35.13452166664166 ], [ 134.844402217987977, 35.149034441086656 ], [ 134.844328884570473, 35.162172775353326 ], [ 134.879414163433012, 35.17512055856696 ], [ 134.889649999647872, 35.195598054106938 ], [ 134.905841388369481, 35.192180559285418 ], [ 134.90742111499253, 35.182820278732947 ], [ 134.903163060726683, 35.182063332856558 ], [ 134.897642775593681, 35.171676387155571 ], [ 134.902479727957143, 35.16873138714385 ], [ 134.903563606175567, 35.160828054171418 ], [ 134.890662775666669, 35.146244171231558 ], [ 134.875445836556196, 35.139516387071637 ], [ 134.872582775574642, 35.128770837604122 ], [ 134.865733332926993, 35.124476946254106 ], [ 134.865642218113976, 35.117852504989173 ], [ 134.853394994183645, 35.112817504824022 ], [ 134.849589170304057, 35.103978892212183 ], [ 134.856236939083487, 35.0891516671158 ], [ 134.845003061342254, 35.083958612899721 ], [ 134.842473060683233, 35.070201667373112 ], [ 134.835018611719647, 35.064068891765999 ], [ 134.848120830112293, 35.047283053869876 ], [ 134.837937223823928, 35.037558612639941 ], [ 134.848461388082683, 35.022167224837631 ], [ 134.832523332985488, 35.005280558550965 ], [ 134.83429972785018, 34.997864441390902 ], [ 134.830426667057054, 34.990060279358431 ], [ 134.822697224297485, 34.992140558739834 ], [ 134.821597497326707, 34.987265000279592 ], [ 134.813298611941491, 34.98446138718333 ], [ 134.81096722385837, 34.973863332826625 ], [ 134.796138326922346, 34.953929440591253 ], [ 134.800523605579997, 34.934869720861002 ], [ 134.794246109270603, 34.929256667061566 ], [ 134.795373606406883, 34.918271945593858 ], [ 134.784603332777692, 34.917641667429052 ], [ 134.779032776441568, 34.923114161689284 ], [ 134.768605551005408, 34.924987495376683 ], [ 134.767333890746499, 34.935680829306875 ], [ 134.760448054334347, 34.93328500030259 ], [ 134.755979170202636, 34.937462774787264 ], [ 134.748434163106253, 34.934262774707349 ], [ 134.746818326904304, 34.937621387317222 ], [ 134.72907333326782, 34.938095829159238 ], [ 134.725125551403153, 34.94788694612572 ], [ 134.71839610889333, 34.951088054170441 ], [ 134.715070829655133, 34.957340278631023 ], [ 134.717303061187408, 34.966283333109402 ], [ 134.712984163288525, 34.972856945591616 ], [ 134.706479441573038, 34.973912225368963 ], [ 134.704881115171361, 34.980073891696804 ], [ 134.709420829907458, 34.983478613447289 ], [ 134.712304449390899, 34.99380694583391 ], [ 134.708159170109639, 34.999386945950846 ], [ 134.700996393768605, 35.000990838256655 ], [ 134.694774993571173, 35.012919721068329 ], [ 134.705995837437968, 35.019852504789299 ], [ 134.7120066667743, 35.033155558882015 ], [ 134.720901114694698, 35.035778613292393 ], [ 134.721460557758633, 35.042032225406956 ], [ 134.718162776191207, 35.044663891725293 ], [ 134.720309727711879, 35.053150837940848 ], [ 134.717396108643584, 35.056527775136772 ], [ 134.710429169570602, 35.053207774918917 ], [ 134.701509727691814, 35.05846027881887 ], [ 134.702335836829434, 35.064438612951676 ], [ 134.698226393733194, 35.069435278615288 ], [ 134.70032166031649, 35.076623333100372 ], [ 134.685600557919429, 35.08202805355188 ], [ 134.6850697276858, 35.092624440565544 ], [ 134.675236667238437, 35.094363332801606 ], [ 134.662308611553271, 35.089715837915662 ], [ 134.659263061041543, 35.081011666755046 ], [ 134.648089728358286, 35.088463333216282 ], [ 134.635683605913755, 35.087681666775552 ], [ 134.627313890823416, 35.081983332964512 ], [ 134.623698326616591, 35.086450558746321 ], [ 134.618335278949985, 35.085117775165259 ], [ 134.606036939353316, 35.069192504830312 ], [ 134.606239999976083, 35.060662505370374 ], [ 134.613021945806167, 35.061188613263937 ], [ 134.599259169974744, 35.059074441132623 ], [ 134.598008327222601, 35.050358333270538 ], [ 134.591428611940955, 35.043796108004017 ], [ 134.59414416342247, 35.041022775081046 ], [ 134.591229727769814, 35.03476472121497 ], [ 134.594400829934443, 35.022891386828064 ], [ 134.592461659578021, 35.016401666703587 ], [ 134.583024163234654, 35.005856107573379 ], [ 134.584626666987106, 35.000031946017543 ], [ 134.579238885266363, 34.994094999584604 ], [ 134.5786933331309, 34.987109720637136 ], [ 134.570388326959801, 34.985829441275769 ], [ 134.564217497439586, 34.977268613056083 ], [ 134.565287497320242, 34.970856386612979 ], [ 134.573370829600208, 34.968030278774393 ], [ 134.575153332660193, 34.963869999700762 ], [ 134.57044666688023, 34.954320559346399 ], [ 134.5544874966007, 34.952966387189065 ], [ 134.548785278617743, 34.955769720596209 ], [ 134.548250000337362, 34.967863612815506 ], [ 134.553581659865813, 34.972390279287993 ], [ 134.551959728059046, 34.975393891714759 ], [ 134.535805278990551, 34.967951107857402 ], [ 134.516639727941197, 34.975024162435204 ], [ 134.508400830034361, 34.9876563870327 ], [ 134.511629999624802, 35.000877504793038 ], [ 134.503356939171454, 35.003097224957003 ], [ 134.487386109181671, 35.000087775030863 ], [ 134.49290000013491, 35.004890558552461 ], [ 134.487321660166572, 35.008691107908362 ], [ 134.473518611794589, 34.987828892289599 ], [ 134.475924994343131, 34.978909441417613 ], [ 134.467304163356516, 34.977562224617031 ], [ 134.463153332560296, 34.968655559406614 ], [ 134.451671660119132, 34.970472494809826 ], [ 134.43936722401827, 34.966346666965137 ], [ 134.428314449052664, 34.955312775064556 ], [ 134.42666111471874, 34.950292495002714 ], [ 134.429660830383114, 34.945536387194579 ], [ 134.414933606300906, 34.93803972135612 ], [ 134.394463060721705, 34.938065828675121 ], [ 134.388992776095847, 34.934248333393896 ], [ 134.381591388032234, 34.941215278762172 ], [ 134.360090830027843, 34.942444721246943 ], [ 134.337863606320411, 34.924874161913067 ], [ 134.327486393981985, 34.929129720560184 ], [ 134.333701945888151, 34.938215000122227 ], [ 134.326467223783425, 34.937806667443795 ], [ 134.317943890997867, 34.930297224937021 ], [ 134.313994720579899, 34.933154441224531 ], [ 134.314390558077889, 34.927887774801036 ], [ 134.297955551107862, 34.920746946414511 ], [ 134.300381115296318, 34.914798612765821 ], [ 134.295014993747031, 34.907462494798324 ], [ 134.284019170148667, 34.916966108399208 ], [ 134.284491659562491, 34.921034721375349 ], [ 134.274799441940786, 34.924280279311517 ], [ 134.276096393833541, 34.929680279221543 ], [ 134.273086666916242, 34.932550559061099 ], [ 134.267354163363962, 34.936474999921359 ], [ 134.262679169907869, 34.937657225300768 ], [ 134.258849169553628, 34.934042494765379 ], [ 134.254094163414948, 34.937656666821795 ], [ 134.254326394447617, 34.946218333209572 ], [ 134.276972775972922, 34.963203612856489 ], [ 134.273344721082026, 34.967417495121367 ], [ 134.27696832702668, 34.976759441195327 ], [ 134.269648885187962, 34.978564721384828 ], [ 134.270884994347057, 34.983767224777637 ], [ 134.286681388235593, 34.99611222479939 ], [ 134.2652558372871, 35.005305837594392 ], [ 134.263400558389094, 35.01134694620464 ], [ 134.268583060859669, 35.012438612551989 ], [ 134.264358611560738, 35.016560837712518 ], [ 134.268622503325901, 35.018030278674473 ], [ 134.267598054106998, 35.021537505151798 ], [ 134.275521945581431, 35.023472224763395 ], [ 134.2815908297531, 35.037232225287028 ], [ 134.292547224374971, 35.037538332927795 ], [ 134.297348612148767, 35.043104171420453 ], [ 134.305305279415165, 35.040169170970501 ], [ 134.30775000006247, 35.045912505058141 ], [ 134.316873891117211, 35.043528892444499 ], [ 134.314540271816099, 35.060904440987201 ], [ 134.321731115098942, 35.068803054317527 ], [ 134.318923891224699, 35.083281945905128 ], [ 134.332840829740576, 35.086153332810113 ], [ 134.337179441677904, 35.091362224986767 ], [ 134.340426393563234, 35.088713892432224 ], [ 134.350347496739687, 35.091036945598603 ], [ 134.355077782313856, 35.099181667400103 ], [ 134.352951945975633, 35.113465558988423 ], [ 134.360747496999466, 35.120218891988316 ], [ 134.35620944241191, 35.124416667395337 ], [ 134.367393333135851, 35.14696138685855 ], [ 134.374936109014243, 35.150976107961071 ], [ 134.394320000167909, 35.152738333107663 ], [ 134.407021388026692, 35.147330558558508 ], [ 134.412004162761946, 35.152648332554577 ], [ 134.413128053616788, 35.158822225165636 ], [ 134.406140557840558, 35.165504721265904 ], [ 134.412633332962059, 35.177649721057833 ], [ 134.412068611777045, 35.185457224971003 ], [ 134.382992503001674, 35.194438891841457 ], [ 134.379896109318111, 35.210262504610967 ], [ 134.382395551013929, 35.221582505028664 ], [ 134.396939442001667, 35.227471108404984 ], [ 134.40281444942741, 35.241024441125091 ], [ 134.422846938835278, 35.23716638731895 ], [ 134.434965836704009, 35.229194999949357 ], [ 134.447766108619135, 35.237920000307838 ], [ 134.463472217768754, 35.236823054040769 ], [ 134.461767223678521, 35.244029171409181 ], [ 134.477458611825568, 35.24947944072369 ], [ 134.486393060691285, 35.262737505331643 ], [ 134.490013061253876, 35.261401387064438 ], [ 134.515370830399547, 35.277308332813334 ], [ 134.509274162572638, 35.294028054351259 ], [ 134.514802217848114, 35.307672224893338 ], [ 134.503428327355437, 35.31850777491394 ], [ 134.504549727987637, 35.337269441331728 ], [ 134.523529999809739, 35.329427774871988 ], [ 134.525186938626348, 35.325279440593761 ], [ 134.525262775756573, 35.325092774611903 ] ] ] } },
{ "type": "Feature", "properties": { "code": "280014", "name": "播磨南東部", "PrefCode": "28", "regioncode": "280014" }, "geometry": { "type": "MultiPolygon", "coordinates": [ [ [ [ 134.985094254296428, 34.640867891939706 ], [ 134.988479610945319, 34.640374558938788 ], [ 134.983540271666243, 34.640956414007348 ], [ 134.985094254296428, 34.640867891939706 ] ] ], [ [ [ 134.994509104811414, 34.644600639607859 ], [ 134.990242023150927, 34.643175973192683 ], [ 134.993666939177956, 34.644582747595791 ], [ 134.994509104811414, 34.644600639607859 ] ] ], [ [ [ 134.871545550586802, 34.700776802007852 ], [ 134.88621294367249, 34.689487694201773 ], [ 134.883282697938171, 34.690956693596604 ], [ 134.877600415226993, 34.684414640123578 ], [ 134.85736769086634, 34.691981532221973 ], [ 134.861715966019119, 34.697161639797912 ], [ 134.868968754604452, 34.695790585567124 ], [ 134.870340700063366, 34.698483278980177 ], [ 134.86382033733878, 34.700689639715165 ], [ 134.864913501956607, 34.70284430562026 ], [ 134.871518781366717, 34.700788027345652 ], [ 134.871545550586802, 34.700776802007852 ] ] ], [ [ [ 134.855623165276938, 34.7102504142253 ], [ 134.862116328905472, 34.707442080587612 ], [ 134.853258585915114, 34.6941481618083 ], [ 134.836490777627318, 34.697294585676616 ], [ 134.840023113176244, 34.696714225281312 ], [ 134.845889338722031, 34.708246613190681 ], [ 134.853145667938293, 34.705732559310206 ], [ 134.854414747142982, 34.708230721270809 ], [ 134.8478813883155, 34.712252747566311 ], [ 134.854644332370071, 34.710588775151905 ], [ 134.855623165276938, 34.7102504142253 ] ] ], [ [ [ 134.806136498400747, 34.716284919113775 ], [ 134.805970855870328, 34.713161053839599 ], [ 134.806140584020795, 34.716323134904826 ], [ 134.806136498400747, 34.716284919113775 ] ] ], [ [ [ 134.944680390687495, 34.661737446026393 ], [ 134.923696965342742, 34.673398730167321 ], [ 134.909039947735437, 34.675999081192685 ], [ 134.910601244551913, 34.67339733262088 ], [ 134.89561194633427, 34.688994918780509 ], [ 134.889334720720854, 34.692837197578683 ], [ 134.886624968067849, 34.690675080790413 ], [ 134.888637587854419, 34.693192305680441 ], [ 134.885521219328893, 34.69194155915568 ], [ 134.858353022274173, 34.713778918662229 ], [ 134.846498884815787, 34.715559748083933 ], [ 134.848205253070091, 34.719592945757881 ], [ 134.845092023178381, 34.71552777538659 ], [ 134.846736977629462, 34.719015919149399 ], [ 134.84370045361311, 34.721385963691318 ], [ 134.836581530013632, 34.707368468380139 ], [ 134.82853936420031, 34.710159467585413 ], [ 134.826652438159613, 34.706426945647081 ], [ 134.831594163340014, 34.69818499094464 ], [ 134.826597522857469, 34.706367612875113 ], [ 134.808803774274793, 34.718478306228917 ], [ 134.815234474591421, 34.731319559350254 ], [ 134.81101038861857, 34.732033532021944 ], [ 134.8063787811559, 34.716465720616554 ], [ 134.810937419426409, 34.73201753218342 ], [ 134.800698559690886, 34.731722441237707 ], [ 134.799239377295521, 34.735912801734457 ], [ 134.797280531571346, 34.729832107665686 ], [ 134.787245317917154, 34.740186252393698 ], [ 134.792039182862027, 34.744736467613961 ], [ 134.789447601125971, 34.74695929673419 ], [ 134.785349805149508, 34.740571828627026 ], [ 134.769436226001062, 34.751491639727419 ], [ 134.766395383440226, 34.752602946368938 ], [ 134.763320596868084, 34.748494586056381 ], [ 134.757229247631699, 34.751841036234907 ], [ 134.760827963939391, 34.758684829341462 ], [ 134.766141297083209, 34.759857747637 ], [ 134.761306109189604, 34.76215082909755 ], [ 134.76723888456695, 34.781953891558885 ], [ 134.757434448640993, 34.793508053853657 ], [ 134.759455279237841, 34.787847225369205 ], [ 134.752258611945422, 34.783274161973054 ], [ 134.75008693896109, 34.773714161779196 ], [ 134.745079441862799, 34.787754161725218 ], [ 134.748508885077058, 34.790205828736077 ], [ 134.74266749700746, 34.798008613007141 ], [ 134.74643583714419, 34.80619916156212 ], [ 134.746874163112238, 34.798782494916281 ], [ 134.751486667175982, 34.795412225294001 ], [ 134.764342217719218, 34.796578612712835 ], [ 134.773500558204205, 34.808259720609669 ], [ 134.771452503330465, 34.813170829270405 ], [ 134.779416393951465, 34.81657000040525 ], [ 134.775690830067788, 34.823522775155993 ], [ 134.768599441910737, 34.821828054021523 ], [ 134.763616938770724, 34.825283612648661 ], [ 134.764598054156977, 34.830259162230618 ], [ 134.774946667155064, 34.828686107677754 ], [ 134.775979728281868, 34.838977774704574 ], [ 134.78622861186102, 34.836663613135272 ], [ 134.790331388282993, 34.840164440936235 ], [ 134.79885277583503, 34.839840559094569 ], [ 134.79870805423343, 34.844510558615411 ], [ 134.805388053815705, 34.844326387352965 ], [ 134.80100972781679, 34.846826667216988 ], [ 134.801419727838265, 34.855161666677645 ], [ 134.79435555136763, 34.865683613208262 ], [ 134.805043891362516, 34.861845559425092 ], [ 134.813634994359518, 34.867100558943719 ], [ 134.808618054379735, 34.874510828711834 ], [ 134.789226108897878, 34.881147224664744 ], [ 134.785971115274833, 34.888607774629122 ], [ 134.793979169802924, 34.895369440747118 ], [ 134.796713332754166, 34.905590000178393 ], [ 134.79313972821592, 34.916323333255264 ], [ 134.795742502914209, 34.919648332804343 ], [ 134.794246109270603, 34.929256667061566 ], [ 134.800523605579997, 34.934869720861002 ], [ 134.79609778188717, 34.95378138700147 ], [ 134.81096722385837, 34.973863332826625 ], [ 134.813298611941491, 34.98446138718333 ], [ 134.821597497326707, 34.987265000279592 ], [ 134.822697224297485, 34.992140558739834 ], [ 134.830426667057054, 34.990060279358431 ], [ 134.83429972785018, 34.997864441390902 ], [ 134.832523332985488, 35.005280558550965 ], [ 134.84671333265419, 35.018464170984771 ], [ 134.851542775678581, 35.010244720917171 ], [ 134.86060749673868, 35.00595694585644 ], [ 134.862154163384048, 34.984573612682141 ], [ 134.873427497081366, 34.980422495002188 ], [ 134.885579169842913, 34.983309162288037 ], [ 134.89197527863621, 34.981160558712872 ], [ 134.894773333022954, 34.964338891826458 ], [ 134.925865550954427, 34.956549440904041 ], [ 134.933847497264196, 34.960565000174654 ], [ 134.963340557820516, 34.961084721083068 ], [ 134.96662360579478, 34.954916387181584 ], [ 134.973122775995421, 34.952835829010326 ], [ 134.984511114996053, 34.959866946402485 ], [ 135.001308611703166, 34.959762494643485 ], [ 135.003995006264631, 34.964658332815873 ], [ 135.009969441836347, 34.962332224652471 ], [ 135.015246667200017, 34.966193891934608 ], [ 135.031657496796129, 34.965350828777787 ], [ 135.042103891281613, 34.969168612741328 ], [ 135.052412503334381, 34.98149361274011 ], [ 135.0452002723747, 34.987018053640327 ], [ 135.044947223835379, 34.996528333016215 ], [ 135.059433333381662, 35.008902224658016 ], [ 135.06593917025657, 35.00276083804232 ], [ 135.070427781916692, 35.003216666615913 ], [ 135.072537782093036, 34.993314162318768 ], [ 135.08007834024329, 34.994655279017991 ], [ 135.079688611840083, 34.988272775168468 ], [ 135.093656939416292, 34.99098582923267 ], [ 135.092495551328739, 34.956780000096956 ], [ 135.096248885377804, 34.949533891675799 ], [ 135.103719999678333, 34.947634721365375 ], [ 135.107530271604787, 34.92981472067288 ], [ 135.12156167313276, 34.92914472125193 ], [ 135.141780830321181, 34.942253612614195 ], [ 135.146664163420496, 34.941640828961113 ], [ 135.152815551396657, 34.924857224980997 ], [ 135.150712502979673, 34.914606666864245 ], [ 135.155832218382216, 34.911714162078965 ], [ 135.15939778208201, 34.89385027896725 ], [ 135.16750610921963, 34.889144440563541 ], [ 135.154451672706614, 34.88268999994358 ], [ 135.158522218325743, 34.87616749503394 ], [ 135.155354449048673, 34.841117224979996 ], [ 135.150793605640501, 34.841834721195482 ], [ 135.140157223976757, 34.834493054410984 ], [ 135.122680272376783, 34.837565829199718 ], [ 135.111422218160897, 34.846370279265045 ], [ 135.100996393868513, 34.834548054249353 ], [ 135.092409999721781, 34.832317494556776 ], [ 135.092259169924773, 34.828065559278173 ], [ 135.086634163236113, 34.826054721048592 ], [ 135.081164721274945, 34.817052494776874 ], [ 135.075992502552026, 34.816052495426391 ], [ 135.074953605724431, 34.805718892113248 ], [ 135.081906393965028, 34.801514720727823 ], [ 135.086665837358623, 34.792669721130778 ], [ 135.095580830291169, 34.788117225229826 ], [ 135.092526393578282, 34.785546107566859 ], [ 135.094640000036065, 34.77862055889176 ], [ 135.08306555083459, 34.778606107685789 ], [ 135.078186394186787, 34.771156667046625 ], [ 135.061204720821252, 34.763754440814864 ], [ 135.054194448814769, 34.764798053687286 ], [ 135.047210558420602, 34.771661107574118 ], [ 135.040573605787358, 34.769844720757305 ], [ 135.038668612366678, 34.764731946322343 ], [ 135.024981115186392, 34.762428332901322 ], [ 135.000625278933512, 34.770262495417853 ], [ 135.001776939054594, 34.775665829114757 ], [ 134.983602776347084, 34.772502495293963 ], [ 134.97219166021705, 34.762361107679055 ], [ 134.961010829885936, 34.762815278802123 ], [ 134.966511945969614, 34.75133361265614 ], [ 134.949223060595841, 34.732905000265589 ], [ 134.923189727923614, 34.727773892251378 ], [ 134.910052218335295, 34.720325558677644 ], [ 134.913085836642153, 34.709750559340875 ], [ 134.921459442199534, 34.708884162374261 ], [ 134.92970444920104, 34.698201387384188 ], [ 134.942878327373023, 34.712626108308314 ], [ 134.962313060799147, 34.714129720810035 ], [ 134.966115836876384, 34.709270000310312 ], [ 134.963156393752683, 34.703360829438793 ], [ 134.966704994439965, 34.68973555904887 ], [ 134.964398885400328, 34.685264720690384 ], [ 134.971668885210988, 34.677213612917967 ], [ 134.970045551361181, 34.671475279060928 ], [ 134.976675278841071, 34.658630559053108 ], [ 134.979949442412931, 34.657708054283319 ], [ 134.981291659882231, 34.661207775018852 ], [ 134.98648306114444, 34.657409161903331 ], [ 134.999730557819021, 34.656906666609416 ], [ 135.013991945671819, 34.661602775247957 ], [ 135.017609170027185, 34.659661945642313 ], [ 135.014664721299937, 34.656942494700445 ], [ 135.022087497040388, 34.65731222487932 ], [ 135.026865551004448, 34.661865828745078 ], [ 135.032516666810807, 34.658508891572126 ], [ 135.0172859141137, 34.641034054278236 ], [ 134.991317951362475, 34.64160902683517 ], [ 134.994791362431442, 34.644924278632629 ], [ 134.988726277895466, 34.645676252157386 ], [ 134.990482776159297, 34.641212360162342 ], [ 134.981948521107483, 34.640120441105523 ], [ 134.963760194977112, 34.647157693672682 ], [ 134.966246640570034, 34.643948891927892 ], [ 134.94472868967739, 34.661721081063092 ], [ 134.944680390687495, 34.661737446026393 ] ] ] ] } },
{ "type": "Feature", "properties": { "code": "280015", "name": "播磨南西部", "PrefCode": "28", "regioncode": "280015" }, "geometry": { "type": "MultiPolygon", "coordinates": [ [ [ [ 134.461459442399359, 34.596778892132193 ], [ 134.46116194576723, 34.594236387299475 ], [ 134.461438884796735, 34.596761946206925 ], [ 134.461459442399359, 34.596778892132193 ] ] ], [ [ [ 134.467763061316305, 34.597573891921627 ], [ 134.466659169585114, 34.59471666664092 ], [ 134.467694994328554, 34.597602225062701 ], [ 134.467763061316305, 34.597573891921627 ] ] ], [ [ [ 134.484014720802747, 34.599932774977617 ], [ 134.482653333384746, 34.594193054366031 ], [ 134.476158884624851, 34.593290829308387 ], [ 134.479463891345517, 34.599642495404908 ], [ 134.483871115259831, 34.599952224615549 ], [ 134.484014720802747, 34.599932774977617 ] ] ], [ [ [ 134.472192217896577, 34.612671946053524 ], [ 134.47459805365736, 34.610818053910123 ], [ 134.472022218150869, 34.609194720959636 ], [ 134.472199169656051, 34.612621387067406 ], [ 134.472192217896577, 34.612671946053524 ] ] ], [ [ [ 134.500968327226587, 34.636099440936505 ], [ 134.497160829708605, 34.629659161940822 ], [ 134.497737496588229, 34.635401108374481 ], [ 134.500904720876179, 34.636182774815268 ], [ 134.500968327226587, 34.636099440936505 ] ] ], [ [ [ 134.482263333386186, 34.640822495062139 ], [ 134.480000829774553, 34.639295000164168 ], [ 134.482283605903717, 34.640828053771713 ], [ 134.482263333386186, 34.640822495062139 ] ] ], [ [ [ 134.585553891399059, 34.643303891861194 ], [ 134.587949170018192, 34.637428891630123 ], [ 134.585415837371102, 34.643722494797373 ], [ 134.585553891399059, 34.643303891861194 ] ] ], [ [ [ 134.533713332704224, 34.64652389196408 ], [ 134.534343061383197, 34.643271107975295 ], [ 134.529238326887366, 34.64269361282004 ], [ 134.533619170088741, 34.646542495339929 ], [ 134.533713332704224, 34.64652389196408 ] ] ], [ [ [ 134.519437859669551, 34.648323613444063 ], [ 134.515528171288111, 34.645693720588781 ], [ 134.519817134353275, 34.649170612933517 ], [ 134.519437859669551, 34.648323613444063 ] ] ], [ [ [ 134.441108885266885, 34.653885000292576 ], [ 134.441463333266256, 34.648880559090571 ], [ 134.433367496812593, 34.648283054019771 ], [ 134.441074720921733, 34.65391333343365 ], [ 134.441108885266885, 34.653885000292576 ] ] ], [ [ [ 134.528132775906897, 34.65703277494265 ], [ 134.52660416315166, 34.654703612681658 ], [ 134.528060830143204, 34.657023892338827 ], [ 134.528132775906897, 34.65703277494265 ] ] ], [ [ [ 134.515590558157783, 34.659586107612824 ], [ 134.518320389074802, 34.648951747625119 ], [ 134.513774163247149, 34.651013054009297 ], [ 134.509717691118567, 34.647832278736701 ], [ 134.512917223551085, 34.647649999647797 ], [ 134.511579857024799, 34.643717197790522 ], [ 134.517819442413384, 34.644455559176777 ], [ 134.514431387798368, 34.64216999964583 ], [ 134.518762502987215, 34.64108527876266 ], [ 134.515421115092408, 34.635379162218612 ], [ 134.500837224058728, 34.643831387408682 ], [ 134.503648611794119, 34.651312225179083 ], [ 134.513891945656837, 34.654218612798786 ], [ 134.511217664963283, 34.654081864586431 ], [ 134.515452775725066, 34.659576667429292 ], [ 134.515590558157783, 34.659586107612824 ] ] ], [ [ [ 134.487329442000259, 34.671605107889491 ], [ 134.495998327361008, 34.66800425209459 ], [ 134.490045382888184, 34.658416414286137 ], [ 134.495135551064891, 34.659374999856425 ], [ 134.493506004698474, 34.652666224666575 ], [ 134.498200558409053, 34.652756108307813 ], [ 134.500056938976627, 34.644038333102628 ], [ 134.492826109137695, 34.645190558897241 ], [ 134.484117223731005, 34.641160559212494 ], [ 134.49075817115272, 34.647683919377414 ], [ 134.482726394307747, 34.6463738922414 ], [ 134.481140830185268, 34.649947225184349 ], [ 134.467583332704748, 34.640341107755944 ], [ 134.458497664635615, 34.64525025229733 ], [ 134.461670829844934, 34.646976386750907 ], [ 134.461098054331842, 34.658609720861989 ], [ 134.464963579705454, 34.656822305704907 ], [ 134.463717133738783, 34.664196829220316 ], [ 134.469838884556907, 34.667090279193076 ], [ 134.467069221767247, 34.661601107904858 ], [ 134.475216109136227, 34.657965828760041 ], [ 134.478654059936957, 34.663812639741593 ], [ 134.482330557709133, 34.658343613267164 ], [ 134.487238560111564, 34.662857585808979 ], [ 134.4842747732622, 34.671012414191637 ], [ 134.487322697984155, 34.671660945896008 ], [ 134.487329442000259, 34.671605107889491 ] ] ], [ [ [ 134.573378781405722, 34.676681162105979 ], [ 134.591208469595244, 34.665433198283552 ], [ 134.584816666755842, 34.655114162188909 ], [ 134.57867847003547, 34.656199694260522 ], [ 134.575915837246157, 34.650877224904036 ], [ 134.571001115109425, 34.652373053773488 ], [ 134.561550830406532, 34.6687419461839 ], [ 134.573405913951888, 34.676759802423021 ], [ 134.573378781405722, 34.676681162105979 ] ] ], [ [ [ 134.6078830613543, 34.679335558789035 ], [ 134.610770557815044, 34.675157494722669 ], [ 134.606461946361833, 34.676896666647906 ], [ 134.607806939138982, 34.679350000102488 ], [ 134.6078830613543, 34.679335558789035 ] ] ], [ [ [ 134.535588611625144, 34.686552225205105 ], [ 134.537632502637962, 34.68463166721773 ], [ 134.534048715975473, 34.679868891835952 ], [ 134.528773890902357, 34.681434161857112 ], [ 134.527525693955681, 34.677233441170415 ], [ 134.532252217665814, 34.676711945899626 ], [ 134.53232294394877, 34.672792305620476 ], [ 134.535762580978371, 34.67946053217787 ], [ 134.540898054301806, 34.677313333343704 ], [ 134.545908054213442, 34.679825828699109 ], [ 134.542948611988891, 34.670043613222219 ], [ 134.545975279435652, 34.662565000374514 ], [ 134.541897223578076, 34.658194720609913 ], [ 134.535902776292119, 34.658445278926536 ], [ 134.52635165960146, 34.666737494939468 ], [ 134.522434475370801, 34.66452713491941 ], [ 134.52255666715655, 34.667717225369699 ], [ 134.517449442437851, 34.66816055876285 ], [ 134.508096394233235, 34.677261946082012 ], [ 134.535456394197354, 34.686561107808927 ], [ 134.535588611625144, 34.686552225205105 ] ] ], [ [ [ 134.637879441882774, 34.68746444083132 ], [ 134.639809170257081, 34.683333612756087 ], [ 134.636151945855659, 34.685478333058654 ], [ 134.637857781711318, 34.68747027923007 ], [ 134.637879441882774, 34.68746444083132 ] ] ], [ [ [ 134.714889170199058, 34.688521387052447 ], [ 134.713966199580454, 34.685188252236117 ], [ 134.71487416321213, 34.688541666764536 ], [ 134.714889170199058, 34.688521387052447 ] ] ], [ [ [ 134.38314561617733, 34.723571387309732 ], [ 134.377977690817829, 34.725800305739597 ], [ 134.38278438369241, 34.723552999771186 ], [ 134.385169493677267, 34.726000865347714 ], [ 134.383231088643925, 34.723619467764252 ], [ 134.38314561617733, 34.723571387309732 ] ] ], [ [ [ 134.682507977361297, 34.756405252100762 ], [ 134.675614527288644, 34.760943532418139 ], [ 134.679637496972987, 34.758333332917005 ], [ 134.682507977361297, 34.756405252100762 ] ] ], [ [ [ 134.439682048787631, 34.763919279351285 ], [ 134.438204643429572, 34.761328721043697 ], [ 134.435387223941348, 34.763294828793391 ], [ 134.439708145314739, 34.763952198135485 ], [ 134.439682048787631, 34.763919279351285 ] ] ], [ [ [ 134.701948274893084, 34.770797774597668 ], [ 134.697940337376735, 34.759964775054357 ], [ 134.68657408572551, 34.75756033324285 ], [ 134.690857471195386, 34.76019625155584 ], [ 134.692671829141659, 34.768265666827119 ], [ 134.701316913045162, 34.770936252206354 ], [ 134.701948274893084, 34.770797774597668 ] ] ], [ [ [ 134.605547691073184, 34.772211721094095 ], [ 134.606265836599164, 34.766401386614746 ], [ 134.595805913612139, 34.761798739120593 ], [ 134.602236200240554, 34.759694802173442 ], [ 134.596525187787279, 34.759502099042663 ], [ 134.593092411685461, 34.769453252165931 ], [ 134.589804889584002, 34.768115360435615 ], [ 134.604442166173044, 34.771948413988184 ], [ 134.605547691073184, 34.772211721094095 ] ] ], [ [ [ 134.663370272020529, 34.765439162387509 ], [ 134.652774331969908, 34.763278864927713 ], [ 134.662261945732325, 34.772507775213683 ], [ 134.667438611602734, 34.770199441251236 ], [ 134.664449533119523, 34.76666666683326 ], [ 134.663370272020529, 34.765439162387509 ] ] ], [ [ [ 134.67738583738651, 35.093299441116358 ], [ 134.685150830346629, 35.09251944111935 ], [ 134.685600557919429, 35.08202805355188 ], [ 134.70032166031649, 35.076623333100372 ], [ 134.698226393733194, 35.069435278615288 ], [ 134.702335836829434, 35.064438612951676 ], [ 134.701509727691814, 35.05846027881887 ], [ 134.710429169570602, 35.053207774918917 ], [ 134.717396108643584, 35.056527775136772 ], [ 134.720309727711879, 35.053150837940848 ], [ 134.718162776191207, 35.044663891725293 ], [ 134.721460557758633, 35.042032225406956 ], [ 134.720901114694698, 35.035778613292393 ], [ 134.7120066667743, 35.033155558882015 ], [ 134.705995837437968, 35.019852504789299 ], [ 134.694774993571173, 35.012919721068329 ], [ 134.700996393768605, 35.000990838256655 ], [ 134.708159170109639, 34.999386945950846 ], [ 134.712304449390899, 34.99380694583391 ], [ 134.709420829907458, 34.983478613447289 ], [ 134.704881115171361, 34.980073891696804 ], [ 134.706479441573038, 34.973912225368963 ], [ 134.712984163288525, 34.972856945591616 ], [ 134.717303061187408, 34.966283333109402 ], [ 134.715070829655133, 34.957340278631023 ], [ 134.71839610889333, 34.951088054170441 ], [ 134.725125551403153, 34.94788694612572 ], [ 134.72907333326782, 34.938095829159238 ], [ 134.746818326904304, 34.937621387317222 ], [ 134.748434163106253, 34.934262774707349 ], [ 134.755979170202636, 34.937462774787264 ], [ 134.760448054334347, 34.93328500030259 ], [ 134.767333890746499, 34.935680829306875 ], [ 134.768605551005408, 34.924987495376683 ], [ 134.779032776441568, 34.923114161689284 ], [ 134.784762502887247, 34.917606946403509 ], [ 134.792186667180999, 34.920076107926093 ], [ 134.796713332754166, 34.905590000178393 ], [ 134.793979169802924, 34.895369440747118 ], [ 134.786122502651438, 34.887305828801004 ], [ 134.789367496712657, 34.88103861264193 ], [ 134.808618054379735, 34.874510828711834 ], [ 134.813634994359518, 34.867100558943719 ], [ 134.805043891362516, 34.861845559425092 ], [ 134.79435555136763, 34.865683613208262 ], [ 134.80494360616251, 34.843717495066414 ], [ 134.79870805423343, 34.844510558615411 ], [ 134.79885277583503, 34.839840559094569 ], [ 134.790331388282993, 34.840164440936235 ], [ 134.78595916958011, 34.836618333169611 ], [ 134.775979728281868, 34.838977774704574 ], [ 134.774946667155064, 34.828686107677754 ], [ 134.764598054156977, 34.830259162230618 ], [ 134.763616938770724, 34.825283612648661 ], [ 134.768599441910737, 34.821828054021523 ], [ 134.775690830067788, 34.823522775155993 ], [ 134.779555278953012, 34.817104999895889 ], [ 134.771452503330465, 34.813170829270405 ], [ 134.773500558204205, 34.808259720609669 ], [ 134.764342217719218, 34.796578612712835 ], [ 134.751486667175982, 34.795412225294001 ], [ 134.746874163112238, 34.798782494916281 ], [ 134.74643583714419, 34.80619916156212 ], [ 134.743656939216407, 34.801532774617897 ], [ 134.749950830166767, 34.773826666967182 ], [ 134.752258611945422, 34.783274161973054 ], [ 134.759455279237841, 34.787847225369205 ], [ 134.757434448640993, 34.793508053853657 ], [ 134.76723888456695, 34.781953891558885 ], [ 134.758601659838746, 34.758352386853232 ], [ 134.759532672195178, 34.763560332943086 ], [ 134.746258586164913, 34.768819134795308 ], [ 134.741265694056551, 34.766457224621263 ], [ 134.73432883280941, 34.769027252305875 ], [ 134.733116809293392, 34.765962225176622 ], [ 134.733679780397665, 34.770793134995245 ], [ 134.731211478626847, 34.767960865001953 ], [ 134.707788754647368, 34.776949559174852 ], [ 134.703612309360665, 34.772563802077855 ], [ 134.706236226220881, 34.776313612583181 ], [ 134.700246354685532, 34.777750305632139 ], [ 134.702837172897262, 34.772493585710436 ], [ 134.695029779600759, 34.770362802201589 ], [ 134.687645719674265, 34.77114989155433 ], [ 134.689405162318394, 34.777117198200187 ], [ 134.685700051716026, 34.778236387399431 ], [ 134.683468858900824, 34.772129279342835 ], [ 134.676920557837548, 34.773433945620127 ], [ 134.675664721150042, 34.769587225070438 ], [ 134.681117301722111, 34.76585913499116 ], [ 134.675580752349902, 34.76956589225216 ], [ 134.676616938620896, 34.77478916189034 ], [ 134.67369224440165, 34.776493135250064 ], [ 134.667866912827776, 34.770602054241465 ], [ 134.657927834002408, 34.773943945756571 ], [ 134.670277497008897, 34.780017775300166 ], [ 134.663358144662766, 34.784959657861975 ], [ 134.65035306114487, 34.770586387152093 ], [ 134.657994721079604, 34.787182495076138 ], [ 134.655721946310791, 34.788491387267754 ], [ 134.654328430612622, 34.78278763144408 ], [ 134.646151945655788, 34.779449721227707 ], [ 134.645572606890369, 34.766757946222299 ], [ 134.633395966250873, 34.767309387118587 ], [ 134.62882924757173, 34.763860495165773 ], [ 134.633322697584504, 34.767370972692277 ], [ 134.631946667404804, 34.777518053915117 ], [ 134.643925836708036, 34.780277774699584 ], [ 134.643920557687693, 34.783413892337308 ], [ 134.622435667671994, 34.783759559356213 ], [ 134.622440972772779, 34.780405044956922 ], [ 134.628695057930599, 34.778430613082378 ], [ 134.628626108707977, 34.773141666854485 ], [ 134.623951387746388, 34.773165278554814 ], [ 134.623884994397031, 34.76941833328948 ], [ 134.620393605880281, 34.771626107758721 ], [ 134.611394163010232, 34.767860828914195 ], [ 134.608777497383699, 34.774990000288312 ], [ 134.613264967804071, 34.777935531799415 ], [ 134.605439442376451, 34.779476946404031 ], [ 134.605175473369513, 34.774999999850138 ], [ 134.584844993601678, 34.768728892324589 ], [ 134.58643639432421, 34.76186416210146 ], [ 134.570005356961701, 34.75740853217809 ], [ 134.565228780583766, 34.761095441401551 ], [ 134.566033799720117, 34.757295946051102 ], [ 134.55832308714082, 34.76419566709643 ], [ 134.559500362651647, 34.769463892045053 ], [ 134.547884642662211, 34.773227134824481 ], [ 134.540769688670252, 34.770195414087141 ], [ 134.527515135914882, 34.782923224926947 ], [ 134.508924137439067, 34.763215945659397 ], [ 134.501967976740843, 34.761804639572517 ], [ 134.500777756388402, 34.767848640402462 ], [ 134.505364527251231, 34.766067080731261 ], [ 134.500667003979061, 34.768977161866587 ], [ 134.503450635938179, 34.772971332560985 ], [ 134.499910803640773, 34.7745258287041 ], [ 134.493040661297528, 34.771200197830922 ], [ 134.491297302128828, 34.76612255900892 ], [ 134.487413644624098, 34.769165613002713 ], [ 134.482189883056776, 34.767218864958693 ], [ 134.481186977996686, 34.759919774777813 ], [ 134.474196161024111, 34.755209640312728 ], [ 134.469096095808254, 34.766849098806915 ], [ 134.472461051336495, 34.77489369368908 ], [ 134.469681945665343, 34.784302999883607 ], [ 134.477341854642987, 34.787427667353029 ], [ 134.468029662638855, 34.79272110839247 ], [ 134.470117859651509, 34.797765305924202 ], [ 134.464951750922637, 34.803228558751016 ], [ 134.465745577096754, 34.809051694180368 ], [ 134.464580195119993, 34.804524613120464 ], [ 134.459533554130303, 34.803226413867947 ], [ 134.467878560347344, 34.79849353195101 ], [ 134.466463502288889, 34.790613108308378 ], [ 134.464446808573371, 34.786493027131542 ], [ 134.461076808747748, 34.788574748126166 ], [ 134.457278105700084, 34.785795198189874 ], [ 134.456633138908273, 34.780404973011173 ], [ 134.459751946395272, 34.767107440755865 ], [ 134.464282723668816, 34.764069000284167 ], [ 134.450681284413804, 34.753710640433781 ], [ 134.449531803350055, 34.758015197743248 ], [ 134.455454941592393, 34.76811627864339 ], [ 134.433021114832627, 34.766180918714497 ], [ 134.429790389414961, 34.762509081229155 ], [ 134.432575720193427, 34.756610640168958 ], [ 134.425855771826491, 34.754359558846602 ], [ 134.434339104566106, 34.747601640203584 ], [ 134.426325524603385, 34.744205197611848 ], [ 134.413976082830004, 34.728898748078791 ], [ 134.408783113150207, 34.726107107656958 ], [ 134.405098495399329, 34.729645558595678 ], [ 134.401883644814461, 34.727433333381668 ], [ 134.38751577183541, 34.730560667340967 ], [ 134.385279247839094, 34.726116829328248 ], [ 134.373698586120895, 34.730845387304839 ], [ 134.379941659979636, 34.736210053751051 ], [ 134.37339749669718, 34.732892387273921 ], [ 134.372338170869966, 34.739313026874754 ], [ 134.367590467226364, 34.737830107773334 ], [ 134.372358223053652, 34.739359386926196 ], [ 134.368506057108902, 34.744776134910751 ], [ 134.358828885145044, 34.751278828655074 ], [ 134.358140246375342, 34.746603828903631 ], [ 134.352497951119631, 34.745148134978479 ], [ 134.362762554848132, 34.746329640000965 ], [ 134.363947587910957, 34.739461774741187 ], [ 134.342079027325326, 34.735323252066507 ], [ 134.344659637332484, 34.73847310774778 ], [ 134.341724448924197, 34.735830225084896 ], [ 134.339740414988228, 34.739155694080068 ], [ 134.321729442359924, 34.721946108226348 ], [ 134.323762502837326, 34.73225249535642 ], [ 134.313026939441784, 34.738397224752191 ], [ 134.321530558188783, 34.761709162148179 ], [ 134.334831388258067, 34.76912749523774 ], [ 134.317711388369958, 34.778107224968494 ], [ 134.317098885305427, 34.801951107757475 ], [ 134.310836939173441, 34.802682494901262 ], [ 134.306913891363024, 34.811528332666455 ], [ 134.287931388322932, 34.821559440915507 ], [ 134.288277781994111, 34.828354720993616 ], [ 134.266295279103929, 34.825641387240296 ], [ 134.26239861200645, 34.828882224635038 ], [ 134.265311388409941, 34.840448332624476 ], [ 134.252737781623409, 34.851898613330377 ], [ 134.258975278786124, 34.870313612683105 ], [ 134.267062218246792, 34.87538777472605 ], [ 134.262838885006545, 34.884307495394637 ], [ 134.269979727782243, 34.883603891906148 ], [ 134.268721114887626, 34.887849441098865 ], [ 134.273481945935146, 34.892587495016926 ], [ 134.289148054139446, 34.897691108058268 ], [ 134.300269999560896, 34.914483612628658 ], [ 134.297955551107862, 34.920746946414511 ], [ 134.314390558077889, 34.927887774801036 ], [ 134.313994720579899, 34.933154441224531 ], [ 134.317943890997867, 34.930297224937021 ], [ 134.324746109345483, 34.933973053613613 ], [ 134.3262444491221, 34.937729721449557 ], [ 134.333701945888151, 34.938215000122227 ], [ 134.327486393981985, 34.929129720560184 ], [ 134.338479999852211, 34.924888053740744 ], [ 134.360090830027843, 34.942444721246943 ], [ 134.381591388032234, 34.941215278762172 ], [ 134.388992776095847, 34.934248333393896 ], [ 134.392612218179352, 34.937732225162108 ], [ 134.414933606300906, 34.93803972135612 ], [ 134.424928053686813, 34.941987225330251 ], [ 134.430370829849949, 34.947607774978906 ], [ 134.426701388158563, 34.950137225252774 ], [ 134.428314449052664, 34.955312775064556 ], [ 134.43936722401827, 34.966346666965137 ], [ 134.451671660119132, 34.970472494809826 ], [ 134.463153332560296, 34.968655559406614 ], [ 134.467304163356516, 34.977562224617031 ], [ 134.475924994343131, 34.978909441417613 ], [ 134.473518611794589, 34.987828892289599 ], [ 134.487193890785534, 35.00868166682551 ], [ 134.49290000013491, 35.004890558552461 ], [ 134.487386109181671, 35.000087775030863 ], [ 134.503356939171454, 35.003097224957003 ], [ 134.511629999624802, 35.000877504793038 ], [ 134.508400830034361, 34.9876563870327 ], [ 134.516639727941197, 34.975024162435204 ], [ 134.535805278990551, 34.967951107857402 ], [ 134.551959728059046, 34.975393891714759 ], [ 134.553581659865813, 34.972390279287993 ], [ 134.548250000337362, 34.967863612815506 ], [ 134.548785278617743, 34.955769720596209 ], [ 134.5544874966007, 34.952966387189065 ], [ 134.57044666688023, 34.954320559346399 ], [ 134.575153332660193, 34.963869999700762 ], [ 134.573370829600208, 34.968030278774393 ], [ 134.565287497320242, 34.970856386612979 ], [ 134.564217497439586, 34.977268613056083 ], [ 134.570388326959801, 34.985829441275769 ], [ 134.5786933331309, 34.987109720637136 ], [ 134.579238885266363, 34.994094999584604 ], [ 134.584626666987106, 35.000031946017543 ], [ 134.583024163234654, 35.005856107573379 ], [ 134.594372503088607, 35.022552224605533 ], [ 134.591229727769814, 35.03476472121497 ], [ 134.59414416342247, 35.041022775081046 ], [ 134.591428611940955, 35.043796108004017 ], [ 134.598008327222601, 35.050358333270538 ], [ 134.59937277593292, 35.05917944057876 ], [ 134.613021945806167, 35.061188613263937 ], [ 134.606239999976083, 35.060662505370374 ], [ 134.605836394134371, 35.068086666966167 ], [ 134.614818327204148, 35.080863613165263 ], [ 134.62279917004571, 35.086474999621601 ], [ 134.627313890823416, 35.081983332964512 ], [ 134.635683605913755, 35.087681666775552 ], [ 134.648089728358286, 35.088463333216282 ], [ 134.659263061041543, 35.081011666755046 ], [ 134.662308611553271, 35.089715837915662 ], [ 134.677153606353954, 35.093371108090196 ], [ 134.67738583738651, 35.093299441116358 ] ] ] ] } },
{ "type": "Feature", "properties": { "code": "280016", "name": "淡路島", "PrefCode": "28", "regioncode": "280016" }, "geometry": { "type": "MultiPolygon", "coordinates": [ [ [ [ 134.821444993891419, 34.179540640288394 ], [ 134.830869882639035, 34.17182582859914 ], [ 134.830593722422464, 34.164445386645355 ], [ 134.823081698861415, 34.157294666615599 ], [ 134.812581283899249, 34.15619325161731 ], [ 134.811572476588594, 34.165159387196013 ], [ 134.816497108354952, 34.169957828790814 ], [ 134.819558274694714, 34.168020386931346 ], [ 134.817075745649163, 34.168504613397261 ], [ 134.81954727598611, 34.172211000137622 ], [ 134.822191309781147, 34.170754891624995 ], [ 134.81908644628254, 34.175895000054254 ], [ 134.821381051194635, 34.179553252380742 ], [ 134.821444993891419, 34.179540640288394 ] ] ], [ [ [ 134.801439883443891, 34.199337197953355 ], [ 134.796599079284192, 34.198383748411288 ], [ 134.802090726405936, 34.200000000099976 ], [ 134.801439883443891, 34.199337197953355 ] ] ], [ [ [ 134.711424942107442, 34.249595693586457 ], [ 134.712778494631834, 34.247385748153818 ], [ 134.711359144109224, 34.249638531892799 ], [ 134.711424942107442, 34.249595693586457 ] ] ], [ [ [ 134.947800051631134, 34.298027468293071 ], [ 134.957922750434705, 34.282837026807385 ], [ 134.957172386696357, 34.276374225190409 ], [ 134.958095576749542, 34.281755639711037 ], [ 134.952159753569845, 34.292320027047651 ], [ 134.945430972961049, 34.295404531693862 ], [ 134.947774695246039, 34.298035802310494 ], [ 134.947800051631134, 34.298027468293071 ] ] ], [ [ [ 134.941701699373994, 34.30062508088281 ], [ 134.944061166989286, 34.299127865258811 ], [ 134.941666667182972, 34.300645559345128 ], [ 134.941701699373994, 34.30062508088281 ] ] ], [ [ [ 134.902334967684624, 34.350045667373706 ], [ 134.904549532934652, 34.347324387210733 ], [ 134.902335771678622, 34.350075972728007 ], [ 134.902334967684624, 34.350045667373706 ] ] ], [ [ [ 134.7780409986932, 34.417903279412883 ], [ 134.779993476317941, 34.416603134926788 ], [ 134.77796988300372, 34.417948775215848 ], [ 134.7780409986932, 34.417903279412883 ] ] ], [ [ [ 134.911804383665412, 34.430124063274945 ], [ 134.914540506239405, 34.432031099056019 ], [ 134.912277899205719, 34.43045484741333 ], [ 134.911804383665412, 34.430124063274945 ] ] ], [ [ [ 134.991666667083109, 34.516651135141842 ], [ 134.988047108087585, 34.512102494634462 ], [ 134.991681245093446, 34.516666667332856 ], [ 134.991666667083109, 34.516651135141842 ] ] ], [ [ [ 134.995067029819666, 34.524828080551515 ], [ 134.993565616160367, 34.520328532236022 ], [ 134.994968170944389, 34.524846225273109 ], [ 134.995067029819666, 34.524828080551515 ] ] ], [ [ [ 134.892748366444039, 34.531145252251633 ], [ 134.895831388108149, 34.53107519776222 ], [ 134.892638495370306, 34.531625161971704 ], [ 134.892748366444039, 34.531145252251633 ] ] ], [ [ [ 135.018640803929998, 34.592494892425407 ], [ 135.022240855730956, 34.5906721348112 ], [ 135.018597717410785, 34.592441864800264 ], [ 135.018640803929998, 34.592494892425407 ] ] ], [ [ [ 135.015762776431075, 34.593513333273791 ], [ 135.018126809005139, 34.591992468177921 ], [ 135.015706808922118, 34.593481999994367 ], [ 135.015762776431075, 34.593513333273791 ] ] ], [ [ [ 135.004251829258578, 34.608326865292668 ], [ 135.01635230901195, 34.591221161927137 ], [ 135.023839001368856, 34.588883892277863 ], [ 135.024501530121597, 34.574044225061016 ], [ 135.013455383159453, 34.560144135343648 ], [ 135.001947471198946, 34.550380278627017 ], [ 134.99831941630805, 34.550855440826012 ], [ 135.001851997371887, 34.54950766734504 ], [ 134.99425302195948, 34.543161053639778 ], [ 134.99672108900711, 34.543451135361636 ], [ 134.994406913048692, 34.524769198339868 ], [ 134.985986497778754, 34.512683387428467 ], [ 134.988783969404722, 34.511656197975185 ], [ 134.958525862778401, 34.488943198270022 ], [ 134.934319403018094, 34.458380756566726 ], [ 134.940637588254162, 34.459183189252826 ], [ 134.925788079756103, 34.445815667259296 ], [ 134.923706108750025, 34.451113613002917 ], [ 134.916455292377918, 34.44481991900409 ], [ 134.924859624172427, 34.444136631200649 ], [ 134.914818768171699, 34.433515243034094 ], [ 134.910755227371965, 34.437357847386806 ], [ 134.90537381285128, 34.432379766213273 ], [ 134.905133126392684, 34.429070180144777 ], [ 134.911233437373312, 34.429719621963045 ], [ 134.899014021380026, 34.419721757153411 ], [ 134.902981984031385, 34.419379504860331 ], [ 134.899670921276083, 34.413384829146594 ], [ 134.894938417973663, 34.416776080851491 ], [ 134.896929856927386, 34.41126182027682 ], [ 134.899351555829753, 34.412254973088579 ], [ 134.89477861204341, 34.39898833344489 ], [ 134.898172801833425, 34.368557693682646 ], [ 134.8945002457898, 34.354944558744421 ], [ 134.896907523163691, 34.353314387349144 ], [ 134.893656641241023, 34.352241053681723 ], [ 134.897193411346962, 34.348670144411699 ], [ 134.901165135862357, 34.350027224976486 ], [ 134.897173864582214, 34.34672722478166 ], [ 134.901834163116177, 34.346563414170305 ], [ 134.900436524026418, 34.344218108179177 ], [ 134.903312191704345, 34.347092693972684 ], [ 134.901126615201179, 34.343861305754729 ], [ 134.904030440652377, 34.340863585686009 ], [ 134.914216497593316, 34.337940693708106 ], [ 134.912563721738479, 34.330931919072839 ], [ 134.914873410979226, 34.329773360252432 ], [ 134.914911829117727, 34.333589306001727 ], [ 134.920970532064416, 34.311436720628194 ], [ 134.943344773342687, 34.299101945898144 ], [ 134.949597912413765, 34.286767413985046 ], [ 134.948925383199935, 34.274315829012323 ], [ 134.955184384052131, 34.27701019786241 ], [ 134.951617003721822, 34.266500613412632 ], [ 134.898441751285873, 34.252152666712277 ], [ 134.846065136396987, 34.230911494769714 ], [ 134.829899300112629, 34.222132161869808 ], [ 134.814853799663183, 34.20794774789033 ], [ 134.794576782792319, 34.199500774741011 ], [ 134.797389804595923, 34.197322586168468 ], [ 134.775437276109415, 34.200506440719721 ], [ 134.734090777767278, 34.188719945768923 ], [ 134.729269442131113, 34.189722694346926 ], [ 134.732485279272282, 34.198874801630836 ], [ 134.729838053783169, 34.207565640342068 ], [ 134.716311387760356, 34.215802468009542 ], [ 134.700923190752746, 34.217040161774094 ], [ 134.699903384733489, 34.221275161919266 ], [ 134.710739974370426, 34.240178720671452 ], [ 134.715091088682811, 34.243244774826564 ], [ 134.721737198213191, 34.241493972868625 ], [ 134.722588444301323, 34.25559780219686 ], [ 134.707701970969197, 34.252147775299647 ], [ 134.703204331914435, 34.247729693870326 ], [ 134.707050699929937, 34.244486279018588 ], [ 134.700984772729157, 34.241341586345186 ], [ 134.695068028666697, 34.247850161655663 ], [ 134.681017082172616, 34.248402667349296 ], [ 134.658161335777095, 34.240657972987094 ], [ 134.675985550692644, 34.255486360007581 ], [ 134.669009273958864, 34.271757134584163 ], [ 134.659424162894879, 34.272361720916763 ], [ 134.663030220368455, 34.288058666874008 ], [ 134.659218975375438, 34.293483559119011 ], [ 134.654290415370383, 34.293168468150327 ], [ 134.662175357207047, 34.296927774597179 ], [ 134.673966471975177, 34.31754802672009 ], [ 134.68205224411588, 34.320360495440582 ], [ 134.687368028811534, 34.331178666961989 ], [ 134.693498029110856, 34.324478359788543 ], [ 134.701224746924595, 34.325088774627318 ], [ 134.706611555578888, 34.32108261327204 ], [ 134.718826808610402, 34.325328161565437 ], [ 134.717281893844415, 34.327911640409923 ], [ 134.724103165228939, 34.333310224787112 ], [ 134.723304721036129, 34.328479225036233 ], [ 134.725982776184196, 34.33153733278175 ], [ 134.726750272007507, 34.328369828804625 ], [ 134.729623139196633, 34.329555333112182 ], [ 134.725233086937465, 34.332672467860164 ], [ 134.729779000700432, 34.333295198015037 ], [ 134.736840311031642, 34.344471802431769 ], [ 134.749379973806754, 34.377051559282108 ], [ 134.754888171152288, 34.385552775040594 ], [ 134.760070143022745, 34.384604865322331 ], [ 134.765398106337557, 34.389158747977888 ], [ 134.775312309015931, 34.415720864926016 ], [ 134.777316394236323, 34.418875531980291 ], [ 134.779588365910399, 34.41328699999508 ], [ 134.783065278939489, 34.416743892316845 ], [ 134.797977497163856, 34.449204999810945 ], [ 134.802929169745425, 34.44945305441496 ], [ 134.818694162905331, 34.469435865272999 ], [ 134.824118366269659, 34.467071865074558 ], [ 134.830146770157398, 34.470529485847123 ], [ 134.826367782047555, 34.466164477009045 ], [ 134.830220868898095, 34.469495395895876 ], [ 134.8334368607226, 34.466116829128396 ], [ 134.841573488625613, 34.471352585853197 ], [ 134.877973865001877, 34.525450801713191 ], [ 134.875323722112171, 34.518104125704895 ], [ 134.887603773995011, 34.531387495436604 ], [ 134.898584968321643, 34.529229305987712 ], [ 134.909419363612756, 34.53720525202084 ], [ 134.906607328365567, 34.533717531838647 ], [ 134.913454448963762, 34.536032721333072 ], [ 134.922250169309905, 34.546590747764867 ], [ 134.935067808032954, 34.549423694048301 ], [ 134.975951115051998, 34.597694694254812 ], [ 134.992255421750428, 34.607042306057622 ], [ 135.004243995264233, 34.608333333216819 ], [ 135.004251829258578, 34.608326865292668 ] ] ] ] } },
{ "type": "Feature", "properties": { "code": "280021", "name": "但馬北部", "PrefCode": "28", "regioncode": "280021" }, "geometry": { "type": "MultiPolygon", "coordinates": [ [ [ [ 134.38530888499713, 35.618476108285847 ], [ 134.385646939254912, 35.615861386993458 ], [ 134.385267782382357, 35.618481666995365 ], [ 134.38530888499713, 35.618476108285847 ] ] ], [ [ [ 134.645318053785218, 35.659563306001814 ], [ 134.642880310977603, 35.65897997334713 ], [ 134.645280363198253, 35.659594278653117 ], [ 134.645318053785218, 35.659563306001814 ] ] ], [ [ [ 134.636392360718901, 35.660864134871986 ], [ 134.638352244260773, 35.658468134996497 ], [ 134.636364306367682, 35.660865640337079 ], [ 134.636392360718901, 35.660864134871986 ] ] ], [ [ [ 134.502833060697299, 35.662861946421742 ], [ 134.503158326595553, 35.660277224714207 ], [ 134.502800829894454, 35.66288138706642 ], [ 134.502833060697299, 35.662861946421742 ] ] ], [ [ [ 134.672383579738494, 35.666076027186932 ], [ 134.67224486380951, 35.660543558938173 ], [ 134.672380143428995, 35.666090613291203 ], [ 134.672383579738494, 35.666076027186932 ] ] ], [ [ [ 134.763803217144869, 35.67470664009943 ], [ 134.761045083663703, 35.664196918952712 ], [ 134.7633162783236, 35.66638080203245 ], [ 134.761833255800184, 35.663486252188818 ], [ 134.765206614593694, 35.660688440619083 ], [ 134.783790610048641, 35.660647586217181 ], [ 134.784393554219264, 35.66664397334074 ], [ 134.799601504605789, 35.670272468000064 ], [ 134.798694668724011, 35.667037387165749 ], [ 134.814890661075196, 35.66350300026329 ], [ 134.822450142759976, 35.65913044071732 ], [ 134.821375888186708, 35.656237197588666 ], [ 134.839228366096336, 35.65575055914104 ], [ 134.833558690081531, 35.648786134572504 ], [ 134.839458106006873, 35.650249891819101 ], [ 134.835494642663662, 35.647251559312053 ], [ 134.840650532396239, 35.642441027231655 ], [ 134.852330506247881, 35.659614721142532 ], [ 134.867504733856435, 35.658232368728875 ], [ 134.864101114674781, 35.651658332665988 ], [ 134.867688611939911, 35.649679171256821 ], [ 134.865789727613901, 35.638336107725252 ], [ 134.871259169575069, 35.636445559215247 ], [ 134.873877223754903, 35.620928612565478 ], [ 134.866378611783603, 35.613434441446373 ], [ 134.865356938771811, 35.599012774619894 ], [ 134.853726666852253, 35.589079721252176 ], [ 134.862594448974733, 35.587051386712176 ], [ 134.86895472068386, 35.579769171410192 ], [ 134.867757497310663, 35.576138891596599 ], [ 134.875763333211353, 35.573951666636162 ], [ 134.881051659806303, 35.564033613060872 ], [ 134.900875550566298, 35.556063332756651 ], [ 134.90305444870387, 35.549442504967658 ], [ 134.914568611852019, 35.545308612902204 ], [ 134.919291945666828, 35.538121107902839 ], [ 134.915129170075147, 35.527708053983531 ], [ 134.923150830446502, 35.521690000393278 ], [ 134.926898612081345, 35.512527505040396 ], [ 134.954216939260391, 35.516161946017064 ], [ 134.960547781554965, 35.512928054086501 ], [ 134.971717497164832, 35.52419138732273 ], [ 134.979494994298648, 35.524065278989497 ], [ 134.993415279191822, 35.534307774684123 ], [ 135.036674720961628, 35.538892225296024 ], [ 135.036191115028032, 35.530609999851663 ], [ 135.045155836872482, 35.508693053941329 ], [ 135.032163605565984, 35.497157774711582 ], [ 135.042703891071824, 35.492268613106035 ], [ 135.040132502712936, 35.481660837977358 ], [ 135.035098884805734, 35.476630838042809 ], [ 135.040956109037211, 35.473468333396909 ], [ 135.05183472129545, 35.442538891856429 ], [ 135.047096938972572, 35.429922775016109 ], [ 135.048973333052913, 35.407509171311233 ], [ 135.030034448930792, 35.410100279104654 ], [ 135.019240558205297, 35.394122775245933 ], [ 134.991080558221256, 35.385635278645225 ], [ 134.983470000440207, 35.397320838186204 ], [ 134.970946666655436, 35.398951107607559 ], [ 134.961146393691138, 35.408205838328854 ], [ 134.946604448836297, 35.413286667046123 ], [ 134.934354448698969, 35.40740500014067 ], [ 134.916988611934926, 35.421793332696211 ], [ 134.903051388311042, 35.413678613177524 ], [ 134.902119728442813, 35.404278613167492 ], [ 134.878955278962962, 35.403599721250202 ], [ 134.86420027212489, 35.410059440890564 ], [ 134.849773060978009, 35.408233891780753 ], [ 134.841672775578218, 35.417051667100793 ], [ 134.83923972813102, 35.425985278697681 ], [ 134.831412502984676, 35.433363612640676 ], [ 134.819084162903891, 35.436456386553061 ], [ 134.817428885134973, 35.446498333431407 ], [ 134.808304994080231, 35.451848332834345 ], [ 134.791648611794017, 35.44882110780793 ], [ 134.791721660126541, 35.441364720805268 ], [ 134.772057497055926, 35.447565558903477 ], [ 134.7632211147627, 35.443527504890483 ], [ 134.74860250270342, 35.443236387149625 ], [ 134.745154162934341, 35.436546666795266 ], [ 134.751369169851387, 35.430513892202441 ], [ 134.748912218424152, 35.424152224745455 ], [ 134.743250272082491, 35.421503613401114 ], [ 134.72783972782122, 35.423270279399901 ], [ 134.721747782334319, 35.428443613282184 ], [ 134.7168458368659, 35.424457225320737 ], [ 134.706891660222027, 35.424962225226579 ], [ 134.695473333327755, 35.430382774645409 ], [ 134.679137223903808, 35.426206666604457 ], [ 134.663109727631877, 35.433454721158512 ], [ 134.644811114941035, 35.429591945911625 ], [ 134.649286939141007, 35.420747504793553 ], [ 134.644865836888926, 35.410933332807133 ], [ 134.639672217898578, 35.407241667069343 ], [ 134.625382503200058, 35.409646946149678 ], [ 134.60824250328892, 35.399654441299504 ], [ 134.603871945633841, 35.391472224963252 ], [ 134.605624994098207, 35.381994170994233 ], [ 134.600924163119657, 35.388245837875161 ], [ 134.59037083024964, 35.387968333172068 ], [ 134.577690830067809, 35.395723332865543 ], [ 134.543738884941604, 35.389244721167017 ], [ 134.531627497311206, 35.394653892363294 ], [ 134.507798611616749, 35.378979999627347 ], [ 134.502867781722784, 35.365961386708705 ], [ 134.474749441933227, 35.374708333223055 ], [ 134.471470557819998, 35.381033053832425 ], [ 134.480480271847114, 35.403139441032408 ], [ 134.481433891361007, 35.410498333431406 ], [ 134.476666393639221, 35.414342775099044 ], [ 134.475882218089964, 35.423550278822347 ], [ 134.480093605635489, 35.427038332652955 ], [ 134.46273472063092, 35.436799441041444 ], [ 134.452258326560582, 35.43645138722178 ], [ 134.439999170425494, 35.442928891854933 ], [ 134.438181946339796, 35.461229440786099 ], [ 134.433659441929763, 35.466407505102325 ], [ 134.43814083023517, 35.476073054228095 ], [ 134.427432776201726, 35.496565000074725 ], [ 134.430876393630683, 35.502469170715699 ], [ 134.427632217952578, 35.508654721238429 ], [ 134.412702218332811, 35.51490444108714 ], [ 134.425600557719576, 35.54180638665548 ], [ 134.420933332607319, 35.544736666563949 ], [ 134.425076666654945, 35.551860837707522 ], [ 134.421799170195641, 35.562549441203828 ], [ 134.410037497432654, 35.562821666886464 ], [ 134.405040272390693, 35.570497775352123 ], [ 134.408303606326399, 35.589065000249605 ], [ 134.393131946282324, 35.598140559039621 ], [ 134.392948884783323, 35.601457224571334 ], [ 134.371522776255233, 35.608570279195078 ], [ 134.369944436386731, 35.614584730101285 ], [ 134.381915278867041, 35.611634999655564 ], [ 134.38742944231501, 35.61373750488201 ], [ 134.386529999759773, 35.617687224785641 ], [ 134.393932502982693, 35.619975000246143 ], [ 134.405351388355939, 35.615697775132276 ], [ 134.411310271951606, 35.619890838091749 ], [ 134.415443061448173, 35.618020278812878 ], [ 134.419913333233808, 35.624686107777677 ], [ 134.433429389954426, 35.620682585932627 ], [ 134.43579053210749, 35.623521721350414 ], [ 134.43200693856943, 35.624962775211941 ], [ 134.434489169939297, 35.628172225367962 ], [ 134.431958885094559, 35.629819721303136 ], [ 134.438671387974296, 35.635775837684832 ], [ 134.442714747087962, 35.63315002685232 ], [ 134.441149999572872, 35.628508613182021 ], [ 134.444152775630187, 35.627595838177456 ], [ 134.442924111958291, 35.631337413590813 ], [ 134.445695446587706, 35.628636918558982 ], [ 134.442927639099366, 35.632366999737314 ], [ 134.452676497822154, 35.62876835987197 ], [ 134.461347781674817, 35.640081666635638 ], [ 134.472202503442873, 35.638749721222723 ], [ 134.473695836693537, 35.642352774960671 ], [ 134.47717444944135, 35.639870558879238 ], [ 134.479387224141192, 35.646483333239303 ], [ 134.495639728091078, 35.656457224821111 ], [ 134.502613606332943, 35.655616945965335 ], [ 134.504869169876315, 35.661233892030566 ], [ 134.513149170397924, 35.658233613390621 ], [ 134.518906524016984, 35.661295504583904 ], [ 134.517151336065353, 35.66629910761776 ], [ 134.519597328354052, 35.662387386768557 ], [ 134.523154189314482, 35.66695341386901 ], [ 134.532441024933405, 35.665436612809458 ], [ 134.538769974155002, 35.670394306352193 ], [ 134.55988814492207, 35.650496306059722 ], [ 134.563938586196855, 35.656773225004372 ], [ 134.569833113407526, 35.657723919023681 ], [ 134.576951724942205, 35.652275505010607 ], [ 134.57822469461405, 35.660944305835073 ], [ 134.587558974866852, 35.659796054144635 ], [ 134.590618755351329, 35.655499640196297 ], [ 134.59835021978688, 35.658596441272778 ], [ 134.606590363254668, 35.655873586396922 ], [ 134.606685888343122, 35.648848999881466 ], [ 134.614379831264273, 35.648398170639098 ], [ 134.612776161091006, 35.64370872058106 ], [ 134.616300142837417, 35.639275332690488 ], [ 134.627409974390844, 35.641484558665525 ], [ 134.62775674397858, 35.646415054011584 ], [ 134.629506834572794, 35.642050612645733 ], [ 134.630951284274374, 35.647482197645331 ], [ 134.626355382594852, 35.646715387105473 ], [ 134.627422114339197, 35.649821945826204 ], [ 134.637198105608149, 35.655582332858444 ], [ 134.63378625223379, 35.647548838308296 ], [ 134.639022309332177, 35.6498569996009 ], [ 134.638031413818794, 35.653798720934276 ], [ 134.642213502351296, 35.650205720717508 ], [ 134.647126588621177, 35.660054000391881 ], [ 134.656134059739088, 35.665230532263308 ], [ 134.666060194622332, 35.665258027236234 ], [ 134.664829689138855, 35.655623919308482 ], [ 134.657774137166712, 35.658159198088583 ], [ 134.663206393959967, 35.648145837960101 ], [ 134.66863102540151, 35.65788455862554 ], [ 134.671540505789721, 35.656797081320292 ], [ 134.674461996623904, 35.660930054278651 ], [ 134.678708301247184, 35.65496725233686 ], [ 134.682052866446725, 35.657761748106225 ], [ 134.686511971350455, 35.655686918616425 ], [ 134.688260220133088, 35.665455891576187 ], [ 134.696266887007255, 35.662408359857977 ], [ 134.692144253554488, 35.659593972883613 ], [ 134.694704838357666, 35.654688081190045 ], [ 134.704789196364345, 35.652942559151825 ], [ 134.71078002567765, 35.660040251556438 ], [ 134.707586887425009, 35.666914000181009 ], [ 134.718453384915847, 35.664466999752278 ], [ 134.725560584053824, 35.666973504723501 ], [ 134.734187302002397, 35.657954774992902 ], [ 134.735930362596264, 35.661060973085512 ], [ 134.743895498778329, 35.65954583757042 ], [ 134.742460466777175, 35.664470440558432 ], [ 134.745757250097085, 35.666185441405048 ], [ 134.748888833353021, 35.659800225200286 ], [ 134.752138054227885, 35.664111864670872 ], [ 134.757620752195976, 35.66120222510267 ], [ 134.760866200414853, 35.662471666734064 ], [ 134.756552970043572, 35.663387973376302 ], [ 134.763789143654094, 35.674715359925983 ], [ 134.763803217144869, 35.67470664009943 ] ] ] ] } },
{ "type": "Feature", "properties": { "code": "280022", "name": "但馬南部", "PrefCode": "28", "regioncode": "280022" }, "geometry": { "type": "Polygon", "coordinates": [ [ [ 134.809657497095827, 35.450911667339653 ], [ 134.817428885134973, 35.446498333431407 ], [ 134.819084162903891, 35.436456386553061 ], [ 134.831412502984676, 35.433363612640676 ], [ 134.83923972813102, 35.425985278697681 ], [ 134.841672775578218, 35.417051667100793 ], [ 134.849725279098379, 35.408246946339546 ], [ 134.86420027212489, 35.410059440890564 ], [ 134.878955278962962, 35.403599721250202 ], [ 134.902119728442813, 35.404278613167492 ], [ 134.903051388311042, 35.413678613177524 ], [ 134.916386939405811, 35.421841108280603 ], [ 134.933397223802899, 35.409224171258529 ], [ 134.931538612017448, 35.40140000020989 ], [ 134.923408053638809, 35.394282504733837 ], [ 134.927206666754387, 35.379765559233249 ], [ 134.918977224319519, 35.364740000350764 ], [ 134.923448612163838, 35.3540041707559 ], [ 134.918867223743405, 35.350124999968841 ], [ 134.917091659852304, 35.340722224651017 ], [ 134.925583061309339, 35.336678054348795 ], [ 134.928050272202313, 35.330439171330738 ], [ 134.921603891306631, 35.315133613025864 ], [ 134.937614448847853, 35.307610559279965 ], [ 134.938881946144988, 35.303175837694823 ], [ 134.925091946036559, 35.288942774889222 ], [ 134.922994449134535, 35.277390279038173 ], [ 134.915580000216892, 35.272839440587745 ], [ 134.915223891169717, 35.266539170746171 ], [ 134.90712693865737, 35.260514999967313 ], [ 134.902008326722921, 35.250604999820951 ], [ 134.903740271696279, 35.238646666910199 ], [ 134.909104162926837, 35.234581667410055 ], [ 134.906703332792631, 35.228919721068337 ], [ 134.899351115161949, 35.226175558555212 ], [ 134.913849441998195, 35.218356946216147 ], [ 134.91870805363385, 35.212010559140026 ], [ 134.915435551109908, 35.205323891984108 ], [ 134.906423890949895, 35.201580278706956 ], [ 134.901609728306425, 35.194561386698695 ], [ 134.888556939351361, 35.194803612796534 ], [ 134.879199442200616, 35.174985558636649 ], [ 134.844328884570473, 35.162172775353326 ], [ 134.844402217987977, 35.149034441086656 ], [ 134.825692502706943, 35.13452166664166 ], [ 134.816888612019852, 35.14394027902074 ], [ 134.805435836594597, 35.140050278597528 ], [ 134.79028999968375, 35.142491667256706 ], [ 134.774140272056002, 35.125467224832619 ], [ 134.766656393677636, 35.136306387429897 ], [ 134.767514721027624, 35.145352225424915 ], [ 134.755211945974565, 35.136605558599683 ], [ 134.735282502685436, 35.141071386835108 ], [ 134.729578885357341, 35.147233892230417 ], [ 134.723515279306753, 35.159947224884547 ], [ 134.728573891172232, 35.165737505381628 ], [ 134.717529442130058, 35.179346945904854 ], [ 134.72824138842941, 35.193265837748243 ], [ 134.721288885273907, 35.195774440837852 ], [ 134.720203605911706, 35.20227805368927 ], [ 134.71404221837372, 35.205172775303367 ], [ 134.710400271655317, 35.212056108003026 ], [ 134.703541115430198, 35.210755279132854 ], [ 134.697751659611413, 35.214482801739962 ], [ 134.697741946034057, 35.228592505439849 ], [ 134.690408327282512, 35.234736386774898 ], [ 134.697114993562195, 35.241816386816822 ], [ 134.694428611591206, 35.248844999597111 ], [ 134.682036938553892, 35.241653891913643 ], [ 134.670276109354973, 35.25023305371252 ], [ 134.668380557916521, 35.256257225390698 ], [ 134.660951659591433, 35.251934721210489 ], [ 134.65379138786227, 35.253412774979608 ], [ 134.641325551333239, 35.274313333193845 ], [ 134.627759441944704, 35.280753333399673 ], [ 134.603395278869129, 35.266103333202295 ], [ 134.585483060794672, 35.275364171219564 ], [ 134.5812200000031, 35.281716386801861 ], [ 134.579619728367788, 35.295997225191854 ], [ 134.561283333359256, 35.307358613309418 ], [ 134.550050272202384, 35.309437774833498 ], [ 134.544490829688129, 35.316376108270845 ], [ 134.53564194591911, 35.317283332659713 ], [ 134.534320000067964, 35.322121667281181 ], [ 134.528513890603676, 35.322863053986794 ], [ 134.523529999809739, 35.329427774871988 ], [ 134.506838884806712, 35.338521386652701 ], [ 134.5139147209876, 35.353456667091564 ], [ 134.504165278604773, 35.359760559402332 ], [ 134.502867781722784, 35.365961386708705 ], [ 134.507798611616749, 35.378979999627347 ], [ 134.529247782359334, 35.394408613067071 ], [ 134.536604448936259, 35.394861386643754 ], [ 134.543738884941604, 35.389244721167017 ], [ 134.577690830067809, 35.395723332865543 ], [ 134.59037083024964, 35.387968333172068 ], [ 134.600924163119657, 35.388245837875161 ], [ 134.605624994098207, 35.381994170994233 ], [ 134.603871945633841, 35.391472224963252 ], [ 134.60824250328892, 35.399654441299504 ], [ 134.625382503200058, 35.409646946149678 ], [ 134.639672217898578, 35.407241667069343 ], [ 134.644865836888926, 35.410933332807133 ], [ 134.649286939141007, 35.420747504793553 ], [ 134.644811114941035, 35.429591945911625 ], [ 134.663109727631877, 35.433454721158512 ], [ 134.679137223903808, 35.426206666604457 ], [ 134.695473333327755, 35.430382774645409 ], [ 134.706891660222027, 35.424962225226579 ], [ 134.7168458368659, 35.424457225320737 ], [ 134.721747782334319, 35.428443613282184 ], [ 134.72783972782122, 35.423270279399901 ], [ 134.743250272082491, 35.421503613401114 ], [ 134.748912218424152, 35.424152224745455 ], [ 134.751369169851387, 35.430513892202441 ], [ 134.745154162934341, 35.436546666795266 ], [ 134.74860250270342, 35.443236387149625 ], [ 134.7632211147627, 35.443527504890483 ], [ 134.772057497055926, 35.447565558903477 ], [ 134.791721660126541, 35.441364720805268 ], [ 134.791648611794017, 35.44882110780793 ], [ 134.809554994167684, 35.451036945598617 ], [ 134.809657497095827, 35.450911667339653 ] ] ] } }
]
}
