{
"type": "FeatureCollection",
"name": "33_okayama_region",
"crs": { "type": "name", "properties": { "name": "urn:ogc:def:crs:OGC:1.3:CRS84" } },
"features": [
{ "type": "Feature", "properties": { "code": "330011", "name": "岡山地域", "PrefCode": "33", "regioncode": "330011" }, "geometry": { "type": "MultiPolygon", "coordinates": [ [ [ [ 133.924237496763112, 34.421364467796025 ], [ 133.925277756063679, 34.418819550082219 ], [ 133.919685887593687, 34.419156694226103 ], [ 133.924142165928288, 34.42151255915735 ], [ 133.924237496763112, 34.421364467796025 ] ] ], [ [ [ 134.021480829876509, 34.507447494905989 ], [ 134.023882502675406, 34.506838613411333 ], [ 134.016576666679839, 34.495895829129267 ], [ 134.00749333325075, 34.498100000015029 ], [ 134.021475279260812, 34.507458613224458 ], [ 134.021480829876509, 34.507447494905989 ] ] ], [ [ [ 133.95827250327352, 34.516616945615624 ], [ 133.961085109590158, 34.515889612615581 ], [ 133.958097418760985, 34.51665858602496 ], [ 133.95827250327352, 34.516616945615624 ] ] ], [ [ [ 134.093375550741143, 34.562613640407221 ], [ 134.09073291808977, 34.560866747802208 ], [ 134.093334332113841, 34.562619864615101 ], [ 134.093375550741143, 34.562613640407221 ] ] ], [ [ [ 134.108486109046794, 34.564065198350249 ], [ 134.110945136109194, 34.560576161560675 ], [ 134.107917197920415, 34.56073289180955 ], [ 134.108456887375496, 34.564078054158927 ], [ 134.108486109046794, 34.564065198350249 ] ] ], [ [ [ 134.104178611853513, 34.567723919223567 ], [ 134.106547859596162, 34.560751999705076 ], [ 134.096981478712337, 34.559463666914723 ], [ 134.095236005237552, 34.562461135173294 ], [ 134.104171724845287, 34.567684251926721 ], [ 134.104178611853513, 34.567723919223567 ] ] ], [ [ [ 134.098239559208309, 34.565193468004225 ], [ 134.094902944015757, 34.564912946075651 ], [ 134.095319364297325, 34.567929999769717 ], [ 134.098234577863536, 34.565221224679817 ], [ 134.098239559208309, 34.565193468004225 ] ] ], [ [ [ 134.159517250021167, 34.600543694336068 ], [ 134.163192218046447, 34.59941722512491 ], [ 134.157918884948685, 34.597020000372765 ], [ 134.159471505105898, 34.600494828773378 ], [ 134.159517250021167, 34.600543694336068 ] ] ], [ [ [ 134.190851659876216, 34.602300558623938 ], [ 134.201224994338077, 34.59919527873916 ], [ 134.19346294395973, 34.594908721360468 ], [ 134.189670000170395, 34.597495828969386 ], [ 134.190757223866854, 34.602312495325464 ], [ 134.190851659876216, 34.602300558623938 ] ] ], [ [ [ 133.98918169927606, 34.605611467595224 ], [ 133.990708806566204, 34.600488973287554 ], [ 133.989143281137558, 34.605616946265116 ], [ 133.98918169927606, 34.605611467595224 ] ] ], [ [ [ 134.209702775562732, 34.612743333338187 ], [ 134.201220271998068, 34.607464161841619 ], [ 134.209620830237213, 34.61274916184442 ], [ 134.209702775562732, 34.612743333338187 ] ] ], [ [ [ 134.163154642572749, 34.61424441424839 ], [ 134.155125525022981, 34.61476972084597 ], [ 134.162852554901519, 34.614480747988182 ], [ 134.163154642572749, 34.61424441424839 ] ] ], [ [ [ 134.198983333414162, 34.617206387165083 ], [ 134.201407223964225, 34.614711108430981 ], [ 134.191017781745245, 34.60551749473666 ], [ 134.164250829811976, 34.604017494811615 ], [ 134.164230660716498, 34.608866134764355 ], [ 134.173766109418466, 34.61283972087648 ], [ 134.177509999686777, 34.608806107715736 ], [ 134.198887782245379, 34.617217494691658 ], [ 134.198983333414162, 34.617206387165083 ] ] ], [ [ [ 134.215166109328493, 34.667108612772324 ], [ 134.212384162698982, 34.663732225062176 ], [ 134.215093891070296, 34.667117224680226 ], [ 134.215166109328493, 34.667108612772324 ] ] ], [ [ [ 134.242137496947976, 34.678323612844508 ], [ 134.24525444913354, 34.677648053814664 ], [ 134.244436744160453, 34.672387080999044 ], [ 134.230146667035115, 34.671668332927254 ], [ 134.224955550857999, 34.667813333218817 ], [ 134.21836472085522, 34.674384162299305 ], [ 134.224452503380348, 34.676841945599335 ], [ 134.22629389135011, 34.671351667245688 ], [ 134.229183061449135, 34.679082774650396 ], [ 134.241718054045009, 34.678344441143111 ], [ 134.242137496947976, 34.678323612844508 ] ] ], [ [ [ 134.256933333006941, 34.687352225225084 ], [ 134.264294163444902, 34.681868612646383 ], [ 134.272820946929187, 34.683487081163889 ], [ 134.273461945912118, 34.680566666818265 ], [ 134.261846666590486, 34.674756945676563 ], [ 134.25622472119403, 34.679710558995168 ], [ 134.251811388185047, 34.677513053884354 ], [ 134.242659727864179, 34.680134720640922 ], [ 134.247104163026734, 34.684066107864624 ], [ 134.25239111455835, 34.68184110778094 ], [ 134.256885551127311, 34.687363613340153 ], [ 134.256933333006941, 34.687352225225084 ] ] ], [ [ [ 133.71945832714016, 34.954159161616076 ], [ 133.721776109380016, 34.948946108276346 ], [ 133.733525551363186, 34.950330000329302 ], [ 133.748151387676444, 34.944991666931912 ], [ 133.755412503084585, 34.952061386823573 ], [ 133.761893333410626, 34.952487224805623 ], [ 133.766486394131903, 34.937184440909277 ], [ 133.777798885210473, 34.935297225286774 ], [ 133.779914280419803, 34.92913908070409 ], [ 133.790538196580542, 34.9277884141041 ], [ 133.79906499355468, 34.934068891666072 ], [ 133.798505278895618, 34.939378613132533 ], [ 133.806859999589392, 34.940096387238555 ], [ 133.821689999993623, 34.95296082937881 ], [ 133.832479441772875, 34.951148054239354 ], [ 133.835675837370104, 34.944931945652797 ], [ 133.844511660284979, 34.944759720984393 ], [ 133.850240830050325, 34.934380279226559 ], [ 133.852802776427097, 34.938848891762973 ], [ 133.850445550821632, 34.943194720759834 ], [ 133.861172218123443, 34.943593892044532 ], [ 133.86926944223103, 34.932422494702394 ], [ 133.86734194597409, 34.937517225139857 ], [ 133.875360271659247, 34.940082495410877 ], [ 133.882938053648331, 34.948340828566415 ], [ 133.888328327390468, 34.943808892066784 ], [ 133.8991172241806, 34.94274889174801 ], [ 133.905491115222844, 34.94909027859353 ], [ 133.911528053676761, 34.947500000224863 ], [ 133.906335279149857, 34.938182495026183 ], [ 133.908712776373591, 34.926773054333069 ], [ 133.900495278734184, 34.922429441265763 ], [ 133.906273061352749, 34.918221107817942 ], [ 133.894295551298683, 34.913552774740822 ], [ 133.894828054271329, 34.908622774921184 ], [ 133.901998327360957, 34.901593892344295 ], [ 133.909003061342219, 34.906949721152785 ], [ 133.923160000133976, 34.901345468118905 ], [ 133.920774721076555, 34.894730828564946 ], [ 133.938671388074113, 34.88447777482952 ], [ 133.928017781695303, 34.872466107624803 ], [ 133.944951114702235, 34.869631666668113 ], [ 133.958461115388218, 34.871694161956043 ], [ 133.968894163035316, 34.854698891740497 ], [ 133.961558885034606, 34.849793054006284 ], [ 133.978156109017277, 34.843112774734834 ], [ 133.981931388323005, 34.855044162158435 ], [ 133.993985278697664, 34.850072774638875 ], [ 133.992803333007487, 34.841242225348481 ], [ 133.987631660173065, 34.835593613254673 ], [ 133.991217497289767, 34.827227494553256 ], [ 133.985051945890632, 34.820696386728912 ], [ 133.98632917025509, 34.80810805444321 ], [ 133.974670272015487, 34.803918891843409 ], [ 133.961699441875794, 34.787943333218323 ], [ 133.979899442105648, 34.780726108323279 ], [ 133.976675836620643, 34.769140558789786 ], [ 133.986559170069654, 34.767355559211751 ], [ 133.983544449216993, 34.758003892365764 ], [ 133.972573606087167, 34.753869162132162 ], [ 133.971383606068684, 34.749565279314254 ], [ 133.972771387689477, 34.744800279009723 ], [ 133.983393891015339, 34.744194721409315 ], [ 133.979386394166795, 34.741871667343617 ], [ 133.993908327307508, 34.726693891909633 ], [ 133.993589169604547, 34.719641386840578 ], [ 134.000660271754214, 34.72634055906957 ], [ 134.009565278614787, 34.726367494664203 ], [ 134.011124163449495, 34.73041027911114 ], [ 134.045153890939332, 34.749001666993365 ], [ 134.051218612149341, 34.76147472058193 ], [ 134.048953605724364, 34.766808053748719 ], [ 134.052578326828439, 34.770101387269278 ], [ 134.058364993849409, 34.767843891982068 ], [ 134.06455250309557, 34.779838332672966 ], [ 134.082351387706467, 34.782997224742189 ], [ 134.087045278616756, 34.781955000423011 ], [ 134.0897894420292, 34.771061945952113 ], [ 134.092910272091444, 34.770141387315221 ], [ 134.090166108679, 34.761824721433811 ], [ 134.100776108730543, 34.760975279385661 ], [ 134.108228611561231, 34.756257774976405 ], [ 134.109072502993627, 34.76083944128726 ], [ 134.119475278561367, 34.757134161612328 ], [ 134.118831388258059, 34.753635279044943 ], [ 134.122948612288724, 34.752211386945987 ], [ 134.119927782341392, 34.747711666859971 ], [ 134.110974993601189, 34.745815279051953 ], [ 134.11127527903102, 34.741892775331394 ], [ 134.106202217758209, 34.742067494719151 ], [ 134.102298053912136, 34.726682225004708 ], [ 134.111110558305654, 34.727348333059183 ], [ 134.10740778234333, 34.712411666765036 ], [ 134.122418884623926, 34.701994720579933 ], [ 134.124759999774255, 34.707976667289415 ], [ 134.121612217929624, 34.709805559179244 ], [ 134.126591945761788, 34.717628053891644 ], [ 134.13359555109389, 34.717459440900541 ], [ 134.143687781765834, 34.725696387278504 ], [ 134.151131946082501, 34.726688891679032 ], [ 134.153562503306944, 34.721059999919134 ], [ 134.165237496713189, 34.714655279217823 ], [ 134.158488885154043, 34.700811108445976 ], [ 134.163203061172453, 34.691814440883775 ], [ 134.160158053851205, 34.690780000196924 ], [ 134.162120000437767, 34.684399161891861 ], [ 134.174541659569968, 34.684892774581954 ], [ 134.202824449388913, 34.701666108304323 ], [ 134.229386938656376, 34.705383053984804 ], [ 134.229804060409151, 34.715028972708978 ], [ 134.235982776084256, 34.714719441349189 ], [ 134.235806108765019, 34.710263332986472 ], [ 134.24500861225772, 34.702816666755837 ], [ 134.24227111462028, 34.699373613201715 ], [ 134.244667781792714, 34.697558613139563 ], [ 134.241120557967406, 34.69521972111329 ], [ 134.237617497149813, 34.700105279135357 ], [ 134.235490272258289, 34.691539162002755 ], [ 134.226346393771109, 34.69175527898301 ], [ 134.227184448603452, 34.687606108335274 ], [ 134.213686134607542, 34.684972261160965 ], [ 134.223174721436294, 34.680820000442736 ], [ 134.219398884550969, 34.680791667301662 ], [ 134.221170895220666, 34.678786305943333 ], [ 134.213746783087686, 34.672981945660297 ], [ 134.204522996239348, 34.674346972634737 ], [ 134.206716394146383, 34.668669441041914 ], [ 134.210926667431863, 34.670005559309175 ], [ 134.209932776276673, 34.666370279265038 ], [ 134.205864449284945, 34.668275000191159 ], [ 134.201509441807389, 34.663292495252506 ], [ 134.192187769150337, 34.66526710789077 ], [ 134.198528833139221, 34.659210531840642 ], [ 134.191121114747716, 34.651967775192702 ], [ 134.183171660044195, 34.651159162365502 ], [ 134.177814448977756, 34.657005558759579 ], [ 134.176351387806335, 34.653515000317043 ], [ 134.170559441764908, 34.652859720999402 ], [ 134.173933061361708, 34.631318612563973 ], [ 134.18404021988033, 34.63682113518729 ], [ 134.187207497228314, 34.631329999779723 ], [ 134.178662503371925, 34.629948892027812 ], [ 134.170007223854327, 34.613504999756003 ], [ 134.146419441903731, 34.617193332606291 ], [ 134.148551699401423, 34.611986305623532 ], [ 134.13436221774225, 34.607821666636653 ], [ 134.138137497047865, 34.599193053816407 ], [ 134.127111387880291, 34.598116666950659 ], [ 134.119969170041259, 34.588631946307316 ], [ 134.103524060087352, 34.589577134677086 ], [ 134.101075447174253, 34.584837107646479 ], [ 134.10124658905886, 34.58809053195256 ], [ 134.096649753883071, 34.582730468236548 ], [ 134.085802309429141, 34.580300865192839 ], [ 134.079722022753231, 34.586481919105324 ], [ 134.060158275284266, 34.584596494932327 ], [ 134.054110389383027, 34.586595586217356 ], [ 134.053206640873896, 34.596034865017032 ], [ 134.057920051569226, 34.603462468318298 ], [ 134.064467716811691, 34.604998414145541 ], [ 134.063060660920883, 34.608565747711168 ], [ 134.050282244330219, 34.604783693812465 ], [ 134.047880636282457, 34.597313531894031 ], [ 134.044255888198791, 34.59925949482988 ], [ 134.042151245283776, 34.608333333216819 ], [ 134.032404553027732, 34.609114828786346 ], [ 134.031356718737698, 34.603897359775374 ], [ 134.032492724359827, 34.608065775015575 ], [ 134.029680143224141, 34.604174305999493 ], [ 134.018982503339885, 34.609742161671477 ], [ 133.996046614759507, 34.613564532177463 ], [ 133.980893022095302, 34.606795864837352 ], [ 133.988103696328608, 34.607085306241913 ], [ 133.983660441076609, 34.606533612636156 ], [ 133.982776524417091, 34.601851892251091 ], [ 133.978144228073688, 34.602861026914923 ], [ 133.981653255893093, 34.600164891796396 ], [ 133.972787081758497, 34.60321394606683 ], [ 133.968336550091749, 34.598833000342722 ], [ 133.956642360656474, 34.596797775197217 ], [ 133.952328755267899, 34.602785386736286 ], [ 133.946060077710513, 34.599152694041663 ], [ 133.94970221778317, 34.594604387182756 ], [ 133.954511776797176, 34.596359360196345 ], [ 133.948087082153165, 34.593642305947697 ], [ 133.959513216961454, 34.583652413628045 ], [ 133.963050168730319, 34.589946945794964 ], [ 133.97399333342571, 34.594511999828967 ], [ 134.0029162516837, 34.593024081396266 ], [ 134.011557911868181, 34.597993946363601 ], [ 134.028816719416113, 34.598792558729656 ], [ 134.040721387981762, 34.587482054253428 ], [ 134.038753747787268, 34.579889494604572 ], [ 134.047177886250552, 34.57658225216926 ], [ 134.039107392692131, 34.576068386746726 ], [ 134.031194448664905, 34.570407495309723 ], [ 134.0300883266151, 34.558560829418809 ], [ 134.034124162899843, 34.55775472120348 ], [ 134.028602776097273, 34.554271946393271 ], [ 134.03154360595272, 34.550727495177796 ], [ 134.023974163377034, 34.552435558654167 ], [ 134.020712555240266, 34.544151720725381 ], [ 134.015219728207967, 34.54576222484684 ], [ 134.014300558124319, 34.550760829448791 ], [ 134.001069170106234, 34.545434162057006 ], [ 133.995399468011101, 34.533444306109914 ], [ 134.001387860161685, 34.529516640280804 ], [ 133.995560389100774, 34.526000134598576 ], [ 134.001638106413566, 34.517226748016071 ], [ 134.007254475113996, 34.516444495217343 ], [ 134.0034247733347, 34.511482558673208 ], [ 133.993107275980037, 34.518494333446768 ], [ 133.988035110432065, 34.53022072130932 ], [ 133.979393384597074, 34.532854305881585 ], [ 133.969456912906253, 34.530478558738537 ], [ 133.959473799676175, 34.522715081136141 ], [ 133.96236730180965, 34.518698919319718 ], [ 133.956932309278727, 34.51469541366248 ], [ 133.962445058093067, 34.515593919124115 ], [ 133.956477418698, 34.505970828790794 ], [ 133.964810558360682, 34.494887494862041 ], [ 133.961634721265455, 34.492038054112982 ], [ 133.954837496853088, 34.493288054200377 ], [ 133.955981025304141, 34.490329117394879 ], [ 133.947410712834198, 34.493134485967801 ], [ 133.950226355262203, 34.48780891035301 ], [ 133.946028327145655, 34.488311107971299 ], [ 133.947652711403521, 34.484832486230289 ], [ 133.938029169610559, 34.481168891930849 ], [ 133.935412969832782, 34.478567144258363 ], [ 133.939217159644272, 34.475404793396535 ], [ 133.934316109001315, 34.474293612660176 ], [ 133.936616315790388, 34.467507991300806 ], [ 133.943586394396675, 34.464390000398225 ], [ 133.943171115354744, 34.455191387372679 ], [ 133.93478499393234, 34.450897774812518 ], [ 133.926919947797387, 34.456268748204195 ], [ 133.925518884988605, 34.453974440967727 ], [ 133.929678859192109, 34.452348386668746 ], [ 133.919263890616094, 34.449795278829129 ], [ 133.897561802635096, 34.457442504667881 ], [ 133.880591556055492, 34.456619026946612 ], [ 133.882163891150753, 34.461992774746818 ], [ 133.876249169663538, 34.467921945641308 ], [ 133.877799441690968, 34.473085829447541 ], [ 133.863576393735684, 34.476361386968506 ], [ 133.861767781557887, 34.482847224719706 ], [ 133.85841917030848, 34.481893332711195 ], [ 133.863109999926564, 34.486704441257018 ], [ 133.863561115153402, 34.492361107679017 ], [ 133.86061722400575, 34.492998333106641 ], [ 133.866977224119637, 34.490460279018691 ], [ 133.870429441765395, 34.4931344410017 ], [ 133.867129727554925, 34.495960829428782 ], [ 133.870180272002017, 34.500018612768827 ], [ 133.865972775823025, 34.519376107921119 ], [ 133.853780558026415, 34.519703053753005 ], [ 133.849950000092463, 34.531877494650701 ], [ 133.845754993698051, 34.529043613072361 ], [ 133.837912775953896, 34.535733613115781 ], [ 133.829690000193409, 34.533437494644716 ], [ 133.820776108930318, 34.546898332991702 ], [ 133.816231115173878, 34.547331945612825 ], [ 133.833455836617645, 34.554925829063791 ], [ 133.825687223886348, 34.566590829203449 ], [ 133.833056667131586, 34.568467225082429 ], [ 133.843020558252192, 34.580221107917851 ], [ 133.843564994329085, 34.590185559316183 ], [ 133.834376666849721, 34.611199720790523 ], [ 133.83605138796122, 34.620008892296596 ], [ 133.830272776167703, 34.627878613107555 ], [ 133.839144162772982, 34.63386944062222 ], [ 133.831784994282089, 34.650932495438383 ], [ 133.837672503183512, 34.655024161635822 ], [ 133.83518306104952, 34.661682494751403 ], [ 133.824933606400919, 34.669350558781332 ], [ 133.801276666584954, 34.662598892225162 ], [ 133.797168885435781, 34.666628613120054 ], [ 133.793788326669983, 34.672830278594517 ], [ 133.801226938572427, 34.679134440701944 ], [ 133.804259441719978, 34.687297774872491 ], [ 133.791390830322598, 34.698829161836386 ], [ 133.787696108688579, 34.694926107753702 ], [ 133.782149441943261, 34.698686666956178 ], [ 133.798320829742579, 34.705900279274545 ], [ 133.797288327094634, 34.72244082888119 ], [ 133.790773333322704, 34.73132444087031 ], [ 133.778234720955652, 34.739728054106479 ], [ 133.765710557995931, 34.742474161853124 ], [ 133.762055837307116, 34.748611107616568 ], [ 133.745207781613885, 34.749256107683266 ], [ 133.740440558185242, 34.767678333088668 ], [ 133.730529170385012, 34.769780558625939 ], [ 133.727196109313013, 34.774640828611382 ], [ 133.720198053697231, 34.775591946211421 ], [ 133.712650829772087, 34.763214999572597 ], [ 133.693001660198547, 34.75742249505214 ], [ 133.686698222944642, 34.743345053631344 ], [ 133.674394721239423, 34.766280559100551 ], [ 133.662126667211965, 34.778806107915614 ], [ 133.659825551208314, 34.799851386832074 ], [ 133.647874993836012, 34.813940279320491 ], [ 133.648228054181459, 34.818802495438888 ], [ 133.651330557859069, 34.81845916216065 ], [ 133.647825550908465, 34.819311386711206 ], [ 133.647861387992748, 34.82652638668344 ], [ 133.639844720657379, 34.832018053590332 ], [ 133.646349169878363, 34.845782225169614 ], [ 133.654838326627555, 34.851264162311281 ], [ 133.664571660353886, 34.864690278733406 ], [ 133.662993890655571, 34.873932775077549 ], [ 133.682337224183584, 34.878170278935272 ], [ 133.681693061385772, 34.884026666797297 ], [ 133.693379999587364, 34.891272775218454 ], [ 133.70538299642817, 34.893127946197808 ], [ 133.71157166040382, 34.90510833318308 ], [ 133.717802775977361, 34.909055559266676 ], [ 133.711963605635901, 34.920479999752217 ], [ 133.720356667126566, 34.933297494583769 ], [ 133.718978326588513, 34.945357494952475 ], [ 133.714077223784898, 34.952523613174264 ], [ 133.719356109297109, 34.954190829443291 ], [ 133.71945832714016, 34.954159161616076 ] ] ] ] } },
{ "type": "Feature", "properties": { "code": "330012", "name": "東備地域", "PrefCode": "33", "regioncode": "330012" }, "geometry": { "type": "MultiPolygon", "coordinates": [ [ [ [ 134.291784449093143, 34.685452775225428 ], [ 134.298667496707708, 34.683581946149957 ], [ 134.301010000411225, 34.686716667140502 ], [ 134.302571283737848, 34.682482972810988 ], [ 134.294815641928381, 34.680148080969218 ], [ 134.289699441975699, 34.68439416166126 ], [ 134.291666666683341, 34.685661387363211 ], [ 134.291784449093143, 34.685452775225428 ] ] ], [ [ [ 134.32153063642977, 34.698395586087486 ], [ 134.324220272147954, 34.695829721364589 ], [ 134.321320078159147, 34.692883080989475 ], [ 134.321451219098549, 34.698408774645259 ], [ 134.32153063642977, 34.698395586087486 ] ] ], [ [ [ 134.2862874968705, 34.704177494795601 ], [ 134.290869441971267, 34.703115828932425 ], [ 134.292086303839938, 34.696522279379735 ], [ 134.283105642411556, 34.697153107929637 ], [ 134.284198326791397, 34.699970828690823 ], [ 134.279444994291111, 34.702988054155412 ], [ 134.286244449022206, 34.704231667257716 ], [ 134.2862874968705, 34.704177494795601 ] ] ], [ [ [ 134.259006109344568, 34.70702666664738 ], [ 134.264094720794787, 34.706091108218118 ], [ 134.26187805382915, 34.703132225371974 ], [ 134.268679169608049, 34.701193612595205 ], [ 134.271585550932514, 34.696070558909241 ], [ 134.26305138761154, 34.69867444067296 ], [ 134.25873360577134, 34.693404999840936 ], [ 134.261837497102874, 34.69161861260892 ], [ 134.255321193018744, 34.690230748250485 ], [ 134.250691660291977, 34.692554162044985 ], [ 134.255186393637246, 34.694684441034155 ], [ 134.249456938786807, 34.69568944061524 ], [ 134.253255836987364, 34.702106667288888 ], [ 134.250302217873127, 34.705685558941468 ], [ 134.259006109344568, 34.707105558774572 ], [ 134.259006109344568, 34.70702666664738 ] ] ], [ [ [ 134.264701659753882, 34.713998053767227 ], [ 134.268826549605592, 34.708577721085021 ], [ 134.247441102125208, 34.709913153169509 ], [ 134.264651141237209, 34.714023586419444 ], [ 134.264701659753882, 34.713998053767227 ] ] ], [ [ [ 134.213040803590275, 34.725887198235682 ], [ 134.219319754103481, 34.721269550049726 ], [ 134.209485422014723, 34.719671837885073 ], [ 134.213004292913865, 34.725916910037427 ], [ 134.213040803590275, 34.725887198235682 ] ] ], [ [ [ 134.298344994425975, 34.730201666973414 ], [ 134.311132775657143, 34.727142314566208 ], [ 134.322868885190928, 34.714101107979786 ], [ 134.3315730608482, 34.722960558782802 ], [ 134.33512499442304, 34.722406107855647 ], [ 134.346961388257569, 34.708129999899654 ], [ 134.341758327284992, 34.703190558997164 ], [ 134.336901114994475, 34.711198892315053 ], [ 134.331730272234381, 34.708443053903864 ], [ 134.326231945847667, 34.712286386707433 ], [ 134.322923891324535, 34.708194721409313 ], [ 134.324909169922307, 34.704289161815439 ], [ 134.3167094419872, 34.702863053786928 ], [ 134.308626108807971, 34.705759440945485 ], [ 134.310399169885841, 34.710634720615928 ], [ 134.305849169603562, 34.715278054338796 ], [ 134.301681114991538, 34.712505278995479 ], [ 134.302868327111696, 34.708165828889946 ], [ 134.289709728421258, 34.706198613175502 ], [ 134.28136302158623, 34.707282612802373 ], [ 134.286945913922864, 34.713267919379007 ], [ 134.279683891098784, 34.709368333082182 ], [ 134.274701946437744, 34.713457224871092 ], [ 134.2765596885788, 34.721602613070161 ], [ 134.286458326690536, 34.718240693653115 ], [ 134.285318053785204, 34.724168892380533 ], [ 134.298071945863626, 34.730274720701857 ], [ 134.298344994425975, 34.730201666973414 ] ] ], [ [ [ 134.025888053790709, 34.949501945958104 ], [ 134.049231114924055, 34.936675000151183 ], [ 134.05901805364033, 34.939431945627859 ], [ 134.06737832674844, 34.936787224750674 ], [ 134.072653605979212, 34.941266387234009 ], [ 134.089199170205575, 34.942204999760975 ], [ 134.091454993653088, 34.93706194605204 ], [ 134.088002502613449, 34.929386108282301 ], [ 134.105291659582463, 34.921844161578861 ], [ 134.109640829560703, 34.910987494577284 ], [ 134.1223130613987, 34.916932495338415 ], [ 134.127603890806995, 34.913353332989971 ], [ 134.124357224006758, 34.89055944106542 ], [ 134.137455551032872, 34.886993333275768 ], [ 134.142249999637784, 34.889680558810767 ], [ 134.153859999939073, 34.887735559048849 ], [ 134.161011659760334, 34.880996667362353 ], [ 134.166959999704318, 34.882625828819016 ], [ 134.172099170140655, 34.899202774888181 ], [ 134.187449441838339, 34.898770279225062 ], [ 134.188346666665439, 34.892784999628077 ], [ 134.198028053751727, 34.891349440624253 ], [ 134.200093890920357, 34.895602224862841 ], [ 134.194938885221404, 34.901258054016012 ], [ 134.196261946231857, 34.914865828994891 ], [ 134.202208611638184, 34.914882225434383 ], [ 134.205894162885329, 34.910143613037349 ], [ 134.215440829730596, 34.911164721274929 ], [ 134.221296393813532, 34.905973053813454 ], [ 134.227151115231891, 34.908927494908028 ], [ 134.223802503083107, 34.915156945836429 ], [ 134.226864720730305, 34.917042774704328 ], [ 134.226334993964883, 34.923470278830337 ], [ 134.235231945597889, 34.927894721164478 ], [ 134.23563610901931, 34.937424441185044 ], [ 134.246114994211666, 34.941491946196436 ], [ 134.245685550847611, 34.948497774652651 ], [ 134.253309727961664, 34.947366387049158 ], [ 134.254094163414948, 34.937656666821795 ], [ 134.25859111538773, 34.934076386616027 ], [ 134.26288416317368, 34.937656945611593 ], [ 134.273086666916242, 34.932550559061099 ], [ 134.276096393833541, 34.929680279221543 ], [ 134.274799441940786, 34.924280279311517 ], [ 134.284491659562491, 34.921034721375349 ], [ 134.284019170148667, 34.916966108399208 ], [ 134.2928447210071, 34.911447495105847 ], [ 134.294938885021566, 34.904077495180331 ], [ 134.288420558362191, 34.900368054342266 ], [ 134.289148054139446, 34.897691108058268 ], [ 134.273481945935146, 34.892587495016926 ], [ 134.268721114887626, 34.887849441098865 ], [ 134.269979727782243, 34.883603891906148 ], [ 134.262838885006545, 34.884307495394637 ], [ 134.267062218246792, 34.87538777472605 ], [ 134.258975278786124, 34.870313612683105 ], [ 134.252737781623409, 34.851898613330377 ], [ 134.265311388409941, 34.840448332624476 ], [ 134.261781659995677, 34.835768892020781 ], [ 134.263821114652728, 34.826682775189965 ], [ 134.287445551171345, 34.828798054386766 ], [ 134.287931388322932, 34.821559440915507 ], [ 134.306913891363024, 34.811528332666455 ], [ 134.310836939173441, 34.802682494901262 ], [ 134.317098885305427, 34.801951107757475 ], [ 134.31602027171823, 34.791990278828337 ], [ 134.319380829561737, 34.787266387433874 ], [ 134.315827781726853, 34.781040828771268 ], [ 134.334831388258067, 34.76912749523774 ], [ 134.321530558188783, 34.761709162148179 ], [ 134.313026939441784, 34.738397224752191 ], [ 134.323762502837326, 34.73225249535642 ], [ 134.321729442359924, 34.721946108226348 ], [ 134.315300233119274, 34.732115748043384 ], [ 134.298110039346852, 34.736544730155231 ], [ 134.285984785969163, 34.734183080784589 ], [ 134.282614020820461, 34.729940820412594 ], [ 134.275449676061726, 34.734561847351415 ], [ 134.276269882948782, 34.728235595196622 ], [ 134.271114877249829, 34.726260648909886 ], [ 134.270359143659562, 34.731327576806279 ], [ 134.267640636106535, 34.730241711985457 ], [ 134.27080281519784, 34.722477648924382 ], [ 134.26858726339151, 34.719177846580408 ], [ 134.243759000677414, 34.715279927626625 ], [ 134.23415725035693, 34.721087982324605 ], [ 134.225316122341269, 34.719728459201065 ], [ 134.232423605664962, 34.723151567590833 ], [ 134.229023658415144, 34.731288919448104 ], [ 134.203946977770897, 34.730484964209779 ], [ 134.186606926368654, 34.738004387392607 ], [ 134.18601745763965, 34.743153559189466 ], [ 134.179439013999399, 34.73305444960323 ], [ 134.189826096397269, 34.733792305570489 ], [ 134.205000181912965, 34.72666853192726 ], [ 134.204379805283907, 34.722766756680528 ], [ 134.192281491997278, 34.719969748205358 ], [ 134.194540349757403, 34.716857252160537 ], [ 134.214233293831512, 34.716137765745373 ], [ 134.197417444659436, 34.707778170726044 ], [ 134.205537147321593, 34.710725631282912 ], [ 134.218009922120245, 34.707769027318818 ], [ 134.228775564241005, 34.714805332899857 ], [ 134.231700000354749, 34.706946666555496 ], [ 134.202824449388913, 34.701666108304323 ], [ 134.174541659569968, 34.684892774581954 ], [ 134.162120000437767, 34.684399161891861 ], [ 134.160158053851205, 34.690780000196924 ], [ 134.163203061172453, 34.691814440883775 ], [ 134.158488885154043, 34.700811108445976 ], [ 134.164915551111903, 34.715100279054695 ], [ 134.153562503306944, 34.721059999919134 ], [ 134.151659170034691, 34.72656861275135 ], [ 134.146030000384258, 34.726670828795761 ], [ 134.136866109283574, 34.718720278717967 ], [ 134.12652333288554, 34.717557494882556 ], [ 134.121612217929624, 34.709805559179244 ], [ 134.124759999774255, 34.707976667289415 ], [ 134.122418884623926, 34.701994720579933 ], [ 134.10740778234333, 34.712411666765036 ], [ 134.111110558305654, 34.727348333059183 ], [ 134.102298053912136, 34.726682225004708 ], [ 134.106202217758209, 34.742067494719151 ], [ 134.11127527903102, 34.741892775331394 ], [ 134.110974993601189, 34.745815279051953 ], [ 134.119927782341392, 34.747711666859971 ], [ 134.122948612288724, 34.752211386945987 ], [ 134.118831388258059, 34.753635279044943 ], [ 134.119475278561367, 34.757134161612328 ], [ 134.109072502993627, 34.76083944128726 ], [ 134.108228611561231, 34.756257774976405 ], [ 134.100776108730543, 34.760975279385661 ], [ 134.090166108679, 34.761824721433811 ], [ 134.092910272091444, 34.770141387315221 ], [ 134.0897894420292, 34.771061945952113 ], [ 134.087045278616756, 34.781955000423011 ], [ 134.07078639397696, 34.782985558736584 ], [ 134.060922776365146, 34.776362495233002 ], [ 134.058364993849409, 34.767843891982068 ], [ 134.052578326828439, 34.770101387269278 ], [ 134.048953605724364, 34.766808053748719 ], [ 134.051218612149341, 34.76147472058193 ], [ 134.045153890939332, 34.749001666993365 ], [ 134.011124163449495, 34.73041027911114 ], [ 134.009565278614787, 34.726367494664203 ], [ 134.000660271754214, 34.72634055906957 ], [ 133.993589169604547, 34.719641386840578 ], [ 133.993908327307508, 34.726693891909633 ], [ 133.979386394166795, 34.741871667343617 ], [ 133.983393891015339, 34.744194721409315 ], [ 133.972771387689477, 34.744800279009723 ], [ 133.971383606068684, 34.749565279314254 ], [ 133.972573606087167, 34.753869162132162 ], [ 133.983544449216993, 34.758003892365764 ], [ 133.986559170069654, 34.767355559211751 ], [ 133.976675836620643, 34.769140558789786 ], [ 133.979899442105648, 34.780726108323279 ], [ 133.961699441875794, 34.787943333218323 ], [ 133.974670272015487, 34.803918891843409 ], [ 133.98632917025509, 34.80810805444321 ], [ 133.985051945890632, 34.820696386728912 ], [ 133.991217497289767, 34.827227494553256 ], [ 133.987631660173065, 34.835593613254673 ], [ 133.992803333007487, 34.841242225348481 ], [ 133.993985278697664, 34.850072774638875 ], [ 133.981931388323005, 34.855044162158435 ], [ 133.978156109017277, 34.843112774734834 ], [ 133.961558885034606, 34.849793054006284 ], [ 133.968894163035316, 34.854698891740497 ], [ 133.955354721243452, 34.872730829364343 ], [ 133.972298612291183, 34.877084720783273 ], [ 133.979483332989503, 34.886319721278142 ], [ 134.004550558161782, 34.894781946030037 ], [ 134.000505836575144, 34.903160279323458 ], [ 134.001898327046206, 34.911132225172082 ], [ 134.010898611681682, 34.917214440893758 ], [ 134.018558053911079, 34.945731387193803 ], [ 134.025801946402794, 34.949610558880238 ], [ 134.025888053790709, 34.949501945958104 ] ] ] ] } },
{ "type": "Feature", "properties": { "code": "330013", "name": "倉敷地域", "PrefCode": "33", "regioncode": "330013" }, "geometry": { "type": "MultiPolygon", "coordinates": [ [ [ [ 133.836778327058255, 34.425470774956352 ], [ 133.830920440925638, 34.417598973114195 ], [ 133.827858949031338, 34.423782332888379 ], [ 133.836778248817154, 34.425484306155852 ], [ 133.836778327058255, 34.425470774956352 ] ] ], [ [ [ 133.817194552586557, 34.425967135075268 ], [ 133.813970583775472, 34.425660585867377 ], [ 133.817156394352196, 34.425978251595097 ], [ 133.817194552586557, 34.425967135075268 ] ] ], [ [ [ 133.761165331315055, 34.431292802420955 ], [ 133.768851633596114, 34.425754666644593 ], [ 133.774722996069499, 34.426705532434426 ], [ 133.776892140160157, 34.421599054153091 ], [ 133.76397466859612, 34.419770693762587 ], [ 133.76112994838843, 34.431297135354555 ], [ 133.761165331315055, 34.431292802420955 ] ] ], [ [ [ 133.802630636394838, 34.436049973227739 ], [ 133.805836030608361, 34.435040414083915 ], [ 133.802401607847969, 34.436130108217981 ], [ 133.802630636394838, 34.436049973227739 ] ] ], [ [ [ 133.794163086757067, 34.436775000366026 ], [ 133.791555058219387, 34.437906279151491 ], [ 133.794164720825279, 34.436941802122533 ], [ 133.794163086757067, 34.436775000366026 ] ] ], [ [ [ 133.759344227554152, 34.443180386565643 ], [ 133.756483280878797, 34.443985694384367 ], [ 133.759299947634531, 34.443183134893786 ], [ 133.759344227554152, 34.443180386565643 ] ] ], [ [ [ 133.853342309400091, 34.450217252424295 ], [ 133.853498780644259, 34.444893613049828 ], [ 133.850755810632222, 34.449223945828464 ], [ 133.853314694817414, 34.450231946447218 ], [ 133.853342309400091, 34.450217252424295 ] ] ], [ [ [ 133.811396108943313, 34.445553720827604 ], [ 133.81094316539486, 34.451028747578675 ], [ 133.811427444920696, 34.445767972613908 ], [ 133.811396108943313, 34.445553720827604 ] ] ], [ [ [ 133.750145771909956, 34.448870639968106 ], [ 133.747685278952531, 34.451601720942733 ], [ 133.750154616742179, 34.448880694388606 ], [ 133.750145771909956, 34.448870639968106 ] ] ], [ [ [ 133.760637755727885, 34.464280640139464 ], [ 133.762235576710509, 34.46224225207834 ], [ 133.760608053818714, 34.464278774945569 ], [ 133.760637755727885, 34.464280640139464 ] ] ], [ [ [ 133.691158105762042, 34.464494775013918 ], [ 133.690122412319511, 34.460409000275206 ], [ 133.691111751106519, 34.464510306305669 ], [ 133.691158105762042, 34.464494775013918 ] ] ], [ [ [ 133.715245161634925, 34.46436453159788 ], [ 133.716752088138378, 34.461118414283419 ], [ 133.707355719590851, 34.463790225438629 ], [ 133.715099053278777, 34.464502081106218 ], [ 133.715245161634925, 34.46436453159788 ] ] ], [ [ [ 133.663353969310265, 34.496210054050778 ], [ 133.658583138700919, 34.501142197854222 ], [ 133.662313165020578, 34.497303748369347 ], [ 133.663353969310265, 34.496210054050778 ] ] ], [ [ [ 133.684416329050464, 34.504266721432089 ], [ 133.683540026051446, 34.490525053588385 ], [ 133.669057781791253, 34.490712000158737 ], [ 133.669005577045823, 34.487660801904553 ], [ 133.681233645416455, 34.48735813506994 ], [ 133.668836472125577, 34.487525559157291 ], [ 133.669193021840556, 34.502028027371637 ], [ 133.683807418777405, 34.504275666988519 ], [ 133.684416329050464, 34.504266721432089 ] ] ], [ [ [ 133.658309727711867, 34.501534467741521 ], [ 133.654232114320735, 34.505751467955918 ], [ 133.657294227646503, 34.502592027300295 ], [ 133.658309727711867, 34.501534467741521 ] ] ], [ [ [ 133.656179493688796, 34.514150865170336 ], [ 133.653677301866082, 34.512897387404564 ], [ 133.656115914318093, 34.514230467761934 ], [ 133.656179493688796, 34.514150865170336 ] ] ], [ [ [ 133.66123749671317, 34.781081107607065 ], [ 133.674394721239423, 34.766280559100551 ], [ 133.686861660337399, 34.743269721020852 ], [ 133.693001660198547, 34.75742249505214 ], [ 133.712650829772087, 34.763214999572597 ], [ 133.720198053697231, 34.775591946211421 ], [ 133.727196109313013, 34.774640828611382 ], [ 133.730529170385012, 34.769780558625939 ], [ 133.740440558185242, 34.767678333088668 ], [ 133.745207781613885, 34.749256107683266 ], [ 133.762055837307116, 34.748611107616568 ], [ 133.765710557995931, 34.742474161853124 ], [ 133.778234720955652, 34.739728054106479 ], [ 133.790773333322704, 34.73132444087031 ], [ 133.797288327094634, 34.72244082888119 ], [ 133.798320829742579, 34.705900279274545 ], [ 133.782149441943261, 34.698686666956178 ], [ 133.787696108688579, 34.694926107753702 ], [ 133.791390830322598, 34.698829161836386 ], [ 133.804259441719978, 34.687297774872491 ], [ 133.801226938572427, 34.679134440701944 ], [ 133.793788326669983, 34.672830278594517 ], [ 133.797168885435781, 34.666628613120054 ], [ 133.801276666584954, 34.662598892225162 ], [ 133.824933606400919, 34.669350558781332 ], [ 133.83518306104952, 34.661682494751403 ], [ 133.837672503183512, 34.655024161635822 ], [ 133.831784994282089, 34.650932495438383 ], [ 133.839144162772982, 34.63386944062222 ], [ 133.830272776167703, 34.627878613107555 ], [ 133.83605138796122, 34.620008892296596 ], [ 133.834376666849721, 34.611199720790523 ], [ 133.843564994329085, 34.590185559316183 ], [ 133.843020558252192, 34.580221107917851 ], [ 133.833056667131586, 34.568467225082429 ], [ 133.825687223886348, 34.566590829203449 ], [ 133.833455836617645, 34.554925829063791 ], [ 133.816231115173878, 34.547331945612825 ], [ 133.820776108930318, 34.546898332991702 ], [ 133.829690000193409, 34.533437494644716 ], [ 133.837912775953896, 34.535733613115781 ], [ 133.845754993698051, 34.529043613072361 ], [ 133.849950000092463, 34.531877494650701 ], [ 133.853780558026415, 34.519703053753005 ], [ 133.865972775823025, 34.519376107921119 ], [ 133.870180272002017, 34.500018612768827 ], [ 133.867129727554925, 34.495960829428782 ], [ 133.870429441765395, 34.4931344410017 ], [ 133.866977224119637, 34.490460279018691 ], [ 133.86061722400575, 34.492998333106641 ], [ 133.863561115153402, 34.492361107679017 ], [ 133.863109999926564, 34.486704441257018 ], [ 133.85841917030848, 34.481893332711195 ], [ 133.861767781557887, 34.482847224719706 ], [ 133.863576393735684, 34.476361386968506 ], [ 133.877799441690968, 34.473085829447541 ], [ 133.876249169663538, 34.467921945641308 ], [ 133.882163891150753, 34.461992774746818 ], [ 133.8801411414006, 34.45684145896621 ], [ 133.867143995299216, 34.467276198237982 ], [ 133.859816199657985, 34.467986748090027 ], [ 133.860338807390121, 34.465072306142076 ], [ 133.856013722155581, 34.469397108090106 ], [ 133.840418494917685, 34.468933693735039 ], [ 133.835753994751144, 34.470198386946038 ], [ 133.83647185519203, 34.474574945777192 ], [ 133.83157505834231, 34.470137413810676 ], [ 133.82959535733994, 34.475726918862279 ], [ 133.827766549986336, 34.470502613205099 ], [ 133.819023942700824, 34.469260413837105 ], [ 133.81744661456969, 34.465974414287814 ], [ 133.815063280745903, 34.467836386839849 ], [ 133.817806160825739, 34.464359468414784 ], [ 133.814764305628273, 34.460098639740465 ], [ 133.80926858637622, 34.46171158642062 ], [ 133.807543969079006, 34.457692332735007 ], [ 133.8110109985588, 34.458505053665363 ], [ 133.811684383927286, 34.440738720915306 ], [ 133.813606939308897, 34.443536829261291 ], [ 133.816285939644445, 34.439238720990261 ], [ 133.813920505926717, 34.438593198417436 ], [ 133.822434669224663, 34.429726053914294 ], [ 133.791019248439625, 34.439573999940194 ], [ 133.785158715602279, 34.43608325174074 ], [ 133.771305331276039, 34.455302333136217 ], [ 133.775074306334204, 34.458084973143059 ], [ 133.774213502251428, 34.462311332601985 ], [ 133.767000855804895, 34.462559774813826 ], [ 133.766632944055232, 34.472319000021912 ], [ 133.758140921166614, 34.468515494594442 ], [ 133.756308949098752, 34.473273829123968 ], [ 133.759027911708813, 34.475292000425554 ], [ 133.756061607657102, 34.476023694238165 ], [ 133.759577807569826, 34.485846613030844 ], [ 133.748328560414848, 34.489466467903242 ], [ 133.742569338903877, 34.501401279045865 ], [ 133.745405966112457, 34.511944107834381 ], [ 133.739046251983041, 34.517642161956246 ], [ 133.7396174186091, 34.525177945605776 ], [ 133.735039882884394, 34.498574386998428 ], [ 133.718980583886946, 34.503878919376689 ], [ 133.718958885044572, 34.49640322482901 ], [ 133.737176666669939, 34.49057527892603 ], [ 133.743399078604625, 34.470601532334911 ], [ 133.741132386850268, 34.470092197696829 ], [ 133.732828249424188, 34.474563694359063 ], [ 133.731224578351657, 34.471036386919764 ], [ 133.724490635634425, 34.471546666745326 ], [ 133.73361177656227, 34.468650945984393 ], [ 133.704030051845507, 34.477826693746977 ], [ 133.70533411197971, 34.523063494684607 ], [ 133.67892072581094, 34.524299864647105 ], [ 133.690674811893132, 34.519638639811433 ], [ 133.690279922280638, 34.50482972131465 ], [ 133.690455667794936, 34.512377585557203 ], [ 133.683993722332502, 34.512503612951434 ], [ 133.684070804124417, 34.507072973139259 ], [ 133.670194994303642, 34.507345892199226 ], [ 133.670359248280761, 34.512746802223205 ], [ 133.677103774219859, 34.513725135106938 ], [ 133.676975188254346, 34.518331054334737 ], [ 133.659442243964463, 34.520809801730991 ], [ 133.656934668799977, 34.515691413727836 ], [ 133.648031439899114, 34.512122532428975 ], [ 133.651205446873973, 34.510055251848428 ], [ 133.648657562296762, 34.504038747790048 ], [ 133.626413773976537, 34.501462387079528 ], [ 133.617353061194876, 34.49125989233022 ], [ 133.61466425375238, 34.495000107968679 ], [ 133.603739402851261, 34.495143396050935 ], [ 133.602538611867544, 34.502831387258766 ], [ 133.617494720604896, 34.507316107552356 ], [ 133.623058326980299, 34.512985558736602 ], [ 133.621619442283531, 34.519233891830709 ], [ 133.631010000311335, 34.520766946337574 ], [ 133.636723061420184, 34.534892495192537 ], [ 133.650190558347617, 34.545251387441624 ], [ 133.642730557868958, 34.548118613183476 ], [ 133.647931660118047, 34.557235558774096 ], [ 133.63862444855954, 34.560369440697173 ], [ 133.636713060959096, 34.569437494644717 ], [ 133.622917781830211, 34.579262775057089 ], [ 133.636075278851081, 34.58330194602803 ], [ 133.649377224079672, 34.596251107902333 ], [ 133.63774999996258, 34.608153054220111 ], [ 133.631948054359327, 34.628003054097746 ], [ 133.63397111527479, 34.639820000092982 ], [ 133.629141114670801, 34.645542225293525 ], [ 133.61870083017925, 34.64442082915798 ], [ 133.623455551232723, 34.658190559446837 ], [ 133.612573606087153, 34.671008612757305 ], [ 133.618332502942735, 34.676129999999546 ], [ 133.614712775774024, 34.68308333322932 ], [ 133.623425279153366, 34.685974161678246 ], [ 133.627158053801168, 34.700902225057689 ], [ 133.596070829805058, 34.712578892102215 ], [ 133.585341388094662, 34.710725278748669 ], [ 133.582223333340266, 34.721885000192628 ], [ 133.610248301018373, 34.740034251679447 ], [ 133.62215111518185, 34.750778891932384 ], [ 133.620344720732305, 34.753832494973722 ], [ 133.624375837375055, 34.758982225249554 ], [ 133.629370557805032, 34.761552225055198 ], [ 133.636196939137449, 34.758849586039616 ], [ 133.646583606048694, 34.766040279135609 ], [ 133.653357224156593, 34.779682775140031 ], [ 133.661251946120501, 34.781319721128284 ], [ 133.66123749671317, 34.781081107607065 ] ] ] ] } },
{ "type": "Feature", "properties": { "code": "330014", "name": "井笠地域", "PrefCode": "33", "regioncode": "330014" }, "geometry": { "type": "MultiPolygon", "coordinates": [ [ [ [ 133.538241387929816, 34.309725558987395 ], [ 133.54060869043883, 34.307470440608427 ], [ 133.534022776130314, 34.298474441242547 ], [ 133.526120829912429, 34.302737494839562 ], [ 133.52705027205252, 34.308130559178039 ], [ 133.538033333371686, 34.309701108219599 ], [ 133.538241387929816, 34.309725558987395 ] ] ], [ [ [ 133.49827416272251, 34.350626107808694 ], [ 133.509741322803848, 34.343463711880872 ], [ 133.50826360628048, 34.334842225288526 ], [ 133.497194163280028, 34.340392494717889 ], [ 133.498219727658352, 34.350643053734018 ], [ 133.49827416272251, 34.350626107808694 ] ] ], [ [ [ 133.516666667332856, 34.352275441058794 ], [ 133.522641387989779, 34.348067225422142 ], [ 133.522737912224898, 34.343075306380342 ], [ 133.518741478836205, 34.34377958615903 ], [ 133.51663722442845, 34.352294441035667 ], [ 133.516666667332856, 34.352275441058794 ] ] ], [ [ [ 133.587135550865014, 34.363728333395898 ], [ 133.591231659713344, 34.358983891593368 ], [ 133.584391114958066, 34.358149999722741 ], [ 133.580713554187241, 34.350966440948525 ], [ 133.573617781835196, 34.347725558587683 ], [ 133.567087691144138, 34.351051559082237 ], [ 133.573346692895598, 34.359580197867899 ], [ 133.579281257923753, 34.355249269738067 ], [ 133.5819499223511, 34.362646585671428 ], [ 133.587094720744858, 34.363733892105472 ], [ 133.587135550865014, 34.363728333395898 ] ] ], [ [ [ 133.586353890719579, 34.372191667011862 ], [ 133.583596108873394, 34.37340305380792 ], [ 133.586068612276677, 34.375836945718504 ], [ 133.58641000032128, 34.372223054250583 ], [ 133.586353890719579, 34.372191667011862 ] ] ], [ [ [ 133.588828054271403, 34.381215828647612 ], [ 133.585796938777776, 34.376840000066011 ], [ 133.582309170032204, 34.378432224567575 ], [ 133.588702218432672, 34.381298333351481 ], [ 133.588828054271403, 34.381215828647612 ] ] ], [ [ [ 133.49544247728852, 34.384831972917254 ], [ 133.500963332591823, 34.38280333260775 ], [ 133.495388392060704, 34.384840919373005 ], [ 133.49544247728852, 34.384831972917254 ] ] ], [ [ [ 133.542638391948344, 34.40202263073985 ], [ 133.551809105306006, 34.393052711713324 ], [ 133.557727224431915, 34.396132774607906 ], [ 133.558128054066515, 34.393259161880849 ], [ 133.550199623713752, 34.390955550258468 ], [ 133.544757886267462, 34.380142045319189 ], [ 133.548493684436039, 34.375418036113501 ], [ 133.559962776261159, 34.376788891594117 ], [ 133.55886805401758, 34.367134720690842 ], [ 133.544705551120387, 34.366859720599678 ], [ 133.516893333360713, 34.382473332678217 ], [ 133.520926147923433, 34.390952017721474 ], [ 133.527497224317472, 34.388042144329575 ], [ 133.529608598658001, 34.392815937305727 ], [ 133.53474460438008, 34.396235900766271 ], [ 133.536263696012838, 34.394162189133795 ], [ 133.537617729674594, 34.401236577406166 ], [ 133.542389986608669, 34.402193757336079 ], [ 133.542638391948344, 34.40202263073985 ] ] ], [ [ [ 133.524794162620537, 34.416423053780932 ], [ 133.525793332796184, 34.399156946435994 ], [ 133.511841685845184, 34.390105594697502 ], [ 133.504882218339731, 34.406973054163188 ], [ 133.512184903110892, 34.406616332677686 ], [ 133.51659444907466, 34.411345828647143 ], [ 133.518667237103386, 34.408475802416376 ], [ 133.519569999955593, 34.41392666708208 ], [ 133.524733060882113, 34.416423053780932 ], [ 133.524794162620537, 34.416423053780932 ] ] ], [ [ [ 133.516799662674316, 34.424146053797415 ], [ 133.510485551367196, 34.421985000007794 ], [ 133.516714720807727, 34.424182774915209 ], [ 133.516799662674316, 34.424146053797415 ] ] ], [ [ [ 133.512153191216839, 34.435256774780385 ], [ 133.5173663938441, 34.434855559336654 ], [ 133.516143332948559, 34.428837225157849 ], [ 133.499811685960594, 34.42388566679017 ], [ 133.500924721099068, 34.431062774727309 ], [ 133.510801140560261, 34.431820910406714 ], [ 133.511990271833611, 34.435226107898586 ], [ 133.512153191216839, 34.435256774780385 ] ] ], [ [ [ 133.499512503099595, 34.435933612646181 ], [ 133.498972775872971, 34.430814999812469 ], [ 133.496116939145509, 34.43090999969678 ], [ 133.49930666716898, 34.436002775008092 ], [ 133.499512503099595, 34.435933612646181 ] ] ], [ [ [ 133.503477782173945, 34.440509440558287 ], [ 133.50266527887959, 34.436517494786585 ], [ 133.503376939394343, 34.440458892364063 ], [ 133.503477782173945, 34.440509440558287 ] ] ], [ [ [ 133.599626809429765, 34.480718441303054 ], [ 133.593823799928487, 34.48521333292905 ], [ 133.599107444652873, 34.481125972685561 ], [ 133.599626809429765, 34.480718441303054 ] ] ], [ [ [ 133.592184033666285, 34.486609972871975 ], [ 133.593705331336082, 34.488643558553463 ], [ 133.592171607733576, 34.486792531650053 ], [ 133.592184033666285, 34.486609972871975 ] ] ], [ [ [ 133.370393333185802, 34.742025278743654 ], [ 133.384482776059372, 34.743443333343237 ], [ 133.392896939242405, 34.734941387335198 ], [ 133.403632217552854, 34.735568891990852 ], [ 133.412537781993137, 34.714216386676981 ], [ 133.420758054041016, 34.708166107679801 ], [ 133.426804162881922, 34.696273332648218 ], [ 133.433342776448058, 34.696222225075701 ], [ 133.438013606043114, 34.690439161638039 ], [ 133.453537223863805, 34.684261667242197 ], [ 133.456576108600643, 34.69149082883871 ], [ 133.462911945729729, 34.683874721341397 ], [ 133.490138327122168, 34.695839441237297 ], [ 133.500347781724827, 34.694842774774315 ], [ 133.503837224108679, 34.70528582917774 ], [ 133.524321659716861, 34.712116108171926 ], [ 133.529983332664756, 34.717747224854577 ], [ 133.521429727799728, 34.725364999695046 ], [ 133.5202769390296, 34.733279441093373 ], [ 133.536280272316731, 34.742645559145274 ], [ 133.560001115259297, 34.740111387430659 ], [ 133.554387224191146, 34.731735279059933 ], [ 133.56291610939104, 34.718422225405448 ], [ 133.578644162897831, 34.720899999735252 ], [ 133.584447782139478, 34.718461945762215 ], [ 133.585341388094662, 34.710725278748669 ], [ 133.596070829805058, 34.712578892102215 ], [ 133.62712194602102, 34.700967774842979 ], [ 133.623425279153366, 34.685974161678246 ], [ 133.614712775774024, 34.68308333322932 ], [ 133.618332502942735, 34.676129999999546 ], [ 133.612573606087153, 34.671008612757305 ], [ 133.623455551232723, 34.658190559446837 ], [ 133.61870083017925, 34.64442082915798 ], [ 133.629141114670801, 34.645542225293525 ], [ 133.63397111527479, 34.639820000092982 ], [ 133.631948054359327, 34.628003054097746 ], [ 133.63774999996258, 34.608153054220111 ], [ 133.649377224079672, 34.596251107902333 ], [ 133.636075278851081, 34.58330194602803 ], [ 133.622941388134564, 34.57899610808397 ], [ 133.636713060959096, 34.569437494644717 ], [ 133.63862444855954, 34.560369440697173 ], [ 133.647931660118047, 34.557235558774096 ], [ 133.642730557868958, 34.548118613183476 ], [ 133.650190558347617, 34.545251387441624 ], [ 133.636723061420184, 34.534892495192537 ], [ 133.631010000311335, 34.520766946337574 ], [ 133.621619442283531, 34.519233891830709 ], [ 133.621787781880698, 34.511219999803188 ], [ 133.602538611867544, 34.502831387258766 ], [ 133.603739402851261, 34.495143396050935 ], [ 133.590202309189294, 34.486371639939307 ], [ 133.588727108069634, 34.482480802247267 ], [ 133.601790557588174, 34.473205558889504 ], [ 133.593913606228057, 34.469279162003772 ], [ 133.578737885744886, 34.470518225435796 ], [ 133.57622333274071, 34.465574721396308 ], [ 133.558928703396987, 34.468036774677444 ], [ 133.557640297761623, 34.464982541211384 ], [ 133.540339416331108, 34.461394089765463 ], [ 133.529469896218757, 34.471546243164653 ], [ 133.529284279745752, 34.477705630610444 ], [ 133.524459157064484, 34.47881422489661 ], [ 133.524503606056669, 34.474686387067152 ], [ 133.518626252299782, 34.478775395767968 ], [ 133.517087808155907, 34.490352667041975 ], [ 133.5082388461459, 34.497127730360546 ], [ 133.509405589696257, 34.499883594852065 ], [ 133.50452486373149, 34.499045351162067 ], [ 133.503445240205679, 34.504800135417952 ], [ 133.501125045084791, 34.501076432231628 ], [ 133.49346289229868, 34.505668054037528 ], [ 133.486787314682942, 34.514192099086131 ], [ 133.488920545247083, 34.506689252207252 ], [ 133.501179260714366, 34.499806117358503 ], [ 133.519384111887348, 34.473131161573917 ], [ 133.5269655379293, 34.471244775126308 ], [ 133.524626264590552, 34.458422864623572 ], [ 133.527408546667175, 34.453704189296957 ], [ 133.514126069962231, 34.448988486229723 ], [ 133.501102178922451, 34.45183867611405 ], [ 133.488313411135096, 34.440869279093988 ], [ 133.473138366042804, 34.443801252425885 ], [ 133.473311413590977, 34.450676838365439 ], [ 133.490175058132536, 34.458553323876856 ], [ 133.484383800072351, 34.465950306161744 ], [ 133.462779935145932, 34.45446620734964 ], [ 133.456323644620511, 34.454538108147233 ], [ 133.455221504768701, 34.477397162249304 ], [ 133.449216069565978, 34.477517666906863 ], [ 133.445872502613952, 34.483056666931702 ], [ 133.456442502619439, 34.499929441390634 ], [ 133.453374720866691, 34.506734999820424 ], [ 133.444943332968478, 34.505886108157426 ], [ 133.446509169562546, 34.51178000044672 ], [ 133.449956666666935, 34.512295278704187 ], [ 133.447179728361789, 34.520538612966675 ], [ 133.454388612044909, 34.53150610792062 ], [ 133.448708054233407, 34.53971972138811 ], [ 133.446214163153172, 34.556338054257822 ], [ 133.426732775597202, 34.569144721251917 ], [ 133.422181946139972, 34.586569441126869 ], [ 133.413205551095416, 34.586658332815887 ], [ 133.397006108944879, 34.594884161774701 ], [ 133.392757781746241, 34.611702774563469 ], [ 133.383578326978295, 34.619788332665451 ], [ 133.391915551361649, 34.631133891815693 ], [ 133.387190272313319, 34.636381945870141 ], [ 133.388483891318629, 34.643431108159177 ], [ 133.396489728118468, 34.652078891827443 ], [ 133.403378053854112, 34.671922494827299 ], [ 133.385486939270891, 34.677538054137926 ], [ 133.382699728010152, 34.68067610801603 ], [ 133.386410558300668, 34.685379162118693 ], [ 133.374374163337052, 34.694927775096801 ], [ 133.369778612393134, 34.722760829248898 ], [ 133.361708611663175, 34.726802774628425 ], [ 133.35820138788381, 34.733273332898023 ], [ 133.367955550808119, 34.743587224870566 ], [ 133.370324993703548, 34.742081667135267 ], [ 133.370393333185802, 34.742025278743654 ] ] ] ] } },
{ "type": "Feature", "properties": { "code": "330015", "name": "高梁地域", "PrefCode": "33", "regioncode": "330015" }, "geometry": { "type": "Polygon", "coordinates": [ [ [ 133.709767223778385, 34.959825000223645 ], [ 133.717252775795032, 34.955884162024518 ], [ 133.714084721432755, 34.952418054349778 ], [ 133.719856108972294, 34.941263054346507 ], [ 133.718143060553871, 34.92672777526667 ], [ 133.711963605635901, 34.920479999752217 ], [ 133.71796194608703, 34.909335829385043 ], [ 133.71157166040382, 34.90510833318308 ], [ 133.70538299642817, 34.893127946197808 ], [ 133.693379999587364, 34.891272775218454 ], [ 133.681693061385772, 34.884026666797297 ], [ 133.682337224183584, 34.878170278935272 ], [ 133.662993890655571, 34.873932775077549 ], [ 133.664571660353886, 34.864690278733406 ], [ 133.640439728310866, 34.836105000145665 ], [ 133.640478884792742, 34.830562494563537 ], [ 133.64736832658707, 34.827213612618152 ], [ 133.647825550908465, 34.819311386711206 ], [ 133.651330557859069, 34.81845916216065 ], [ 133.648228054181459, 34.818802495438888 ], [ 133.647874993836012, 34.813940279320491 ], [ 133.659825551208314, 34.799851386832074 ], [ 133.662059999569351, 34.782135828905439 ], [ 133.653357224156593, 34.779682775140031 ], [ 133.646583606048694, 34.766040279135609 ], [ 133.636196939137449, 34.758849586039616 ], [ 133.629370557805032, 34.761552225055198 ], [ 133.624375837375055, 34.758982225249554 ], [ 133.620344720732305, 34.753832494973722 ], [ 133.621888612069824, 34.750444999736999 ], [ 133.59146416324063, 34.725687494782107 ], [ 133.58445749661621, 34.724570278695467 ], [ 133.581818884833751, 34.719246667199968 ], [ 133.575202503292985, 34.721272495329458 ], [ 133.56291610939104, 34.718422225405448 ], [ 133.554387224191146, 34.731735279059933 ], [ 133.560001115259297, 34.740111387430659 ], [ 133.536280272316731, 34.742645559145274 ], [ 133.5202769390296, 34.733279441093373 ], [ 133.521429727799728, 34.725364999695046 ], [ 133.529983332664756, 34.717747224854577 ], [ 133.524321659716861, 34.712116108171926 ], [ 133.503837224108679, 34.70528582917774 ], [ 133.500347781724827, 34.694842774774315 ], [ 133.490138327122168, 34.695839441237297 ], [ 133.462911945729729, 34.683874721341397 ], [ 133.456576108600643, 34.69149082883871 ], [ 133.453537223863805, 34.684261667242197 ], [ 133.425256938656844, 34.697868333356951 ], [ 133.420758054041016, 34.708166107679801 ], [ 133.412537781993137, 34.714216386676981 ], [ 133.409710272111397, 34.726343891957072 ], [ 133.404309728111571, 34.728493332801122 ], [ 133.404758327035211, 34.734758612719872 ], [ 133.392896939242405, 34.734941387335198 ], [ 133.384482776059372, 34.743443333343237 ], [ 133.370393333185802, 34.742025278743654 ], [ 133.367511388240018, 34.753214161604319 ], [ 133.361847496664723, 34.755600278829831 ], [ 133.367678326693522, 34.761533612686151 ], [ 133.364642218163908, 34.767319721228205 ], [ 133.367374994360603, 34.774331108393994 ], [ 133.376847224320045, 34.781752775270434 ], [ 133.36968749668074, 34.789160559312393 ], [ 133.37759221820636, 34.79708277534985 ], [ 133.378085837191747, 34.808359720724582 ], [ 133.374507496823639, 34.813911667389618 ], [ 133.368556394162283, 34.814882775120054 ], [ 133.36789722437743, 34.819006108245333 ], [ 133.358655279317759, 34.819809999631843 ], [ 133.3529863938071, 34.830642775243916 ], [ 133.342229727819699, 34.830276666634916 ], [ 133.33358805414548, 34.837755559171796 ], [ 133.335437223948816, 34.844906108330292 ], [ 133.328863606070627, 34.85304555920527 ], [ 133.338664720800239, 34.864390279287989 ], [ 133.336814994316569, 34.869593612755068 ], [ 133.344126666912189, 34.869480279291508 ], [ 133.353124162749964, 34.877720000078 ], [ 133.39016832690686, 34.86920944126274 ], [ 133.398551660430826, 34.875078053609343 ], [ 133.404543890887908, 34.873918332864832 ], [ 133.410740557930467, 34.879812774639902 ], [ 133.416141387914763, 34.877092224726425 ], [ 133.424569999605865, 34.886492775121553 ], [ 133.435188053985598, 34.880151107687539 ], [ 133.441745836601172, 34.884264161561873 ], [ 133.450964162766013, 34.874124720979125 ], [ 133.467886108557082, 34.878278613067607 ], [ 133.472070271825601, 34.88597749506539 ], [ 133.481952502705894, 34.871839441137354 ], [ 133.492252502850761, 34.878593891994569 ], [ 133.514268327421405, 34.865910828721837 ], [ 133.521861114598778, 34.869989720948922 ], [ 133.523880558441078, 34.876763892139934 ], [ 133.535611945634855, 34.876888333130125 ], [ 133.543506109119676, 34.881882774770304 ], [ 133.550264162661051, 34.880797224712182 ], [ 133.564465278849639, 34.886158613129567 ], [ 133.564027782056542, 34.89672138708238 ], [ 133.569759728029112, 34.897925558617715 ], [ 133.561588054445224, 34.914405829365592 ], [ 133.568109728381273, 34.921004720891233 ], [ 133.568379442257537, 34.929039720906474 ], [ 133.585221659551962, 34.929014440963726 ], [ 133.589408611618182, 34.933643333373197 ], [ 133.584135551014924, 34.946844999697021 ], [ 133.59081306127382, 34.951170558874253 ], [ 133.604066667043071, 34.952503053772944 ], [ 133.607173061187837, 34.939508054353269 ], [ 133.617325550933515, 34.931989440560301 ], [ 133.621629170250117, 34.908253053735507 ], [ 133.617247223580534, 34.901455000148189 ], [ 133.619301946028031, 34.900202775138041 ], [ 133.630716666640865, 34.902336946393007 ], [ 133.633518884888645, 34.90969027918311 ], [ 133.6500683269918, 34.915337775218177 ], [ 133.644228054081509, 34.937619720873499 ], [ 133.649740272295844, 34.942515828842488 ], [ 133.657845836716092, 34.938234440766905 ], [ 133.671691946426222, 34.942296666757841 ], [ 133.6710580538861, 34.945521107712977 ], [ 133.675631387978228, 34.946701666648664 ], [ 133.674723332615827, 34.951439720566725 ], [ 133.694813332769172, 34.94881082865686 ], [ 133.703293332621229, 34.954209162123163 ], [ 133.705359999864186, 34.959795828914423 ], [ 133.709459727584431, 34.959936667243426 ], [ 133.709767223778385, 34.959825000223645 ] ] ] } },
{ "type": "Feature", "properties": { "code": "330021", "name": "新見地域", "PrefCode": "33", "regioncode": "330021" }, "geometry": { "type": "Polygon", "coordinates": [ [ [ 133.509040271591289, 35.191754440714931 ], [ 133.516174448591983, 35.190718053895125 ], [ 133.519181946090043, 35.182910558975152 ], [ 133.526111115435697, 35.182885838410755 ], [ 133.529765837023774, 35.177320559296447 ], [ 133.535608611848033, 35.176114170932294 ], [ 133.534226394332677, 35.170833892370297 ], [ 133.541314721197523, 35.167949441013945 ], [ 133.540689999943652, 35.161958332910785 ], [ 133.535789442129158, 35.157766386909259 ], [ 133.538246939444775, 35.151601108004797 ], [ 133.567884163123722, 35.149471945973573 ], [ 133.590612775958903, 35.138119441359208 ], [ 133.582884163273548, 35.1140899996538 ], [ 133.57518138811065, 35.111052775065559 ], [ 133.574602502603511, 35.095345000371537 ], [ 133.589281114731762, 35.080387774676126 ], [ 133.585143060603855, 35.054790838026804 ], [ 133.591104162826923, 35.046706386990195 ], [ 133.584091114613329, 35.041487505144289 ], [ 133.582945279401201, 35.033546666845268 ], [ 133.588888326834876, 35.028403613136277 ], [ 133.587728327300511, 35.023896666997643 ], [ 133.600397223553045, 35.020108612822298 ], [ 133.599028885274947, 35.013728332996209 ], [ 133.582968612311674, 34.998675828626631 ], [ 133.589043890663106, 34.992971386620241 ], [ 133.597321659966724, 35.001404720651408 ], [ 133.606348327113665, 34.995974440568034 ], [ 133.608434449390415, 34.990098333271533 ], [ 133.601227496551815, 34.989493333250778 ], [ 133.601409999571842, 34.986168892180672 ], [ 133.619157782006141, 34.972696108138905 ], [ 133.621925550823562, 34.961764161586814 ], [ 133.609618054329758, 34.960387775275649 ], [ 133.604425278903591, 34.954435278665244 ], [ 133.5966861090767, 34.958725559237223 ], [ 133.600490830387571, 34.952339720701616 ], [ 133.584179169932781, 34.94707166662414 ], [ 133.59009250286681, 34.93649138736771 ], [ 133.58599027233322, 34.92947944082357 ], [ 133.568379442257537, 34.929039720906474 ], [ 133.568109728381273, 34.921004720891233 ], [ 133.561588054445224, 34.914405829365592 ], [ 133.569759728029112, 34.897925558617715 ], [ 133.564027782056542, 34.89672138708238 ], [ 133.564465278849639, 34.886158613129567 ], [ 133.550264162661051, 34.880797224712182 ], [ 133.543506109119676, 34.881882774770304 ], [ 133.535611945634855, 34.876888333130125 ], [ 133.523880558441078, 34.876763892139934 ], [ 133.521861114598778, 34.869989720948922 ], [ 133.514268327421405, 34.865910828721837 ], [ 133.492252502850761, 34.878593891994569 ], [ 133.481952502705894, 34.871839441137354 ], [ 133.472550272377248, 34.885937495019448 ], [ 133.465237782297891, 34.876823613419049 ], [ 133.450762775781527, 34.874113892242406 ], [ 133.441745836601172, 34.884264161561873 ], [ 133.435188053985598, 34.880151107687539 ], [ 133.424569999605865, 34.886492775121553 ], [ 133.416141387914763, 34.877092224726425 ], [ 133.410740557930467, 34.879812774639902 ], [ 133.404543890887908, 34.873918332864832 ], [ 133.398551660430826, 34.875078053609343 ], [ 133.39016832690686, 34.86920944126274 ], [ 133.353124162749964, 34.877720000078 ], [ 133.344126666912189, 34.869480279291508 ], [ 133.336814994316569, 34.869593612755068 ], [ 133.338664720800239, 34.864390279287989 ], [ 133.330664449005212, 34.855925000438447 ], [ 133.323779441767897, 34.858770000335312 ], [ 133.323966393734167, 34.864498613420324 ], [ 133.315467497327177, 34.868256945901408 ], [ 133.29690917032201, 34.88989889172052 ], [ 133.294054993742975, 34.903139162342541 ], [ 133.303384994122212, 34.913547225024445 ], [ 133.30187333268816, 34.92891361257324 ], [ 133.309445550571809, 34.937045000126716 ], [ 133.297261659598007, 34.9560038923658 ], [ 133.304892503386441, 34.96496194573723 ], [ 133.30311805375527, 34.972135558908974 ], [ 133.320173333032926, 34.983636666598954 ], [ 133.321757224416388, 35.006145000391484 ], [ 133.315638053753219, 35.012466945693063 ], [ 133.304484162614131, 35.015358053831164 ], [ 133.290811114841176, 35.036176666719825 ], [ 133.266793332846078, 35.052966946367519 ], [ 133.2769119460296, 35.066109171101402 ], [ 133.284348054219436, 35.065442504568011 ], [ 133.290900557814552, 35.071085837641363 ], [ 133.288262502712428, 35.095914171401944 ], [ 133.298854448873726, 35.103918892143213 ], [ 133.310436393924533, 35.096210837959859 ], [ 133.313065551134287, 35.09814277506905 ], [ 133.325516939155477, 35.093469171065465 ], [ 133.338376108570628, 35.106606107785694 ], [ 133.354873890917361, 35.100771107600565 ], [ 133.378172775553253, 35.114499441196301 ], [ 133.403362776171207, 35.114320837636626 ], [ 133.411825837292668, 35.121146108306277 ], [ 133.412617782085022, 35.133493053561608 ], [ 133.40487693861985, 35.143286107667791 ], [ 133.398047781979585, 35.164758613119545 ], [ 133.393158053801244, 35.16814333304842 ], [ 133.396946667354882, 35.172461107694005 ], [ 133.396101388268562, 35.180596107824158 ], [ 133.407275551025919, 35.185837225407681 ], [ 133.415893333310692, 35.184606666864227 ], [ 133.422179728411834, 35.176113332764146 ], [ 133.428335279349767, 35.177392505060141 ], [ 133.447556394112326, 35.171296107929095 ], [ 133.456515279356722, 35.17310861327195 ], [ 133.460009728266414, 35.177848892112706 ], [ 133.472077223585075, 35.176999720760534 ], [ 133.474586939135975, 35.181929440891054 ], [ 133.482562217872101, 35.182412505432808 ], [ 133.489742503114144, 35.187680558610964 ], [ 133.496039441866856, 35.186666667432803 ], [ 133.500901114794715, 35.192704441356909 ], [ 133.50900138760403, 35.192096945717537 ], [ 133.509040271591289, 35.191754440714931 ] ] ] } },
{ "type": "Feature", "properties": { "code": "330022", "name": "真庭地域", "PrefCode": "33", "regioncode": "330022" }, "geometry": { "type": "Polygon", "coordinates": [ [ [ 133.601377782258965, 35.343437505436555 ], [ 133.62219138772241, 35.336709440688196 ], [ 133.632836393884531, 35.339824170649024 ], [ 133.649628327385471, 35.336215279411647 ], [ 133.663520557927427, 35.325164440686422 ], [ 133.674096109447987, 35.323324720959135 ], [ 133.678351115011992, 35.318941667224237 ], [ 133.691239728230926, 35.320140279150621 ], [ 133.69710916975248, 35.327144441163057 ], [ 133.728901660083579, 35.316724440880307 ], [ 133.737586109111703, 35.318981946060035 ], [ 133.742308611952922, 35.316523332685733 ], [ 133.745012502824807, 35.319602224663015 ], [ 133.750692503056598, 35.311396386733918 ], [ 133.756960272298784, 35.308197775207191 ], [ 133.762338326952317, 35.311086667415793 ], [ 133.783573060648337, 35.294765278994475 ], [ 133.789741388254583, 35.297583333404191 ], [ 133.789559441914776, 35.293533892175446 ], [ 133.800006938969091, 35.292648891832926 ], [ 133.801478053569326, 35.284653891863684 ], [ 133.809279169598085, 35.276916946060282 ], [ 133.8074974966122, 35.270416666995629 ], [ 133.818322217896139, 35.258635837773738 ], [ 133.820580557646736, 35.242171386999985 ], [ 133.810284448868288, 35.229158613379354 ], [ 133.816563332831606, 35.218758333430401 ], [ 133.808301387998767, 35.219834721195468 ], [ 133.799713061208877, 35.214428333400917 ], [ 133.77839165984733, 35.222275000091258 ], [ 133.781435278615277, 35.21295305404027 ], [ 133.772419170408398, 35.205253054185164 ], [ 133.78131472089774, 35.190383613113283 ], [ 133.778036666858725, 35.186248333393905 ], [ 133.779250272282297, 35.176208613236952 ], [ 133.770486939220973, 35.171121386742641 ], [ 133.771524994283141, 35.164106108210376 ], [ 133.765933332657255, 35.15888666698612 ], [ 133.780956394122313, 35.153024721313898 ], [ 133.794416109216172, 35.135251945820698 ], [ 133.806443061298296, 35.130808613226975 ], [ 133.816845836865923, 35.132267505141328 ], [ 133.821563605675919, 35.127248612733354 ], [ 133.833717223670988, 35.12824500040648 ], [ 133.832222217681306, 35.123099720875473 ], [ 133.843923891274585, 35.116376945939351 ], [ 133.845601387693932, 35.101507774664128 ], [ 133.836547782254456, 35.098698612750809 ], [ 133.832018326984212, 35.089153892038553 ], [ 133.835836666728824, 35.086950559320883 ], [ 133.835442502869228, 35.08232444131994 ], [ 133.821078053609313, 35.067696945757518 ], [ 133.824355550967994, 35.059034999565654 ], [ 133.822036108579596, 35.047840279205559 ], [ 133.826094993589095, 35.044610838019821 ], [ 133.81537861183358, 35.043597224732196 ], [ 133.818748611659203, 35.03443417090034 ], [ 133.802383061129376, 35.022257505079835 ], [ 133.785227496651714, 35.020054999738477 ], [ 133.783981660425297, 35.017085279162359 ], [ 133.78957972792216, 35.009716108411737 ], [ 133.78596306114639, 35.00358805424537 ], [ 133.787460558258203, 34.98900082942481 ], [ 133.803807223924309, 34.978308053973592 ], [ 133.805247223780384, 34.968775278956002 ], [ 133.802324162729974, 34.96577194621841 ], [ 133.808785836597167, 34.951484162364238 ], [ 133.800215837091287, 34.953501107889849 ], [ 133.797770000385299, 34.959850558956191 ], [ 133.78632778210158, 34.954763613050375 ], [ 133.780994721429352, 34.961301386649723 ], [ 133.772619611306027, 34.960871829071721 ], [ 133.748151387676444, 34.944991666931912 ], [ 133.733525551363186, 34.950330000329302 ], [ 133.721776109380016, 34.948946108276346 ], [ 133.71974639438065, 34.954444440958241 ], [ 133.705553060925126, 34.959915829052306 ], [ 133.703293332621229, 34.954209162123163 ], [ 133.694813332769172, 34.94881082865686 ], [ 133.674723332615827, 34.951439720566725 ], [ 133.675631387978228, 34.946701666648664 ], [ 133.6710580538861, 34.945521107712977 ], [ 133.671691946426222, 34.942296666757841 ], [ 133.657845836716092, 34.938234440766905 ], [ 133.649740272295844, 34.942515828842488 ], [ 133.644228054081509, 34.937619720873499 ], [ 133.6500683269918, 34.915337775218177 ], [ 133.633518884888645, 34.90969027918311 ], [ 133.630716666640865, 34.902336946393007 ], [ 133.619301946028031, 34.900202775138041 ], [ 133.617247223580534, 34.901455000148189 ], [ 133.621629170250117, 34.908253053735507 ], [ 133.617325550933515, 34.931989440560301 ], [ 133.607173061187837, 34.939508054353269 ], [ 133.604284162684053, 34.952323891734295 ], [ 133.595472217668771, 34.957233054262076 ], [ 133.59952555116331, 34.959428613239936 ], [ 133.604425278903591, 34.954435278665244 ], [ 133.609618054329758, 34.960387775275649 ], [ 133.621925550823562, 34.961764161586814 ], [ 133.619273890777549, 34.972409441142872 ], [ 133.601409999571842, 34.986168892180672 ], [ 133.601227496551815, 34.989493333250778 ], [ 133.608434449390415, 34.990098333271533 ], [ 133.606348327113665, 34.995974440568034 ], [ 133.597321659966724, 35.001404720651408 ], [ 133.589043890663106, 34.992971386620241 ], [ 133.582911115055936, 34.999129161581607 ], [ 133.599028885274947, 35.013728332996209 ], [ 133.600397223553045, 35.020108612822298 ], [ 133.587728327300511, 35.023896666997643 ], [ 133.588888326834876, 35.028403613136277 ], [ 133.582945279401201, 35.033546666845268 ], [ 133.584091114613329, 35.041487505144289 ], [ 133.591104162826923, 35.046706386990195 ], [ 133.585143060603855, 35.054790838026804 ], [ 133.589281114731762, 35.080387774676126 ], [ 133.574602502603511, 35.095345000371537 ], [ 133.57518138811065, 35.111052775065559 ], [ 133.582768053602877, 35.113886667435793 ], [ 133.591164162895893, 35.136855278748158 ], [ 133.567884163123722, 35.149471945973573 ], [ 133.537898327146195, 35.151899441006435 ], [ 133.535789442129158, 35.157766386909259 ], [ 133.540689999943652, 35.161958332910785 ], [ 133.541299727700334, 35.168044440898257 ], [ 133.534226394332677, 35.170833892370297 ], [ 133.535571114615323, 35.17614583786019 ], [ 133.526711115225794, 35.179696945857415 ], [ 133.529105551180351, 35.187233612641137 ], [ 133.52303221806244, 35.196450838035787 ], [ 133.52160111519936, 35.210428891779998 ], [ 133.515625279383244, 35.220317505148785 ], [ 133.505502503237949, 35.227915000277108 ], [ 133.516748611759112, 35.240664721299879 ], [ 133.534830829579164, 35.236716945730507 ], [ 133.543911115205901, 35.243198892115231 ], [ 133.55491000009647, 35.241809999831673 ], [ 133.560769442056198, 35.246745559260205 ], [ 133.562414162683581, 35.254403053558121 ], [ 133.568131115158849, 35.256844721007099 ], [ 133.56686972785576, 35.266266386584505 ], [ 133.571915551361712, 35.272569440727182 ], [ 133.568690829818024, 35.277119720698579 ], [ 133.572267781632831, 35.281214440993722 ], [ 133.570463890895894, 35.286912774804762 ], [ 133.577552776239713, 35.297261108113673 ], [ 133.57678639377707, 35.314413613097827 ], [ 133.592396109093215, 35.330630279064167 ], [ 133.588366109408526, 35.336963613380078 ], [ 133.596275550576252, 35.344817224635278 ], [ 133.600372776382642, 35.343771386840103 ], [ 133.601377782258965, 35.343437505436555 ] ] ] } },
{ "type": "Feature", "properties": { "code": "330023", "name": "津山地域", "PrefCode": "33", "regioncode": "330023" }, "geometry": { "type": "Polygon", "coordinates": [ [ [ 133.998273333447628, 35.352763612650676 ], [ 134.015720557957479, 35.34869527936371 ], [ 134.010821660291413, 35.340396107994025 ], [ 134.015509169612528, 35.334078054058978 ], [ 134.004180558186249, 35.325324440870304 ], [ 133.999418326894329, 35.314801945753231 ], [ 134.008118884578948, 35.308174441397398 ], [ 134.021694994428458, 35.30556889229058 ], [ 134.028241114635762, 35.30782027938244 ], [ 134.052045837345531, 35.298090837921904 ], [ 134.062198612176303, 35.303042774904213 ], [ 134.070216393771602, 35.297273613186746 ], [ 134.07515888517446, 35.302613053649566 ], [ 134.084040272240827, 35.302781666640669 ], [ 134.08642250259652, 35.30741166701489 ], [ 134.09775944174487, 35.305697505235742 ], [ 134.11570805358383, 35.283546386656496 ], [ 134.127125278808649, 35.280148891857948 ], [ 134.134299999945142, 35.283191387372653 ], [ 134.139797223762912, 35.278822505154551 ], [ 134.141292218061494, 35.274730559267937 ], [ 134.137698885095574, 35.269346107736737 ], [ 134.150578884607853, 35.257956387377419 ], [ 134.143043332983439, 35.250723332615735 ], [ 134.14552000024787, 35.242960559182507 ], [ 134.137304721235978, 35.238775838334334 ], [ 134.143968612161757, 35.231492224586532 ], [ 134.158246393756144, 35.234563054141688 ], [ 134.16418416306874, 35.227975558825051 ], [ 134.152948054109515, 35.196284440974239 ], [ 134.165554449278488, 35.187271946243357 ], [ 134.168471387744376, 35.174735558799057 ], [ 134.165445837255675, 35.169572225377976 ], [ 134.141039728001147, 35.16259027931801 ], [ 134.143381388140597, 35.141232774672858 ], [ 134.13121082961618, 35.102403333047448 ], [ 134.113243061318258, 35.086197774607683 ], [ 134.104164449329915, 35.083612224624517 ], [ 134.100487224006201, 35.07083110826909 ], [ 134.105260272343799, 35.067208612987145 ], [ 134.102457781601402, 35.050783333084382 ], [ 134.091760558103374, 35.054368612621431 ], [ 134.078824993978401, 35.050384721177977 ], [ 134.084971388019198, 35.046834440557063 ], [ 134.082241388029729, 35.026010838229638 ], [ 134.090801659569024, 35.00381972140309 ], [ 134.086232502827784, 34.994658612804812 ], [ 134.087019727978145, 34.987765559333127 ], [ 134.093899170210648, 34.986243892042012 ], [ 134.099908326807849, 34.996439441327198 ], [ 134.106400557839493, 34.991228891700018 ], [ 134.110875551065874, 34.992409161953333 ], [ 134.099153333359709, 34.985969441436623 ], [ 134.105528612055878, 34.981753613038848 ], [ 134.101648884588371, 34.981166387219048 ], [ 134.100353332940017, 34.975075558690151 ], [ 134.105911387800347, 34.976713332953977 ], [ 134.107038884936628, 34.972472774998607 ], [ 134.099058612265253, 34.966022224845858 ], [ 134.088307781978642, 34.9637761077812 ], [ 134.092143606342461, 34.963314721397353 ], [ 134.093139727816265, 34.955721667121281 ], [ 134.102674720561936, 34.952585278787637 ], [ 134.109803060962577, 34.940765559283193 ], [ 134.121307223649524, 34.935626108258361 ], [ 134.121141387764851, 34.931629162256058 ], [ 134.112200272224868, 34.932605558899468 ], [ 134.107524993683569, 34.928283053819939 ], [ 134.108801659569053, 34.925481667445069 ], [ 134.098590558307706, 34.92339222487135 ], [ 134.087861945772261, 34.929606387324952 ], [ 134.091454993653088, 34.93706194605204 ], [ 134.08836944219604, 34.942574161568359 ], [ 134.072653605979212, 34.941266387234009 ], [ 134.06737832674844, 34.936787224750674 ], [ 134.05901805364033, 34.939431945627859 ], [ 134.049231114924055, 34.936675000151183 ], [ 134.025169999995569, 34.950868332707444 ], [ 134.018558053911079, 34.945731387193803 ], [ 134.019474162702522, 34.941239440847596 ], [ 134.01396055773364, 34.935537495359199 ], [ 134.010898611681682, 34.917214440893758 ], [ 134.001836939323312, 34.910968613310899 ], [ 134.000505836575144, 34.903160279323458 ], [ 134.004550558161782, 34.894781946030037 ], [ 133.979483332989503, 34.886319721278142 ], [ 133.972298612291183, 34.877084720783273 ], [ 133.944951114702235, 34.869631666668113 ], [ 133.928017781695303, 34.872466107624803 ], [ 133.938671388074113, 34.88447777482952 ], [ 133.920774721076555, 34.894730828564946 ], [ 133.923160000133976, 34.901345468118905 ], [ 133.909003061342219, 34.906949721152785 ], [ 133.901998327360957, 34.901593892344295 ], [ 133.89410472055647, 34.909686666606433 ], [ 133.894356939021577, 34.913603613416058 ], [ 133.906273061352749, 34.918221107817942 ], [ 133.900495278734184, 34.922429441265763 ], [ 133.908712776373591, 34.926773054333069 ], [ 133.906335279149857, 34.938182495026183 ], [ 133.911129727754769, 34.94775361263919 ], [ 133.905491115222844, 34.94909027859353 ], [ 133.8991172241806, 34.94274889174801 ], [ 133.888328327390468, 34.943808892066784 ], [ 133.882938053648331, 34.948340828566415 ], [ 133.875360271659247, 34.940082495410877 ], [ 133.86734194597409, 34.937517225139857 ], [ 133.86926944223103, 34.932422494702394 ], [ 133.861172218123443, 34.943593892044532 ], [ 133.850445550821632, 34.943194720759834 ], [ 133.852802776427097, 34.938848891762973 ], [ 133.850240830050325, 34.934380279226559 ], [ 133.844511660284979, 34.944759720984393 ], [ 133.835675837370104, 34.944931945652797 ], [ 133.832479441772875, 34.951148054239354 ], [ 133.822117497224781, 34.953002494969212 ], [ 133.806859999589392, 34.940096387238555 ], [ 133.798505278895618, 34.939378613132533 ], [ 133.79906499355468, 34.934068891666072 ], [ 133.790538196580542, 34.9277884141041 ], [ 133.779914280419803, 34.92913908070409 ], [ 133.777798885210473, 34.935297225286774 ], [ 133.766486394131903, 34.937184440909277 ], [ 133.761893333410626, 34.952487224805623 ], [ 133.772273332748227, 34.960781666640628 ], [ 133.780994721429352, 34.961301386649723 ], [ 133.78632778210158, 34.954763613050375 ], [ 133.797526393828093, 34.959913333433633 ], [ 133.800215837091287, 34.953501107889849 ], [ 133.808785836597167, 34.951484162364238 ], [ 133.802324162729974, 34.96577194621841 ], [ 133.805247223780384, 34.968775278956002 ], [ 133.803807223924309, 34.978308053973592 ], [ 133.787460558258203, 34.98900082942481 ], [ 133.78596306114639, 35.00358805424537 ], [ 133.78957972792216, 35.009716108411737 ], [ 133.783981660425297, 35.017085279162359 ], [ 133.785227496651714, 35.020054999738477 ], [ 133.802383061129376, 35.022257505079835 ], [ 133.818748611659203, 35.03443417090034 ], [ 133.81537861183358, 35.043597224732196 ], [ 133.826094993589095, 35.044610838019821 ], [ 133.822036108579596, 35.047840279205559 ], [ 133.824355550967994, 35.059034999565654 ], [ 133.821078053609313, 35.067696945757518 ], [ 133.835442502869228, 35.08232444131994 ], [ 133.835836666728824, 35.086950559320883 ], [ 133.832018326984212, 35.089153892038553 ], [ 133.836547782254456, 35.098698612750809 ], [ 133.845601387693932, 35.101507774664128 ], [ 133.843923891274585, 35.116376945939351 ], [ 133.832222217681306, 35.123099720875473 ], [ 133.833717223670988, 35.12824500040648 ], [ 133.821563605675919, 35.127248612733354 ], [ 133.816845836865923, 35.132267505141328 ], [ 133.806443061298296, 35.130808613226975 ], [ 133.794416109216172, 35.135251945820698 ], [ 133.780956394122313, 35.153024721313898 ], [ 133.76593666734334, 35.159167504576715 ], [ 133.771524994283141, 35.164106108210376 ], [ 133.770486939220973, 35.171121386742641 ], [ 133.779250272282297, 35.176208613236952 ], [ 133.778036666858725, 35.186248333393905 ], [ 133.78131472089774, 35.190383613113283 ], [ 133.772419170408398, 35.205253054185164 ], [ 133.781435278615277, 35.21295305404027 ], [ 133.77839165984733, 35.222275000091258 ], [ 133.799713061208877, 35.214428333400917 ], [ 133.808301387998767, 35.219834721195468 ], [ 133.816254162999257, 35.218246387161116 ], [ 133.810284448868288, 35.229158613379354 ], [ 133.820580557646736, 35.242171386999985 ], [ 133.817804449415917, 35.252103612991391 ], [ 133.844573333092967, 35.249494441415379 ], [ 133.843765837223714, 35.253693612570203 ], [ 133.853366939133025, 35.265859440660734 ], [ 133.865943332918505, 35.272258892234163 ], [ 133.863463061171387, 35.277095278924037 ], [ 133.866343333378154, 35.284887224565807 ], [ 133.860960829778492, 35.286880278701972 ], [ 133.862139441681961, 35.292504440927246 ], [ 133.886049727712816, 35.294247774914936 ], [ 133.898040830120294, 35.304265558808538 ], [ 133.908168326806845, 35.307201946013038 ], [ 133.925221659951717, 35.306898891570654 ], [ 133.931989728343297, 35.316483892018027 ], [ 133.927823332980552, 35.322096667027608 ], [ 133.932645279256349, 35.334251107902332 ], [ 133.945208884682302, 35.332582225189583 ], [ 133.96476583687388, 35.346686387267027 ], [ 133.970777782268897, 35.347791946341317 ], [ 133.979688884734287, 35.343375559234744 ], [ 133.998176938714778, 35.352797505400588 ], [ 133.998273333447628, 35.352763612650676 ] ] ] } },
{ "type": "Feature", "properties": { "code": "330024", "name": "勝英地域", "PrefCode": "33", "regioncode": "330024" }, "geometry": { "type": "Polygon", "coordinates": [ [ [ 134.395919170133652, 35.250326666842227 ], [ 134.40281444942741, 35.241024441125091 ], [ 134.396939442001667, 35.227471108404984 ], [ 134.382395551013929, 35.221582505028664 ], [ 134.379982776084262, 35.209355559011897 ], [ 134.382992503001674, 35.194438891841457 ], [ 134.411776109080279, 35.186019440644714 ], [ 134.412633332962059, 35.177649721057833 ], [ 134.406140557840558, 35.165504721265904 ], [ 134.413128053616788, 35.158822225165636 ], [ 134.412004162761946, 35.152648332554577 ], [ 134.407021388026692, 35.147330558558508 ], [ 134.394320000167909, 35.152738333107663 ], [ 134.374936109014243, 35.150976107961071 ], [ 134.367393333135851, 35.14696138685855 ], [ 134.35620944241191, 35.124416667395337 ], [ 134.360747496999466, 35.120218891988316 ], [ 134.352951945975633, 35.113465558988423 ], [ 134.355077782313856, 35.099181667400103 ], [ 134.350347496739687, 35.091036945598603 ], [ 134.340426393563234, 35.088713892432224 ], [ 134.337179441677904, 35.091362224986767 ], [ 134.332840829740576, 35.086153332810113 ], [ 134.318923891224699, 35.083281945905128 ], [ 134.321731115098942, 35.068803054317527 ], [ 134.314540271816099, 35.060904440987201 ], [ 134.316873891117211, 35.043528892444499 ], [ 134.30775000006247, 35.045912505058141 ], [ 134.305305279415165, 35.040169170970501 ], [ 134.297348612148767, 35.043104171420453 ], [ 134.292547224374971, 35.037538332927795 ], [ 134.2815908297531, 35.037232225287028 ], [ 134.275521945581431, 35.023472224763395 ], [ 134.267598054106998, 35.021537505151798 ], [ 134.268622503325901, 35.018030278674473 ], [ 134.264358611560738, 35.016560837712518 ], [ 134.268583060859669, 35.012438612551989 ], [ 134.263400558389094, 35.01134694620464 ], [ 134.2652558372871, 35.005305837594392 ], [ 134.286681388235593, 34.99611222479939 ], [ 134.270645279156383, 34.983298053862143 ], [ 134.269648885187962, 34.978564721384828 ], [ 134.27696832702668, 34.976759441195327 ], [ 134.273344721082026, 34.967417495121367 ], [ 134.276861387742883, 34.963048891693063 ], [ 134.25669805417192, 34.946928892054757 ], [ 134.249946938900166, 34.949316666730851 ], [ 134.243894163384994, 34.946932224942259 ], [ 134.246114994211666, 34.941491946196436 ], [ 134.23563610901931, 34.937424441185044 ], [ 134.235231945597889, 34.927894721164478 ], [ 134.226334993964883, 34.923470278830337 ], [ 134.226864720730305, 34.917042774704328 ], [ 134.223802503083107, 34.915156945836429 ], [ 134.227055550573255, 34.908864161951556 ], [ 134.221296393813532, 34.905973053813454 ], [ 134.215440829730596, 34.911164721274929 ], [ 134.205894162885329, 34.910143613037349 ], [ 134.202208611638184, 34.914882225434383 ], [ 134.195851660226026, 34.914509999636834 ], [ 134.194938885221404, 34.901258054016012 ], [ 134.200093890920357, 34.895602224862841 ], [ 134.197678612278196, 34.8911238915544 ], [ 134.188346666665439, 34.892784999628077 ], [ 134.187449441838339, 34.898770279225062 ], [ 134.172099170140655, 34.899202774888181 ], [ 134.165475279260818, 34.880891667016897 ], [ 134.153859999939073, 34.887735559048849 ], [ 134.142249999637784, 34.889680558810767 ], [ 134.137455551032872, 34.886993333275768 ], [ 134.124357224006758, 34.89055944106542 ], [ 134.127603890806995, 34.913353332989971 ], [ 134.12224666715008, 34.916923054255619 ], [ 134.109903332672729, 34.910815829287117 ], [ 134.102435837244116, 34.922680279271503 ], [ 134.108801659569053, 34.925481667445069 ], [ 134.107524993683569, 34.928283053819939 ], [ 134.112200272224868, 34.932605558899468 ], [ 134.120918053725291, 34.931453333104912 ], [ 134.121591387832382, 34.935259999649304 ], [ 134.109803060962577, 34.940765559283193 ], [ 134.102674720561936, 34.952585278787637 ], [ 134.093139727816265, 34.955721667121281 ], [ 134.092143606342461, 34.963314721397353 ], [ 134.088291945816763, 34.963862225061689 ], [ 134.099058612265253, 34.966022224845858 ], [ 134.107038884936628, 34.972472774998607 ], [ 134.105911387800347, 34.976713332953977 ], [ 134.100353332940017, 34.975075558690151 ], [ 134.101648884588371, 34.981166387219048 ], [ 134.105528612055878, 34.981753613038848 ], [ 134.099153333359709, 34.985969441436623 ], [ 134.110867224243066, 34.992459720939394 ], [ 134.106400557839493, 34.991228891700018 ], [ 134.099908326807849, 34.996439441327198 ], [ 134.093899170210648, 34.986243892042012 ], [ 134.087019727978145, 34.987765559333127 ], [ 134.086232502827784, 34.994658612804812 ], [ 134.090801659569024, 35.00381972140309 ], [ 134.082241388029729, 35.026010838229638 ], [ 134.084971388019198, 35.046834440557063 ], [ 134.078824993978401, 35.050384721177977 ], [ 134.091760558103374, 35.054368612621431 ], [ 134.102312218234374, 35.050582504578983 ], [ 134.105260272343799, 35.067208612987145 ], [ 134.100487224006201, 35.07083110826909 ], [ 134.104164449329915, 35.083612224624517 ], [ 134.113243061318258, 35.086197774607683 ], [ 134.13121082961618, 35.102403333047448 ], [ 134.143381388140597, 35.141232774672858 ], [ 134.141039728001147, 35.16259027931801 ], [ 134.167534448855804, 35.171825838291852 ], [ 134.177598326601583, 35.169171386750122 ], [ 134.190118611684625, 35.176073613306642 ], [ 134.193473891407052, 35.189123054085712 ], [ 134.221795550824027, 35.190451386922007 ], [ 134.227825279413196, 35.197227224556798 ], [ 134.249758885264441, 35.200680559160503 ], [ 134.254099169940787, 35.208292504595477 ], [ 134.260471659839254, 35.210976107661281 ], [ 134.267973333102873, 35.208418891718509 ], [ 134.270463606210569, 35.201353612679156 ], [ 134.278460830203244, 35.196870837619088 ], [ 134.29899610898326, 35.201860279028722 ], [ 134.321217496989902, 35.201817224885076 ], [ 134.335014993846926, 35.213171386950023 ], [ 134.336654721438322, 35.219602775247949 ], [ 134.371921659756822, 35.234165278604792 ], [ 134.374821387896759, 35.237672225392942 ], [ 134.372959728308842, 35.24580166681352 ], [ 134.390308326867853, 35.252310278996219 ], [ 134.395414994006842, 35.250583891833173 ], [ 134.395919170133652, 35.250326666842227 ] ] ] } }
]
}
