{
"type": "FeatureCollection",
"name": "34_hiroshima_region",
"crs": { "type": "name", "properties": { "name": "urn:ogc:def:crs:OGC:1.3:CRS84" } },
"features": [
{ "type": "Feature", "properties": { "code": "340011", "name": "広島・呉", "PrefCode": "34", "regioncode": "340011" }, "geometry": { "type": "MultiPolygon", "coordinates": [ [ [ [ 132.520645279056453, 34.043301946028066 ], [ 132.521639170211643, 34.038778332753907 ], [ 132.520554720923656, 34.043324440770391 ], [ 132.520645279056453, 34.043301946028066 ] ] ], [ [ [ 132.493945057718292, 34.045546413736076 ], [ 132.492147003581408, 34.04028419805735 ], [ 132.483148716340224, 34.034389892079901 ], [ 132.482192049023865, 34.037365252304596 ], [ 132.493813021953429, 34.045568251973293 ], [ 132.493945057718292, 34.045546413736076 ] ] ], [ [ [ 132.462391387752405, 34.061334441231509 ], [ 132.467787497195332, 34.057072494699923 ], [ 132.462370271670807, 34.06130638688029 ], [ 132.462391387752405, 34.061334441231509 ] ] ], [ [ [ 132.533290829808038, 34.074229161746473 ], [ 132.539465550694672, 34.066506667149042 ], [ 132.534968884706359, 34.048708612612415 ], [ 132.529478611748573, 34.046267494649214 ], [ 132.519626938932106, 34.052726108123466 ], [ 132.526699728209906, 34.058095279273743 ], [ 132.526710000266348, 34.064563054141672 ], [ 132.533272775917908, 34.074253892203387 ], [ 132.533290829808038, 34.074229161746473 ] ] ], [ [ [ 132.549443332743635, 34.079486108297317 ], [ 132.549089442323975, 34.072449720877955 ], [ 132.556376394355198, 34.075200828855202 ], [ 132.558808326642975, 34.071054721298424 ], [ 132.541053891024262, 34.0687480537797 ], [ 132.549202775787535, 34.079549441253789 ], [ 132.549443332743635, 34.079486108297317 ] ] ], [ [ [ 132.519392776155769, 34.09061582925716 ], [ 132.519927781941647, 34.088289161715466 ], [ 132.519323890785017, 34.09062110827756 ], [ 132.519392776155769, 34.09061582925716 ] ] ], [ [ [ 132.789486667175993, 34.122510828811755 ], [ 132.793286861299634, 34.119176441239802 ], [ 132.800575279225768, 34.120489161845398 ], [ 132.795397497296676, 34.114386946100751 ], [ 132.78712111474772, 34.113805000200671 ], [ 132.789398885250421, 34.122514161699257 ], [ 132.789486667175993, 34.122510828811755 ] ] ], [ [ [ 132.318203605711915, 34.123760279413432 ], [ 132.31945944239942, 34.11892666713203 ], [ 132.313611660150059, 34.121228613210008 ], [ 132.318180000306825, 34.123798613015651 ], [ 132.318203605711915, 34.123760279413432 ] ] ], [ [ [ 132.422034721025625, 34.133875558810018 ], [ 132.418764721314915, 34.129079720752543 ], [ 132.415849169603575, 34.130430828919657 ], [ 132.422204994165213, 34.134119721148238 ], [ 132.422034721025625, 34.133875558810018 ] ] ], [ [ [ 132.562189728073577, 34.157522494567502 ], [ 132.563103605646916, 34.154795829264174 ], [ 132.562115278597275, 34.157528054176396 ], [ 132.562189728073577, 34.157522494567502 ] ] ], [ [ [ 132.658636394054383, 34.157991667281692 ], [ 132.651722775785515, 34.150841946398771 ], [ 132.651838053583333, 34.156160278873813 ], [ 132.658561946376835, 34.158031107949341 ], [ 132.658636394054383, 34.157991667281692 ] ] ], [ [ [ 132.775009999611825, 34.155575829261181 ], [ 132.759463890646089, 34.148260278788882 ], [ 132.758999442070603, 34.154291946316334 ], [ 132.772399442180586, 34.158517775175255 ], [ 132.775006394229763, 34.155611667244727 ], [ 132.775009999611825, 34.155575829261181 ] ] ], [ [ [ 132.752199169855885, 34.158692494563013 ], [ 132.749824448839263, 34.15682694630658 ], [ 132.752162217612295, 34.158711107831436 ], [ 132.752199169855885, 34.158692494563013 ] ] ], [ [ [ 132.671291387687461, 34.159743891967082 ], [ 132.674054162569632, 34.153090559082102 ], [ 132.671271387664433, 34.150521386652713 ], [ 132.665644163247634, 34.154177494995452 ], [ 132.671257496736189, 34.159760828899209 ], [ 132.671291387687461, 34.159743891967082 ] ] ], [ [ [ 132.439263891415521, 34.160500279364442 ], [ 132.442806498121399, 34.153163360101018 ], [ 132.429587497365219, 34.146569162137155 ], [ 132.429216393921479, 34.154529999559884 ], [ 132.439261946181887, 34.160602775098027 ], [ 132.439263891415521, 34.160500279364442 ] ] ], [ [ [ 132.578006666974147, 34.168248613282913 ], [ 132.579205278900531, 34.159010279001222 ], [ 132.572305550660644, 34.155145559420077 ], [ 132.569922217736234, 34.160525278718694 ], [ 132.577925550823579, 34.168276946423987 ], [ 132.578006666974147, 34.168248613282913 ] ] ], [ [ [ 132.482274266844001, 34.176360631238197 ], [ 132.482695097400892, 34.173872964365842 ], [ 132.482072464372777, 34.176848730184815 ], [ 132.482274266844001, 34.176360631238197 ] ] ], [ [ [ 132.385483333189313, 34.177495829269162 ], [ 132.397945279251303, 34.170734441041645 ], [ 132.402234994149694, 34.173201107844875 ], [ 132.40682111480271, 34.167913891912633 ], [ 132.41313916963702, 34.169718054244868 ], [ 132.410718054394806, 34.166959999904122 ], [ 132.417334721020666, 34.158389720709067 ], [ 132.413627223617596, 34.150549720693107 ], [ 132.397616393581757, 34.146283891788244 ], [ 132.387508054253317, 34.149532775417299 ], [ 132.383182218084926, 34.156511946169417 ], [ 132.381514162748431, 34.171353892268371 ], [ 132.385364253957164, 34.177559081286631 ], [ 132.385483333189313, 34.177495829269162 ] ] ], [ [ [ 132.7951197209984, 34.167860001837653 ], [ 132.786733605871291, 34.162056387092662 ], [ 132.772364162676013, 34.160989441309709 ], [ 132.771365279384213, 34.176401107924846 ], [ 132.781183942584903, 34.187407666730508 ], [ 132.787172217823695, 34.188721387382202 ], [ 132.799831309667297, 34.176644891648493 ], [ 132.79493083009379, 34.168010559140043 ], [ 132.7951197209984, 34.167860001837653 ] ] ], [ [ [ 132.861737497087915, 34.189173613271691 ], [ 132.863284669152222, 34.186997467958804 ], [ 132.861405279430187, 34.189252224810389 ], [ 132.861737497087915, 34.189173613271691 ] ] ], [ [ [ 132.855684994067246, 34.195043332683724 ], [ 132.859136109144174, 34.191210279131155 ], [ 132.855585836617138, 34.195021107738 ], [ 132.855684994067246, 34.195043332683724 ] ] ], [ [ [ 132.85272111458778, 34.195091108268059 ], [ 132.852799727925117, 34.192045829351571 ], [ 132.849122218415687, 34.19263638715961 ], [ 132.852681946414805, 34.195094999634591 ], [ 132.85272111458778, 34.195091108268059 ] ] ], [ [ [ 132.84904389106282, 34.196291386638222 ], [ 132.847816835378694, 34.192187162307732 ], [ 132.857970310781297, 34.186398613005622 ], [ 132.855565642340594, 34.183008640136677 ], [ 132.868242607310549, 34.180203802163817 ], [ 132.868278054088933, 34.173496586398414 ], [ 132.846683087054885, 34.160053441313323 ], [ 132.839126549750517, 34.160327999837364 ], [ 132.820027223877332, 34.150919720668639 ], [ 132.802663695673118, 34.154867802007516 ], [ 132.799588948671158, 34.158632224697442 ], [ 132.80662000041275, 34.162733332877053 ], [ 132.803099442385474, 34.171596945742522 ], [ 132.806762437736325, 34.178046387031202 ], [ 132.822855499082038, 34.187084802022071 ], [ 132.827967445241484, 34.187120918795415 ], [ 132.828420610023159, 34.18376438721674 ], [ 132.832402775667674, 34.190074721371332 ], [ 132.84899610918319, 34.196313892172441 ], [ 132.84904389106282, 34.196291386638222 ] ] ], [ [ [ 132.819993891405034, 34.194918054424704 ], [ 132.821280000171896, 34.192106108210396 ], [ 132.814724448774314, 34.18731361293294 ], [ 132.805246667299912, 34.187858054405751 ], [ 132.809948885033123, 34.189643892151935 ], [ 132.808544448867337, 34.193851107742489 ], [ 132.820055279127928, 34.195025278793651 ], [ 132.819993891405034, 34.194918054424704 ] ] ], [ [ [ 132.514516446077209, 34.199305225256012 ], [ 132.515324772920053, 34.195284494883595 ], [ 132.511360699836473, 34.192017891912258 ], [ 132.514509532988654, 34.199316829208328 ], [ 132.514516446077209, 34.199305225256012 ] ] ], [ [ [ 132.296466938798289, 34.199326108413231 ], [ 132.302573332793145, 34.193588612724341 ], [ 132.311213891308057, 34.198868613395859 ], [ 132.319553060925045, 34.189875829106256 ], [ 132.316740829625701, 34.186574161568331 ], [ 132.300778612443082, 34.184535278880048 ], [ 132.300798884960614, 34.189288613179031 ], [ 132.292428053811705, 34.189054161720264 ], [ 132.296449169993252, 34.199355278823134 ], [ 132.296466938798289, 34.199326108413231 ] ] ], [ [ [ 132.534858301369582, 34.200462586179469 ], [ 132.538164254177104, 34.19883961295784 ], [ 132.533847082077273, 34.188875918788654 ], [ 132.552091414387291, 34.187248054154452 ], [ 132.551929170394942, 34.182006891604829 ], [ 132.556835642151214, 34.179975774562422 ], [ 132.559017197785465, 34.173226973246244 ], [ 132.557016394191351, 34.170513973141396 ], [ 132.546779170322566, 34.176630026754367 ], [ 132.540592802316041, 34.172273666696412 ], [ 132.539920077949319, 34.164200440997604 ], [ 132.533781310159384, 34.161637494574791 ], [ 132.532377328151256, 34.165353306210193 ], [ 132.528005084267306, 34.164509225020765 ], [ 132.521470972707334, 34.157520945934948 ], [ 132.521741218982129, 34.154245467554347 ], [ 132.529826718628215, 34.153715747983426 ], [ 132.527203333267266, 34.150091748135708 ], [ 132.532022503335952, 34.146639440557806 ], [ 132.548414162983249, 34.151455829023348 ], [ 132.548751114672314, 34.141256945951341 ], [ 132.552182218035, 34.1487116674096 ], [ 132.557791946141492, 34.15059999999005 ], [ 132.548788326819931, 34.140046667120032 ], [ 132.545273332898091, 34.124812495200558 ], [ 132.537616354811007, 34.121109134678875 ], [ 132.541586393996909, 34.115323332805644 ], [ 132.539089727608939, 34.107562775301915 ], [ 132.547453891184205, 34.111954720633889 ], [ 132.549176394175333, 34.117301945628355 ], [ 132.560559441565033, 34.117058892154205 ], [ 132.576240000076041, 34.127852225299989 ], [ 132.583911659595515, 34.123700279344462 ], [ 132.580706667378877, 34.119309441077917 ], [ 132.583015279231859, 34.112061107734007 ], [ 132.58877221826333, 34.110706386990216 ], [ 132.593018611919433, 34.115205278800602 ], [ 132.589905278605784, 34.108677494870562 ], [ 132.582334449275436, 34.106631387028926 ], [ 132.575868884941201, 34.115792494727884 ], [ 132.570135551314706, 34.115513053784468 ], [ 132.567887782195498, 34.097153892438257 ], [ 132.556487496600766, 34.079968612561458 ], [ 132.549350311367789, 34.079732000031811 ], [ 132.547699442075668, 34.090056387092659 ], [ 132.542738301431541, 34.092085360151316 ], [ 132.545680557611718, 34.097899162416468 ], [ 132.541526938917173, 34.099566107989517 ], [ 132.53941452675906, 34.097716108111968 ], [ 132.542156056956514, 34.096442945985245 ], [ 132.535256109282045, 34.095331107844402 ], [ 132.532279728326898, 34.103915278867078 ], [ 132.524903333322186, 34.094763332561797 ], [ 132.514741388104653, 34.095485829007828 ], [ 132.512954162704546, 34.091026386858346 ], [ 132.513764449170026, 34.099082775449801 ], [ 132.509664162970807, 34.103281108436477 ], [ 132.501941387784882, 34.103395828654641 ], [ 132.498519169723977, 34.090958613049622 ], [ 132.4847263943077, 34.091198892115244 ], [ 132.487840725868864, 34.088897359725422 ], [ 132.482117223631008, 34.085279720782523 ], [ 132.477639441607039, 34.089580278806864 ], [ 132.460464994064296, 34.082308054073508 ], [ 132.454102502828277, 34.094033891550907 ], [ 132.447855837077327, 34.094048612553479 ], [ 132.447323333205304, 34.108373053673517 ], [ 132.455240558005357, 34.115170829370356 ], [ 132.465992502552012, 34.116440000305829 ], [ 132.467336938648828, 34.121676667144527 ], [ 132.472594449074677, 34.118522775305905 ], [ 132.473673333357738, 34.125534720950668 ], [ 132.477399169735918, 34.12358972118875 ], [ 132.498875357012139, 34.135141198107874 ], [ 132.504455278888031, 34.133596667352379 ], [ 132.507703333342192, 34.139836946118237 ], [ 132.505013969219362, 34.144033000222862 ], [ 132.507853333064986, 34.141099161697014 ], [ 132.508102217743271, 34.144155279242796 ], [ 132.504886082926419, 34.147505892383094 ], [ 132.495058326680464, 34.147879612853899 ], [ 132.492991932831501, 34.153089243373927 ], [ 132.499933994857997, 34.180176135420368 ], [ 132.505671166790989, 34.18776046807119 ], [ 132.518604968244745, 34.192415829327103 ], [ 132.525177004215379, 34.19934146793446 ], [ 132.53424902687118, 34.200316494910339 ], [ 132.534858301369582, 34.200462586179469 ] ] ], [ [ [ 132.319663890676111, 34.200744440903293 ], [ 132.32038778197068, 34.196783892262886 ], [ 132.315732114045886, 34.195020891900697 ], [ 132.315492969924662, 34.199197999987746 ], [ 132.319419728337834, 34.200766946437454 ], [ 132.319663890676111, 34.200744440903293 ] ] ], [ [ [ 132.515606860568255, 34.202287135243125 ], [ 132.514753606293993, 34.199700801950485 ], [ 132.515605032246526, 34.202303865331146 ], [ 132.515606860568255, 34.202287135243125 ] ] ], [ [ [ 132.675000000249838, 34.202295891941901 ], [ 132.677485356763896, 34.202484225266858 ], [ 132.67496749695249, 34.195655000278066 ], [ 132.680031946317285, 34.196338333047663 ], [ 132.681684112431867, 34.194663279187012 ], [ 132.678410271716757, 34.194146667234975 ], [ 132.682745616417151, 34.19377444143737 ], [ 132.684461387982765, 34.187711667259691 ], [ 132.675954189034655, 34.174711801608396 ], [ 132.662666108654093, 34.16947916193385 ], [ 132.663150415159635, 34.173724891890288 ], [ 132.656688002949068, 34.176192865408439 ], [ 132.650557613243336, 34.170604945861612 ], [ 132.644344449037135, 34.171044440948265 ], [ 132.64864639381608, 34.186678053949095 ], [ 132.65609055813286, 34.196346667065086 ], [ 132.674731114649262, 34.202462774637411 ], [ 132.675000000249838, 34.202295891941901 ] ] ], [ [ [ 132.711995836638607, 34.203807494919999 ], [ 132.721092503416344, 34.196993613264681 ], [ 132.724837497152862, 34.200181801648853 ], [ 132.741299467596377, 34.195151054377732 ], [ 132.736763839379705, 34.197855224938735 ], [ 132.740152892242236, 34.197273666646424 ], [ 132.74466832708174, 34.192957494592747 ], [ 132.757341659689928, 34.193616945865415 ], [ 132.759741659749807, 34.190585828573205 ], [ 132.754040557825533, 34.182057775246165 ], [ 132.764699442325423, 34.182161387038434 ], [ 132.7653408298155, 34.176919162389481 ], [ 132.754661946191959, 34.164039440767624 ], [ 132.741590558357643, 34.163627494613252 ], [ 132.738712502979638, 34.157801386924518 ], [ 132.735523060940523, 34.16132833283632 ], [ 132.743413671204053, 34.167674441122585 ], [ 132.738486393632229, 34.173373333412655 ], [ 132.724801698739498, 34.172346802263178 ], [ 132.722524993933348, 34.169262224771899 ], [ 132.71664138808967, 34.172618053980045 ], [ 132.713213333428712, 34.180973027383345 ], [ 132.685821946225929, 34.18258610806248 ], [ 132.6886038910568, 34.188086666566448 ], [ 132.686522724044494, 34.196425972880377 ], [ 132.698679999582396, 34.204263053697048 ], [ 132.711458612225215, 34.204095829259188 ], [ 132.711995836638607, 34.203807494919999 ] ] ], [ [ [ 132.696988612234691, 34.223459161910853 ], [ 132.701071829301554, 34.218459279372269 ], [ 132.693478948594702, 34.21746569398664 ], [ 132.692219441773887, 34.222250000037548 ], [ 132.696934448765887, 34.223453333404677 ], [ 132.696988612234691, 34.223459161910853 ] ] ], [ [ [ 132.265903890951904, 34.235838053783198 ], [ 132.264329169955317, 34.233432774702862 ], [ 132.265844720957148, 34.235858613184519 ], [ 132.265903890951904, 34.235838053783198 ] ] ], [ [ [ 132.354887223566607, 34.241781666890461 ], [ 132.357693333180805, 34.235729440861064 ], [ 132.353158612380071, 34.239584999947851 ], [ 132.354838327426933, 34.241802225392462 ], [ 132.354887223566607, 34.241781666890461 ] ] ], [ [ [ 132.769292476966257, 34.243412865311541 ], [ 132.767849104652555, 34.245455613285969 ], [ 132.769206912768823, 34.243473333027964 ], [ 132.769292476966257, 34.243412865311541 ] ] ], [ [ [ 132.77545016918998, 34.260906720568755 ], [ 132.779406912798891, 34.257768946379827 ], [ 132.775403890976804, 34.260921386712653 ], [ 132.77545016918998, 34.260906720568755 ] ] ], [ [ [ 132.400569584618665, 34.261536585944725 ], [ 132.4071131129798, 34.261145720798424 ], [ 132.40003836587789, 34.260349333355123 ], [ 132.400569584618665, 34.261536585944725 ] ] ], [ [ [ 132.783256666761872, 34.261249161719491 ], [ 132.787882891782147, 34.260540054380044 ], [ 132.787465525413722, 34.255770748121563 ], [ 132.780810830055771, 34.257720892005636 ], [ 132.783239637199586, 34.261258081195535 ], [ 132.783256666761872, 34.261249161719491 ] ] ], [ [ [ 132.774422438344914, 34.268459441150355 ], [ 132.775096108798493, 34.26504466677801 ], [ 132.77112771717043, 34.263909305969719 ], [ 132.774259662853183, 34.268474135173278 ], [ 132.774422438344914, 34.268459441150355 ] ] ], [ [ [ 132.37059666740231, 34.279842225038692 ], [ 132.378382217965054, 34.2791724954144 ], [ 132.379129999749807, 34.275901386839564 ], [ 132.364817782214914, 34.27330861260242 ], [ 132.361073332568253, 34.276344441442859 ], [ 132.37052888460039, 34.279926666882204 ], [ 132.37059666740231, 34.279842225038692 ] ] ], [ [ [ 132.362293890650562, 34.291748613108041 ], [ 132.363263891315569, 34.2881833326947 ], [ 132.362168586311327, 34.291836027210934 ], [ 132.362293890650562, 34.291748613108041 ] ] ], [ [ [ 132.479691946326284, 34.296268504987552 ], [ 132.48207897456507, 34.288002711955642 ], [ 132.490340129793253, 34.283149631150593 ], [ 132.498925952870536, 34.267121071880013 ], [ 132.496982944207616, 34.254831514163072 ], [ 132.490721400971893, 34.247061377980287 ], [ 132.494274967715683, 34.241714126006173 ], [ 132.49754333335818, 34.242297413694757 ], [ 132.489260337194878, 34.219636766223857 ], [ 132.490176731970678, 34.203858413634919 ], [ 132.483367937780145, 34.200716396444591 ], [ 132.479548261643004, 34.191802098687958 ], [ 132.473322387318376, 34.194571810940374 ], [ 132.471904357899916, 34.18275741362379 ], [ 132.474583255712787, 34.181097739069457 ], [ 132.472057055588721, 34.179581540555716 ], [ 132.474616783337979, 34.1790687210447 ], [ 132.471316757062709, 34.178883928350672 ], [ 132.477692477326059, 34.178427865054005 ], [ 132.488058431051854, 34.160711756742216 ], [ 132.490899169960812, 34.149529161941302 ], [ 132.486286109216621, 34.143869721110775 ], [ 132.489991659587531, 34.142174440598012 ], [ 132.48198472111801, 34.144773892301316 ], [ 132.460507782008563, 34.134171945678816 ], [ 132.449343332828562, 34.136523332885531 ], [ 132.44617693861494, 34.132347494641238 ], [ 132.446032502997696, 34.139581386671694 ], [ 132.42875555072817, 34.128511386990965 ], [ 132.445569169581518, 34.152323054265594 ], [ 132.442864721130036, 34.154062225291511 ], [ 132.445610232626223, 34.166805577315586 ], [ 132.447167977120557, 34.16448754056762 ], [ 132.446292943964295, 34.167926153269434 ], [ 132.449681323234586, 34.167622107774093 ], [ 132.443591427302636, 34.16953980232006 ], [ 132.444839767241547, 34.179182026629292 ], [ 132.451137236594263, 34.180898008636234 ], [ 132.456086005264979, 34.175450296993688 ], [ 132.457187924782943, 34.177862422612748 ], [ 132.442304111645512, 34.189787027349496 ], [ 132.442611660000125, 34.195302225017713 ], [ 132.437581660065575, 34.195950558871232 ], [ 132.42879389062557, 34.173101945898111 ], [ 132.427609728106518, 34.179656667221479 ], [ 132.422268884701339, 34.180696108138932 ], [ 132.420089169979292, 34.198044441397883 ], [ 132.407443890822947, 34.204457613028467 ], [ 132.408344642791121, 34.202089108125904 ], [ 132.384417497169807, 34.226339441312234 ], [ 132.389692334833398, 34.231366306210134 ], [ 132.389066394098904, 34.240151946055505 ], [ 132.378154500629762, 34.252899441256261 ], [ 132.38148277640903, 34.252362494733404 ], [ 132.374849441748438, 34.253820278682952 ], [ 132.372116938945624, 34.258603612566731 ], [ 132.377266549611591, 34.264641721038629 ], [ 132.377821388146572, 34.260208612837289 ], [ 132.382373917322525, 34.2586306039193 ], [ 132.380331894201618, 34.256507837866479 ], [ 132.389697977179935, 34.260868666655711 ], [ 132.419811388284984, 34.257990828913648 ], [ 132.425402113716586, 34.254586153028583 ], [ 132.434916939165419, 34.235444999687047 ], [ 132.437163165048105, 34.236405026870557 ], [ 132.439175914337056, 34.224967333075995 ], [ 132.448920921263607, 34.223853973282303 ], [ 132.449897522952369, 34.227595081048207 ], [ 132.454349143698096, 34.226483161968417 ], [ 132.457762580778535, 34.230939468181987 ], [ 132.464748028798567, 34.21635093664645 ], [ 132.474118521152946, 34.208456333393144 ], [ 132.479725097135542, 34.231681116590323 ], [ 132.470919338556655, 34.244547476984508 ], [ 132.459114812198891, 34.250917026999275 ], [ 132.456094591092551, 34.256741810885899 ], [ 132.451764553291582, 34.255054108060676 ], [ 132.450264889712912, 34.246971405306169 ], [ 132.440005083867618, 34.245402153086957 ], [ 132.433104629874833, 34.250305351310942 ], [ 132.432705356966721, 34.253910738789614 ], [ 132.44577629064338, 34.266620000212868 ], [ 132.43574461672074, 34.275300558773836 ], [ 132.434146419821445, 34.286028801687905 ], [ 132.441848689565404, 34.289360693641129 ], [ 132.448259170424421, 34.284711386621268 ], [ 132.461444514053142, 34.287807324348591 ], [ 132.473213786986776, 34.286993269723666 ], [ 132.474747263275617, 34.283504296785907 ], [ 132.48048299629329, 34.28510644080967 ], [ 132.47965237435767, 34.296290963757031 ], [ 132.479691946326284, 34.296268504987552 ] ] ], [ [ [ 132.333644085706055, 34.311266333274716 ], [ 132.334611997245929, 34.305018721436909 ], [ 132.341149817610017, 34.302644774736621 ], [ 132.340105966417241, 34.297609666652818 ], [ 132.348585550782559, 34.292919999858157 ], [ 132.347214721382329, 34.280677224874069 ], [ 132.341050557637232, 34.277853612654155 ], [ 132.340304162607026, 34.272846387151105 ], [ 132.314137223953821, 34.257727225031488 ], [ 132.302956938611942, 34.2437455587106 ], [ 132.27403472092567, 34.231539440992435 ], [ 132.269768053852658, 34.247687774671135 ], [ 132.262211946424259, 34.251802774678367 ], [ 132.263874163362061, 34.256365000344545 ], [ 132.271430557674194, 34.256263612575708 ], [ 132.272800557899473, 34.261524161810655 ], [ 132.277345279161409, 34.263011108076228 ], [ 132.290089559285775, 34.287392000340617 ], [ 132.30985286631676, 34.296412134812215 ], [ 132.320154720863684, 34.295405252050784 ], [ 132.321611244863107, 34.30203205403609 ], [ 132.333648690234895, 34.311271080795791 ], [ 132.333644085706055, 34.311266333274716 ] ] ], [ [ [ 132.402879689346264, 34.314953225411102 ], [ 132.401514383582025, 34.311381108351497 ], [ 132.402904228247621, 34.314977972955148 ], [ 132.402879689346264, 34.314953225411102 ] ] ], [ [ [ 132.463027223727408, 34.316879054324943 ], [ 132.464309856614705, 34.310518135103905 ], [ 132.460382022612293, 34.312380891864734 ], [ 132.463003916897264, 34.316923559075065 ], [ 132.463027223727408, 34.316879054324943 ] ] ], [ [ [ 132.440888171352071, 34.325891666866994 ], [ 132.448133139432912, 34.31610680198736 ], [ 132.444508780755655, 34.307741468394113 ], [ 132.438277418767939, 34.305934359882826 ], [ 132.442827302138312, 34.296962558575274 ], [ 132.43674489036448, 34.300679774951732 ], [ 132.433034811907078, 34.297241360100713 ], [ 132.424393579799926, 34.302791000004675 ], [ 132.415354136883934, 34.299684026696525 ], [ 132.428418444355771, 34.307921332803346 ], [ 132.429105745833567, 34.312672053672372 ], [ 132.433489558596307, 34.313863224608156 ], [ 132.432542308980487, 34.320101532060107 ], [ 132.440866446429368, 34.325898134791146 ], [ 132.440888171352071, 34.325891666866994 ] ] ], [ [ [ 132.481464501085952, 34.346968829447974 ], [ 132.486878327173144, 34.339096107599346 ], [ 132.480657561897033, 34.330117108118088 ], [ 132.476742166417921, 34.345672999909084 ], [ 132.481355836902367, 34.3469736399216 ], [ 132.481464501085952, 34.346968829447974 ] ] ], [ [ [ 132.450111608364068, 34.347268225448317 ], [ 132.453786835394226, 34.344384748057735 ], [ 132.450077587910414, 34.347243135262545 ], [ 132.450111608364068, 34.347268225448317 ] ] ], [ [ [ 132.460015550677213, 34.351721802219458 ], [ 132.465636278391571, 34.34271786543718 ], [ 132.462861335682192, 34.339863053936824 ], [ 132.457684112232073, 34.34559580210464 ], [ 132.460002282979076, 34.351722081009257 ], [ 132.460015550677213, 34.351721802219458 ] ] ], [ [ [ 132.47534805356986, 34.614086108387255 ], [ 132.480345278611821, 34.611754999993309 ], [ 132.478574162767472, 34.607963333241287 ], [ 132.481263061041545, 34.606111945709756 ], [ 132.495904163346495, 34.601174720736822 ], [ 132.499465550594778, 34.593598892075249 ], [ 132.51181888463384, 34.596430278934292 ], [ 132.519473332927987, 34.607101108229585 ], [ 132.524542217749172, 34.606666386744394 ], [ 132.527542502684469, 34.598425000413499 ], [ 132.533457781751281, 34.59417249496471 ], [ 132.530818612389112, 34.588068333087165 ], [ 132.569189442039146, 34.57256222506669 ], [ 132.573769170311039, 34.562743333438164 ], [ 132.587599999640361, 34.571243613002366 ], [ 132.590556394062446, 34.582008333317958 ], [ 132.608203061222412, 34.586035829290154 ], [ 132.610769169661467, 34.591987494927025 ], [ 132.60833778236281, 34.595608332758388 ], [ 132.613585278837604, 34.601194720759793 ], [ 132.633953605674378, 34.595896945887375 ], [ 132.645243333113399, 34.602019161655051 ], [ 132.652119169963839, 34.599018053840155 ], [ 132.659625278683734, 34.600831667147759 ], [ 132.672839441986753, 34.611060558797817 ], [ 132.671626939132011, 34.606503613051359 ], [ 132.679296394413086, 34.603839721326153 ], [ 132.693511114646299, 34.589510828561913 ], [ 132.694059999669321, 34.5837944408608 ], [ 132.683116666800743, 34.565786945910872 ], [ 132.691557496681185, 34.559534162071998 ], [ 132.687600557919495, 34.556669720631135 ], [ 132.692211114951078, 34.545812225353984 ], [ 132.686882775719596, 34.541358332920765 ], [ 132.689158054200902, 34.534828333061171 ], [ 132.696097781587468, 34.535826666867251 ], [ 132.69325666676184, 34.529517494636707 ], [ 132.684907781768743, 34.525343613317148 ], [ 132.672280272316812, 34.533860279428382 ], [ 132.668827497091343, 34.529149440794129 ], [ 132.665376393705628, 34.531546667344855 ], [ 132.662344994026284, 34.526006386685424 ], [ 132.649170272290348, 34.519419162064708 ], [ 132.645558326955324, 34.505762775132041 ], [ 132.633208637868393, 34.506939198085547 ], [ 132.620144033620363, 34.491615720788957 ], [ 132.605376938994596, 34.488801359894921 ], [ 132.601141607898967, 34.483898999839028 ], [ 132.610233332901998, 34.478388054165407 ], [ 132.605688326555082, 34.476486667026109 ], [ 132.600521115257379, 34.457282775179976 ], [ 132.611037496783069, 34.454340000091008 ], [ 132.615442502969245, 34.446518053965065 ], [ 132.623250272182418, 34.445569440976954 ], [ 132.632971387719408, 34.450356387437409 ], [ 132.635728054406286, 34.44335582900834 ], [ 132.647244993761547, 34.437620278553084 ], [ 132.654622503026189, 34.443475829146223 ], [ 132.663511660235031, 34.4374691618724 ], [ 132.667093060996081, 34.428307775383587 ], [ 132.651906108879871, 34.422137224653227 ], [ 132.644415551236762, 34.41325222501024 ], [ 132.640365279034427, 34.399056108152934 ], [ 132.646627224267036, 34.395703612731609 ], [ 132.644243606257533, 34.388870829125494 ], [ 132.651110000226367, 34.379373613301652 ], [ 132.652897782306923, 34.367003333337209 ], [ 132.644735279109909, 34.362796946022286 ], [ 132.641515279006967, 34.351954440644988 ], [ 132.62397389098237, 34.354189162399962 ], [ 132.608233890881479, 34.342135558908979 ], [ 132.613361388117596, 34.327673332658208 ], [ 132.605581388170549, 34.321733333026941 ], [ 132.606826394322752, 34.316705558914464 ], [ 132.621331387833379, 34.312581386721661 ], [ 132.629596393958423, 34.311378054253851 ], [ 132.639394449194583, 34.315083054239608 ], [ 132.645021115132408, 34.30989861283075 ], [ 132.649654720888748, 34.311312494576043 ], [ 132.664041387899829, 34.28839333338567 ], [ 132.703441114815632, 34.31310499989587 ], [ 132.714469727695814, 34.308039440767629 ], [ 132.727036394414085, 34.322287224575803 ], [ 132.753505837124749, 34.332732494908782 ], [ 132.757383605868768, 34.311310829031584 ], [ 132.754776393915563, 34.310788054025522 ], [ 132.761810829805995, 34.299575000086236 ], [ 132.75930944197728, 34.296079999892129 ], [ 132.770003891066835, 34.286908053563877 ], [ 132.781015279231838, 34.286087495041897 ], [ 132.785199481171162, 34.276986793006131 ], [ 132.75424105088382, 34.282338081137596 ], [ 132.753686304079679, 34.275734801819681 ], [ 132.759753061354786, 34.267449532170247 ], [ 132.753004474976592, 34.259493864949945 ], [ 132.756006641293538, 34.256995720975794 ], [ 132.765992671924323, 34.262288359819991 ], [ 132.772008833341033, 34.25892913477179 ], [ 132.771957639433595, 34.252493667149054 ], [ 132.758364422680074, 34.246584532250438 ], [ 132.760581114826664, 34.240462802116667 ], [ 132.754224331587693, 34.238756027368822 ], [ 132.740361893786485, 34.243294892245558 ], [ 132.700449248434097, 34.235323387064739 ], [ 132.70131844409093, 34.237515775033046 ], [ 132.685074383875758, 34.222454828727393 ], [ 132.684387030237303, 34.210317135027822 ], [ 132.66734050585967, 34.219505801551577 ], [ 132.660248003442689, 34.219281360446473 ], [ 132.657479274149296, 34.214089999653822 ], [ 132.660971025092749, 34.208406413825003 ], [ 132.64091169901576, 34.201773829198885 ], [ 132.626701582412124, 34.206320081106924 ], [ 132.627113113079758, 34.210328720993743 ], [ 132.620699611397981, 34.213442081287099 ], [ 132.617497223617988, 34.210717026669499 ], [ 132.615755162171013, 34.224415359781062 ], [ 132.611879468163011, 34.224091360128227 ], [ 132.609099248231814, 34.218527865268811 ], [ 132.602754280285922, 34.220146440805649 ], [ 132.605749027195884, 34.226519721208206 ], [ 132.595620195016068, 34.231140386619586 ], [ 132.589952191740281, 34.219776829337263 ], [ 132.5960649682238, 34.216775585724747 ], [ 132.591939974050661, 34.211239441047439 ], [ 132.58811143959133, 34.209720585936338 ], [ 132.593465031785854, 34.212543359988103 ], [ 132.58811830141849, 34.214077775169244 ], [ 132.588943138914829, 34.210625613281479 ], [ 132.583940635751787, 34.211505054015106 ], [ 132.568012581115795, 34.197849107750187 ], [ 132.538235693622482, 34.193851864971634 ], [ 132.543920466556301, 34.209635386863681 ], [ 132.531556938701783, 34.222170999991704 ], [ 132.538111219357347, 34.228628973148659 ], [ 132.548403022181787, 34.225043054193634 ], [ 132.558529000812769, 34.238226297006065 ], [ 132.551706718590253, 34.242467918859404 ], [ 132.545082672127705, 34.24023130583015 ], [ 132.541676160726297, 34.242451332662938 ], [ 132.545698249075031, 34.245811829352476 ], [ 132.539645187575388, 34.247747891651954 ], [ 132.539353255948072, 34.242931360194177 ], [ 132.531551608420045, 34.241528441184641 ], [ 132.52446600470239, 34.246266864724078 ], [ 132.530671414054609, 34.249960919061209 ], [ 132.529917328022293, 34.255300532193871 ], [ 132.524358170593132, 34.258972531557163 ], [ 132.514571776866092, 34.256945667408672 ], [ 132.51885413710886, 34.282621747995336 ], [ 132.512761362447009, 34.285869494881354 ], [ 132.514689585356109, 34.289554829391932 ], [ 132.505659921668098, 34.294480107770823 ], [ 132.507499222311367, 34.29840433279378 ], [ 132.494315849996497, 34.316243793016667 ], [ 132.502992671874381, 34.325445586045021 ], [ 132.504355551267736, 34.336419494963764 ], [ 132.499569882743913, 34.337987864948047 ], [ 132.493495421876332, 34.334158108310078 ], [ 132.491478079749641, 34.33869894629936 ], [ 132.496350972619325, 34.348149532275158 ], [ 132.502963800039424, 34.350586278633898 ], [ 132.516433280871297, 34.343758080670966 ], [ 132.508730271884588, 34.352714999997318 ], [ 132.524857405844614, 34.359400134708494 ], [ 132.522483995140306, 34.362832197647833 ], [ 132.51884566819308, 34.361091531948716 ], [ 132.516898144933521, 34.365091107568617 ], [ 132.506157419429428, 34.35572836017576 ], [ 132.497256419947917, 34.357179802106259 ], [ 132.482556808649861, 34.353118035668842 ], [ 132.480792749785678, 34.362962693773341 ], [ 132.475606835287294, 34.367093612680151 ], [ 132.478512411718498, 34.356721864622386 ], [ 132.470158975256595, 34.351933359636917 ], [ 132.452494968268184, 34.352801441033705 ], [ 132.449697716976175, 34.351030693911468 ], [ 132.449817042622499, 34.340836314644264 ], [ 132.443712567780835, 34.340524721139047 ], [ 132.437850803771653, 34.345399359592818 ], [ 132.439905188074022, 34.352323251716768 ], [ 132.423558715762169, 34.359596053814869 ], [ 132.414848326689025, 34.359728693924126 ], [ 132.413943307437762, 34.35674146804439 ], [ 132.404360778327373, 34.36275569412004 ], [ 132.402284993757576, 34.360220080792146 ], [ 132.404222801641026, 34.36279653233413 ], [ 132.399262283327744, 34.365364972715383 ], [ 132.398022412304499, 34.362443359573433 ], [ 132.375562283073009, 34.360379305760432 ], [ 132.376857328403048, 34.352381802078582 ], [ 132.364726199754386, 34.347467586260166 ], [ 132.360316355215673, 34.355715864995204 ], [ 132.366403164674352, 34.357948639718018 ], [ 132.364490894839037, 34.360312639916458 ], [ 132.343134474776207, 34.352846559121474 ], [ 132.338276419821, 34.354213197680963 ], [ 132.343076355189737, 34.351719946018761 ], [ 132.354156394002416, 34.353856414142228 ], [ 132.356542334960864, 34.349403585607035 ], [ 132.33570544694885, 34.347418225170998 ], [ 132.338923139391454, 34.3419569193764 ], [ 132.358657885752905, 34.345264161811656 ], [ 132.356921362331036, 34.348530747695918 ], [ 132.353202165647531, 34.347189414260129 ], [ 132.356989974307908, 34.348585000197659 ], [ 132.358753203997253, 34.345285008996029 ], [ 132.336758418166482, 34.33768441390464 ], [ 132.333308444329305, 34.344137531621811 ], [ 132.326778080244253, 34.344116973119867 ], [ 132.320014306115354, 34.339226135178023 ], [ 132.323479027035546, 34.337110441393804 ], [ 132.319715188005603, 34.336355440751049 ], [ 132.318988301069339, 34.323304386588234 ], [ 132.305175472570113, 34.313934135252168 ], [ 132.309883384810405, 34.315284693933506 ], [ 132.300662217687204, 34.305354639804818 ], [ 132.290800271915032, 34.301217531763712 ], [ 132.278890051834537, 34.282801829141135 ], [ 132.271929442190071, 34.281639666737306 ], [ 132.273987419284026, 34.278882359733188 ], [ 132.270517860011296, 34.27658208099831 ], [ 132.266574941680233, 34.281115720813943 ], [ 132.264322503280937, 34.272545865199561 ], [ 132.259624228175653, 34.273873197989758 ], [ 132.249603061032531, 34.264703829118446 ], [ 132.2310579117933, 34.255923999792799 ], [ 132.234433580045788, 34.256478721415931 ], [ 132.226105939737408, 34.246106585750397 ], [ 132.228900271830184, 34.24449761317436 ], [ 132.227379805133978, 34.235426360338295 ], [ 132.22321875534135, 34.236479774921747 ], [ 132.220659688593855, 34.232759999974064 ], [ 132.23889011738504, 34.22713949529151 ], [ 132.247489170388917, 34.215011721114081 ], [ 132.245595240428088, 34.210672585771249 ], [ 132.220656394377215, 34.208152775330348 ], [ 132.210168884686368, 34.202575829311115 ], [ 132.20224360555801, 34.207830828829742 ], [ 132.195428884835223, 34.204388892233624 ], [ 132.193329727784771, 34.207012225433914 ], [ 132.204856109122147, 34.228607775228681 ], [ 132.199677497118842, 34.225169161627548 ], [ 132.197875550716162, 34.23063277508254 ], [ 132.193100272059951, 34.230422494702395 ], [ 132.193499442445386, 34.226482224874815 ], [ 132.180755279232812, 34.229927224561834 ], [ 132.171909999946593, 34.225122494907282 ], [ 132.16728221819983, 34.22795055877134 ], [ 132.170868611996866, 34.229063054316555 ], [ 132.17089165982236, 34.233582494736368 ], [ 132.15982083006736, 34.233925828913925 ], [ 132.160301388198604, 34.22989305392133 ], [ 132.156914721237513, 34.229235829370054 ], [ 132.150184162669007, 34.237184161719767 ], [ 132.144748885053104, 34.23641972089348 ], [ 132.146354720793738, 34.256784721138047 ], [ 132.140119728242894, 34.260622495232042 ], [ 132.133568884796205, 34.2720138919276 ], [ 132.140051387861376, 34.284942224604038 ], [ 132.129700558034415, 34.294463332716703 ], [ 132.125597497426611, 34.290870828925677 ], [ 132.128537223813851, 34.296092495072628 ], [ 132.123997781572371, 34.296647494586239 ], [ 132.129470558219737, 34.304021667366101 ], [ 132.122645278556774, 34.310391945831668 ], [ 132.123997497386654, 34.319778332803878 ], [ 132.129191659567482, 34.322378612782813 ], [ 132.127355279022936, 34.332924440810359 ], [ 132.107527224401906, 34.328052225130136 ], [ 132.101043606177541, 34.33657666677982 ], [ 132.101423605714899, 34.345145559220214 ], [ 132.087828326815838, 34.35189249534244 ], [ 132.085263332636714, 34.35788166720522 ], [ 132.069797223762976, 34.356295828789541 ], [ 132.070371946308342, 34.370888053840645 ], [ 132.074855278948007, 34.373711945749733 ], [ 132.072517224190619, 34.377168332652502 ], [ 132.077799727675369, 34.387899721395058 ], [ 132.069754994297568, 34.390991945821668 ], [ 132.074621946245884, 34.402200828705304 ], [ 132.068790000158401, 34.416047774785056 ], [ 132.077416666845807, 34.42561610809696 ], [ 132.07486610858416, 34.431821108257566 ], [ 132.081043333183288, 34.443349162334016 ], [ 132.067875836600592, 34.464968332822366 ], [ 132.06688944219411, 34.473046946359545 ], [ 132.057376938794732, 34.481824720734323 ], [ 132.059832775961922, 34.49216305358209 ], [ 132.052203890896863, 34.498915559205727 ], [ 132.036463333216375, 34.501154999703544 ], [ 132.048838885006603, 34.515422494852317 ], [ 132.047737223594027, 34.521225278623774 ], [ 132.052378612083317, 34.530275829066284 ], [ 132.08395055807182, 34.537529999909623 ], [ 132.100019999623328, 34.554964440556546 ], [ 132.113867223593502, 34.562692775351366 ], [ 132.119028054201408, 34.572425279003483 ], [ 132.117984721018161, 34.578498053642306 ], [ 132.125528326970766, 34.583151386927 ], [ 132.138085550807546, 34.572249162069227 ], [ 132.142594449374428, 34.563401666853508 ], [ 132.149653605829258, 34.564608612797315 ], [ 132.155013605693398, 34.557890559301939 ], [ 132.156156394002437, 34.549201108244574 ], [ 132.163420558112307, 34.542396945562643 ], [ 132.184968885405851, 34.542573891671793 ], [ 132.181603332727718, 34.535236946328041 ], [ 132.166714163228107, 34.522423054180649 ], [ 132.178780830271194, 34.512858333445365 ], [ 132.188467497277202, 34.498396946262119 ], [ 132.197034993969851, 34.496497224667223 ], [ 132.203938326692537, 34.499402775018098 ], [ 132.205786667320922, 34.509876945964322 ], [ 132.215413890938407, 34.514652495316454 ], [ 132.240663060651741, 34.507997225291774 ], [ 132.239553060725257, 34.516956667216448 ], [ 132.249359441884849, 34.529813892297341 ], [ 132.269524994083326, 34.535365559273203 ], [ 132.295387496935518, 34.548593892294321 ], [ 132.331034163196136, 34.555235278585315 ], [ 132.358447496554732, 34.552304999576108 ], [ 132.360508884777232, 34.559059161750952 ], [ 132.364012503174536, 34.544580279156605 ], [ 132.359916939315326, 34.538148612968143 ], [ 132.365160000333844, 34.539248332744421 ], [ 132.374808327442452, 34.550989440710168 ], [ 132.386676666994617, 34.554245000006802 ], [ 132.390710272061483, 34.570969999665806 ], [ 132.387290271728716, 34.583111666570233 ], [ 132.391784449292913, 34.585381945720258 ], [ 132.390346667164977, 34.592401387214295 ], [ 132.399654721388401, 34.604173892311337 ], [ 132.403806667343929, 34.599583891983059 ], [ 132.406571388358998, 34.603089441224768 ], [ 132.414996108683567, 34.599115278647218 ], [ 132.425756939431267, 34.603206387265004 ], [ 132.438944721122084, 34.592004440852293 ], [ 132.457217497189845, 34.603348332659493 ], [ 132.462166666958183, 34.612646387320979 ], [ 132.474999999750253, 34.614252775245461 ], [ 132.47534805356986, 34.614086108387255 ] ] ] ] } },
{ "type": "Feature", "properties": { "code": "340012", "name": "福山・尾三", "PrefCode": "34", "regioncode": "340012" }, "geometry": { "type": "MultiPolygon", "coordinates": [ [ [ [ 133.466683332769662, 34.316859162220624 ], [ 133.470625278933539, 34.315283333259288 ], [ 133.469979727582427, 34.310301386799608 ], [ 133.465425279253282, 34.312616945915352 ], [ 133.461086667315953, 34.309574161718217 ], [ 133.457578054084024, 34.314780828972118 ], [ 133.466666667432833, 34.31685619805512 ], [ 133.466683332769662, 34.316859162220624 ] ] ], [ [ [ 133.133440414643474, 34.316891802214968 ], [ 133.140819389803028, 34.314736972633227 ], [ 133.148664811831623, 34.302550495209232 ], [ 133.146972892085387, 34.287470774656583 ], [ 133.115382581041331, 34.27440582866609 ], [ 133.111084863975407, 34.264774945707245 ], [ 133.106519559030517, 34.265591360153223 ], [ 133.093727808191829, 34.256610494578695 ], [ 133.082500311140507, 34.255971000161594 ], [ 133.069613865287693, 34.262280864870093 ], [ 133.067163890800998, 34.267077640021114 ], [ 133.07207204878614, 34.278775414154097 ], [ 133.06960800260731, 34.279175251836477 ], [ 133.089052386658409, 34.312929667170465 ], [ 133.097360558443029, 34.313331918633196 ], [ 133.09486330659638, 34.31352125200425 ], [ 133.095998249219861, 34.307038107722519 ], [ 133.10239457834723, 34.306292999622315 ], [ 133.133427612794208, 34.316903828848695 ], [ 133.133440414643474, 34.316891802214968 ] ] ], [ [ [ 133.257673333157868, 34.332176945909396 ], [ 133.255938326892306, 34.329614162263852 ], [ 133.257651387901319, 34.332216667165483 ], [ 133.257673333157868, 34.332176945909396 ] ] ], [ [ [ 133.078680388589078, 34.333089891785107 ], [ 133.087145719599334, 34.313261748131197 ], [ 133.081794890122183, 34.303483828715798 ], [ 133.069071387934287, 34.302622360033922 ], [ 133.062807302315264, 34.307841197813104 ], [ 133.062821439657796, 34.318049612799427 ], [ 133.066237613375165, 34.325857495327227 ], [ 133.078487419259091, 34.333113945951879 ], [ 133.078680388589078, 34.333089891785107 ] ] ], [ [ [ 133.436449442188064, 34.351414440923747 ], [ 133.448266393579274, 34.34157861326247 ], [ 133.453032217662781, 34.342026107818697 ], [ 133.454669442440832, 34.337681386786642 ], [ 133.449244448572472, 34.339799720980409 ], [ 133.445788053575825, 34.335535829215189 ], [ 133.430451387721405, 34.339129440970964 ], [ 133.427822217921062, 34.344578891902415 ], [ 133.43049338516164, 34.347801170887351 ], [ 133.427345797570524, 34.349564792681065 ], [ 133.43323485060796, 34.34777584687788 ], [ 133.436361115273371, 34.351419999633322 ], [ 133.436449442188064, 34.351414440923747 ] ] ], [ [ [ 133.467078949034317, 34.356784387289679 ], [ 133.465326939286911, 34.354598333246543 ], [ 133.467079727847249, 34.35680722467373 ], [ 133.467078949034317, 34.356784387289679 ] ] ], [ [ [ 133.139166160689797, 34.357387532009056 ], [ 133.142677392747487, 34.356033413811076 ], [ 133.141751335655727, 34.35143441396707 ], [ 133.139152697838767, 34.357443441062003 ], [ 133.139166160689797, 34.357387532009056 ] ] ], [ [ [ 133.286087341257826, 34.357734855579167 ], [ 133.287712218344268, 34.350075720917857 ], [ 133.29035356676377, 34.350379603635872 ], [ 133.286243333163384, 34.348074721271416 ], [ 133.285863891205622, 34.338379721147248 ], [ 133.262319999768238, 34.332337494679678 ], [ 133.266679727787277, 34.338033054082246 ], [ 133.265584721357868, 34.343450829092546 ], [ 133.261993332726206, 34.344393612675162 ], [ 133.263774449031644, 34.347767494874063 ], [ 133.285644682356292, 34.358013514112429 ], [ 133.286087341257826, 34.357734855579167 ] ] ], [ [ [ 133.151711946049545, 34.358590585687011 ], [ 133.173625472737399, 34.357919386570472 ], [ 133.177481996796814, 34.353272360231301 ], [ 133.174760168946705, 34.35064961338901 ], [ 133.178358885254397, 34.341759865325571 ], [ 133.188903358902962, 34.335764721065061 ], [ 133.197263527689756, 34.338037946394138 ], [ 133.20349769106565, 34.319230748200539 ], [ 133.210907327711084, 34.318900224865558 ], [ 133.211493476143119, 34.314001386554821 ], [ 133.198402995701713, 34.307571224932133 ], [ 133.193520142840384, 34.300544775021422 ], [ 133.1944923351532, 34.297519945788906 ], [ 133.210292023258376, 34.297028495069071 ], [ 133.200811479066601, 34.290049134559979 ], [ 133.201032970395318, 34.286778278694669 ], [ 133.196256420097825, 34.285984802356779 ], [ 133.199511479371381, 34.279279801621612 ], [ 133.196052970068536, 34.275423864819572 ], [ 133.180593306635842, 34.280666162313594 ], [ 133.168618275113317, 34.296074225345251 ], [ 133.155960337099941, 34.298642359957 ], [ 133.14282308741565, 34.324335053719778 ], [ 133.134513722230508, 34.328875387189441 ], [ 133.134453722161652, 34.335574027019788 ], [ 133.141689170019276, 34.340339360073472 ], [ 133.136607250424277, 34.342521108162657 ], [ 133.137660636229498, 34.346210162269244 ], [ 133.145521024775576, 34.347700721111437 ], [ 133.147181854958717, 34.345106197692928 ], [ 133.14953527912985, 34.355027720852661 ], [ 133.14685824920889, 34.357089162135196 ], [ 133.152435525279316, 34.358732639899472 ], [ 133.151711946049545, 34.358590585687011 ] ] ], [ [ [ 133.117321114677793, 34.360115828682581 ], [ 133.127093838709698, 34.33760869368632 ], [ 133.120089441974187, 34.323690279382959 ], [ 133.110083890659098, 34.31720166722323 ], [ 133.104796666632978, 34.319416945635567 ], [ 133.104781388050696, 34.322802224942791 ], [ 133.096007782033553, 34.323643612662636 ], [ 133.094692217771694, 34.330646666710379 ], [ 133.098803061112449, 34.325807494820083 ], [ 133.10339841780285, 34.326305828950922 ], [ 133.097216109336046, 34.340142774569415 ], [ 133.103709728021613, 34.345540278860824 ], [ 133.103519442268521, 34.356340829066085 ], [ 133.117239727831247, 34.360127224891585 ], [ 133.117321114677793, 34.360115828682581 ] ] ], [ [ [ 133.107350271797714, 34.3683527750606 ], [ 133.107986200402934, 34.362777919065763 ], [ 133.09911082980102, 34.359670279359932 ], [ 133.099375836625654, 34.364481946384785 ], [ 133.107322775925468, 34.368341666634649 ], [ 133.107350271797714, 34.3683527750606 ] ] ], [ [ [ 133.145584552884884, 34.370865224550528 ], [ 133.145072606615599, 34.363323667253496 ], [ 133.133228885105041, 34.360784333430274 ], [ 133.137532996350728, 34.367578829299589 ], [ 133.145546031324329, 34.370868053817674 ], [ 133.145584552884884, 34.370865224550528 ] ] ], [ [ [ 133.319023333060386, 34.372551108047276 ], [ 133.319929999869714, 34.367523612724597 ], [ 133.325345550856582, 34.365742494620463 ], [ 133.325107056045908, 34.359968053882653 ], [ 133.33162491595715, 34.365650802442644 ], [ 133.331923061000566, 34.370496387398418 ], [ 133.336488612359631, 34.368370559154016 ], [ 133.342268885200951, 34.370990829263405 ], [ 133.338169441666423, 34.356576667279398 ], [ 133.321172567959707, 34.353639324095582 ], [ 133.302681946414737, 34.342348054319302 ], [ 133.296141115120463, 34.344683892247872 ], [ 133.288901659883777, 34.356491945746768 ], [ 133.304573645157689, 34.369806414034827 ], [ 133.318994616808141, 34.372581774929017 ], [ 133.319023333060386, 34.372551108047276 ] ] ], [ [ [ 133.222547056001872, 34.375026494677059 ], [ 133.223700661356474, 34.372096414418024 ], [ 133.222526108992838, 34.375030892361849 ], [ 133.222547056001872, 34.375026494677059 ] ] ], [ [ [ 133.241666666983178, 34.379670198021302 ], [ 133.246470830064823, 34.375188333075187 ], [ 133.244331115388718, 34.370883891778249 ], [ 133.238122776045316, 34.374376945839458 ], [ 133.241644449232012, 34.379706107950597 ], [ 133.241666666983178, 34.379670198021302 ] ] ], [ [ [ 133.260959053017928, 34.384433612820999 ], [ 133.270896939342379, 34.378029721294638 ], [ 133.279431387748446, 34.380242225298502 ], [ 133.270161659932683, 34.360820828818248 ], [ 133.259090830177684, 34.366015559370624 ], [ 133.261251946020593, 34.370452774775799 ], [ 133.256944993816433, 34.375011108176182 ], [ 133.260884279785728, 34.384454054411151 ], [ 133.260959053017928, 34.384433612820999 ] ] ], [ [ [ 133.112156550084819, 34.384084279266119 ], [ 133.110210660893358, 34.385917414157404 ], [ 133.112102776022311, 34.384135359859044 ], [ 133.112156550084819, 34.384084279266119 ] ] ], [ [ [ 133.399261388302534, 34.388556667156536 ], [ 133.404037223639079, 34.382848054094495 ], [ 133.401109442047186, 34.377883333249258 ], [ 133.387536394389144, 34.383614162263825 ], [ 133.391646109080739, 34.388421107847876 ], [ 133.39920027217488, 34.388562224966734 ], [ 133.399261388302534, 34.388556667156536 ] ] ], [ [ [ 133.162318910889098, 34.391504467657114 ], [ 133.168363410842744, 34.389645640034303 ], [ 133.172695252683866, 34.379431467588233 ], [ 133.17115671860779, 34.372827865413683 ], [ 133.164730921394948, 34.375949467993621 ], [ 133.155997885594047, 34.374349946392954 ], [ 133.155541504836606, 34.38017935998954 ], [ 133.151598520855146, 34.381806107665795 ], [ 133.162299688779626, 34.391489720574214 ], [ 133.162318910889098, 34.391504467657114 ] ] ], [ [ [ 133.215480558381159, 34.409089026737263 ], [ 133.23717703009595, 34.405528612555486 ], [ 133.234990752121575, 34.402761639638015 ], [ 133.239473190835156, 34.398226360358308 ], [ 133.236921920310465, 34.391307161796135 ], [ 133.230445447199713, 34.394208693976111 ], [ 133.228654501304277, 34.386213945817019 ], [ 133.2190356944418, 34.380418333239561 ], [ 133.217803968578323, 34.363683612808529 ], [ 133.212525745866515, 34.363152413852845 ], [ 133.212060388975829, 34.356177972635408 ], [ 133.207520077989216, 34.361574639657931 ], [ 133.183721024605688, 34.358459252292732 ], [ 133.181852022952512, 34.363846721049413 ], [ 133.174377055956484, 34.366497414324272 ], [ 133.17650364502731, 34.371253639943575 ], [ 133.16996128398614, 34.387276919294436 ], [ 133.17213422771249, 34.392772359756634 ], [ 133.178997807702672, 34.396074108233563 ], [ 133.184204553197674, 34.394257440828255 ], [ 133.198340751824276, 34.403836333080335 ], [ 133.215476783027157, 34.409091864997606 ], [ 133.215480558381159, 34.409089026737263 ] ] ], [ [ [ 133.264070752263478, 34.430388972972764 ], [ 133.257805083837638, 34.41768830637028 ], [ 133.263942386631925, 34.430274559423424 ], [ 133.258333333016935, 34.428506747688289 ], [ 133.264070752263478, 34.430388972972764 ] ] ], [ [ [ 133.215831115013998, 34.861350828877676 ], [ 133.215974448961674, 34.858035559093821 ], [ 133.221432217722736, 34.856689441264734 ], [ 133.227614993836937, 34.845600829214959 ], [ 133.225548326594094, 34.844256108032994 ], [ 133.230762218101972, 34.843567224647757 ], [ 133.229752218290287, 34.836429999844654 ], [ 133.234372775783072, 34.834408892256647 ], [ 133.235420557912448, 34.827494720904724 ], [ 133.230196394348241, 34.822660828934147 ], [ 133.238995836988352, 34.81977472102659 ], [ 133.245272503223532, 34.810774162097971 ], [ 133.246611946284361, 34.820650279386939 ], [ 133.276071659979152, 34.835731667282687 ], [ 133.272745279071387, 34.838418053750217 ], [ 133.277262217577345, 34.847556946396026 ], [ 133.273089728408308, 34.851337775418074 ], [ 133.289111114686307, 34.853771386740164 ], [ 133.298877781784313, 34.8479566671665 ], [ 133.30809055823272, 34.847391386603249 ], [ 133.320900558114317, 34.853050829232416 ], [ 133.330214448937681, 34.852447775344615 ], [ 133.335437223948816, 34.844906108330292 ], [ 133.332597496777112, 34.840433892210399 ], [ 133.335956393572815, 34.834792224681451 ], [ 133.348167497132295, 34.828729440611255 ], [ 133.347042502809359, 34.831608612947207 ], [ 133.3529863938071, 34.830642775243916 ], [ 133.358655279317759, 34.819809999631843 ], [ 133.36789722437743, 34.819006108245333 ], [ 133.368556394162283, 34.814882775120054 ], [ 133.374507496823639, 34.813911667389618 ], [ 133.377863333226287, 34.808793891824678 ], [ 133.37759221820636, 34.79708277534985 ], [ 133.36968749668074, 34.789160559312393 ], [ 133.376847224320045, 34.781752775270434 ], [ 133.367374994360603, 34.774331108393994 ], [ 133.364642218163908, 34.767319721228205 ], [ 133.367678326693522, 34.761533612686151 ], [ 133.361847496664723, 34.755600278829831 ], [ 133.366902503148026, 34.753901386639711 ], [ 133.370378327098138, 34.746859161720977 ], [ 133.35820138788381, 34.733273332898023 ], [ 133.361708611663175, 34.726802774628425 ], [ 133.369751388116129, 34.722820000142917 ], [ 133.374174720686824, 34.695356667176497 ], [ 133.386659728064046, 34.684891666617148 ], [ 133.38274944163345, 34.680285278842575 ], [ 133.403378053854112, 34.671922494827299 ], [ 133.396489728118468, 34.652078891827443 ], [ 133.388483891318629, 34.643431108159177 ], [ 133.387190272313319, 34.636381945870141 ], [ 133.391940557910516, 34.631308891792003 ], [ 133.384727496876508, 34.625152775180482 ], [ 133.384685550697668, 34.616835000434946 ], [ 133.392757781746241, 34.611702774563469 ], [ 133.397006108944879, 34.594884161774701 ], [ 133.413205551095416, 34.586658332815887 ], [ 133.422938327242036, 34.585858892174201 ], [ 133.426732775597202, 34.569144721251917 ], [ 133.446214163153172, 34.556338054257822 ], [ 133.448708054233407, 34.53971972138811 ], [ 133.454388612044909, 34.53150610792062 ], [ 133.447110557905944, 34.520300279134631 ], [ 133.449956666666935, 34.512295278704187 ], [ 133.445162218062023, 34.509515000317037 ], [ 133.444943332968478, 34.505886108157426 ], [ 133.45355917001973, 34.506585278887542 ], [ 133.456442502619439, 34.499929441390634 ], [ 133.44690847034974, 34.48026766691936 ], [ 133.444109013919956, 34.486451477253922 ], [ 133.442897496722139, 34.482673892086495 ], [ 133.445901244946526, 34.474008053628836 ], [ 133.444952503355353, 34.446169721355602 ], [ 133.414521518253537, 34.459217694441122 ], [ 133.415222334743021, 34.478346540560437 ], [ 133.408474553258088, 34.478455999744654 ], [ 133.411385357448353, 34.470503143805104 ], [ 133.406702244013445, 34.461758414119572 ], [ 133.408180557686705, 34.457244377725885 ], [ 133.434863060581847, 34.443190000318339 ], [ 133.433018586138928, 34.439826116781887 ], [ 133.440525589684285, 34.436255918875588 ], [ 133.431299999695284, 34.424096666627918 ], [ 133.410485550667659, 34.437901946217892 ], [ 133.404805304920956, 34.435562305955727 ], [ 133.407694162955295, 34.428266667372839 ], [ 133.386558405046458, 34.422580918674498 ], [ 133.380162969845287, 34.39517167633187 ], [ 133.383804967825085, 34.38142519801454 ], [ 133.378352113859023, 34.382132054350905 ], [ 133.379597367324664, 34.379079314658668 ], [ 133.375193890885384, 34.37615507189912 ], [ 133.379227458180708, 34.37600248572619 ], [ 133.371171660443792, 34.374425558692622 ], [ 133.367033606315886, 34.368753612789078 ], [ 133.351698327216127, 34.365949162423931 ], [ 133.345971660264013, 34.365606107935605 ], [ 133.348193230333322, 34.372847378004167 ], [ 133.343609039625562, 34.37856561291278 ], [ 133.334923721852306, 34.381027017782685 ], [ 133.324219221939643, 34.379511485666569 ], [ 133.322778715765139, 34.376466559284324 ], [ 133.305919170333482, 34.387568612601456 ], [ 133.299907497433082, 34.385383612563714 ], [ 133.300995720276319, 34.383032252336648 ], [ 133.284460271624312, 34.386342494910252 ], [ 133.284862775796569, 34.391132494569035 ], [ 133.281968806914961, 34.391272305872292 ], [ 133.28439333328572, 34.39226472123994 ], [ 133.280197224322478, 34.394968774889094 ], [ 133.283035551249782, 34.396479440773646 ], [ 133.28146416314064, 34.401580559095578 ], [ 133.277258910770229, 34.399496532239198 ], [ 133.276011388314942, 34.395215279061915 ], [ 133.278857808241355, 34.394121585642722 ], [ 133.270992218016545, 34.391795829114301 ], [ 133.261990272333264, 34.394861386843559 ], [ 133.253837497102836, 34.388251386892023 ], [ 133.24458111522631, 34.390994161751223 ], [ 133.243664721349887, 34.40018194604005 ], [ 133.247884163223603, 34.398067774807998 ], [ 133.253527497196274, 34.401493892329313 ], [ 133.257882217790211, 34.396522494917235 ], [ 133.260194994403491, 34.403856946440953 ], [ 133.26701333309893, 34.40359055915701 ], [ 133.272762502887304, 34.407974720856714 ], [ 133.270334202061804, 34.432696009213487 ], [ 133.257393009080147, 34.435951269935231 ], [ 133.254476666864775, 34.439033612611183 ], [ 133.256652283376184, 34.442124918830018 ], [ 133.251209014384585, 34.4414264405778 ], [ 133.255592218306333, 34.424823612919454 ], [ 133.251476393620692, 34.422672775428282 ], [ 133.247246291183501, 34.436286810587887 ], [ 133.242085563997648, 34.435886387446885 ], [ 133.245483385250054, 34.423882531753463 ], [ 133.232426667157029, 34.416323306375546 ], [ 133.234056252194364, 34.411560945581243 ], [ 133.207292334573594, 34.410031494657801 ], [ 133.187907223939305, 34.401030612872546 ], [ 133.147376913413837, 34.392477224744198 ], [ 133.127517690988725, 34.382566999767278 ], [ 133.113875615867073, 34.382392801986271 ], [ 133.111722826847085, 34.388288161969172 ], [ 133.08487639373061, 34.39564861289324 ], [ 133.093142411593135, 34.388837946314197 ], [ 133.090606523971928, 34.382886973155337 ], [ 133.096737639430557, 34.379364360177135 ], [ 133.086271361833951, 34.378624945684749 ], [ 133.085265330730522, 34.362149197627446 ], [ 133.079346394120876, 34.345675000001279 ], [ 133.05305138841095, 34.34316638701921 ], [ 133.03997446165215, 34.331310315119026 ], [ 133.043794824871384, 34.333460216415915 ], [ 133.039193061410742, 34.332390775014289 ], [ 133.037687562131396, 34.335901631155423 ], [ 133.010732437851743, 34.329112828893983 ], [ 133.01046610902381, 34.343231107629549 ], [ 133.002450557747125, 34.34946833319708 ], [ 132.990523060790679, 34.352048613153045 ], [ 132.985208327402461, 34.346636946338037 ], [ 132.975802503382852, 34.345990278928298 ], [ 132.960329727834733, 34.357567495343687 ], [ 132.954898053802253, 34.35222110761805 ], [ 132.950123332725639, 34.352044999677048 ], [ 132.945436109388993, 34.35803944066771 ], [ 132.941603891306613, 34.355753333449627 ], [ 132.940499441995712, 34.373644162048492 ], [ 132.934709169592566, 34.380564721284884 ], [ 132.926169999745753, 34.380066666843277 ], [ 132.927197781852215, 34.385349441023948 ], [ 132.92262610880789, 34.386773612812021 ], [ 132.911344720782267, 34.386562774852223 ], [ 132.913055836557646, 34.391813053829424 ], [ 132.903927781641869, 34.402022225145629 ], [ 132.908726394107816, 34.406998612895734 ], [ 132.906673606102117, 34.425828613399858 ], [ 132.903891946356339, 34.429427495182836 ], [ 132.89574832712367, 34.428355559061856 ], [ 132.89376138837747, 34.434596107624316 ], [ 132.904451946100494, 34.444485559161251 ], [ 132.892822218270794, 34.457833612631191 ], [ 132.896076666904719, 34.460285559331169 ], [ 132.889501945558436, 34.465278613317423 ], [ 132.898601660138524, 34.465398054077014 ], [ 132.904713333153836, 34.45976027881386 ], [ 132.918791660406896, 34.45694444123302 ], [ 132.919363333351271, 34.470694720984625 ], [ 132.911728054106447, 34.475573332643251 ], [ 132.911712503029662, 34.485068613126032 ], [ 132.904830271999572, 34.483833054352033 ], [ 132.894028326945772, 34.502302774753332 ], [ 132.895807223724432, 34.506297494933506 ], [ 132.886343333178388, 34.518321946001038 ], [ 132.856584720808314, 34.524127774876945 ], [ 132.854830558083904, 34.533038891731508 ], [ 132.851080557821547, 34.534765000104699 ], [ 132.853123606169561, 34.538519720908425 ], [ 132.847402218237789, 34.540270828635869 ], [ 132.852422776190224, 34.54262194604604 ], [ 132.853535837409026, 34.550099162246568 ], [ 132.859814162893372, 34.546913613372624 ], [ 132.881615551316713, 34.555114162388747 ], [ 132.884301659893708, 34.559040559274422 ], [ 132.878367496862552, 34.575828891889898 ], [ 132.887058054085969, 34.573780279436392 ], [ 132.89601306055431, 34.583099162396479 ], [ 132.893633606405842, 34.595145558720617 ], [ 132.885268611856986, 34.602678891717517 ], [ 132.877577782388812, 34.603422495252005 ], [ 132.885799169596112, 34.612784999827909 ], [ 132.876551387936274, 34.613485828907926 ], [ 132.867333333366673, 34.621160279023684 ], [ 132.870347224145121, 34.624315278827112 ], [ 132.873319728122965, 34.622113892242396 ], [ 132.872145279181382, 34.626184440559541 ], [ 132.878503333162371, 34.631346945705047 ], [ 132.872020830097313, 34.637538054038032 ], [ 132.873646394265734, 34.647835558564225 ], [ 132.881602503053159, 34.646038892081265 ], [ 132.87825000043722, 34.664083054189632 ], [ 132.890815551096921, 34.677072494899789 ], [ 132.888164448630505, 34.682355278972977 ], [ 132.895225551218232, 34.684401108024758 ], [ 132.925535551424673, 34.675547224924514 ], [ 132.938399728264926, 34.682393892264372 ], [ 132.94335165985126, 34.669480000002068 ], [ 132.940620829787576, 34.663453613293655 ], [ 132.947321660366356, 34.661988332595513 ], [ 132.945069999880616, 34.657243891692303 ], [ 132.953622775570693, 34.6549266670321 ], [ 132.954080558371174, 34.651718332934763 ], [ 132.958261946331845, 34.660055828913414 ], [ 132.970930829993904, 34.654351386907024 ], [ 132.969467782312336, 34.664922774566435 ], [ 132.982321387622051, 34.668984162389222 ], [ 132.985204448626519, 34.677115279246777 ], [ 133.009284994307109, 34.67625610833278 ], [ 133.015134994284608, 34.680014721402301 ], [ 133.021008884752291, 34.6727305590681 ], [ 133.035314720697897, 34.66785777501633 ], [ 133.047868611647118, 34.657401945743231 ], [ 133.060210557571281, 34.658980279316495 ], [ 133.062399727765296, 34.651959999654309 ], [ 133.084699442225542, 34.660381945570407 ], [ 133.085923333195296, 34.676036666558957 ], [ 133.091819169818905, 34.678684161844672 ], [ 133.093841945649388, 34.689450559395823 ], [ 133.101585279337201, 34.693111107691493 ], [ 133.096749728117516, 34.703076667054575 ], [ 133.102007781733846, 34.711028891670082 ], [ 133.098143332848622, 34.719281945805221 ], [ 133.102197223922758, 34.731830000154446 ], [ 133.108264993834496, 34.735840559194514 ], [ 133.119230557943979, 34.735388612994143 ], [ 133.119995550953945, 34.740879721422061 ], [ 133.135143060603809, 34.755680829306868 ], [ 133.166061388322532, 34.755103891731267 ], [ 133.167766939092985, 34.766862774797289 ], [ 133.149441388109608, 34.782156387407383 ], [ 133.138053060800189, 34.786353053950336 ], [ 133.135303333282309, 34.794430278934271 ], [ 133.137846938885218, 34.799454721058567 ], [ 133.140778326758436, 34.798064441121085 ], [ 133.145014720852714, 34.80979305390639 ], [ 133.134941660129584, 34.824050559385853 ], [ 133.142323333255263, 34.829448891952836 ], [ 133.144482502965161, 34.836811108246081 ], [ 133.142077782363799, 34.838725279248308 ], [ 133.155941659979703, 34.844146945625084 ], [ 133.163490558442618, 34.854139161792943 ], [ 133.177227496751584, 34.84878444094926 ], [ 133.198820829717533, 34.852339720901455 ], [ 133.210263060591842, 34.861130000349306 ], [ 133.215849999877605, 34.861400558688899 ], [ 133.215831115013998, 34.861350828877676 ] ] ] ] } },
{ "type": "Feature", "properties": { "code": "340013", "name": "東広島・竹原", "PrefCode": "34", "regioncode": "340013" }, "geometry": { "type": "MultiPolygon", "coordinates": [ [ [ [ 132.802514993672048, 34.230253252185889 ], [ 132.804472503003694, 34.228565278664746 ], [ 132.801158326795417, 34.225697775032359 ], [ 132.802487951058197, 34.230276693914334 ], [ 132.802514993672048, 34.230253252185889 ] ] ], [ [ [ 132.862586666641391, 34.254981945560417 ], [ 132.861864163000746, 34.24995861319951 ], [ 132.8625544493284, 34.254980828602413 ], [ 132.862586666641391, 34.254981945560417 ] ] ], [ [ [ 132.840274448906712, 34.25546916227205 ], [ 132.835353060994976, 34.254073053828449 ], [ 132.840244720917212, 34.25547389180673 ], [ 132.840274448906712, 34.25546916227205 ] ] ], [ [ [ 132.799081633910305, 34.263752775370335 ], [ 132.79825661475104, 34.266909332799514 ], [ 132.799121607875918, 34.263769494666519 ], [ 132.799081633910305, 34.263752775370335 ] ] ], [ [ [ 132.869590271973493, 34.271408053738753 ], [ 132.87640027215491, 34.268021107987806 ], [ 132.873505551440076, 34.261285828877931 ], [ 132.878007223954341, 34.258345559300153 ], [ 132.875205279100442, 34.25474027884087 ], [ 132.866469170316009, 34.259418053900106 ], [ 132.869256109082244, 34.25755916242548 ], [ 132.869125550903505, 34.26339249526751 ], [ 132.863393890915404, 34.263862495357898 ], [ 132.869563891260668, 34.271428613140017 ], [ 132.869590271973493, 34.271408053738753 ] ] ], [ [ [ 132.887688885333887, 34.271776387270506 ], [ 132.890593605610434, 34.269771945918649 ], [ 132.887612555375199, 34.268761332769316 ], [ 132.887610700073765, 34.271826162047773 ], [ 132.887688885333887, 34.271776387270506 ] ] ], [ [ [ 132.910120829812513, 34.278527775036821 ], [ 132.910716109061241, 34.273230278954259 ], [ 132.906274163222065, 34.271040278685973 ], [ 132.90657639388553, 34.277506945589096 ], [ 132.910077781964105, 34.278553054080248 ], [ 132.910120829812513, 34.278527775036821 ] ] ], [ [ [ 132.806088611700147, 34.281467333250873 ], [ 132.809169921954435, 34.28158608063319 ], [ 132.811248832567685, 34.275891918777063 ], [ 132.803192437680877, 34.268521468291169 ], [ 132.789730636160016, 34.273612278583869 ], [ 132.806136445740435, 34.281488972737975 ], [ 132.806088611700147, 34.281467333250873 ] ] ], [ [ [ 132.930939727786267, 34.284596386713929 ], [ 132.942214449137623, 34.277393864835062 ], [ 132.929827496641678, 34.247966107649802 ], [ 132.919668885210967, 34.236874161813148 ], [ 132.913347950747379, 34.234890135071737 ], [ 132.91672328085474, 34.233941864725352 ], [ 132.91791389061359, 34.227580558795808 ], [ 132.915622049318131, 34.219738585667244 ], [ 132.920757716895196, 34.214126666812263 ], [ 132.893208521156339, 34.212396676065794 ], [ 132.879626524344644, 34.20588886517902 ], [ 132.864040829920441, 34.206417224974984 ], [ 132.855868053767722, 34.208232494833794 ], [ 132.856903281361383, 34.211352558673696 ], [ 132.850512502849824, 34.212750278702458 ], [ 132.841973606396891, 34.223276945774501 ], [ 132.839913605828315, 34.228270278550553 ], [ 132.846580829641653, 34.230177774784522 ], [ 132.846694720684923, 34.233889161755485 ], [ 132.838185447000797, 34.242150387130721 ], [ 132.843447223810358, 34.241222251705608 ], [ 132.849200584439473, 34.24529735958555 ], [ 132.857784616966569, 34.239886585797365 ], [ 132.860487004172001, 34.243233305772492 ], [ 132.855765836823934, 34.24905277466587 ], [ 132.861577496904033, 34.244579721277148 ], [ 132.864767497422122, 34.248273612837011 ], [ 132.877285837271643, 34.249352613132658 ], [ 132.883549857240155, 34.244124134621188 ], [ 132.882539727926201, 34.250196667342379 ], [ 132.876999441870794, 34.25170519823638 ], [ 132.88746749742711, 34.262302775053058 ], [ 132.894352217780693, 34.25705582896336 ], [ 132.891626471584459, 34.249634693586302 ], [ 132.894316718841537, 34.251774053929523 ], [ 132.899982243585782, 34.247391892322014 ], [ 132.903282776179253, 34.248769613227125 ], [ 132.900960052164692, 34.252742801838906 ], [ 132.90871444931247, 34.260161667327111 ], [ 132.907435278815115, 34.264068612776327 ], [ 132.930903333122387, 34.284650559176043 ], [ 132.930939727786267, 34.284596386713929 ] ] ], [ [ [ 132.94254472066234, 34.28776694568802 ], [ 132.944133605981165, 34.283501667168252 ], [ 132.935726393658229, 34.2846055588995 ], [ 132.942503891441447, 34.287791386563299 ], [ 132.94254472066234, 34.28776694568802 ] ] ], [ [ [ 132.85075347619204, 34.286192441428057 ], [ 132.852338444064003, 34.287935748436098 ], [ 132.85078610899177, 34.286198639555607 ], [ 132.85075347619204, 34.286192441428057 ] ] ], [ [ [ 132.889853333164865, 34.28449333340069 ], [ 132.889880272356777, 34.288514161799185 ], [ 132.889925837407532, 34.284553613158778 ], [ 132.889853333164865, 34.28449333340069 ] ] ], [ [ [ 132.883651945580937, 34.290057775246169 ], [ 132.887980557956439, 34.279590279068202 ], [ 132.884248884978092, 34.275528332766385 ], [ 132.880700661106744, 34.280461748211167 ], [ 132.884629999674758, 34.28254861332789 ], [ 132.881524163109702, 34.287445829261685 ], [ 132.883590830352546, 34.290068891765998 ], [ 132.883651945580937, 34.290057775246169 ] ] ], [ [ [ 132.818127133560438, 34.289364054407656 ], [ 132.81368082960671, 34.288683945707589 ], [ 132.818128417792309, 34.289376919209531 ], [ 132.818127133560438, 34.289364054407656 ] ] ], [ [ [ 132.805367108105656, 34.29558046786434 ], [ 132.806123839043948, 34.292442162176087 ], [ 132.802066355178226, 34.294533252307815 ], [ 132.80535319109697, 34.295692802181122 ], [ 132.805367108105656, 34.29558046786434 ] ] ], [ [ [ 132.903388885388836, 34.298383332724654 ], [ 132.901496109258119, 34.294379161569111 ], [ 132.90339639382853, 34.298500559353386 ], [ 132.903388885388836, 34.298383332724654 ] ] ], [ [ [ 132.91567250308367, 34.300194721109563 ], [ 132.918431388397948, 34.299049440779129 ], [ 132.914611387605532, 34.297055278678215 ], [ 132.916626666687421, 34.29040166700338 ], [ 132.924064721010154, 34.297586667390817 ], [ 132.926283060714695, 34.294621107977775 ], [ 132.925111945559934, 34.285453332705174 ], [ 132.91651832715911, 34.279658613154538 ], [ 132.907290558112777, 34.287584720558471 ], [ 132.904885550627682, 34.284823333330223 ], [ 132.907433061086977, 34.294717224820147 ], [ 132.915656394427174, 34.300243333063406 ], [ 132.91567250308367, 34.300194721109563 ] ] ], [ [ [ 132.979028249254384, 34.310562576901475 ], [ 132.982130597349283, 34.308465622290669 ], [ 132.980296278050901, 34.304706117093701 ], [ 132.978888677170744, 34.310610919058718 ], [ 132.979028249254384, 34.310562576901475 ] ] ], [ [ [ 132.832201946262899, 34.310056720841033 ], [ 132.829744889614972, 34.310985027137349 ], [ 132.83193444921551, 34.310165802309996 ], [ 132.832201946262899, 34.310056720841033 ] ] ], [ [ [ 132.989102321714881, 34.315911810981333 ], [ 132.998915874967679, 34.307827576681348 ], [ 132.993880142754392, 34.302253378090995 ], [ 132.989068948773024, 34.315910315408757 ], [ 132.989102321714881, 34.315911810981333 ] ] ], [ [ [ 132.937151686001584, 34.324532667148901 ], [ 132.942753760877395, 34.323854215899416 ], [ 132.948827781976661, 34.315974134898454 ], [ 132.948688690131007, 34.30935290061592 ], [ 132.937124694649015, 34.324527693898006 ], [ 132.937151686001584, 34.324532667148901 ] ] ], [ [ [ 132.809549169658567, 34.623928892304605 ], [ 132.824686393762136, 34.611039162127668 ], [ 132.834854993962836, 34.610665829264633 ], [ 132.836443333393163, 34.605316945920379 ], [ 132.845443061348305, 34.606296946147211 ], [ 132.848034448830845, 34.612264161961548 ], [ 132.852262502612462, 34.610264441151116 ], [ 132.859472218168435, 34.613497225116873 ], [ 132.862933332807074, 34.609232495183562 ], [ 132.870636938943676, 34.6139027752929 ], [ 132.885880829836537, 34.612666667033125 ], [ 132.877577782388812, 34.603422495252005 ], [ 132.885268611856986, 34.602678891717517 ], [ 132.893633606405842, 34.595145558720617 ], [ 132.896138327122117, 34.584056666981667 ], [ 132.887058054085969, 34.573780279436392 ], [ 132.878367496862552, 34.575828891889898 ], [ 132.883409169997208, 34.556978612572948 ], [ 132.859814162893372, 34.546913613372624 ], [ 132.853535837409026, 34.550099162246568 ], [ 132.852422776190224, 34.54262194604604 ], [ 132.847402218237789, 34.540270828635869 ], [ 132.853123606169561, 34.538519720908425 ], [ 132.851080557821547, 34.534765000104699 ], [ 132.854830558083904, 34.533038891731508 ], [ 132.856584720808314, 34.524127774876945 ], [ 132.886343333178388, 34.518321946001038 ], [ 132.895807223724432, 34.506297494933506 ], [ 132.894028326945772, 34.502302774753332 ], [ 132.904200000130004, 34.484744440803354 ], [ 132.911712503029662, 34.485068613126032 ], [ 132.911728054106447, 34.475573332643251 ], [ 132.920870830024796, 34.467400559188491 ], [ 132.916914993831938, 34.460152775330357 ], [ 132.918648053964603, 34.4569233332453 ], [ 132.904713333153836, 34.45976027881386 ], [ 132.898601660138524, 34.465398054077014 ], [ 132.88934111530034, 34.464774440787892 ], [ 132.896076666904719, 34.460285559331169 ], [ 132.892475551205735, 34.458744440603482 ], [ 132.899844721057093, 34.448890828848732 ], [ 132.903791660256957, 34.447835279274784 ], [ 132.903902502598498, 34.440934999750482 ], [ 132.89958277642404, 34.44214694592489 ], [ 132.89376138837747, 34.434596107624316 ], [ 132.89574832712367, 34.428355559061856 ], [ 132.903891946356339, 34.429427495182836 ], [ 132.906673606102117, 34.425828613399858 ], [ 132.908753605794345, 34.407238332583006 ], [ 132.904817782214991, 34.398782494816317 ], [ 132.913055836557646, 34.391813053829424 ], [ 132.91306277572653, 34.385137495099343 ], [ 132.92262610880789, 34.386773612812021 ], [ 132.927197781852215, 34.385349441023948 ], [ 132.926169999745753, 34.380066666843277 ], [ 132.934709169592566, 34.380564721284884 ], [ 132.940499441995712, 34.373644162048492 ], [ 132.941603891306613, 34.355753333449627 ], [ 132.945436109388993, 34.35803944066771 ], [ 132.950123332725639, 34.352044999677048 ], [ 132.954898053802253, 34.35222110761805 ], [ 132.960329727834733, 34.357567495343687 ], [ 132.975802503382852, 34.345990278928298 ], [ 132.985208327402461, 34.346636946338037 ], [ 132.990523060790679, 34.352048613153045 ], [ 133.002450557747125, 34.34946833319708 ], [ 133.01046610902381, 34.343231107629549 ], [ 133.010639545978279, 34.329142063155757 ], [ 132.994481659700909, 34.337533144339204 ], [ 132.983114968281257, 34.331204305734161 ], [ 132.96290828828694, 34.337616324433895 ], [ 132.960360803908088, 34.334029676128694 ], [ 132.950300363371184, 34.336988864744342 ], [ 132.95080926093874, 34.340334108032721 ], [ 132.928891192674428, 34.325699568080665 ], [ 132.917601244901562, 34.326686729608923 ], [ 132.91661321732613, 34.329836017818025 ], [ 132.920066938638342, 34.330358990674938 ], [ 132.916709287403705, 34.332888324036958 ], [ 132.911551946165446, 34.32779723405514 ], [ 132.91474697839044, 34.327067341584609 ], [ 132.888609663405305, 34.32403706335981 ], [ 132.886717315351916, 34.31920896392262 ], [ 132.891521920000628, 34.32153853177789 ], [ 132.885399143955397, 34.31541848607435 ], [ 132.878377794999324, 34.31694812585539 ], [ 132.877301465690152, 34.313055801584028 ], [ 132.875196367718218, 34.315631279160243 ], [ 132.869188430601639, 34.312291386838069 ], [ 132.872405344231311, 34.306435712138466 ], [ 132.876435978837435, 34.306822541127417 ], [ 132.874049831034881, 34.302194702723398 ], [ 132.86839906596424, 34.305171224872197 ], [ 132.862179506678899, 34.297714161579336 ], [ 132.856013243016832, 34.299986036126711 ], [ 132.852735551404635, 34.293332946058683 ], [ 132.847006278217236, 34.291688080640483 ], [ 132.846152943903348, 34.299673919216048 ], [ 132.842587444954688, 34.29828786519289 ], [ 132.834793280685403, 34.304636612989327 ], [ 132.837459804726223, 34.312800386928359 ], [ 132.832573942733347, 34.312641531581448 ], [ 132.83438041542388, 34.31605261333749 ], [ 132.814194695029187, 34.316817612642751 ], [ 132.811311581864061, 34.314642945815365 ], [ 132.813246549688529, 34.311375413844303 ], [ 132.800825331224132, 34.308719467629373 ], [ 132.799473553961434, 34.312687162282771 ], [ 132.796127003958077, 34.311101081050083 ], [ 132.800457275582858, 34.308462721077774 ], [ 132.796239921934898, 34.306139532113775 ], [ 132.795179221943613, 34.296018495257385 ], [ 132.787270557790066, 34.28629564043149 ], [ 132.788585550982475, 34.278125359897501 ], [ 132.785199481171162, 34.276986793006131 ], [ 132.781015279231838, 34.286087495041897 ], [ 132.770003891066835, 34.286908053563877 ], [ 132.75930944197728, 34.296079999892129 ], [ 132.761810829805995, 34.299575000086236 ], [ 132.755998053667327, 34.306288054250331 ], [ 132.756653606378904, 34.317883892028021 ], [ 132.752088885094054, 34.333202225202569 ], [ 132.727036394414085, 34.322287224575803 ], [ 132.714469727695814, 34.308039440767629 ], [ 132.703441114815632, 34.31310499989587 ], [ 132.664041387899829, 34.28839333338567 ], [ 132.649654720888748, 34.311312494576043 ], [ 132.645021115132408, 34.30989861283075 ], [ 132.639394449194583, 34.315083054239608 ], [ 132.629596393958423, 34.311378054253851 ], [ 132.606826394322752, 34.316705558914464 ], [ 132.605600829714604, 34.32203249520353 ], [ 132.613361388117596, 34.327673332658208 ], [ 132.608233890881479, 34.342135558908979 ], [ 132.62397389098237, 34.354189162399962 ], [ 132.641515279006967, 34.351954440644988 ], [ 132.644735279109909, 34.362796946022286 ], [ 132.652897782306923, 34.367003333337209 ], [ 132.651110000226367, 34.379373613301652 ], [ 132.644243606257533, 34.388870829125494 ], [ 132.646627224267036, 34.395703612731609 ], [ 132.640365279034427, 34.399056108152934 ], [ 132.644415551236762, 34.41325222501024 ], [ 132.651906108879871, 34.422137224653227 ], [ 132.667093060996081, 34.428307775383587 ], [ 132.663511660235031, 34.4374691618724 ], [ 132.654622503026189, 34.443475829146223 ], [ 132.647244993761547, 34.437620278553084 ], [ 132.635728054406286, 34.44335582900834 ], [ 132.632971387719408, 34.450356387437409 ], [ 132.623250272182418, 34.445569440976954 ], [ 132.615442502969245, 34.446518053965065 ], [ 132.611037496783069, 34.454340000091008 ], [ 132.600521115257379, 34.457282775179976 ], [ 132.605688326555082, 34.476486667026109 ], [ 132.610233332901998, 34.478388054165407 ], [ 132.601036640828397, 34.483447225409179 ], [ 132.602104772817029, 34.48605349487292 ], [ 132.620144033620363, 34.491615720788957 ], [ 132.63342802928014, 34.507039387058114 ], [ 132.645558326955324, 34.505762775132041 ], [ 132.649170272290348, 34.519419162064708 ], [ 132.662344994026284, 34.526006386685424 ], [ 132.665376393705628, 34.531546667344855 ], [ 132.668827497091343, 34.529149440794129 ], [ 132.672280272316812, 34.533860279428382 ], [ 132.684907781768743, 34.525343613317148 ], [ 132.702888885213952, 34.538505559284204 ], [ 132.705752217790632, 34.546315828612649 ], [ 132.702399727765282, 34.549346945904858 ], [ 132.709478326663543, 34.554308054173418 ], [ 132.722074993865931, 34.553407224863577 ], [ 132.726829169930284, 34.558382494756358 ], [ 132.735814994366592, 34.557421667176243 ], [ 132.753684162793888, 34.574293053981307 ], [ 132.783478053769272, 34.580066107964569 ], [ 132.784175836845407, 34.597091946136459 ], [ 132.792418326644565, 34.606849720738069 ], [ 132.793161115393218, 34.615386946250624 ], [ 132.798253890704586, 34.621716107712246 ], [ 132.809491114823118, 34.624057495357192 ], [ 132.809549169658567, 34.623928892304605 ] ] ] ] } },
{ "type": "Feature", "properties": { "code": "340021", "name": "備北", "PrefCode": "34", "regioncode": "340021" }, "geometry": { "type": "Polygon", "coordinates": [ [ [ 132.891193061310787, 35.105008892046783 ], [ 132.897354993838007, 35.104060558747847 ], [ 132.909477782174008, 35.086216946355023 ], [ 132.923560272388727, 35.08426805432731 ], [ 132.926143060553841, 35.080546945685057 ], [ 132.934169728350298, 35.083940559009648 ], [ 132.950415278742184, 35.075377504967946 ], [ 132.974669169646518, 35.08296194643674 ], [ 132.979838612162325, 35.086707504947469 ], [ 132.98246472067035, 35.097636945988313 ], [ 132.990849170253114, 35.101320278608 ], [ 133.000111946309289, 35.097191107983292 ], [ 133.003533333396717, 35.090302224667994 ], [ 133.014544720662343, 35.087709170741675 ], [ 133.016414162983324, 35.078409440643213 ], [ 133.02531165960545, 35.077305837594395 ], [ 133.033978612323153, 35.068157504765111 ], [ 133.051238612372117, 35.069570559134036 ], [ 133.060803890687112, 35.081455278938051 ], [ 133.085958054220896, 35.078040559424323 ], [ 133.096423061075484, 35.085424441284999 ], [ 133.101990557917929, 35.082319171292795 ], [ 133.112233060807171, 35.085711387070887 ], [ 133.122169441666415, 35.08398666725094 ], [ 133.126572218433239, 35.076880837780493 ], [ 133.136419442303463, 35.074259721409078 ], [ 133.136283061014524, 35.069572224678495 ], [ 133.142139441681934, 35.064725279048446 ], [ 133.161040271891125, 35.074175278666246 ], [ 133.168256666711841, 35.067454171073166 ], [ 133.210920000057968, 35.07421444144336 ], [ 133.230073061322742, 35.068023333110375 ], [ 133.233428885135027, 35.069892504735378 ], [ 133.232344720932133, 35.077415838170452 ], [ 133.250928884560494, 35.078388613243931 ], [ 133.260813605663429, 35.063439440977447 ], [ 133.26913917033653, 35.057678332688965 ], [ 133.268969169691445, 35.04997722486911 ], [ 133.290811114841176, 35.036176666719825 ], [ 133.304484162614131, 35.015358053831164 ], [ 133.315638053753219, 35.012466945693063 ], [ 133.321757224416388, 35.006145000391484 ], [ 133.320173333032926, 34.983636666598954 ], [ 133.30311805375527, 34.972135558908974 ], [ 133.304892503386441, 34.96496194573723 ], [ 133.297261659598007, 34.9560038923658 ], [ 133.309445550571809, 34.937045000126716 ], [ 133.30187333268816, 34.92891361257324 ], [ 133.303384994122212, 34.913547225024445 ], [ 133.294054993742975, 34.903139162342541 ], [ 133.29690917032201, 34.88989889172052 ], [ 133.330955278962961, 34.853971946348281 ], [ 133.30983722420865, 34.847365828770023 ], [ 133.277446666730384, 34.853839999616355 ], [ 133.272642776143243, 34.849962224577041 ], [ 133.277262217577345, 34.847556946396026 ], [ 133.272745279071387, 34.838418053750217 ], [ 133.276071659979152, 34.835731667282687 ], [ 133.246611946284361, 34.820650279386939 ], [ 133.245272503223532, 34.810774162097971 ], [ 133.238995836988352, 34.81977472102659 ], [ 133.230196394348241, 34.822660828934147 ], [ 133.235420557912448, 34.827494720904724 ], [ 133.234372775783072, 34.834408892256647 ], [ 133.229752218290287, 34.836429999844654 ], [ 133.230762218101972, 34.843567224647757 ], [ 133.225548326594094, 34.844256108032994 ], [ 133.227614993836937, 34.845600829214959 ], [ 133.221432217722736, 34.856689441264734 ], [ 133.215974448961674, 34.858035559093821 ], [ 133.215741660349408, 34.861552224855359 ], [ 133.194700271900047, 34.851242494945211 ], [ 133.176086393772152, 34.848874440603026 ], [ 133.163490558442618, 34.854139161792943 ], [ 133.155941659979703, 34.844146945625084 ], [ 133.143751114922111, 34.840270278550577 ], [ 133.142323333255263, 34.829448891952836 ], [ 133.134941660129584, 34.824050559385853 ], [ 133.145014720852714, 34.80979305390639 ], [ 133.140778326758436, 34.798064441121085 ], [ 133.137846938885218, 34.799454721058567 ], [ 133.135303333282309, 34.794430278934271 ], [ 133.138053060800189, 34.786353053950336 ], [ 133.149441388109608, 34.782156387407383 ], [ 133.167766939092985, 34.766862774797289 ], [ 133.166061388322532, 34.755103891731267 ], [ 133.135143060603809, 34.755680829306868 ], [ 133.119995550953945, 34.740879721422061 ], [ 133.119230557943979, 34.735388612994143 ], [ 133.108264993834496, 34.735840559194514 ], [ 133.102197223922758, 34.731830000154446 ], [ 133.098143332848622, 34.719281945805221 ], [ 133.102007781733846, 34.711028891670082 ], [ 133.096749728117516, 34.703076667054575 ], [ 133.101585279337201, 34.693111107691493 ], [ 133.092926394437654, 34.688217495341178 ], [ 133.091819169818905, 34.678684161844672 ], [ 133.084010271956572, 34.671891945756727 ], [ 133.085854162739452, 34.662670828995601 ], [ 133.080865837388501, 34.658210558570488 ], [ 133.062399727765296, 34.651959999654309 ], [ 133.060210557571281, 34.658980279316495 ], [ 133.047868611647118, 34.657401945743231 ], [ 133.035314720697897, 34.66785777501633 ], [ 133.021008884752291, 34.6727305590681 ], [ 133.015244448972226, 34.68002166686648 ], [ 133.009284994307109, 34.67625610833278 ], [ 132.985204448626519, 34.677115279246777 ], [ 132.982321387622051, 34.668984162389222 ], [ 132.969467782312336, 34.664922774566435 ], [ 132.970930829993904, 34.654351386907024 ], [ 132.958261946331845, 34.660055828913414 ], [ 132.954080558371174, 34.651718332934763 ], [ 132.953622775570693, 34.6549266670321 ], [ 132.945069999880616, 34.657243891692303 ], [ 132.947321660366356, 34.661988332595513 ], [ 132.940620829787576, 34.663453613293655 ], [ 132.94335165985126, 34.669480000002068 ], [ 132.938399728264926, 34.682393892264372 ], [ 132.925535551424673, 34.675547224924514 ], [ 132.894938054147929, 34.684395559207758 ], [ 132.888164448630505, 34.682355278972977 ], [ 132.890815551096921, 34.677072494899789 ], [ 132.87825000043722, 34.664083054189632 ], [ 132.881404993945353, 34.64535722485607 ], [ 132.87251888543824, 34.646551386937006 ], [ 132.872094993589144, 34.637095000334057 ], [ 132.878503333162371, 34.631346945705047 ], [ 132.872145279181382, 34.626184440559541 ], [ 132.873319728122965, 34.622113892242396 ], [ 132.870347224145121, 34.624315278827112 ], [ 132.867333333366673, 34.621160279023684 ], [ 132.87629749673215, 34.614047774785035 ], [ 132.862933332807074, 34.609232495183562 ], [ 132.859472218168435, 34.613497225116873 ], [ 132.852262502612462, 34.610264441151116 ], [ 132.848034448830845, 34.612264161961548 ], [ 132.845443061348305, 34.606296946147211 ], [ 132.836443333393163, 34.605316945920379 ], [ 132.834854993962836, 34.610665829264633 ], [ 132.824686393762136, 34.611039162127668 ], [ 132.809491114823118, 34.624057495357192 ], [ 132.798093606334874, 34.621603613316154 ], [ 132.79700861205788, 34.629986107772709 ], [ 132.782641114995499, 34.640724441080124 ], [ 132.786813605963175, 34.655966946117701 ], [ 132.790474994225633, 34.656937224673243 ], [ 132.797220557982428, 34.670423612759578 ], [ 132.803111114686203, 34.671881386816608 ], [ 132.799272503323436, 34.678185000337521 ], [ 132.805716108911383, 34.682219162084721 ], [ 132.807011388065121, 34.692155559131777 ], [ 132.768929728224407, 34.703066386904311 ], [ 132.773434162556669, 34.721586667190991 ], [ 132.78313944193178, 34.729233332752131 ], [ 132.784622218041022, 34.739609440723143 ], [ 132.789293332721172, 34.742329720840019 ], [ 132.783588611924984, 34.748998333206544 ], [ 132.767481945635382, 34.749182775164968 ], [ 132.764894993609119, 34.755372225148108 ], [ 132.770726667201984, 34.758196386853797 ], [ 132.766126667311937, 34.761678891867405 ], [ 132.771385279407127, 34.770078891627577 ], [ 132.777903061077495, 34.773544721411838 ], [ 132.778065836569112, 34.797169441216795 ], [ 132.781494162825425, 34.805967224607798 ], [ 132.713832503167509, 34.817819162324554 ], [ 132.696547224075175, 34.816364440566531 ], [ 132.700634721015604, 34.828181107771968 ], [ 132.719473891007283, 34.829248333244038 ], [ 132.723238612272212, 34.833688612639435 ], [ 132.720958884844777, 34.843360558642928 ], [ 132.710597782062109, 34.849860279228551 ], [ 132.701490829738077, 34.881177774634637 ], [ 132.680210829566249, 34.884663054056773 ], [ 132.675387497435167, 34.894420279172607 ], [ 132.66302639415278, 34.889838054382778 ], [ 132.655691115252807, 34.899488333020201 ], [ 132.636587782000561, 34.898546107916616 ], [ 132.63347111490009, 34.902432494863774 ], [ 132.641857223731904, 34.904365828620143 ], [ 132.651264993884411, 34.920407775198726 ], [ 132.675827497041382, 34.932658612604939 ], [ 132.685201946412803, 34.950631945907617 ], [ 132.69828111518143, 34.953648054414259 ], [ 132.702099442335452, 34.951465279299271 ], [ 132.707276939179451, 34.95508666661641 ], [ 132.720393165412361, 34.947993693853959 ], [ 132.738607497238263, 34.962313053804451 ], [ 132.742532217787698, 34.956329440651189 ], [ 132.749721945911119, 34.960258891634567 ], [ 132.749266109243649, 34.965802774978158 ], [ 132.752968054232383, 34.966761386628718 ], [ 132.745130000349263, 34.976826386728419 ], [ 132.755944162693027, 34.977275000041288 ], [ 132.768703332892528, 34.983948612638414 ], [ 132.763427223587541, 34.992871945883621 ], [ 132.76559277578599, 34.996714441418362 ], [ 132.787754448808869, 35.004788332615533 ], [ 132.788586108562072, 35.015754721403312 ], [ 132.808834448750872, 35.028560278634018 ], [ 132.813719170403488, 35.040551667025852 ], [ 132.827434449440375, 35.047085278562804 ], [ 132.836735836989305, 35.04696638728899 ], [ 132.83712082956265, 35.052492224836385 ], [ 132.827847782349295, 35.06121972081354 ], [ 132.831489169689462, 35.06597083828359 ], [ 132.858367328189729, 35.088943251929607 ], [ 132.862526472318905, 35.096647666556635 ], [ 132.873186108652021, 35.10231610780221 ], [ 132.890534994094764, 35.105189171043435 ], [ 132.891193061310787, 35.105008892046783 ] ] ] } },
{ "type": "Feature", "properties": { "code": "340022", "name": "芸北", "PrefCode": "34", "regioncode": "340022" }, "geometry": { "type": "Polygon", "coordinates": [ [ [ 132.68132083039211, 34.850786667270938 ], [ 132.69147082991492, 34.850625828918908 ], [ 132.693964163415444, 34.843544720912178 ], [ 132.710597782062109, 34.849860279228551 ], [ 132.721147782044568, 34.843096107599365 ], [ 132.721039441616995, 34.830078892227164 ], [ 132.700634721015604, 34.828181107771968 ], [ 132.696870272245292, 34.816190278758427 ], [ 132.713410272366218, 34.817870278890325 ], [ 132.781494162825425, 34.805967224607798 ], [ 132.778065836569112, 34.797169441216795 ], [ 132.777903061077495, 34.773544721411838 ], [ 132.771385279407127, 34.770078891627577 ], [ 132.766126667311937, 34.761678891867405 ], [ 132.770726667201984, 34.758196386853797 ], [ 132.764894993609119, 34.755372225148108 ], [ 132.767481945635382, 34.749182775164968 ], [ 132.783588611924984, 34.748998333206544 ], [ 132.789293332721172, 34.742329720840019 ], [ 132.784622218041022, 34.739609440723143 ], [ 132.78313944193178, 34.729233332752131 ], [ 132.773434162556669, 34.721586667190991 ], [ 132.768929728224407, 34.703066386904311 ], [ 132.807136938818758, 34.690560829119022 ], [ 132.805716108911383, 34.682219162084721 ], [ 132.799272503323436, 34.678185000337521 ], [ 132.803111114686203, 34.671881386816608 ], [ 132.797220557982428, 34.670423612759578 ], [ 132.790474994225633, 34.656937224673243 ], [ 132.786813605963175, 34.655966946117701 ], [ 132.782641114995499, 34.640724441080124 ], [ 132.79700861205788, 34.629986107772709 ], [ 132.798243891142761, 34.622792224781392 ], [ 132.792442503119105, 34.61369277460193 ], [ 132.792418326644565, 34.606849720738069 ], [ 132.784175836845407, 34.597091946136459 ], [ 132.78403805441269, 34.580796666832782 ], [ 132.771997223992798, 34.575824441145073 ], [ 132.753684162793888, 34.574293053981307 ], [ 132.735814994366592, 34.557421667176243 ], [ 132.726829169930284, 34.558382494756358 ], [ 132.722074993865931, 34.553407224863577 ], [ 132.709478326663543, 34.554308054173418 ], [ 132.702399727765282, 34.549346945904858 ], [ 132.705752217790632, 34.546315828612649 ], [ 132.700228884855164, 34.536343053988787 ], [ 132.688096108648551, 34.535816107927076 ], [ 132.690188885009093, 34.538536387144575 ], [ 132.686882775719596, 34.541358332920765 ], [ 132.692211114951078, 34.54590444093725 ], [ 132.687620830437027, 34.557005558959418 ], [ 132.691557496681185, 34.559534162071998 ], [ 132.683116666800743, 34.565786945910872 ], [ 132.694059999669321, 34.5837944408608 ], [ 132.693538327232091, 34.589465829184746 ], [ 132.679296394413086, 34.603839721326153 ], [ 132.671626939132011, 34.606503613051359 ], [ 132.674085836692029, 34.610728054256356 ], [ 132.659625278683734, 34.600831667147759 ], [ 132.652119169963839, 34.599018053840155 ], [ 132.645243333113399, 34.602019161655051 ], [ 132.633953605674378, 34.595896945887375 ], [ 132.613329442399959, 34.601084161704762 ], [ 132.60833778236281, 34.595608332758388 ], [ 132.610769169661467, 34.591987494927025 ], [ 132.608203061222412, 34.586035829290154 ], [ 132.590556394062446, 34.582008333317958 ], [ 132.587599999640361, 34.571243613002366 ], [ 132.573769170311039, 34.562743333438164 ], [ 132.569189442039146, 34.57256222506669 ], [ 132.530818612389112, 34.588068333087165 ], [ 132.533457781751281, 34.59417249496471 ], [ 132.527542502684469, 34.598425000413499 ], [ 132.524542217749172, 34.606666386744394 ], [ 132.519473332927987, 34.607101108229585 ], [ 132.51181888463384, 34.596430278934292 ], [ 132.499465550594778, 34.593598892075249 ], [ 132.495904163346495, 34.601174720736822 ], [ 132.481263061041545, 34.606111945709756 ], [ 132.478574162767472, 34.607963333241287 ], [ 132.480345278611821, 34.611754999993309 ], [ 132.472421388036651, 34.614766946437499 ], [ 132.462166666958183, 34.612646387320979 ], [ 132.457217497189845, 34.603348332659493 ], [ 132.438944721122084, 34.592004440852293 ], [ 132.425756939431267, 34.603206387265004 ], [ 132.414996108683567, 34.599115278647218 ], [ 132.406571388358998, 34.603089441224768 ], [ 132.403806667343929, 34.599583891983059 ], [ 132.399604163301547, 34.604138612806764 ], [ 132.390346667164977, 34.592401387214295 ], [ 132.391784449292913, 34.585381945720258 ], [ 132.387290271728716, 34.583111666570233 ], [ 132.390710272061483, 34.570969999665806 ], [ 132.386676666994617, 34.554245000006802 ], [ 132.374808327442452, 34.550989440710168 ], [ 132.365160000333844, 34.539248332744421 ], [ 132.359916939315326, 34.538148612968143 ], [ 132.364012503174536, 34.544580279156605 ], [ 132.360508884777232, 34.559059161750952 ], [ 132.358447496554732, 34.552304999576108 ], [ 132.331034163196136, 34.555235278585315 ], [ 132.295387496935518, 34.548593892294321 ], [ 132.269524994083326, 34.535365559273203 ], [ 132.249359441884849, 34.529813892297341 ], [ 132.239553060725257, 34.516956667216448 ], [ 132.240392775706141, 34.507854162040019 ], [ 132.215413890938407, 34.514652495316454 ], [ 132.204824720984107, 34.508879999812166 ], [ 132.203938326692537, 34.499402775018098 ], [ 132.195283890739006, 34.496443054003805 ], [ 132.188467497277202, 34.498396946262119 ], [ 132.178780830271194, 34.512858333445365 ], [ 132.166714163228107, 34.522423054180649 ], [ 132.181603332727718, 34.535236946328041 ], [ 132.184968885405851, 34.542573891671793 ], [ 132.163420558112307, 34.542396945562643 ], [ 132.156156394002437, 34.549201108244574 ], [ 132.155013605693398, 34.557890559301939 ], [ 132.149653605829258, 34.564608612797315 ], [ 132.142594449374428, 34.563401666853508 ], [ 132.138085550807546, 34.572249162069227 ], [ 132.125528326970766, 34.583151386927 ], [ 132.124534994294663, 34.589291667376585 ], [ 132.129684163393449, 34.595478612747854 ], [ 132.117637497272767, 34.601762774832252 ], [ 132.116348053819706, 34.612462775436768 ], [ 132.130805278940556, 34.629165278554808 ], [ 132.127751388116167, 34.641779720857471 ], [ 132.137204720621412, 34.648216387276477 ], [ 132.154787223851372, 34.678845829371596 ], [ 132.16193444911562, 34.683140828686362 ], [ 132.158319727573485, 34.692431107809455 ], [ 132.142221945686288, 34.691593892044523 ], [ 132.129548612178723, 34.699370559104068 ], [ 132.130768611782059, 34.70802610841821 ], [ 132.141504721066099, 34.71004833296422 ], [ 132.143295279353765, 34.71620722488359 ], [ 132.173990558117794, 34.731194999649574 ], [ 132.178019441743913, 34.736766386959232 ], [ 132.189165837033784, 34.733629720735053 ], [ 132.196498884715766, 34.738416667195509 ], [ 132.195686939001121, 34.744446386791367 ], [ 132.202545551136382, 34.748665558868481 ], [ 132.209885836562194, 34.744880558790783 ], [ 132.2223836062185, 34.749539440892534 ], [ 132.224738612297188, 34.757482225324509 ], [ 132.222168884986104, 34.760276387445401 ], [ 132.226904162696997, 34.764911108360991 ], [ 132.225110272421148, 34.76991582925217 ], [ 132.234299441665939, 34.77366082928387 ], [ 132.23280360560193, 34.776088333309986 ], [ 132.242657223652031, 34.782998892085232 ], [ 132.243618327324043, 34.798839162097693 ], [ 132.238306666919243, 34.801609162133161 ], [ 132.24246389099585, 34.806599721400062 ], [ 132.259568053822704, 34.806845278586763 ], [ 132.269779170372431, 34.798296666757835 ], [ 132.278103333002491, 34.798982495146106 ], [ 132.274543333408133, 34.791955829398034 ], [ 132.279329727684853, 34.789882775169986 ], [ 132.280213890758546, 34.783506667298923 ], [ 132.297867782172489, 34.776559721054355 ], [ 132.306694163105249, 34.789695279113914 ], [ 132.305789169934314, 34.793274440563039 ], [ 132.318310271601831, 34.801609162133161 ], [ 132.323314163318059, 34.793488613208979 ], [ 132.334483333039429, 34.790003054097724 ], [ 132.35196416341546, 34.798069161662511 ], [ 132.374314721047654, 34.800985558736613 ], [ 132.383011388265004, 34.794925279278289 ], [ 132.381396938817716, 34.785837774793549 ], [ 132.392846108860908, 34.783744721441792 ], [ 132.396680829756519, 34.77942333332021 ], [ 132.414626108708035, 34.797828612800288 ], [ 132.424820829717532, 34.799164161796682 ], [ 132.420895836673594, 34.813770559263958 ], [ 132.429917497294696, 34.814221946085979 ], [ 132.43535749725072, 34.820672775028584 ], [ 132.456681660430377, 34.807406108405246 ], [ 132.454259170124715, 34.800698053572376 ], [ 132.471518326609498, 34.802340559169522 ], [ 132.483878327323055, 34.79713555925872 ], [ 132.495016393991477, 34.801434720635882 ], [ 132.505575836855428, 34.796034441036682 ], [ 132.519690557872991, 34.803995559047848 ], [ 132.538059727774225, 34.794991667231727 ], [ 132.543648612293737, 34.796552494601997 ], [ 132.554084721232925, 34.808283891688291 ], [ 132.567780271842139, 34.806154162184896 ], [ 132.569260000148915, 34.811631108089216 ], [ 132.582304448791319, 34.816988892023801 ], [ 132.585845550931481, 34.823007225303229 ], [ 132.590002503412848, 34.821076945644563 ], [ 132.599167782167456, 34.833581945850199 ], [ 132.604354449398329, 34.830594720869726 ], [ 132.612249442058214, 34.833022494692443 ], [ 132.610814448727865, 34.837613891667843 ], [ 132.614590272123451, 34.843010829386344 ], [ 132.631180271852145, 34.843132225272029 ], [ 132.643966938823269, 34.837501667068352 ], [ 132.652310558285649, 34.840536108254867 ], [ 132.659464449324901, 34.832428053611864 ], [ 132.667531387863278, 34.832276667134522 ], [ 132.672560271739258, 34.845397774887431 ], [ 132.681200557759553, 34.850874441102633 ], [ 132.68132083039211, 34.850786667270938 ] ] ] } }
]
}
