{
"type": "FeatureCollection",
"name": "36_tokushima_region",
"crs": { "type": "name", "properties": { "name": "urn:ogc:def:crs:OGC:1.3:CRS84" } },
"features": [
{ "type": "Feature", "properties": { "code": "360011", "name": "徳島・鳴門", "PrefCode": "36", "regioncode": "360011" }, "geometry": { "type": "MultiPolygon", "coordinates": [ [ [ [ 134.599787393073825, 34.013746198228489 ], [ 134.598111581983972, 34.008693558760797 ], [ 134.599756978002233, 34.013752026734721 ], [ 134.599787393073825, 34.013746198228489 ] ] ], [ [ [ 134.597228196823835, 34.045993026956694 ], [ 134.59242094726892, 34.039660946295669 ], [ 134.597204085999806, 34.046013494627118 ], [ 134.597228196823835, 34.045993026956694 ] ] ], [ [ [ 134.600000000000023, 34.038426413648097 ], [ 134.604997781722318, 34.046176108240843 ], [ 134.609297497081911, 34.046411666765039 ], [ 134.605067223773403, 34.046090559331901 ], [ 134.600085279112363, 34.038559721054355 ], [ 134.600000000000023, 34.038426413648097 ] ] ], [ [ [ 134.590235357276015, 34.050922864898325 ], [ 134.596109584989449, 34.049324026782472 ], [ 134.593663087281698, 34.043895585812663 ], [ 134.590231479399336, 34.050923414384101 ], [ 134.590235357276015, 34.050922864898325 ] ] ], [ [ [ 134.600000000000023, 34.068307585626656 ], [ 134.606598559675831, 34.062030774600601 ], [ 134.603418585699274, 34.051019613064739 ], [ 134.60327433174507, 34.05570864044148 ], [ 134.599588196837885, 34.057083559059038 ], [ 134.594096549716028, 34.05257930638993 ], [ 134.597149274119715, 34.050694802223404 ], [ 134.589189532970636, 34.054840252375811 ], [ 134.60054941562305, 34.069332640089328 ], [ 134.600000000000023, 34.068307585626656 ] ] ], [ [ [ 134.623586057050943, 34.144504693736678 ], [ 134.621348755140957, 34.145526468371884 ], [ 134.623611699420508, 34.144541693644271 ], [ 134.623586057050943, 34.144504693736678 ] ] ], [ [ [ 134.62323299580612, 34.233333333066923 ], [ 134.62011364512864, 34.233317612917574 ], [ 134.623717859891372, 34.233361802005618 ], [ 134.62323299580612, 34.233333333066923 ] ] ], [ [ [ 134.643660194962081, 34.239537558911252 ], [ 134.626914812168934, 34.206744721191967 ], [ 134.625722411859897, 34.186642027107894 ], [ 134.621846808683358, 34.185845252056765 ], [ 134.615142750437599, 34.194365694421322 ], [ 134.589953450391477, 34.202650134895862 ], [ 134.587779922105824, 34.20867561328896 ], [ 134.590613139085121, 34.211865306238963 ], [ 134.603449856925408, 34.211170999941771 ], [ 134.610508418029099, 34.215931613353348 ], [ 134.615238003031436, 34.214341054396186 ], [ 134.615096641296986, 34.209978945871683 ], [ 134.621539144316102, 34.210505026785597 ], [ 134.624585227226476, 34.218370000075481 ], [ 134.615219468004057, 34.218989495368987 ], [ 134.61305603101107, 34.223206829231856 ], [ 134.618170920651551, 34.229138225049098 ], [ 134.616708858627021, 34.23208619821952 ], [ 134.63506097288564, 34.232598666994932 ], [ 134.643635940246554, 34.239542640080799 ], [ 134.643660194962081, 34.239537558911252 ] ] ], [ [ [ 134.58764836567957, 34.240206197657926 ], [ 134.590319338666632, 34.237723558895198 ], [ 134.586504162737015, 34.230562973302654 ], [ 134.590535746127898, 34.224218748196733 ], [ 134.581588079926064, 34.212498586340757 ], [ 134.585375473099703, 34.201748999816516 ], [ 134.600055772356086, 34.193360747900272 ], [ 134.611699688789713, 34.191751946195438 ], [ 134.606679415922372, 34.192061467662654 ], [ 134.624472477422955, 34.180706278571961 ], [ 134.64191697788624, 34.180041225422258 ], [ 134.619318807217269, 34.147185613225531 ], [ 134.621152917872905, 34.145672973329113 ], [ 134.616242477408491, 34.144430080583788 ], [ 134.62471555068214, 34.142377594750258 ], [ 134.618447302101345, 34.138433694359549 ], [ 134.625541348654338, 34.1365408112095 ], [ 134.623395914290086, 34.12816396359608 ], [ 134.616245344447179, 34.128730044555937 ], [ 134.612241309988576, 34.123878251580095 ], [ 134.607596031032017, 34.125503494690577 ], [ 134.603683410860754, 34.116988000395963 ], [ 134.606915719984499, 34.116307612906041 ], [ 134.603340557820502, 34.116324441020197 ], [ 134.601486108996824, 34.107396666922682 ], [ 134.609106329093834, 34.103922891628201 ], [ 134.601437147206639, 34.107293910385692 ], [ 134.60964061002619, 34.102880026991727 ], [ 134.604812503394328, 34.093018054239849 ], [ 134.607966394333744, 34.090674440772887 ], [ 134.605123060880601, 34.090687495331679 ], [ 134.597374577674714, 34.072739441072372 ], [ 134.600059300396424, 34.069501612809233 ], [ 134.598076589363131, 34.071116919310441 ], [ 134.59848102527917, 34.067474441092656 ], [ 134.585623281289486, 34.052315829312136 ], [ 134.589755253302314, 34.050544440973226 ], [ 134.583976290773307, 34.042818449811648 ], [ 134.585844305870069, 34.039527693748141 ], [ 134.587789300236068, 34.045502134715775 ], [ 134.590981504992556, 34.044562333285114 ], [ 134.589176031448801, 34.038451198064365 ], [ 134.593412528965132, 34.043207000103052 ], [ 134.586900636055589, 34.035203026698355 ], [ 134.596174280418722, 34.032858945583939 ], [ 134.589313384904813, 34.032039162277556 ], [ 134.588507717357288, 34.02873302690773 ], [ 134.601087587921938, 34.017921441121644 ], [ 134.599547885626521, 34.014042107557259 ], [ 134.591805058256909, 34.016019532375594 ], [ 134.5940155252963, 34.015180802152372 ], [ 134.589071802721605, 34.011086494646065 ], [ 134.592654085717527, 34.008835360263731 ], [ 134.588272437623004, 34.00808646781627 ], [ 134.597760699796481, 34.007354414274857 ], [ 134.59711022016063, 34.001649973167787 ], [ 134.602579222353256, 33.997538666676178 ], [ 134.614744448797296, 33.997244494837616 ], [ 134.609365447157757, 33.992881333207038 ], [ 134.605069973900186, 33.993798972644527 ], [ 134.609540311336332, 33.991695640041826 ], [ 134.604855032333944, 33.984919252021939 ], [ 134.607308664363472, 33.982767829072088 ], [ 134.610760660775895, 33.991812613061711 ], [ 134.625193332606273, 33.994242333017326 ], [ 134.620423696296598, 33.991200828555463 ], [ 134.62195255456686, 33.989032251936919 ], [ 134.627520921053701, 33.991388919063411 ], [ 134.625707912090547, 33.996771278771575 ], [ 134.634468274691244, 33.993356918986649 ], [ 134.628514864369549, 33.99977074802166 ], [ 134.632166523766159, 34.00015300036074 ], [ 134.628140195113929, 33.999649585959673 ], [ 134.631029467735857, 34.000651775159326 ], [ 134.629547328346575, 34.003436640088921 ], [ 134.624873359218213, 34.003881666905443 ], [ 134.62597586329548, 34.009031053640285 ], [ 134.631917691248532, 34.01142077534854 ], [ 134.648760610014165, 33.997664305563319 ], [ 134.652180220041146, 33.986052054258948 ], [ 134.64432805399656, 33.98202722477663 ], [ 134.635745278721743, 33.963729720949914 ], [ 134.625793890875457, 33.966365829019821 ], [ 134.624690000043529, 33.969738053768197 ], [ 134.613568884696292, 33.961261108013787 ], [ 134.611868053567832, 33.950616108146903 ], [ 134.574752217940613, 33.944786108192375 ], [ 134.565230271659743, 33.93788833328 ], [ 134.560596939297398, 33.939659162240616 ], [ 134.569807223724411, 33.94475222533498 ], [ 134.566669999920578, 33.962583613243225 ], [ 134.535564993629578, 33.955210559220006 ], [ 134.529648611993935, 33.960734161952075 ], [ 134.509838884656915, 33.962180558685873 ], [ 134.500047223600518, 33.969630558703386 ], [ 134.486947223835386, 33.967495559172789 ], [ 134.481840000016064, 33.982858333245531 ], [ 134.496290830057774, 33.993363054161648 ], [ 134.494275836960355, 34.00854777505981 ], [ 134.499157782405746, 34.013183333244285 ], [ 134.493280558151355, 34.014346946254591 ], [ 134.48948335877003, 34.020303864831533 ], [ 134.476002218227904, 34.020881108176638 ], [ 134.459175837095245, 34.006181666850523 ], [ 134.449584721257906, 34.008448053734753 ], [ 134.453381659835827, 34.015057495207316 ], [ 134.450283891088816, 34.020829162435973 ], [ 134.435851971091665, 34.017959531906911 ], [ 134.427308053723777, 34.025699440976496 ], [ 134.42928972783875, 34.039784162409205 ], [ 134.422518054064994, 34.048405828865953 ], [ 134.426367496862554, 34.053020279062707 ], [ 134.445029727939641, 34.052956386727942 ], [ 134.469154720813776, 34.062467774967899 ], [ 134.46342389089989, 34.078009441282745 ], [ 134.462454721208474, 34.086726667002154 ], [ 134.465870830174708, 34.087009162043273 ], [ 134.460829728109502, 34.089445000086755 ], [ 134.452904448981144, 34.086529999659831 ], [ 134.454291115442743, 34.099148891807943 ], [ 134.457787782080572, 34.098801945953085 ], [ 134.459586393797053, 34.103349721312668 ], [ 134.457829442275056, 34.116507775013872 ], [ 134.441673333057906, 34.114310278896312 ], [ 134.440663333246334, 34.119636108119948 ], [ 134.429797224262529, 34.126912494915757 ], [ 134.426700829679589, 34.144010000061485 ], [ 134.412931945652872, 34.1568827753199 ], [ 134.41941416273346, 34.157804441022165 ], [ 134.42519360639983, 34.165708053683773 ], [ 134.433335551094842, 34.168399999760254 ], [ 134.433888054090517, 34.17805444135945 ], [ 134.429195836818508, 34.183193333005988 ], [ 134.439060557898529, 34.191076945644568 ], [ 134.440206692584866, 34.207853882950417 ], [ 134.452551284314382, 34.205362000056311 ], [ 134.471598638366572, 34.208696775236035 ], [ 134.485963138887769, 34.219911197943475 ], [ 134.506173476424806, 34.225806360075524 ], [ 134.532366251701205, 34.226884774912492 ], [ 134.558993994877028, 34.220968054232344 ], [ 134.565561920046662, 34.22512058564655 ], [ 134.572264423364459, 34.222480441419293 ], [ 134.573208223181041, 34.226427919313096 ], [ 134.566576938974663, 34.22942513486214 ], [ 134.566826134818371, 34.234131386954004 ], [ 134.587585524652354, 34.24008874799739 ], [ 134.58764836567957, 34.240206197657926 ] ] ], [ [ [ 134.60723613493974, 34.251649252311211 ], [ 134.615959467955122, 34.248223332640748 ], [ 134.617245913967849, 34.233073134917277 ], [ 134.608965837003893, 34.228986774719942 ], [ 134.608712049221708, 34.233258612894701 ], [ 134.591125058374814, 34.213996667112553 ], [ 134.590412308781083, 34.222370278965229 ], [ 134.593991505303734, 34.22330969368744 ], [ 134.587964280427286, 34.231998694184426 ], [ 134.593450531616782, 34.242624945884586 ], [ 134.607177497343741, 34.251665360068387 ], [ 134.60723613493974, 34.251649252311211 ] ] ] ] } },
{ "type": "Feature", "properties": { "code": "360012", "name": "美馬北部・阿北", "PrefCode": "36", "regioncode": "360012" }, "geometry": { "type": "Polygon", "coordinates": [ [ [ 134.3517733331729, 34.185248613033139 ], [ 134.363190272413249, 34.18178694621065 ], [ 134.375658326670532, 34.171785828553197 ], [ 134.382973333052973, 34.172234440966747 ], [ 134.385487224156122, 34.165096666677869 ], [ 134.393651659996181, 34.163549161864353 ], [ 134.404178053674286, 34.167046108191414 ], [ 134.420046109140685, 34.147198333236531 ], [ 134.426700829679589, 34.144010000061485 ], [ 134.429797224262529, 34.126912494915757 ], [ 134.440663333246334, 34.119636108119948 ], [ 134.441673333057906, 34.114310278896312 ], [ 134.457829442275056, 34.116507775013872 ], [ 134.459586393797053, 34.103349721312668 ], [ 134.457787782080572, 34.098801945953085 ], [ 134.454291115442743, 34.099148891807943 ], [ 134.452904448981144, 34.086529999659831 ], [ 134.460829728109502, 34.089445000086755 ], [ 134.465870830174708, 34.087009162043273 ], [ 134.462454721208474, 34.086726667002154 ], [ 134.46342389089989, 34.078009441282745 ], [ 134.469141659959746, 34.062083053989795 ], [ 134.445029727939641, 34.052956386727942 ], [ 134.426367496862554, 34.053020279062707 ], [ 134.414130557579256, 34.057218333259527 ], [ 134.403017224065707, 34.049943891697296 ], [ 134.394647497284268, 34.053121666831487 ], [ 134.372499727780223, 34.039153054170185 ], [ 134.366739169876837, 34.029053892423235 ], [ 134.354427782016614, 34.039587774756058 ], [ 134.350134994134692, 34.038949161674509 ], [ 134.342934993954827, 34.031399441231258 ], [ 134.334916393976414, 34.030049720718068 ], [ 134.334221388006767, 34.020522775106031 ], [ 134.323256108982264, 34.008704440557551 ], [ 134.325128885090066, 34.002832775012621 ], [ 134.312550271777695, 34.007523612724583 ], [ 134.298932218447135, 34.00648110781691 ], [ 134.289583333204291, 34.001651108112185 ], [ 134.282678326843325, 33.991294161996052 ], [ 134.274804720961129, 33.992843053564116 ], [ 134.256037496733143, 33.986099721025369 ], [ 134.2514213881866, 33.980522224621041 ], [ 134.218925550673703, 33.979275829016331 ], [ 134.204163060576889, 33.982668613166027 ], [ 134.197639442306468, 33.989162775042075 ], [ 134.190416185658478, 33.98822066235374 ], [ 134.181681342220259, 33.976745947067855 ], [ 134.180895647716056, 33.966047128172477 ], [ 134.17125927349673, 33.966822020020231 ], [ 134.168269154497921, 33.961087558643953 ], [ 134.169859516503493, 33.953656338269468 ], [ 134.166697377881746, 33.949512974544177 ], [ 134.17115135485119, 33.945011555638814 ], [ 134.174473425308406, 33.930197031667717 ], [ 134.16135193264563, 33.926927978943127 ], [ 134.122333890596678, 33.920501107939856 ], [ 134.099923332895514, 33.923344161703767 ], [ 134.105447224310069, 33.941907495234773 ], [ 134.098893605555531, 33.949398053777202 ], [ 134.099099390224751, 33.959194139497981 ], [ 134.085237271682786, 33.976641728233233 ], [ 134.074441816136982, 33.973518735301468 ], [ 134.068066932243141, 33.966410725874368 ], [ 134.058074697189568, 33.970697984724268 ], [ 134.044787829994448, 33.968926604479293 ], [ 134.026039978062613, 33.963757045051636 ], [ 134.00451227672022, 33.95163135910002 ], [ 133.982136418460982, 33.945931892143165 ], [ 133.977075878449114, 33.945960415940476 ], [ 133.972595278849099, 33.952382224659971 ], [ 133.972229170240098, 33.960242224698959 ], [ 133.984250829812026, 33.973123612764596 ], [ 133.994188326729954, 33.976747775389583 ], [ 134.00193027186458, 33.990970279255009 ], [ 134.002195551183831, 34.000893333060901 ], [ 133.99804221757438, 34.005925828614124 ], [ 134.003943060723714, 34.026876667024624 ], [ 133.998969170390978, 34.035155000203133 ], [ 134.00119861222629, 34.061898053552397 ], [ 133.998421660431404, 34.067813891997559 ], [ 134.002193605950197, 34.080868054217376 ], [ 134.010329169955298, 34.086761666817495 ], [ 134.026257497085908, 34.08508833335992 ], [ 134.025632218252326, 34.09196000005403 ], [ 134.040040272040983, 34.100864999719988 ], [ 134.042168884586431, 34.110261108363488 ], [ 134.050033061076988, 34.117515558896002 ], [ 134.057447224010275, 34.115985000007811 ], [ 134.061504993860467, 34.111005559059379 ], [ 134.070917497144819, 34.112713332954002 ], [ 134.079556393712664, 34.121136946213142 ], [ 134.094484448998173, 34.114590558907196 ], [ 134.122311115265802, 34.118773053933353 ], [ 134.139313891223196, 34.134082224814847 ], [ 134.135239727631415, 34.151577494705691 ], [ 134.146316108901374, 34.165285000002825 ], [ 134.158060557848557, 34.167505559234201 ], [ 134.173745550916465, 34.177001667093293 ], [ 134.195064162581048, 34.171874161763185 ], [ 134.198479442372445, 34.175498053692252 ], [ 134.20459027182369, 34.172648612943192 ], [ 134.220879999612407, 34.179921108372525 ], [ 134.247427782266413, 34.178730000389237 ], [ 134.266076667404377, 34.183212775449306 ], [ 134.277248327348502, 34.176464162091463 ], [ 134.292233060607373, 34.17914277481924 ], [ 134.297905550600717, 34.168638613281416 ], [ 134.308495279033991, 34.17088110787688 ], [ 134.314563060636829, 34.177256107783194 ], [ 134.344193332556301, 34.172379721047321 ], [ 134.348064163030813, 34.183874162062978 ], [ 134.351671387824354, 34.185319162149653 ], [ 134.3517733331729, 34.185248613033139 ] ] ] } },
{ "type": "Feature", "properties": { "code": "360013", "name": "美馬南部・神山", "PrefCode": "36", "regioncode": "360013" }, "geometry": { "type": "Polygon", "coordinates": [ [ [ 134.414464448875265, 34.057026107668776 ], [ 134.426367496862554, 34.053020279062707 ], [ 134.422518054064994, 34.048405828865953 ], [ 134.42928972783875, 34.039784162409205 ], [ 134.427308053723777, 34.025699440976496 ], [ 134.435851971091665, 34.017959531906911 ], [ 134.450283891088816, 34.020829162435973 ], [ 134.453381659835827, 34.015057495207316 ], [ 134.44971639369669, 34.008362494933237 ], [ 134.461192502931681, 34.00635027894225 ], [ 134.466538054287867, 34.010093332841109 ], [ 134.46748499363764, 34.015681666975411 ], [ 134.482224163414458, 34.022380000136934 ], [ 134.499149169598581, 34.013344161703742 ], [ 134.494275836960355, 34.00854777505981 ], [ 134.496290830057774, 33.993363054161648 ], [ 134.481840000016064, 33.982858333245531 ], [ 134.486573060898081, 33.967954440944766 ], [ 134.481888326884814, 33.964692494662927 ], [ 134.476531945892702, 33.966438891741518 ], [ 134.468311660354857, 33.952251386792113 ], [ 134.437685837131767, 33.953813892297319 ], [ 134.430488612259751, 33.957855828683591 ], [ 134.40820389129658, 33.95331805378521 ], [ 134.400854720568987, 33.951296108028998 ], [ 134.400290000283348, 33.944779440618731 ], [ 134.38866306125135, 33.940473892256364 ], [ 134.380877497198753, 33.94192499963907 ], [ 134.340690830217682, 33.924980559105563 ], [ 134.325121114947592, 33.934309721316652 ], [ 134.314134720740867, 33.926113332564285 ], [ 134.30343333338169, 33.92579582871457 ], [ 134.298725279048426, 33.910379721247182 ], [ 134.29435444889873, 33.906660829433804 ], [ 134.29019722392286, 33.906893054171178 ], [ 134.286109727881694, 33.915247495175834 ], [ 134.24994778156497, 33.916963891770251 ], [ 134.231442502869299, 33.907935828875452 ], [ 134.239038327057187, 33.891689999693767 ], [ 134.219689999593925, 33.888571387359718 ], [ 134.208683891348528, 33.880854161890113 ], [ 134.190736667163492, 33.885506945689031 ], [ 134.164739442271525, 33.865667494859053 ], [ 134.144951660191055, 33.869155000103206 ], [ 134.110336108924344, 33.852715558576222 ], [ 134.095978327238072, 33.854983891593349 ], [ 134.089934721210511, 33.874231946447196 ], [ 134.048658326820373, 33.870944721122044 ], [ 134.041506666999112, 33.887284161634796 ], [ 134.047437782227917, 33.895257225340742 ], [ 134.034159442404416, 33.900681107647074 ], [ 134.020554994017857, 33.899521946280856 ], [ 134.002811945614894, 33.906493333400647 ], [ 134.002773333222763, 33.919466386664453 ], [ 133.975326938987109, 33.924870829225426 ], [ 133.966320271863083, 33.937975000046265 ], [ 133.974994448834764, 33.945064999650072 ], [ 134.00451227672022, 33.95163135910002 ], [ 134.026039978062613, 33.963757045051636 ], [ 134.058074697189568, 33.970697984724268 ], [ 134.068066932243141, 33.966410725874368 ], [ 134.074441816136982, 33.973518735301468 ], [ 134.085237271682786, 33.976641728233233 ], [ 134.099099390224751, 33.959194139497981 ], [ 134.098893605555531, 33.949398053777202 ], [ 134.105447224310069, 33.941907495234773 ], [ 134.099923332895514, 33.923344161703767 ], [ 134.125594720819777, 33.920703612781551 ], [ 134.171147342975587, 33.929093693918901 ], [ 134.174714170222842, 33.932474115987702 ], [ 134.166697377881746, 33.949512974544177 ], [ 134.169859516503493, 33.953656338269468 ], [ 134.168269154497921, 33.961087558643953 ], [ 134.17125927349673, 33.966822020020231 ], [ 134.180895647716056, 33.966047128172477 ], [ 134.181681342220259, 33.976745947067855 ], [ 134.190416185658478, 33.98822066235374 ], [ 134.197639442306468, 33.989162775042075 ], [ 134.204163060576889, 33.982668613166027 ], [ 134.218925550673703, 33.979275829016331 ], [ 134.2514213881866, 33.980522224621041 ], [ 134.256037496733143, 33.986099721025369 ], [ 134.274804720961129, 33.992843053564116 ], [ 134.282678326843325, 33.991294161996052 ], [ 134.289583333204291, 34.001651108112185 ], [ 134.298932218447135, 34.00648110781691 ], [ 134.312550271777695, 34.007523612724583 ], [ 134.325062218346716, 34.002807495069874 ], [ 134.323256108982264, 34.008704440557551 ], [ 134.334221388006767, 34.020522775106031 ], [ 134.336107496563727, 34.031229161796432 ], [ 134.342934993954827, 34.031399441231258 ], [ 134.354254449383347, 34.039630559103045 ], [ 134.366739169876837, 34.029053892423235 ], [ 134.372499727780223, 34.039153054170185 ], [ 134.394647497284268, 34.053121666831487 ], [ 134.403017224065707, 34.049943891697296 ], [ 134.414317496954936, 34.057161945767234 ], [ 134.414464448875265, 34.057026107668776 ] ] ] } },
{ "type": "Feature", "properties": { "code": "360014", "name": "三好", "PrefCode": "36", "regioncode": "360014" }, "geometry": { "type": "Polygon", "coordinates": [ [ [ 133.935533333296803, 34.115248054154449 ], [ 133.939767223678473, 34.114893613349636 ], [ 133.937668054037545, 34.107821946425759 ], [ 133.944430829918929, 34.101753892328304 ], [ 133.944534993894877, 34.093022774781275 ], [ 133.956478053619321, 34.088099161946843 ], [ 133.959124720629461, 34.082494999744483 ], [ 133.968813061273863, 34.081493333050958 ], [ 133.973048029043412, 34.073021251729415 ], [ 133.977889689357767, 34.075837162155381 ], [ 134.000481387605987, 34.072379721247216 ], [ 133.998969170390978, 34.035155000203133 ], [ 134.003943060723714, 34.026876667024624 ], [ 133.99804221757438, 34.005413892237414 ], [ 134.002195551183831, 34.000893333060901 ], [ 134.00193027186458, 33.990970279255009 ], [ 133.994188326729954, 33.976747775389583 ], [ 133.984250829812026, 33.973123612764596 ], [ 133.972229170240098, 33.960242224698959 ], [ 133.972595278849099, 33.952382224659971 ], [ 133.977262217977, 33.946366108209361 ], [ 133.966437781778268, 33.939006667223964 ], [ 133.969520271943111, 33.93133277468786 ], [ 133.975326938987109, 33.924870829225426 ], [ 134.002773333222763, 33.919466386664453 ], [ 134.002811945614894, 33.906493333400647 ], [ 134.020554994017857, 33.899521946280856 ], [ 134.034159442404416, 33.900681107647074 ], [ 134.047437782227917, 33.895257225340742 ], [ 134.041506666999112, 33.887284161634796 ], [ 134.048658326820373, 33.870944721122044 ], [ 134.089934721210511, 33.874231946447196 ], [ 134.095978327238072, 33.854983891593349 ], [ 134.085366393644222, 33.84396889175099 ], [ 134.078126394317678, 33.846002224722952 ], [ 134.049337781713348, 33.834202775038079 ], [ 134.039005836749993, 33.834897495023426 ], [ 134.033977496963985, 33.828830279094177 ], [ 134.012331388183043, 33.821787225000492 ], [ 133.995931659818325, 33.82193027925905 ], [ 133.985149999872647, 33.840784720638396 ], [ 133.959783332834604, 33.834660279048705 ], [ 133.951085837341566, 33.828925000188633 ], [ 133.952730000389238, 33.815493333150869 ], [ 133.947473606022186, 33.803744161863619 ], [ 133.941260830323131, 33.799158053801193 ], [ 133.924878326673479, 33.800609162083219 ], [ 133.913389727653907, 33.791181387411143 ], [ 133.907998884640847, 33.79522527892351 ], [ 133.901365836863988, 33.794013053959304 ], [ 133.893375278646204, 33.804936386804854 ], [ 133.887286939440742, 33.802958053671318 ], [ 133.872358611660616, 33.806193053566631 ], [ 133.853658054175867, 33.834571667048863 ], [ 133.844534994094715, 33.837505000155659 ], [ 133.838421660031599, 33.845268332967237 ], [ 133.828488053580827, 33.844748891747997 ], [ 133.817772776192783, 33.837321387372185 ], [ 133.788580000166917, 33.836243891642312 ], [ 133.785659441929738, 33.842413613197721 ], [ 133.74800027189508, 33.836778053864123 ], [ 133.738003890966866, 33.849856108372762 ], [ 133.701571659704427, 33.849806107865618 ], [ 133.694633332562262, 33.856403612636655 ], [ 133.67729277574108, 33.858579441388144 ], [ 133.673226393982986, 33.864245279096394 ], [ 133.666411388175106, 33.866011386616265 ], [ 133.661206667054103, 33.884516107732225 ], [ 133.67794555134617, 33.893084440794382 ], [ 133.67451389130315, 33.903185829262668 ], [ 133.677577781689365, 33.909550828707836 ], [ 133.690517223691018, 33.91629055856248 ], [ 133.68562972762993, 33.925716108311804 ], [ 133.675683606213511, 33.926380000436723 ], [ 133.676484448898236, 33.93294472132186 ], [ 133.690208327252549, 33.941605558649655 ], [ 133.69279749700695, 33.946830829279406 ], [ 133.687053891324126, 33.954894720914695 ], [ 133.692363890681122, 33.962455000298064 ], [ 133.682977497413617, 33.964592775136509 ], [ 133.680321946001072, 33.970224999783966 ], [ 133.684131115358696, 33.976391107863378 ], [ 133.682206394409604, 33.98325416175021 ], [ 133.675106939333887, 33.983602774948167 ], [ 133.677326666692352, 33.994281386976468 ], [ 133.685736939408343, 34.003656386732928 ], [ 133.679548611779069, 34.012519999598339 ], [ 133.691651945980539, 34.012765558583737 ], [ 133.700633333161818, 34.017919441029449 ], [ 133.709168326557119, 34.015376386710955 ], [ 133.721319727723312, 34.022292495202521 ], [ 133.723071946113464, 34.036462775436803 ], [ 133.728994162550634, 34.044159721194205 ], [ 133.748572218233335, 34.05353082868487 ], [ 133.764280557701682, 34.070722775235936 ], [ 133.772574994140768, 34.072625279333238 ], [ 133.778469169716459, 34.07945972128914 ], [ 133.791841114575845, 34.078121666781556 ], [ 133.790131659848271, 34.075585558826504 ], [ 133.797828054321258, 34.069759720934428 ], [ 133.81769111505298, 34.072237224568312 ], [ 133.823577223710004, 34.086092494772856 ], [ 133.821770557665218, 34.091708612562456 ], [ 133.833716938585894, 34.097668053737721 ], [ 133.841726666752379, 34.09488444066443 ], [ 133.85853917044642, 34.10527444136244 ], [ 133.864329170354949, 34.104610559130037 ], [ 133.867084449387903, 34.100152775330344 ], [ 133.892854721368394, 34.108196945732516 ], [ 133.903093606284983, 34.100070559308904 ], [ 133.921982218304834, 34.114262225421442 ], [ 133.935050829931924, 34.115408612817305 ], [ 133.935533333296803, 34.115248054154449 ] ] ] } },
{ "type": "Feature", "properties": { "code": "360021", "name": "阿南", "PrefCode": "36", "regioncode": "360021" }, "geometry": { "type": "MultiPolygon", "coordinates": [ [ [ [ 134.802511024564183, 33.843632919423726 ], [ 134.804686393762154, 33.839408053738737 ], [ 134.802672826989465, 33.844093224822529 ], [ 134.802511024564183, 33.843632919423726 ] ] ], [ [ [ 134.797018884613863, 33.848636107870107 ], [ 134.801634449070662, 33.842919999858168 ], [ 134.792042503159109, 33.846460000328818 ], [ 134.79697832698821, 33.848636107870107 ], [ 134.797018884613863, 33.848636107870107 ] ] ], [ [ [ 134.740291271425122, 33.852891838287746 ], [ 134.74071998723764, 33.849694856332633 ], [ 134.727604227752977, 33.847513910438693 ], [ 134.740291310095927, 33.852902810916021 ], [ 134.740291271425122, 33.852891838287746 ] ] ], [ [ [ 134.81969360557548, 33.857712494935754 ], [ 134.820834993640119, 33.849295828939432 ], [ 134.816084720633398, 33.84637027856553 ], [ 134.819103061257351, 33.843557225285792 ], [ 134.809251115047005, 33.840067495118831 ], [ 134.803720052438507, 33.846176305592053 ], [ 134.819619169589032, 33.857731386993976 ], [ 134.81969360557548, 33.857712494935754 ] ] ], [ [ [ 134.710337432426627, 33.857776945749492 ], [ 134.714667392885985, 33.855899072284387 ], [ 134.709355550818032, 33.852805324406233 ], [ 134.710316938675874, 33.857793054405988 ], [ 134.710337432426627, 33.857776945749492 ] ] ], [ [ [ 134.656734436345232, 33.867511918939954 ], [ 134.662901751314848, 33.866106927892474 ], [ 134.664026938992151, 33.861393540579513 ], [ 134.659568067012742, 33.86119313475541 ], [ 134.654623760778009, 33.853733883412019 ], [ 134.649240544915301, 33.854050514020059 ], [ 134.646839286703766, 33.861703523398944 ], [ 134.656688118561874, 33.867676081186232 ], [ 134.656734436345232, 33.867511918939954 ] ] ], [ [ [ 134.679762645729625, 33.86967988312017 ], [ 134.678095317944667, 33.861656729874255 ], [ 134.672840480303989, 33.859868820090014 ], [ 134.671515978579578, 33.867541964390171 ], [ 134.674651115057031, 33.865018017967202 ], [ 134.679748066819911, 33.869688945588393 ], [ 134.679762645729625, 33.86967988312017 ] ] ], [ [ [ 134.667215148960054, 33.877308000164135 ], [ 134.673570103877296, 33.876424865015565 ], [ 134.664714786358331, 33.876701188908783 ], [ 134.667112165793924, 33.877309422891585 ], [ 134.667215148960054, 33.877308000164135 ] ] ], [ [ [ 134.675586705861861, 33.87921428770926 ], [ 134.673505759183513, 33.877780891574957 ], [ 134.675574903159372, 33.879236494668532 ], [ 134.675586705861861, 33.87921428770926 ] ] ], [ [ [ 134.714235888275653, 33.912309874101481 ], [ 134.711602580694603, 33.911458684670606 ], [ 134.714207833924434, 33.912329350719006 ], [ 134.714235888275653, 33.912309874101481 ] ] ], [ [ [ 134.72221874200136, 33.919277648644595 ], [ 134.719776251672783, 33.918003712201596 ], [ 134.722282231439863, 33.919309017896921 ], [ 134.72221874200136, 33.919277648644595 ] ] ], [ [ [ 134.722627354369024, 33.926161648641198 ], [ 134.7187615951716, 33.923792008794237 ], [ 134.722599908858797, 33.926186711847322 ], [ 134.722627354369024, 33.926161648641198 ] ] ], [ [ [ 134.69626795090528, 33.952326134843304 ], [ 134.697518222587973, 33.954920107876717 ], [ 134.696308145204853, 33.952414999552616 ], [ 134.69626795090528, 33.952326134843304 ] ] ], [ [ [ 134.653274694971287, 33.983552494751905 ], [ 134.668304720786296, 33.962085054281886 ], [ 134.683767224278085, 33.958668440795975 ], [ 134.696875058037563, 33.949999999700253 ], [ 134.699100855819893, 33.954292080714993 ], [ 134.697031970848798, 33.948356108247822 ], [ 134.703590908193974, 33.932479332954927 ], [ 134.71107946844279, 33.930955919180406 ], [ 134.704776226341892, 33.931757856340028 ], [ 134.711646693340299, 33.925793441014548 ], [ 134.70445303517954, 33.92958321559297 ], [ 134.705633359392095, 33.925938757068025 ], [ 134.711564060033425, 33.924474495301752 ], [ 134.705624967818039, 33.925903946110282 ], [ 134.70163219197218, 33.922110279266008 ], [ 134.699863242594688, 33.914719873723243 ], [ 134.703190973384721, 33.913829847069849 ], [ 134.697842671901867, 33.909903035596642 ], [ 134.699024188615454, 33.906364009091817 ], [ 134.687415005797902, 33.900025350789349 ], [ 134.675225667630571, 33.879725766331092 ], [ 134.674620933809138, 33.886686305828391 ], [ 134.669109688661251, 33.885315062740005 ], [ 134.666309843724321, 33.878757900656638 ], [ 134.653334890193037, 33.882435018061699 ], [ 134.660766576416449, 33.875836963804886 ], [ 134.652035511929398, 33.870736054125643 ], [ 134.644856965076997, 33.875475072116956 ], [ 134.645735240289127, 33.87162945863264 ], [ 134.639986808844242, 33.869505748291715 ], [ 134.63736096024013, 33.873023423092548 ], [ 134.635292879263034, 33.870934982363622 ], [ 134.63866972832534, 33.869171541333628 ], [ 134.634943734565809, 33.869356297155434 ], [ 134.62879201024316, 33.856948171021315 ], [ 134.63869033718936, 33.859221586107367 ], [ 134.639142411992793, 33.863650179712067 ], [ 134.646670921026271, 33.86659404477939 ], [ 134.642677017430515, 33.853165332913818 ], [ 134.648130363325663, 33.852381494610313 ], [ 134.639320752051162, 33.845630044790767 ], [ 134.643321166738474, 33.842901874022346 ], [ 134.653677781904207, 33.844634315421388 ], [ 134.657529376779394, 33.848805675941264 ], [ 134.662116822133726, 33.843580667014237 ], [ 134.663374021294089, 33.848324017939149 ], [ 134.667194577867576, 33.848243242631611 ], [ 134.669098482209279, 33.843748171141215 ], [ 134.673536783096097, 33.850095107703112 ], [ 134.67799007837948, 33.846601432210377 ], [ 134.679950712855202, 33.851276928387563 ], [ 134.68642664097672, 33.849991081323424 ], [ 134.692522322247441, 33.854380855692 ], [ 134.692208340142884, 33.848271153091275 ], [ 134.711117716609351, 33.850469793146488 ], [ 134.720262061844778, 33.845026658153813 ], [ 134.69637535693721, 33.842794108261558 ], [ 134.684759909442278, 33.833975323902109 ], [ 134.679018275073417, 33.83424313481288 ], [ 134.680186498008538, 33.830322631184515 ], [ 134.694913917243525, 33.831879342357809 ], [ 134.700646679800457, 33.836408775144889 ], [ 134.716143034673337, 33.836114062813806 ], [ 134.719663463198344, 33.831341206931199 ], [ 134.741541633939278, 33.842168216090329 ], [ 134.750192398860236, 33.833901144222466 ], [ 134.695358327125177, 33.812498332632003 ], [ 134.689041659944678, 33.80552999960986 ], [ 134.678939442301498, 33.804478891787483 ], [ 134.674768884876244, 33.816396387383406 ], [ 134.650864162950825, 33.805398053777196 ], [ 134.622748054379258, 33.799678612877756 ], [ 134.610166939153032, 33.789251387441652 ], [ 134.594982503339907, 33.789511667429565 ], [ 134.588185837406513, 33.785878053829151 ], [ 134.577379441608059, 33.786297225136877 ], [ 134.570766667247995, 33.793145279231283 ], [ 134.561971946048516, 33.793543053868916 ], [ 134.548536108854364, 33.806158613129526 ], [ 134.531733333126908, 33.803002224772911 ], [ 134.522253333024992, 33.807946666805265 ], [ 134.512007223854312, 33.806266666673366 ], [ 134.507816938900646, 33.812993054186165 ], [ 134.510322775675604, 33.823298333351431 ], [ 134.523624994298075, 33.834124999868891 ], [ 134.525051945890709, 33.842278053889117 ], [ 134.531783332734676, 33.84788805359085 ], [ 134.539543332658695, 33.852377495325186 ], [ 134.556346394370621, 33.854472494809841 ], [ 134.556212218219343, 33.868922224980736 ], [ 134.5208847213529, 33.874223892119005 ], [ 134.498150830396526, 33.865284720913166 ], [ 134.497111946159407, 33.871401386964465 ], [ 134.492369728380368, 33.87204722519931 ], [ 134.488984449073087, 33.868710829441284 ], [ 134.479051115116931, 33.870973612742091 ], [ 134.469679727937205, 33.868386387321948 ], [ 134.467165279254345, 33.872218054119969 ], [ 134.474246666950194, 33.882279440743673 ], [ 134.467806939238926, 33.889396667322387 ], [ 134.475208327302539, 33.901237494814609 ], [ 134.492554449128534, 33.910873892416248 ], [ 134.504121388091676, 33.907961107918823 ], [ 134.516590272423173, 33.918102224837867 ], [ 134.53007194626332, 33.917423612609696 ], [ 134.536266108694008, 33.928230828589903 ], [ 134.557368053892674, 33.933250278577532 ], [ 134.560596939297398, 33.939659162240616 ], [ 134.565230271659743, 33.93788833328 ], [ 134.574752217940613, 33.944786108192375 ], [ 134.611868053567832, 33.950616108146903 ], [ 134.615436394374115, 33.963502224847844 ], [ 134.624927224112184, 33.969744161963547 ], [ 134.625793890875457, 33.966365829019821 ], [ 134.635745278721743, 33.963729720949914 ], [ 134.64432805399656, 33.98202722477663 ], [ 134.65207967583649, 33.985816009201528 ], [ 134.653269611103724, 33.983559333196695 ], [ 134.653274694971287, 33.983552494751905 ] ] ] ] } },
{ "type": "Feature", "properties": { "code": "360022", "name": "那賀・勝浦", "PrefCode": "36", "regioncode": "360022" }, "geometry": { "type": "Polygon", "coordinates": [ [ [ 134.497596667252424, 33.969355558612165 ], [ 134.509838884656915, 33.962180558685873 ], [ 134.531546667144994, 33.960206386715413 ], [ 134.535564993629578, 33.955210559220006 ], [ 134.566502217903121, 33.962628612620449 ], [ 134.570038327007296, 33.952791387412674 ], [ 134.569726393558312, 33.944507494625213 ], [ 134.560838884806799, 33.94009110841796 ], [ 134.557861946271828, 33.933463053677031 ], [ 134.536266108694008, 33.928230828589903 ], [ 134.530253333224778, 33.917527225301285 ], [ 134.516369999675817, 33.918035279304775 ], [ 134.504121388091676, 33.907961107918823 ], [ 134.492554449128534, 33.910873892416248 ], [ 134.475208327302539, 33.901237494814609 ], [ 134.468308326568035, 33.892036108279797 ], [ 134.46899944207064, 33.885807224823623 ], [ 134.474246666950194, 33.882279440743673 ], [ 134.467165279254345, 33.872218054119969 ], [ 134.470701388358407, 33.868046946309562 ], [ 134.479051115116931, 33.870973612742091 ], [ 134.488984449073087, 33.868710829441284 ], [ 134.492369728380368, 33.87204722519931 ], [ 134.497111946159407, 33.871401386964465 ], [ 134.498150830396526, 33.865284720913166 ], [ 134.5208847213529, 33.874223892119005 ], [ 134.556212218219343, 33.868922224980736 ], [ 134.556346394370621, 33.854472494809841 ], [ 134.539543332658695, 33.852377495325186 ], [ 134.531783332734676, 33.84788805359085 ], [ 134.525051945890709, 33.842278053889117 ], [ 134.523624994298075, 33.834124999868891 ], [ 134.510076108725457, 33.822938332937781 ], [ 134.507816938900646, 33.812993054186165 ], [ 134.510569441726375, 33.808095829259173 ], [ 134.524073333317688, 33.807201108144682 ], [ 134.528153606004139, 33.804078613437298 ], [ 134.526234994149718, 33.800658891894386 ], [ 134.499303605676914, 33.792360000213876 ], [ 134.490773332823096, 33.794191667411553 ], [ 134.480314994441528, 33.786595559037892 ], [ 134.480586667041166, 33.782109999676777 ], [ 134.47515583657264, 33.777866946102733 ], [ 134.465625836862955, 33.779449162049218 ], [ 134.460224994288069, 33.775371667368631 ], [ 134.447185837256598, 33.773819999593343 ], [ 134.44973499437458, 33.766286386907268 ], [ 134.426211659640444, 33.76131972082851 ], [ 134.413049442078204, 33.741621666806509 ], [ 134.401944993866437, 33.73982999965483 ], [ 134.399880557841584, 33.729088613149031 ], [ 134.394578885307396, 33.724371667218691 ], [ 134.36842083015722, 33.72639722465226 ], [ 134.360107497163312, 33.73133082895464 ], [ 134.342693061036016, 33.727428333350929 ], [ 134.336535837359065, 33.730429999644798 ], [ 134.331869169826405, 33.726951666586217 ], [ 134.320188612314723, 33.732531946392271 ], [ 134.288093606234952, 33.727470559219 ], [ 134.281866393719156, 33.731021386627731 ], [ 134.256711388419944, 33.718819440864536 ], [ 134.247072503293452, 33.723999161731967 ], [ 134.234098326776461, 33.719178891792467 ], [ 134.211055837057302, 33.721702775262941 ], [ 134.162737224043667, 33.696630558853258 ], [ 134.164411946054543, 33.690947494631246 ], [ 134.160966109098695, 33.686835278925059 ], [ 134.147706666729391, 33.684946666655378 ], [ 134.133382775994392, 33.693961108418478 ], [ 134.122565278964544, 33.696063612745604 ], [ 134.0670397284008, 33.688651666641135 ], [ 134.058056666681864, 33.691033333121879 ], [ 134.0566349941098, 33.694049161939347 ], [ 134.064761946206886, 33.698224440805348 ], [ 134.064714994401584, 33.706554440934781 ], [ 134.070101660063642, 33.711195829424014 ], [ 134.065037496683203, 33.719452225439909 ], [ 134.068429170170134, 33.728891387327735 ], [ 134.061781115406234, 33.735215278762155 ], [ 134.056083891358526, 33.751478332658962 ], [ 134.058132502912713, 33.781141107875897 ], [ 134.045988054405257, 33.789520559026641 ], [ 134.046793060951018, 33.798764441226012 ], [ 134.032996666662939, 33.810202775337871 ], [ 134.036978054393785, 33.814979721337124 ], [ 134.032828327065658, 33.828399720570701 ], [ 134.038749170238134, 33.834768053802691 ], [ 134.049337781713348, 33.834202775038079 ], [ 134.078126394317678, 33.846002224722952 ], [ 134.085366393644222, 33.84396889175099 ], [ 134.095356393882525, 33.855020000272873 ], [ 134.110521659746837, 33.852747224604798 ], [ 134.144951660191055, 33.869155000103206 ], [ 134.164739442271525, 33.865667494859053 ], [ 134.190736667163492, 33.885506945689031 ], [ 134.208683891348528, 33.880854161890113 ], [ 134.219689999593925, 33.888571387359718 ], [ 134.231461660227524, 33.888711107831398 ], [ 134.239038327057187, 33.891689999693767 ], [ 134.231442502869299, 33.907935828875452 ], [ 134.24994778156497, 33.916963891770251 ], [ 134.286109727881694, 33.915247495175834 ], [ 134.29019722392286, 33.906893054171178 ], [ 134.29435444889873, 33.906660829433804 ], [ 134.298725279048426, 33.910379721247182 ], [ 134.30343333338169, 33.92579582871457 ], [ 134.314134720740867, 33.926113332564285 ], [ 134.325121114947592, 33.934309721316652 ], [ 134.340690830217682, 33.924980559105563 ], [ 134.380877497198753, 33.94192499963907 ], [ 134.38866306125135, 33.940473892256364 ], [ 134.400290000283348, 33.944779440618731 ], [ 134.400854720568987, 33.951296108028998 ], [ 134.430488612259751, 33.957855828683591 ], [ 134.437685837131767, 33.953813892297319 ], [ 134.446399442180564, 33.955596945742514 ], [ 134.464361659862789, 33.95127833292878 ], [ 134.469276393690734, 33.953178053624299 ], [ 134.476531945892702, 33.966438891741518 ], [ 134.481888326884814, 33.964692494662927 ], [ 134.497296394413183, 33.969542224594022 ], [ 134.497596667252424, 33.969355558612165 ] ] ] } },
{ "type": "Feature", "properties": { "code": "360023", "name": "海部", "PrefCode": "36", "regioncode": "360023" }, "geometry": { "type": "MultiPolygon", "coordinates": [ [ [ [ 134.317777496634221, 33.548949720952919 ], [ 134.323806109164707, 33.540185000237614 ], [ 134.316903060627851, 33.541554441084656 ], [ 134.317589169604503, 33.548961108168669 ], [ 134.317777496634221, 33.548949720952919 ] ] ], [ [ [ 134.317084163403479, 33.559242774734344 ], [ 134.32058972793368, 33.559073613156784 ], [ 134.316895551288781, 33.559293332821085 ], [ 134.317084163403479, 33.559242774734344 ] ] ], [ [ [ 134.318362776321123, 33.561023891939101 ], [ 134.320656938766774, 33.560516667110562 ], [ 134.318221387606968, 33.561029440756158 ], [ 134.318362776321123, 33.561023891939101 ] ] ], [ [ [ 134.422202217558379, 33.637247576814275 ], [ 134.426469494371759, 33.635878648580842 ], [ 134.425622607297555, 33.628878252029779 ], [ 134.421789390068398, 33.630491404654663 ], [ 134.422190661270065, 33.637256044830679 ], [ 134.422202217558379, 33.637247576814275 ] ] ], [ [ [ 134.450129442419893, 33.639869999900611 ], [ 134.44876583727364, 33.637161386688717 ], [ 134.444788327419474, 33.638889162404951 ], [ 134.450078885232415, 33.639886945825936 ], [ 134.450129442419893, 33.639869999900611 ] ] ], [ [ [ 134.485868326961736, 33.645371946058503 ], [ 134.49755888493462, 33.638084440944226 ], [ 134.50490027203, 33.640040559024612 ], [ 134.49659472086978, 33.630047494796088 ], [ 134.483261659997652, 33.633057774796498 ], [ 134.481621388316512, 33.637170000395258 ], [ 134.488318054134993, 33.636511945769712 ], [ 134.482833891171254, 33.640543891587356 ], [ 134.48583444860094, 33.645400000409722 ], [ 134.485868326961736, 33.645371946058503 ] ] ], [ [ [ 134.593126109282593, 33.763502774733297 ], [ 134.593569170181127, 33.75916666740784 ], [ 134.590636938743842, 33.758667495108853 ], [ 134.59311944170895, 33.763587495366664 ], [ 134.593126109282593, 33.763502774733297 ] ] ], [ [ [ 134.67560693880921, 33.816098333171567 ], [ 134.678939442301498, 33.804478891787483 ], [ 134.665377224279496, 33.800108612922202 ], [ 134.650180557686667, 33.789218332859832 ], [ 134.640596393608689, 33.789032495153606 ], [ 134.641361115023528, 33.780630278564558 ], [ 134.635773605567465, 33.786591108293067 ], [ 134.620448885407768, 33.786720829202977 ], [ 134.616975836765505, 33.780506108270345 ], [ 134.612918054324837, 33.782296108078981 ], [ 134.608762217902154, 33.779438333312498 ], [ 134.609873332987945, 33.776250278927307 ], [ 134.601838054182963, 33.772059720579705 ], [ 134.602058612015412, 33.764099161946831 ], [ 134.595654162909341, 33.764893891939607 ], [ 134.592972503278475, 33.772785558906492 ], [ 134.591655863427377, 33.768181801648893 ], [ 134.581762503436835, 33.771523891914114 ], [ 134.580450272062421, 33.762184999937858 ], [ 134.572041387899844, 33.765697494643689 ], [ 134.570054449153531, 33.760475558700136 ], [ 134.575490271758667, 33.75390389235082 ], [ 134.567125836588161, 33.741592224801366 ], [ 134.566794695418935, 33.732626000189782 ], [ 134.554688521158369, 33.734117026679485 ], [ 134.557733645391522, 33.737587559018664 ], [ 134.554922049013385, 33.741894027387502 ], [ 134.551320660819897, 33.735396252035457 ], [ 134.545147393237698, 33.737594829138118 ], [ 134.54071182898781, 33.727792387009117 ], [ 134.544717612627778, 33.724983252075447 ], [ 134.541837808068408, 33.723800613007938 ], [ 134.54326791178471, 33.719038972570559 ], [ 134.516700778418226, 33.705650467595035 ], [ 134.516830219639019, 33.701355495259975 ], [ 134.504894448919799, 33.699355278923008 ], [ 134.503209169767388, 33.694502225097665 ], [ 134.491189170344001, 33.69310972113675 ], [ 134.486537223813912, 33.686847495315703 ], [ 134.447381698806453, 33.671043396035941 ], [ 134.441596511170133, 33.663295513577168 ], [ 134.441825642239678, 33.665917306238725 ], [ 134.425219312621266, 33.660632540959057 ], [ 134.421878585728223, 33.662958721068151 ], [ 134.426135396231643, 33.664820937336458 ], [ 134.420265460082987, 33.66596963059402 ], [ 134.417642399377314, 33.656582739102191 ], [ 134.411994021107262, 33.654089892134891 ], [ 134.403681841943467, 33.660053441413254 ], [ 134.400031193384962, 33.65532660383974 ], [ 134.395899741180187, 33.656119206935898 ], [ 134.396685719870106, 33.650350928352736 ], [ 134.389250623417638, 33.65044953182047 ], [ 134.391597496927034, 33.64789749507338 ], [ 134.376460000328848, 33.636959441225258 ], [ 134.378164552851899, 33.629801693893114 ], [ 134.370514449182565, 33.634667494709163 ], [ 134.370316109101168, 33.630194161631323 ], [ 134.366034811857162, 33.630373946000873 ], [ 134.367470051601686, 33.627118919102884 ], [ 134.362518054364728, 33.628076946194142 ], [ 134.364948327403454, 33.624196386853839 ], [ 134.378840271961053, 33.624650000397253 ], [ 134.378464967784112, 33.62867063993815 ], [ 134.379600388846939, 33.6253273598698 ], [ 134.389926938777307, 33.623319721428061 ], [ 134.38318805428537, 33.618801387174358 ], [ 134.383460830353101, 33.614663892424744 ], [ 134.3717855509625, 33.609816107727227 ], [ 134.364302776052341, 33.602014999792459 ], [ 134.361649169873317, 33.596389440920007 ], [ 134.363840557795584, 33.592638919050898 ], [ 134.359721218559457, 33.592699829233766 ], [ 134.364489999613852, 33.591466945942841 ], [ 134.363890272318258, 33.588600559268457 ], [ 134.331730558218737, 33.583107775403562 ], [ 134.354486666926164, 33.583475559449539 ], [ 134.363651114707295, 33.580104720556449 ], [ 134.340243061368255, 33.578041666789545 ], [ 134.321686393612254, 33.582731107854386 ], [ 134.317090830077859, 33.58096110806872 ], [ 134.319317781690302, 33.577488892198687 ], [ 134.311411945904638, 33.576654720638885 ], [ 134.308256393917532, 33.566508332793376 ], [ 134.311846589148786, 33.562541801862722 ], [ 134.304645913578156, 33.561976972759112 ], [ 134.31254345041998, 33.562230640032055 ], [ 134.312637782108027, 33.556180279196553 ], [ 134.315092503216533, 33.55841972059369 ], [ 134.319816108626583, 33.555471667383586 ], [ 134.315920271603318, 33.55387082917548 ], [ 134.314036394264235, 33.545613053599595 ], [ 134.30520499421516, 33.549063891685307 ], [ 134.306461946061972, 33.553824441245013 ], [ 134.296355551067904, 33.553110829201444 ], [ 134.295675551185809, 33.557728332596525 ], [ 134.281714721257458, 33.561021945806203 ], [ 134.27358499385241, 33.560572225427904 ], [ 134.270403606141599, 33.554895828779536 ], [ 134.262277224214586, 33.556734161752217 ], [ 134.249516667260423, 33.552882494931225 ], [ 134.241506394104817, 33.55605500003827 ], [ 134.23775555117777, 33.552049162438948 ], [ 134.21847888529237, 33.567610828776765 ], [ 134.193169999695783, 33.561627224616757 ], [ 134.195443061348215, 33.568459721339138 ], [ 134.187767496972469, 33.575768332642497 ], [ 134.184719170253516, 33.588685829387543 ], [ 134.170524720739309, 33.597085278762677 ], [ 134.170239999876117, 33.602114999907371 ], [ 134.175932775876959, 33.607326108013524 ], [ 134.156138612207201, 33.611700558833775 ], [ 134.152105278735689, 33.617200558858769 ], [ 134.15488416317362, 33.623179440678712 ], [ 134.149251388141124, 33.627140829285906 ], [ 134.150224994188193, 33.630551667325619 ], [ 134.184173333032959, 33.649023332960496 ], [ 134.17131194588967, 33.657503892190903 ], [ 134.175349728307424, 33.661593891944619 ], [ 134.168964720745294, 33.670768332992225 ], [ 134.175806109064752, 33.676286946285586 ], [ 134.174782218324822, 33.683991108203145 ], [ 134.163845278736744, 33.68812389230385 ], [ 134.162618611559765, 33.696525278818626 ], [ 134.211055837057302, 33.721702775262941 ], [ 134.234098326776461, 33.719178891792467 ], [ 134.247072503293452, 33.723999161731967 ], [ 134.256711388419944, 33.718819440864536 ], [ 134.281866393719156, 33.731021386627731 ], [ 134.288093606234952, 33.727470559219 ], [ 134.320188612314723, 33.732531946392271 ], [ 134.331869169826405, 33.726951666586217 ], [ 134.336535837359065, 33.730429999644798 ], [ 134.342693061036016, 33.727428333350929 ], [ 134.359987497025486, 33.731336386764895 ], [ 134.36842083015722, 33.72639722465226 ], [ 134.394578885307396, 33.724371667218691 ], [ 134.399880557841584, 33.729088613149031 ], [ 134.401944993866437, 33.73982999965483 ], [ 134.413049442078204, 33.741621666806509 ], [ 134.426211659640444, 33.76131972082851 ], [ 134.449463332566779, 33.766077225283766 ], [ 134.447382217715244, 33.773887494612211 ], [ 134.460224994288069, 33.775371667368631 ], [ 134.465625836862955, 33.779449162049218 ], [ 134.47515583657264, 33.777866946102733 ], [ 134.480586667041166, 33.782109999676777 ], [ 134.480314994441528, 33.786595559037892 ], [ 134.490773332823096, 33.794191667411553 ], [ 134.499303605676914, 33.792360000213876 ], [ 134.525734721080539, 33.800425278603768 ], [ 134.528153606004139, 33.804078613437298 ], [ 134.548293060776246, 33.806196945832426 ], [ 134.561971946048516, 33.793543053868916 ], [ 134.570766667247995, 33.793145279231283 ], [ 134.577379441608059, 33.786297225136877 ], [ 134.588185837406513, 33.785878053829151 ], [ 134.594982503339907, 33.789511667429565 ], [ 134.610166939153032, 33.789251387441652 ], [ 134.622748054379258, 33.799678612877756 ], [ 134.650864162950825, 33.805398053777196 ], [ 134.675597612839624, 33.816110000076492 ], [ 134.67560693880921, 33.816098333171567 ] ] ] ] } }
]
}
