{
"type": "FeatureCollection",
"name": "39_kochi_region",
"crs": { "type": "name", "properties": { "name": "urn:ogc:def:crs:OGC:1.3:CRS84" } },
"features": [
{ "type": "Feature", "properties": { "code": "390011", "name": "高知中央", "PrefCode": "39", "regioncode": "390011" }, "geometry": { "type": "MultiPolygon", "coordinates": [ [ [ [ 133.319931115029021, 33.352656386882813 ], [ 133.32443277585196, 33.350152775030608 ], [ 133.322810829656078, 33.347606666614411 ], [ 133.31988194639473, 33.352653613373604 ], [ 133.319931115029021, 33.352656386882813 ] ] ], [ [ [ 133.308227418860383, 33.35868763982279 ], [ 133.311097497251808, 33.356148612668392 ], [ 133.304324720909221, 33.357455000248137 ], [ 133.308333332917073, 33.358730495216207 ], [ 133.308227418860383, 33.35868763982279 ] ] ], [ [ [ 133.301753060955093, 33.364220278942753 ], [ 133.305067782152491, 33.362231666558216 ], [ 133.301938885171467, 33.357443891822186 ], [ 133.297593605660381, 33.36149333305093 ], [ 133.301674163431926, 33.36423972138607 ], [ 133.301753060955093, 33.364220278942753 ] ] ], [ [ [ 133.291666666883202, 33.375254829147082 ], [ 133.289111388080187, 33.375236107960063 ], [ 133.294360558193262, 33.375383612963446 ], [ 133.291666666883202, 33.375254829147082 ] ] ], [ [ [ 133.282113217351139, 33.377411108435979 ], [ 133.285897030323781, 33.374539946361494 ], [ 133.282249169663487, 33.377540027150587 ], [ 133.282113217351139, 33.377411108435979 ] ] ], [ [ [ 133.448608275351717, 33.448264305553323 ], [ 133.441324994353067, 33.443943000169384 ], [ 133.451178612403055, 33.438107107856808 ], [ 133.441153332660292, 33.442473107747787 ], [ 133.442734967644697, 33.447029108306765 ], [ 133.447914837799544, 33.448361801955627 ], [ 133.448608275351717, 33.448264305553323 ] ] ], [ [ [ 133.586649403447268, 33.499594927963585 ], [ 133.593207782313357, 33.498941639744942 ], [ 133.58259348889851, 33.499342467580846 ], [ 133.585287173364463, 33.499727288383724 ], [ 133.586649403447268, 33.499594927963585 ] ] ], [ [ [ 133.594824345167467, 33.5083333327172 ], [ 133.591294137414593, 33.504748045086274 ], [ 133.595065395851407, 33.508597621882814 ], [ 133.594824345167467, 33.5083333327172 ] ] ], [ [ [ 133.565609637374905, 33.535555918970545 ], [ 133.567782476779939, 33.537328495313886 ], [ 133.565615226661407, 33.535564494905543 ], [ 133.565609637374905, 33.535555918970545 ] ] ], [ [ [ 133.987147224165142, 33.836668612666415 ], [ 133.990407496808643, 33.82765749479762 ], [ 133.997704994290075, 33.821086386927277 ], [ 134.033443606337414, 33.827833332942021 ], [ 134.036978054393785, 33.814979721337124 ], [ 134.033311388010247, 33.809278053739263 ], [ 134.046793060951018, 33.798764441226012 ], [ 134.045988054405257, 33.789520559026641 ], [ 134.058132502912713, 33.781141107875897 ], [ 134.059048054124446, 33.761235000195143 ], [ 134.05606027156432, 33.751654721188459 ], [ 134.061781115406234, 33.735215278762155 ], [ 134.068358884554982, 33.729332774587931 ], [ 134.065037496683203, 33.719452225439909 ], [ 134.035709170341988, 33.711817775370093 ], [ 134.027191945751724, 33.718776386720947 ], [ 134.019364163025784, 33.712304440797368 ], [ 134.001843332603812, 33.712480000151913 ], [ 133.996048327068706, 33.708452225389919 ], [ 133.99058722362156, 33.693532774817754 ], [ 133.976203891296564, 33.687788053975567 ], [ 133.96016000038378, 33.666092225276032 ], [ 133.945765550639749, 33.660962774712345 ], [ 133.944455837367059, 33.65581472077281 ], [ 133.919313061049024, 33.643935828575707 ], [ 133.909142776418093, 33.648711386921036 ], [ 133.903347496589731, 33.645075278601269 ], [ 133.898444994440979, 33.658191666712128 ], [ 133.886446939374764, 33.653009441232768 ], [ 133.876403333247254, 33.641295278754171 ], [ 133.879944448877268, 33.627985828683109 ], [ 133.872443890772956, 33.620182225129611 ], [ 133.875974449261435, 33.612178053874118 ], [ 133.856923890924918, 33.603803054367518 ], [ 133.864577224059758, 33.593414721012607 ], [ 133.843354448648938, 33.576743892017078 ], [ 133.829506667099054, 33.583535558619189 ], [ 133.820542776228194, 33.579991387092889 ], [ 133.817209441762429, 33.57450194600807 ], [ 133.821813061423654, 33.567325829123774 ], [ 133.815435836594702, 33.558169720756041 ], [ 133.80803639376461, 33.557801108434433 ], [ 133.802753061104909, 33.550384162099476 ], [ 133.793623605944731, 33.549236666738807 ], [ 133.785685278552819, 33.53606082894413 ], [ 133.779686394011947, 33.534050279396922 ], [ 133.780672218248355, 33.528484162114466 ], [ 133.769998885240398, 33.51577177464776 ], [ 133.753862970299906, 33.520571774767632 ], [ 133.755028029420032, 33.524663108215918 ], [ 133.749995667865846, 33.527989613230091 ], [ 133.757564916188016, 33.528164441435877 ], [ 133.751565811313185, 33.527895865202083 ], [ 133.756254863870936, 33.531005135378734 ], [ 133.749752048718165, 33.535855386916637 ], [ 133.731209908610481, 33.538736287749543 ], [ 133.723087173434351, 33.536553694297595 ], [ 133.720636225881208, 33.539738666706171 ], [ 133.72150910516109, 33.537010360140073 ], [ 133.703131388103088, 33.537084162104463 ], [ 133.693202866419256, 33.533514332920163 ], [ 133.693463943206439, 33.537417054253694 ], [ 133.690259689333288, 33.536649359680268 ], [ 133.693319170343557, 33.534213000029979 ], [ 133.598764552941816, 33.518986081142771 ], [ 133.590802801807968, 33.515952306353881 ], [ 133.592696148108757, 33.513499514291198 ], [ 133.584147562360158, 33.506239999676268 ], [ 133.586145746229249, 33.508713414092824 ], [ 133.581382244195311, 33.512738999904968 ], [ 133.574568754644361, 33.504556973325691 ], [ 133.565911970561046, 33.500792829425563 ], [ 133.5625748121779, 33.503491387317695 ], [ 133.567074305634719, 33.508998197908568 ], [ 133.563321802559244, 33.507031225011076 ], [ 133.564804889833908, 33.512004585643183 ], [ 133.569285525406713, 33.51098963956025 ], [ 133.573341529887784, 33.515098107791516 ], [ 133.564784915891209, 33.514626774905764 ], [ 133.565382386787746, 33.531181198353693 ], [ 133.566850362754053, 33.535593864964937 ], [ 133.573270700182775, 33.536626640107386 ], [ 133.56951603064033, 33.536370161553748 ], [ 133.571439585168832, 33.539058711790176 ], [ 133.566036978124089, 33.543420000132926 ], [ 133.559008002917039, 33.538754919004361 ], [ 133.552619052727209, 33.540803613296191 ], [ 133.55181858595904, 33.536728494624356 ], [ 133.55999641989888, 33.536096666927676 ], [ 133.561539688905555, 33.531675829076278 ], [ 133.548395720386225, 33.525575946173035 ], [ 133.546435862924795, 33.522122053989676 ], [ 133.551147445298398, 33.520895027083895 ], [ 133.545889856631675, 33.517424081056561 ], [ 133.559666446049732, 33.508476252077401 ], [ 133.557855031584495, 33.498971892039265 ], [ 133.565248494822185, 33.498482532243145 ], [ 133.563862217767223, 33.496459134981137 ], [ 133.583189767294016, 33.500943422700857 ], [ 133.514030142876891, 33.475487828900214 ], [ 133.504132412181093, 33.468903829248347 ], [ 133.508187833901502, 33.468398162045617 ], [ 133.464854162989241, 33.452470801686218 ], [ 133.457021114732697, 33.443218413698901 ], [ 133.455314838209233, 33.449140864859089 ], [ 133.447200116891963, 33.451721613361826 ], [ 133.449541284202951, 33.449674531554422 ], [ 133.441207834274223, 33.449154360085686 ], [ 133.436295135612113, 33.43783025156489 ], [ 133.430562671630014, 33.437209748131409 ], [ 133.423672165937774, 33.439696198221043 ], [ 133.424991777148875, 33.449317801975042 ], [ 133.418631698793888, 33.449363000102437 ], [ 133.41781306122391, 33.443621107628076 ], [ 133.411604149911682, 33.442731170906882 ], [ 133.405734449385363, 33.447576945619574 ], [ 133.405429727599881, 33.442876666824759 ], [ 133.398141115420231, 33.44534055921946 ], [ 133.395611400745565, 33.442442775413781 ], [ 133.400652217725678, 33.442139161593104 ], [ 133.400966666578483, 33.437899162116707 ], [ 133.407917223601089, 33.439214441293473 ], [ 133.405407223864358, 33.43198110774199 ], [ 133.400926667431804, 33.433525559357122 ], [ 133.391028884575462, 33.426542224743912 ], [ 133.386496109008249, 33.428035558893953 ], [ 133.386351659901266, 33.431980828952135 ], [ 133.363883060854619, 33.428157774961392 ], [ 133.360600271885119, 33.421021945906148 ], [ 133.35042861219074, 33.415860829313885 ], [ 133.364534162821428, 33.415822494812346 ], [ 133.364769170061209, 33.411398333066643 ], [ 133.358574085825467, 33.408923252206364 ], [ 133.366454994202741, 33.406651386652243 ], [ 133.370447262831021, 33.411755981753231 ], [ 133.368498611821565, 33.420714161929084 ], [ 133.371596394058429, 33.425087494892011 ], [ 133.373471660388873, 33.42154305356911 ], [ 133.378249727842785, 33.422236386799852 ], [ 133.378176394425168, 33.415131107714501 ], [ 133.384123060730758, 33.410742774959147 ], [ 133.384167497132353, 33.421005278770679 ], [ 133.388925551073385, 33.422084440944218 ], [ 133.392960039274499, 33.417097459180468 ], [ 133.394940557760606, 33.424569999805726 ], [ 133.404141946094001, 33.414598612835789 ], [ 133.402322775875518, 33.423363892030068 ], [ 133.40502111523233, 33.428323332955529 ], [ 133.406408885162023, 33.423626108258361 ], [ 133.410783890863968, 33.424296667057604 ], [ 133.406842218093971, 33.427266946112752 ], [ 133.41189583692335, 33.429287225425185 ], [ 133.410951660290948, 33.434212775399317 ], [ 133.417245278746691, 33.439518892383035 ], [ 133.42373055801886, 33.429295829239152 ], [ 133.428940998828125, 33.430218639778445 ], [ 133.43210221834272, 33.426734441341466 ], [ 133.433765525258877, 33.431799585882231 ], [ 133.435488637990261, 33.428611559376009 ], [ 133.434847108407439, 33.433137919179671 ], [ 133.443451362190672, 33.434895198055017 ], [ 133.440197613229316, 33.436585721154188 ], [ 133.44194591417272, 33.440217054073855 ], [ 133.453912412028217, 33.431882559132873 ], [ 133.462823774397748, 33.430581026992854 ], [ 133.458026549585611, 33.42744980166708 ], [ 133.457398781428651, 33.419957467862901 ], [ 133.445718418170486, 33.421261224925615 ], [ 133.440299170070716, 33.412380279426429 ], [ 133.428894720614949, 33.414994161651293 ], [ 133.429535278930075, 33.407836945818474 ], [ 133.425038885436265, 33.412713053764492 ], [ 133.420188327229539, 33.412296666757811 ], [ 133.42028555113734, 33.40710194609801 ], [ 133.41221805411999, 33.41087889184746 ], [ 133.412483891018837, 33.406058891704561 ], [ 133.407372503338365, 33.403781387401182 ], [ 133.409612775709093, 33.397972495434374 ], [ 133.405151945905686, 33.397421945766212 ], [ 133.401347782174525, 33.404632494993677 ], [ 133.394726666602423, 33.401169161727466 ], [ 133.390267496947445, 33.406001945733237 ], [ 133.376302775652675, 33.401383053784969 ], [ 133.378602218018045, 33.392763891940092 ], [ 133.375572502768819, 33.392886946175679 ], [ 133.371476667314369, 33.402150000122447 ], [ 133.345609442122168, 33.400669162052225 ], [ 133.34012832696078, 33.395848613322926 ], [ 133.342381660185538, 33.392376946039292 ], [ 133.329352217630799, 33.386916667270441 ], [ 133.333251946020596, 33.375916667220451 ], [ 133.326787496845554, 33.36813777523821 ], [ 133.331397223802924, 33.362287775260654 ], [ 133.321731946272394, 33.361882225084685 ], [ 133.319027224426918, 33.354879440833599 ], [ 133.31212555095351, 33.356716387051677 ], [ 133.317669999970576, 33.35932361339411 ], [ 133.311391946081471, 33.366566387129126 ], [ 133.319607781773811, 33.362717775305157 ], [ 133.323758611670655, 33.364929162351018 ], [ 133.319199170305524, 33.370061107634058 ], [ 133.323742776408039, 33.369365829169737 ], [ 133.3209216598068, 33.376045558955411 ], [ 133.324489442134109, 33.379186945721017 ], [ 133.317927496556763, 33.382914441348419 ], [ 133.314076252417181, 33.375847279128664 ], [ 133.306175279265744, 33.380288054050482 ], [ 133.299579363596763, 33.373911027072268 ], [ 133.298807133742343, 33.379544026935321 ], [ 133.289674059710137, 33.381667829007142 ], [ 133.304741803091815, 33.391309919317393 ], [ 133.294172088171422, 33.402636278841271 ], [ 133.294883191106464, 33.405979333179744 ], [ 133.288129441720457, 33.402561865337873 ], [ 133.29564914369314, 33.389638108412043 ], [ 133.28058444901319, 33.385084359755467 ], [ 133.283305641941865, 33.384868775173913 ], [ 133.279142607345534, 33.382717161567825 ], [ 133.281372049180845, 33.376706468029113 ], [ 133.273983358645182, 33.37517022542562 ], [ 133.272742502864276, 33.370141667104292 ], [ 133.268100271710182, 33.371727224931533 ], [ 133.267949727897644, 33.367488333419885 ], [ 133.264273606042138, 33.369867495288702 ], [ 133.259076666754822, 33.366124999868873 ], [ 133.26466555127422, 33.359416945935379 ], [ 133.261883333049468, 33.35334333312835 ], [ 133.26454610871599, 33.350056667181491 ], [ 133.260224720594465, 33.347640278775884 ], [ 133.263972218043477, 33.340603332877549 ], [ 133.243754994397591, 33.357977494665704 ], [ 133.241109727631851, 33.364697225396696 ], [ 133.231243891392523, 33.3692924948528 ], [ 133.227661114668763, 33.379325828923925 ], [ 133.214229728219493, 33.378475000121227 ], [ 133.208608611997875, 33.382195829074305 ], [ 133.19572389104485, 33.377795558718105 ], [ 133.175938326692517, 33.377551387386688 ], [ 133.179126393668184, 33.383127225441172 ], [ 133.175522217576372, 33.39873055916803 ], [ 133.182892502587038, 33.400655828703577 ], [ 133.195860272333789, 33.396499720685597 ], [ 133.209592502691862, 33.404648332954253 ], [ 133.206523333285304, 33.410389441219763 ], [ 133.208108053843716, 33.428751666556195 ], [ 133.248482217780179, 33.431731107904341 ], [ 133.258266938768315, 33.441413891637865 ], [ 133.275019999973097, 33.440691108308044 ], [ 133.296742775958364, 33.452514720977661 ], [ 133.307826666567507, 33.460251108302032 ], [ 133.308103605597012, 33.469766387009201 ], [ 133.318953605924207, 33.472610278941261 ], [ 133.327280829846472, 33.481882774870201 ], [ 133.323428326655971, 33.493314999887389 ], [ 133.341426939002076, 33.506517495386163 ], [ 133.343234993600163, 33.513796386793842 ], [ 133.327671659919247, 33.522980000027019 ], [ 133.328873333137835, 33.535841387170308 ], [ 133.316837496653193, 33.547168054262329 ], [ 133.314574448951703, 33.557239721036353 ], [ 133.310845551281204, 33.558616666725868 ], [ 133.302196939337364, 33.553809440553266 ], [ 133.300768054202422, 33.56357277476377 ], [ 133.296782502610426, 33.565468053707775 ], [ 133.301328884920167, 33.573624721203998 ], [ 133.29868111534131, 33.577892224646519 ], [ 133.306602503103136, 33.580957775181218 ], [ 133.310553332770155, 33.578838612711877 ], [ 133.303809727736848, 33.591825829398545 ], [ 133.28911778225995, 33.585706666829253 ], [ 133.28579360559047, 33.591543053768987 ], [ 133.277875550716203, 33.595156946136228 ], [ 133.280102775722639, 33.60275305361057 ], [ 133.2659880538057, 33.612885558621713 ], [ 133.246669727725816, 33.609025829378595 ], [ 133.237469727945609, 33.602021946155958 ], [ 133.22714194594414, 33.60628333330925 ], [ 133.222072217558889, 33.629740000400773 ], [ 133.234822503355872, 33.638782224919794 ], [ 133.233507496673724, 33.64906722527229 ], [ 133.225767781857712, 33.661546387056148 ], [ 133.228660272253819, 33.679219720913466 ], [ 133.220240830050329, 33.685950278582538 ], [ 133.211938885171435, 33.686274162222844 ], [ 133.206885551427149, 33.693117225079902 ], [ 133.193716108711556, 33.70038582914276 ], [ 133.174438326767472, 33.707493054361009 ], [ 133.166173060738174, 33.719640000285835 ], [ 133.167523891014866, 33.727673054168179 ], [ 133.159357782435791, 33.733708053683756 ], [ 133.157806666844294, 33.750245279396154 ], [ 133.182622217641324, 33.766564720785311 ], [ 133.192846394145818, 33.793858054006023 ], [ 133.205712776123733, 33.794513613012896 ], [ 133.219844449361858, 33.780430558923229 ], [ 133.236920557837493, 33.782725000158678 ], [ 133.25718027175219, 33.793863333026422 ], [ 133.262443332793623, 33.804736667163525 ], [ 133.260703332592811, 33.810967494953957 ], [ 133.269213332928985, 33.825618333319483 ], [ 133.282219441673988, 33.831970558794296 ], [ 133.293360830438019, 33.828882224834842 ], [ 133.310275278581344, 33.81588000026187 ], [ 133.326331387683467, 33.814763613350124 ], [ 133.335516393966486, 33.803630558603459 ], [ 133.349450558096805, 33.798131667442533 ], [ 133.359063605700953, 33.789549440754115 ], [ 133.350948611888953, 33.782756107708281 ], [ 133.364564449290015, 33.773381667330113 ], [ 133.36830583674498, 33.755039162327535 ], [ 133.359101945598354, 33.748278332579048 ], [ 133.363424721373804, 33.74193610756538 ], [ 133.360109170102191, 33.73130194632779 ], [ 133.369860557718653, 33.726354162414736 ], [ 133.368933060812196, 33.719053892323302 ], [ 133.380584993802472, 33.713791666752059 ], [ 133.385463606360418, 33.70756277520195 ], [ 133.382873605632426, 33.703116107922085 ], [ 133.399437223748919, 33.697119162319552 ], [ 133.396084448638476, 33.680703333392159 ], [ 133.435170000095468, 33.69392082868336 ], [ 133.446029728389362, 33.686155558732082 ], [ 133.449434449240471, 33.672270829435263 ], [ 133.463605550555826, 33.661866107734738 ], [ 133.473424994368088, 33.671193892184419 ], [ 133.505801946003089, 33.669816387116612 ], [ 133.515920829882475, 33.682032224707484 ], [ 133.535614720942704, 33.677920829182995 ], [ 133.540289441904292, 33.665087494592228 ], [ 133.548702775912489, 33.662911946429233 ], [ 133.565270000310306, 33.668893332861046 ], [ 133.565829441575488, 33.682984441279018 ], [ 133.559865837438565, 33.692536387144628 ], [ 133.578049728112546, 33.699333332767139 ], [ 133.583378884827766, 33.705644441238007 ], [ 133.590533891026325, 33.705888054090451 ], [ 133.595753605644404, 33.701721945611325 ], [ 133.610716667040606, 33.704960558982634 ], [ 133.621369169951322, 33.714346107786696 ], [ 133.634269999560843, 33.716828892239619 ], [ 133.639599442260533, 33.72140389187615 ], [ 133.674277782393801, 33.69741138712584 ], [ 133.685090000403306, 33.68470777524368 ], [ 133.691321387572088, 33.683819999593368 ], [ 133.703554720573948, 33.694567774882955 ], [ 133.721580829691561, 33.701317224610307 ], [ 133.73401138761551, 33.710470278880337 ], [ 133.736801115179333, 33.722015000092256 ], [ 133.751249728392281, 33.731111387180817 ], [ 133.771287224325988, 33.733388333005223 ], [ 133.776075551245754, 33.725322225440379 ], [ 133.784243605957727, 33.724289161615559 ], [ 133.786218884993559, 33.731331945912643 ], [ 133.805334994014856, 33.746965279224298 ], [ 133.811990829713068, 33.749112225348995 ], [ 133.815954721133494, 33.744170000145459 ], [ 133.823583606198554, 33.754276666734825 ], [ 133.832167224138175, 33.755629721034836 ], [ 133.831554448579027, 33.762459161860875 ], [ 133.840730557869051, 33.772499721085296 ], [ 133.854307781978605, 33.774837224558325 ], [ 133.853761945657311, 33.784339999991062 ], [ 133.863104449310981, 33.787748891897877 ], [ 133.872135279419695, 33.805219441224267 ], [ 133.893375278646204, 33.804936386804854 ], [ 133.901365836863988, 33.794013053959304 ], [ 133.907998884640847, 33.79522527892351 ], [ 133.913389727653907, 33.791181387411143 ], [ 133.924878326673479, 33.800609162083219 ], [ 133.941260830323131, 33.799158053801193 ], [ 133.947473606022186, 33.803744161863619 ], [ 133.952730000389238, 33.815493333150869 ], [ 133.951085837341566, 33.828925000188633 ], [ 133.957833606236022, 33.833862494958225 ], [ 133.983116394406125, 33.840798332776899 ], [ 133.987351659851242, 33.837124441240007 ], [ 133.987147224165142, 33.836668612666415 ] ] ] ] } },
{ "type": "Feature", "properties": { "code": "390012", "name": "嶺北", "PrefCode": "39", "regioncode": "390012" }, "geometry": { "type": "Polygon", "coordinates": [ [ [ 133.644280272316792, 33.882996667162502 ], [ 133.660748054179408, 33.881809161863373 ], [ 133.662910271691771, 33.870345278911543 ], [ 133.67729277574108, 33.858579441388144 ], [ 133.694633332562262, 33.856403612636655 ], [ 133.701571659704427, 33.849806107865618 ], [ 133.738003890966866, 33.849856108372762 ], [ 133.74800027189508, 33.836778053864123 ], [ 133.785659441929738, 33.842413613197721 ], [ 133.788580000166917, 33.836243891642312 ], [ 133.817772776192783, 33.837321387372185 ], [ 133.828488053580827, 33.844748891747997 ], [ 133.838421660031599, 33.845268332967237 ], [ 133.844534994094715, 33.837505000155659 ], [ 133.853658054175867, 33.834571667048863 ], [ 133.873514449132585, 33.805922774916155 ], [ 133.863104449310981, 33.787748891897877 ], [ 133.853761945657311, 33.784339999991062 ], [ 133.854307781978605, 33.774837224558325 ], [ 133.840730557869051, 33.772499721085296 ], [ 133.831554448579027, 33.762459161860875 ], [ 133.832167224138175, 33.755629721034836 ], [ 133.823583606198554, 33.754276666734825 ], [ 133.815954721133494, 33.744170000145459 ], [ 133.811990829713068, 33.749112225348995 ], [ 133.805334994014856, 33.746965279224298 ], [ 133.786218884993559, 33.731331945912643 ], [ 133.784243605957727, 33.724289161615559 ], [ 133.776075551245754, 33.725322225440379 ], [ 133.771287224325988, 33.733388333005223 ], [ 133.751249728392281, 33.731111387180817 ], [ 133.736801115179333, 33.722015000092256 ], [ 133.73401138761551, 33.710470278880337 ], [ 133.721580829691561, 33.701317224610307 ], [ 133.703554720573948, 33.694567774882955 ], [ 133.691321387572088, 33.683819999593368 ], [ 133.685090000403306, 33.68470777524368 ], [ 133.674277782393801, 33.69741138712584 ], [ 133.639599442260533, 33.72140389187615 ], [ 133.634269999560843, 33.716828892239619 ], [ 133.621369169951322, 33.714346107786696 ], [ 133.610716667040606, 33.704960558982634 ], [ 133.595753605644404, 33.701721945611325 ], [ 133.590533891026325, 33.705888054090451 ], [ 133.583378884827766, 33.705644441238007 ], [ 133.578049728112546, 33.699333332767139 ], [ 133.559865837438565, 33.692536387144628 ], [ 133.565867223893292, 33.682729720899943 ], [ 133.56339499388389, 33.66600805412844 ], [ 133.541127224242018, 33.664542224843842 ], [ 133.535614720942704, 33.677920829182995 ], [ 133.515769441606494, 33.682027495172804 ], [ 133.505801946003089, 33.669816387116612 ], [ 133.473424994368088, 33.671193892184419 ], [ 133.464687782115561, 33.661644441038163 ], [ 133.449434449240471, 33.672270829435263 ], [ 133.446029728389362, 33.686155558732082 ], [ 133.435170000095468, 33.69392082868336 ], [ 133.396084448638476, 33.680703333392159 ], [ 133.399437223748919, 33.697119162319552 ], [ 133.382873605632426, 33.703116107922085 ], [ 133.385463606360418, 33.70756277520195 ], [ 133.380584993802472, 33.713791666752059 ], [ 133.368933060812196, 33.719053892323302 ], [ 133.369860557718653, 33.726354162414736 ], [ 133.360109170102191, 33.73130194632779 ], [ 133.363424721373804, 33.74193610756538 ], [ 133.359101945598354, 33.748278332579048 ], [ 133.36830583674498, 33.755039162327535 ], [ 133.364564449290015, 33.773381667330113 ], [ 133.350948611888953, 33.782756107708281 ], [ 133.359063605700953, 33.789549440754115 ], [ 133.32683444865097, 33.811999720610686 ], [ 133.333384449432856, 33.821374721266409 ], [ 133.345613605983203, 33.824819441264253 ], [ 133.356070271625754, 33.83439055887726 ], [ 133.391407223964279, 33.824313891872691 ], [ 133.400833333091896, 33.83623694617819 ], [ 133.415306394374625, 33.839914999777477 ], [ 133.449014162773437, 33.833225279423175 ], [ 133.454574993840993, 33.836896386658964 ], [ 133.463161659582966, 33.834480278841852 ], [ 133.470499169700929, 33.836789720769048 ], [ 133.486620557892479, 33.82970666662942 ], [ 133.491872775808019, 33.832376667449296 ], [ 133.499280558051396, 33.829131107714488 ], [ 133.507948053959581, 33.835771946318346 ], [ 133.509404994345118, 33.848217495041411 ], [ 133.518105278635744, 33.847334721420282 ], [ 133.526354162614552, 33.853660828784257 ], [ 133.52541472091275, 33.861020829148003 ], [ 133.536086108687073, 33.865823612669658 ], [ 133.540196394448117, 33.878684441333974 ], [ 133.556867496837526, 33.882329161561586 ], [ 133.571320558097341, 33.869634441276503 ], [ 133.583034448980698, 33.867650278737415 ], [ 133.597640557765544, 33.880239720786562 ], [ 133.610895278694215, 33.880808613027114 ], [ 133.627308326917841, 33.872030828759819 ], [ 133.635251659936216, 33.880199441051388 ], [ 133.644069441551551, 33.88302582857915 ], [ 133.644280272316792, 33.882996667162502 ] ] ] } },
{ "type": "Feature", "properties": { "code": "390013", "name": "高吾北", "PrefCode": "39", "regioncode": "390013" }, "geometry": { "type": "Polygon", "coordinates": [ [ [ 133.185286393552246, 33.701644720827233 ], [ 133.193716108711556, 33.70038582914276 ], [ 133.206885551427149, 33.693117225079902 ], [ 133.211938885171435, 33.686274162222844 ], [ 133.220240830050329, 33.685950278582538 ], [ 133.228660272253819, 33.679219720913466 ], [ 133.225767781857712, 33.661546387056148 ], [ 133.233507496673724, 33.64906722527229 ], [ 133.234822503355872, 33.638782224919794 ], [ 133.222072217558889, 33.629740000400773 ], [ 133.228269442181045, 33.605045278916521 ], [ 133.237469727945609, 33.602021946155958 ], [ 133.246669727725816, 33.609025829378595 ], [ 133.2659880538057, 33.612885558621713 ], [ 133.280102775722639, 33.60275305361057 ], [ 133.277875550716203, 33.595156946136228 ], [ 133.28579360559047, 33.591543053768987 ], [ 133.28911778225995, 33.585706666829253 ], [ 133.304557224436394, 33.59091361287301 ], [ 133.310553332770155, 33.578838612711877 ], [ 133.306602503103136, 33.580957775181218 ], [ 133.29868111534131, 33.577892224646519 ], [ 133.301328884920167, 33.573624721203998 ], [ 133.296782502610426, 33.565468053707775 ], [ 133.300768054202422, 33.56357277476377 ], [ 133.302196939337364, 33.553809440553266 ], [ 133.310845551281204, 33.558616666725868 ], [ 133.314574448951703, 33.557239721036353 ], [ 133.316837496653193, 33.547168054262329 ], [ 133.328873333137835, 33.535841387170308 ], [ 133.327671659919247, 33.522980000027019 ], [ 133.343209169567558, 33.51400638658555 ], [ 133.341426939002076, 33.506517495386163 ], [ 133.323428326655971, 33.493314999887389 ], [ 133.327280829846472, 33.481882774870201 ], [ 133.318953605924207, 33.472610278941261 ], [ 133.308103605597012, 33.469766387009201 ], [ 133.307864448885312, 33.460319999968078 ], [ 133.302712217594831, 33.456413333308717 ], [ 133.271297781567455, 33.440288613129042 ], [ 133.25777333327278, 33.441588333135144 ], [ 133.250878327373016, 33.446321667411098 ], [ 133.249528053776771, 33.45453805438774 ], [ 133.233812502644923, 33.461383891653327 ], [ 133.22114610920562, 33.46191000044621 ], [ 133.214553060575327, 33.466824162305272 ], [ 133.205899442105647, 33.466627774652125 ], [ 133.196819441564003, 33.474282775130007 ], [ 133.190375836875432, 33.470845559075315 ], [ 133.183132217777711, 33.472518333154596 ], [ 133.175608326762926, 33.464367495063925 ], [ 133.158359999914182, 33.466888891908866 ], [ 133.151097496852117, 33.460956945706528 ], [ 133.123299727600397, 33.455599999940091 ], [ 133.101205278900579, 33.442749161844404 ], [ 133.090057781941141, 33.452065559078335 ], [ 133.073418054199919, 33.452545279041431 ], [ 133.068283332709711, 33.465780829122025 ], [ 133.060231115173906, 33.47033972100138 ], [ 133.058801945853133, 33.479738053668314 ], [ 133.044221946185985, 33.474530559038101 ], [ 133.033971388069176, 33.479993053736507 ], [ 133.015364163125696, 33.481005828855984 ], [ 133.013290271628762, 33.490437225097935 ], [ 133.034395279019009, 33.511991666881954 ], [ 133.037795836908458, 33.526233613190755 ], [ 133.064139999561348, 33.542509720747091 ], [ 133.060252217765651, 33.55409027904318 ], [ 133.062326939336799, 33.561623053561107 ], [ 133.046592503341458, 33.576328053596853 ], [ 133.056610830425598, 33.59575472100363 ], [ 133.079620000262821, 33.608699720815537 ], [ 133.067234448910767, 33.621665000339533 ], [ 133.07533083035355, 33.651053333044956 ], [ 133.090598611736596, 33.657828613100094 ], [ 133.106661660007717, 33.65665110826211 ], [ 133.116611115210844, 33.660217775430056 ], [ 133.121511946419218, 33.674126945602097 ], [ 133.120284449168025, 33.690608053618803 ], [ 133.125322218345786, 33.698325828574184 ], [ 133.144393333385665, 33.704446946269627 ], [ 133.139817223985801, 33.71569110775846 ], [ 133.160370830049828, 33.731229999664777 ], [ 133.167216108836442, 33.728439720816539 ], [ 133.166124162799974, 33.719761108388468 ], [ 133.174142502874247, 33.707742775408803 ], [ 133.184886667385854, 33.701798054336791 ], [ 133.185286393552246, 33.701644720827233 ] ] ] } },
{ "type": "Feature", "properties": { "code": "390021", "name": "室戸", "PrefCode": "39", "regioncode": "390021" }, "geometry": { "type": "MultiPolygon", "coordinates": [ [ [ [ 134.159345226800838, 33.262053693623102 ], [ 134.162300700317132, 33.261829305578033 ], [ 134.159258715617284, 33.261862081369998 ], [ 134.159345226800838, 33.262053693623102 ] ] ], [ [ [ 134.135821971207065, 33.285077945990452 ], [ 134.141048170836484, 33.284431972857305 ], [ 134.135722477410468, 33.284869693581527 ], [ 134.135821971207065, 33.285077945990452 ] ] ], [ [ [ 134.310059001321861, 33.539959801903365 ], [ 134.314010999208335, 33.53815610811796 ], [ 134.310031777044969, 33.539971440929321 ], [ 134.310059001321861, 33.539959801903365 ] ] ], [ [ [ 134.218706108899823, 33.567537495359147 ], [ 134.23775555117777, 33.552049162438948 ], [ 134.241506394104817, 33.55605500003827 ], [ 134.249516667260423, 33.552882494931225 ], [ 134.262277224214586, 33.556734161752217 ], [ 134.270403606141599, 33.554895828779536 ], [ 134.27358499385241, 33.560572225427904 ], [ 134.281714721257458, 33.561021945806203 ], [ 134.295675551185809, 33.557728332596525 ], [ 134.296355551067904, 33.553110829201444 ], [ 134.306832502717839, 33.553209440763112 ], [ 134.304422087609282, 33.545385386626322 ], [ 134.301787224201121, 33.549644440938266 ], [ 134.296955746010894, 33.547551359707541 ], [ 134.304539857428495, 33.541673225339139 ], [ 134.297775162393918, 33.540891279209234 ], [ 134.30119605665277, 33.538738919165837 ], [ 134.298168521360253, 33.537403026628454 ], [ 134.293074475306867, 33.541983720772123 ], [ 134.291025836772974, 33.532684720923157 ], [ 134.285027976559945, 33.529911027372066 ], [ 134.283416939140466, 33.523012495230546 ], [ 134.289839856724029, 33.520367027016732 ], [ 134.288078326753407, 33.51750749497495 ], [ 134.270359442234508, 33.502845558975423 ], [ 134.268052969868677, 33.494288864939222 ], [ 134.256558611590663, 33.485201945913104 ], [ 134.2420849936276, 33.463917494996451 ], [ 134.241333060572401, 33.45013972117124 ], [ 134.213370829600194, 33.404032225406922 ], [ 134.211437562393598, 33.392557666603068 ], [ 134.20884927397492, 33.395686999755299 ], [ 134.213754993897965, 33.389533332897031 ], [ 134.213349441923242, 33.382220278942782 ], [ 134.205523891314556, 33.368607494740161 ], [ 134.198729442210038, 33.344273892426258 ], [ 134.196516472357416, 33.325581053822646 ], [ 134.198998754988565, 33.3248876396529 ], [ 134.193348612248769, 33.319563612670663 ], [ 134.192919390117822, 33.307753197552074 ], [ 134.186479728057066, 33.294391747780992 ], [ 134.183897471391219, 33.260450667364466 ], [ 134.18679775621149, 33.262063802002899 ], [ 134.181571088934675, 33.249199278923641 ], [ 134.175615031908251, 33.244017054343658 ], [ 134.162531725358917, 33.262399080952889 ], [ 134.16755966314804, 33.260388197757152 ], [ 134.164834694865363, 33.2673132248255 ], [ 134.162960051765026, 33.263510386695032 ], [ 134.15941569407903, 33.267815945849293 ], [ 134.160105939937239, 33.262896999596933 ], [ 134.160559052558256, 33.269732494658967 ], [ 134.15191708210773, 33.281735495097053 ], [ 134.141920363034387, 33.286408694405793 ], [ 134.153384837740077, 33.282701134949491 ], [ 134.144476783077153, 33.286087053674635 ], [ 134.136421050990748, 33.29693030638856 ], [ 134.121147056191717, 33.299098586230798 ], [ 134.113588586244305, 33.293538774994545 ], [ 134.106488755251917, 33.296894278648097 ], [ 134.110185616373201, 33.295956333418133 ], [ 134.107347808354689, 33.297402829077328 ], [ 134.109853696391042, 33.305610305571179 ], [ 134.101876939169415, 33.328404999691031 ], [ 134.080527782031595, 33.337314720797792 ], [ 134.061952776199746, 33.362377495225303 ], [ 134.049565746362191, 33.370521720601005 ], [ 134.038398326721449, 33.369671945803702 ], [ 134.033655551362699, 33.378217224745185 ], [ 134.052548612328678, 33.391697775332091 ], [ 134.06600165984878, 33.395943053828944 ], [ 134.070850557906965, 33.405051945990579 ], [ 134.068765836773991, 33.408023612699594 ], [ 134.086839170191638, 33.416620278902826 ], [ 134.087239999826238, 33.427543612647639 ], [ 134.095771115344746, 33.432862224811856 ], [ 134.095006667323901, 33.439653332934995 ], [ 134.107367223818414, 33.443172495214526 ], [ 134.112554993618119, 33.457563333281257 ], [ 134.118623332800667, 33.459474999671556 ], [ 134.131742503413875, 33.474585000397497 ], [ 134.144255279157846, 33.468283612698599 ], [ 134.155759727829263, 33.477528892444468 ], [ 134.195064448565518, 33.487686946295582 ], [ 134.19906888502112, 33.493191108382973 ], [ 134.194414720762779, 33.501914721087587 ], [ 134.210070000230417, 33.496939999781205 ], [ 134.210316108701477, 33.504991107553622 ], [ 134.215865550754643, 33.512793333345712 ], [ 134.201038054063019, 33.525656386932781 ], [ 134.201038326557637, 33.534099162046743 ], [ 134.193026394152866, 33.537804721410794 ], [ 134.198488054280347, 33.551485559111313 ], [ 134.195788327269497, 33.560817494831554 ], [ 134.21847888529237, 33.567610828776765 ], [ 134.218706108899823, 33.567537495359147 ] ] ] ] } },
{ "type": "Feature", "properties": { "code": "390022", "name": "安芸", "PrefCode": "39", "regioncode": "390022" }, "geometry": { "type": "Polygon", "coordinates": [ [ [ 134.067911893619112, 33.715051053963009 ], [ 134.070101660063642, 33.711195829424014 ], [ 134.064714994401584, 33.706554440934781 ], [ 134.064761946206886, 33.698224440805348 ], [ 134.0566349941098, 33.694049161939347 ], [ 134.058261114958555, 33.69085472056895 ], [ 134.0670397284008, 33.688651666641135 ], [ 134.126012217589846, 33.695906108180395 ], [ 134.147706666729391, 33.684946666655378 ], [ 134.163845278736744, 33.68812389230385 ], [ 134.174654162959314, 33.684285279142387 ], [ 134.175806109064752, 33.676286946285586 ], [ 134.168964720745294, 33.670768332992225 ], [ 134.175349728307424, 33.661593891944619 ], [ 134.17131194588967, 33.657503892190903 ], [ 134.184173333032959, 33.649023332960496 ], [ 134.163985278897599, 33.635446667329859 ], [ 134.151251387741468, 33.631218612648922 ], [ 134.149251388141124, 33.627140829285906 ], [ 134.15488416317362, 33.623179440678712 ], [ 134.152105278735689, 33.617200558858769 ], [ 134.1559555507082, 33.611788613253964 ], [ 134.175932775876959, 33.607326108013524 ], [ 134.170239999876117, 33.602114999907371 ], [ 134.170577224059684, 33.596972494784836 ], [ 134.184719170253516, 33.588685829387543 ], [ 134.187767496972469, 33.575768332642497 ], [ 134.195443061348215, 33.568459721339138 ], [ 134.193169999695783, 33.561627224616757 ], [ 134.198488054280347, 33.551485559111313 ], [ 134.193131945782739, 33.537259720559689 ], [ 134.201038326557637, 33.534099162046743 ], [ 134.201038054063019, 33.525656386932781 ], [ 134.215971114974991, 33.51253555886899 ], [ 134.210316108701477, 33.504991107553622 ], [ 134.210070000230417, 33.496939999781205 ], [ 134.194356939321324, 33.501885828568163 ], [ 134.19906888502112, 33.492988332845357 ], [ 134.191854162939308, 33.485776386970713 ], [ 134.175617782035033, 33.484449720578198 ], [ 134.169274720651856, 33.479266666823264 ], [ 134.155759727829263, 33.477528892444468 ], [ 134.144255279157846, 33.468283612698599 ], [ 134.131742503413875, 33.474585000397497 ], [ 134.118623332800667, 33.459474999671556 ], [ 134.112554993618119, 33.457563333281257 ], [ 134.107367223818414, 33.443172495214526 ], [ 134.095006667323901, 33.439653332934995 ], [ 134.095771115344746, 33.432862224811856 ], [ 134.087239999826238, 33.427543612647639 ], [ 134.086839170191638, 33.416620278902826 ], [ 134.068765836773991, 33.408023612699594 ], [ 134.070850557906965, 33.405051945990579 ], [ 134.06600165984878, 33.395943053828944 ], [ 134.052548612328678, 33.391697775332091 ], [ 134.033767497172335, 33.378411107786462 ], [ 134.037806108764926, 33.393819721203215 ], [ 134.031124994023344, 33.41234194582421 ], [ 134.014012218389212, 33.419335828585645 ], [ 134.01979360638984, 33.420140828836225 ], [ 134.015148885013105, 33.424042224569064 ], [ 134.012441725105646, 33.419665000239604 ], [ 133.972961945937072, 33.438963224673159 ], [ 133.957768144584293, 33.441830802049935 ], [ 133.941530012700014, 33.463242936912081 ], [ 133.944254188679906, 33.475329900754389 ], [ 133.931793384756929, 33.488675892078788 ], [ 133.886098521329814, 33.498656604119049 ], [ 133.892225772401503, 33.499531207399343 ], [ 133.889577652087041, 33.501216694295067 ], [ 133.881985435079855, 33.502185387345776 ], [ 133.884844955430367, 33.499249757370478 ], [ 133.880644955100706, 33.502639278779725 ], [ 133.843138612257235, 33.506314027370536 ], [ 133.830133606081063, 33.513924999739004 ], [ 133.780686939250927, 33.51701138666624 ], [ 133.770177275660785, 33.514012865301538 ], [ 133.770649442218087, 33.518621666856518 ], [ 133.780672218248355, 33.528484162114466 ], [ 133.779624993698576, 33.533961108018786 ], [ 133.785685278552819, 33.53606082894413 ], [ 133.793623605944731, 33.549236666738807 ], [ 133.802753061104909, 33.550384162099476 ], [ 133.80803639376461, 33.557801108434433 ], [ 133.815435836594702, 33.558169720756041 ], [ 133.821813061423654, 33.567325829123774 ], [ 133.817209441762429, 33.57450194600807 ], [ 133.820542776228194, 33.579991387092889 ], [ 133.829506667099054, 33.583535558619189 ], [ 133.843354448648938, 33.576743892017078 ], [ 133.864577224059758, 33.593414721012607 ], [ 133.856923890924918, 33.603803054367518 ], [ 133.875974449261435, 33.612178053874118 ], [ 133.872443890772956, 33.620182225129611 ], [ 133.879944448877268, 33.627985828683109 ], [ 133.876403333247254, 33.641295278754171 ], [ 133.886446939374764, 33.653009441232768 ], [ 133.898444994440979, 33.658191666712128 ], [ 133.903347496589731, 33.645075278601269 ], [ 133.909142776418093, 33.648711386921036 ], [ 133.919313061049024, 33.643935828575707 ], [ 133.944455837367059, 33.65581472077281 ], [ 133.945765550639749, 33.660962774712345 ], [ 133.96016000038378, 33.666092225276032 ], [ 133.976203891296564, 33.687788053975567 ], [ 133.99058722362156, 33.693532774817754 ], [ 133.996048327068706, 33.708452225389919 ], [ 134.001843332603812, 33.712480000151913 ], [ 134.019364163025784, 33.712304440797368 ], [ 134.025275550726178, 33.718750559091063 ], [ 134.035709170341988, 33.711817775370093 ], [ 134.061949728397281, 33.720347495140857 ], [ 134.06701499434655, 33.715512774894705 ], [ 134.067911893619112, 33.715051053963009 ] ] ] } },
{ "type": "Feature", "properties": { "code": "390031", "name": "幡多", "PrefCode": "39", "regioncode": "390031" }, "geometry": { "type": "MultiPolygon", "coordinates": [ [ [ [ 132.489819999693282, 32.743548333189096 ], [ 132.494632503087587, 32.739717775255201 ], [ 132.483315837356031, 32.734366387298962 ], [ 132.489736666713839, 32.743584162179388 ], [ 132.489819999693282, 32.743548333189096 ] ] ], [ [ [ 132.601534162871417, 32.748408333377938 ], [ 132.604150557802086, 32.744990558867244 ], [ 132.598540829695594, 32.744959441425124 ], [ 132.601492776070813, 32.748412224744413 ], [ 132.601534162871417, 32.748408333377938 ] ] ], [ [ [ 132.545642217714203, 32.755148054239385 ], [ 132.552448885008062, 32.747191108183131 ], [ 132.55829749733175, 32.748506945838926 ], [ 132.558234994449549, 32.742655279417647 ], [ 132.567243333413217, 32.740728892024777 ], [ 132.571236394344169, 32.736143053758951 ], [ 132.566611387905255, 32.727128054416255 ], [ 132.573031114694231, 32.716522774906196 ], [ 132.571763890790976, 32.713356946366048 ], [ 132.543138884651853, 32.702502224598049 ], [ 132.540434162806378, 32.706708612812292 ], [ 132.549418053700265, 32.712037774923431 ], [ 132.550546394400612, 32.716602774998137 ], [ 132.534570830379607, 32.729657775386102 ], [ 132.542130830073802, 32.730941667324146 ], [ 132.543054449103579, 32.736519721308127 ], [ 132.548153061015, 32.73894666685527 ], [ 132.54406306126134, 32.742641386690707 ], [ 132.547240557605733, 32.746497224567293 ], [ 132.543704720996175, 32.750904441286991 ], [ 132.545576108550677, 32.755177775034326 ], [ 132.545642217714203, 32.755148054239385 ] ] ], [ [ [ 132.625202218307777, 32.756779440618743 ], [ 132.626893333160865, 32.754842225388415 ], [ 132.625132217777718, 32.756794999789463 ], [ 132.625202218307777, 32.756779440618743 ] ] ], [ [ [ 132.556604993925362, 32.768403332747653 ], [ 132.55812333282563, 32.766391945931616 ], [ 132.55654832674395, 32.768410558800326 ], [ 132.556604993925362, 32.768403332747653 ] ] ], [ [ [ 132.629358327225077, 32.772458613274409 ], [ 132.62630944202715, 32.769493053861424 ], [ 132.629919728113009, 32.767135278770127 ], [ 132.61749527928373, 32.76556249491324 ], [ 132.620521388251518, 32.771462775087059 ], [ 132.629329441900268, 32.772563612720603 ], [ 132.629358327225077, 32.772458613274409 ] ] ], [ [ [ 132.857638079633716, 32.785454774618188 ], [ 132.857260725901824, 32.782788774882079 ], [ 132.857610947087551, 32.78545605435346 ], [ 132.857638079633716, 32.785454774618188 ] ] ], [ [ [ 132.487470271735674, 32.807625278983494 ], [ 132.499947497279209, 32.805255828893451 ], [ 132.494207223584567, 32.80135222532499 ], [ 132.496748053879628, 32.797334720820743 ], [ 132.480146109355474, 32.79693222474242 ], [ 132.48739250286178, 32.807646386971214 ], [ 132.487470271735674, 32.807625278983494 ] ] ], [ [ [ 132.695849104652552, 32.918729585801771 ], [ 132.703982555250832, 32.917863278767356 ], [ 132.704964423369461, 32.914668108046783 ], [ 132.696044475172471, 32.910180359735875 ], [ 132.687900635605956, 32.914234224729739 ], [ 132.687888080170865, 32.918483532189327 ], [ 132.695828223293915, 32.918726748440747 ], [ 132.695849104652552, 32.918729585801771 ] ] ], [ [ [ 132.657560557573788, 32.918640278626015 ], [ 132.659094163365012, 32.914893333360681 ], [ 132.653151388425954, 32.914634162236837 ], [ 132.657414449217526, 32.918702224827882 ], [ 132.657560557573788, 32.918640278626015 ] ] ], [ [ [ 132.663089170428975, 32.921108054293313 ], [ 132.666501945608388, 32.917257224741206 ], [ 132.66295972830892, 32.917670829245424 ], [ 132.662948885182914, 32.921106946328564 ], [ 132.663089170428975, 32.921108054293313 ] ] ], [ [ [ 132.703971659964168, 32.922534441111623 ], [ 132.705096004976667, 32.919574559118644 ], [ 132.703951284024583, 32.922534306213322 ], [ 132.703971659964168, 32.922534441111623 ] ] ], [ [ [ 132.693447029856657, 32.926314801586898 ], [ 132.692739274198175, 32.92257605364199 ], [ 132.693392412230082, 32.92634735974292 ], [ 132.693447029856657, 32.926314801586898 ] ] ], [ [ [ 133.058057392634623, 33.034944999712025 ], [ 133.054951894214582, 33.034909197701381 ], [ 133.057848079925066, 33.034943945706573 ], [ 133.058057392634623, 33.034944999712025 ] ] ], [ [ [ 133.120704500912098, 33.076033441190418 ], [ 133.116360052374603, 33.072406162414495 ], [ 133.12052394312559, 33.076105612683932 ], [ 133.120704500912098, 33.076033441190418 ] ] ], [ [ [ 132.804668326781893, 33.235789441129839 ], [ 132.827456938786781, 33.237755828568709 ], [ 132.822998054216896, 33.222706387289975 ], [ 132.81804027164128, 33.220713612842985 ], [ 132.817647497234248, 33.213892495242533 ], [ 132.824511945969562, 33.206724161990508 ], [ 132.818798053887122, 33.192049999707763 ], [ 132.841040000395765, 33.188103333002459 ], [ 132.861324994253096, 33.177082775349845 ], [ 132.877623606444331, 33.179560000193931 ], [ 132.880960271999015, 33.169786386732426 ], [ 132.876869169676525, 33.15916082930886 ], [ 132.899135550765095, 33.144187225160351 ], [ 132.935359169889807, 33.13752889204477 ], [ 132.940281387875757, 33.1452913866882 ], [ 132.950653891364027, 33.149145828816984 ], [ 132.962933332607236, 33.147738891636607 ], [ 132.9727152791869, 33.160906107630808 ], [ 132.984674720961721, 33.157336107575361 ], [ 132.994037223738928, 33.16013555860917 ], [ 133.00252555131317, 33.155906946348523 ], [ 133.000398327321022, 33.150978053594372 ], [ 133.004233890881437, 33.14670361278155 ], [ 133.022418885023626, 33.15014694602479 ], [ 133.034938054047984, 33.13913889164661 ], [ 133.056937781653346, 33.133384162249342 ], [ 133.051344720682323, 33.122666387443871 ], [ 133.058909727801733, 33.117801946402778 ], [ 133.071597223832896, 33.123739721111292 ], [ 133.075512218214385, 33.147228892399539 ], [ 133.095407782243456, 33.143533891975608 ], [ 133.094439441726877, 33.150181387361215 ], [ 133.089410557851011, 33.154084999922873 ], [ 133.09859610912315, 33.164857225080937 ], [ 133.111400272404694, 33.163570558734364 ], [ 133.117020271668252, 33.158762224597012 ], [ 133.126019999623395, 33.162489721123791 ], [ 133.130763605955735, 33.169720828853201 ], [ 133.134639999636306, 33.166909162328011 ], [ 133.143237224318455, 33.169655000278112 ], [ 133.164298326806374, 33.188220829427792 ], [ 133.174662218386743, 33.189597224732211 ], [ 133.183005550965504, 33.183011108076244 ], [ 133.182211660040139, 33.176957495292243 ], [ 133.151903332572829, 33.146885828917902 ], [ 133.163988054405195, 33.135238891661572 ], [ 133.158910830170726, 33.125453891883637 ], [ 133.154480272446676, 33.124980000426717 ], [ 133.143516938655807, 33.098202225152647 ], [ 133.117833410783305, 33.086162440644159 ], [ 133.111984721118006, 33.078904495346251 ], [ 133.115388637975343, 33.074164468315587 ], [ 133.114308494641364, 33.077041054201345 ], [ 133.113879804909175, 33.074310359935225 ], [ 133.109258780668256, 33.076153224591678 ], [ 133.105287108313405, 33.073194586361126 ], [ 133.110092335293075, 33.069348053769716 ], [ 133.109138275111377, 33.06280669367402 ], [ 133.099370143017723, 33.058320279057682 ], [ 133.096173332833132, 33.049073054078235 ], [ 133.093060336765234, 33.034064747789955 ], [ 133.096753061005074, 33.024898612880747 ], [ 133.081913838952573, 33.026645559445058 ], [ 133.070941699000286, 33.037825891551734 ], [ 133.036986667400811, 33.03766472134987 ], [ 133.017863255884663, 33.022346828843126 ], [ 133.011818638119735, 33.014683333369192 ], [ 133.015357445190034, 33.011149918633862 ], [ 133.013163217208785, 33.013897973412782 ], [ 133.011322697984156, 33.011390134746989 ], [ 133.011366913152528, 33.014738027438057 ], [ 133.009778106074805, 33.011546053807365 ], [ 133.014068327291511, 33.010133162215709 ], [ 133.008571867897444, 33.011876846939003 ], [ 133.005620610402957, 32.996628386590828 ], [ 133.008262062244398, 32.998556918866768 ], [ 132.999240803620296, 32.98069205369535 ], [ 133.005583450415998, 32.974349108324759 ], [ 132.999794553076185, 32.971803559286911 ], [ 133.000102580769521, 32.965549413874385 ], [ 132.995273773565827, 32.962419134635411 ], [ 132.992988715856654, 32.95249197272642 ], [ 133.000432218272294, 32.943468053907623 ], [ 132.996460830103274, 32.941496278630382 ], [ 132.997087781675873, 32.936206864755036 ], [ 132.993519831175377, 32.935684864964571 ], [ 132.99469389071055, 32.931697225146877 ], [ 133.000795836658654, 32.930564720585437 ], [ 132.997219169928826, 32.928651946230389 ], [ 132.997339727646363, 32.92364194631881 ], [ 133.009123060580805, 32.91259749457879 ], [ 133.005830272049479, 32.900528054026552 ], [ 133.009374162987342, 32.881206386965232 ], [ 133.001838053783217, 32.879622775270889 ], [ 132.993622218090991, 32.862401107924825 ], [ 132.987179170082641, 32.86804027893578 ], [ 132.982412218249351, 32.864369161807417 ], [ 132.960952776349586, 32.864702775212947 ], [ 132.958381659585939, 32.85940138686459 ], [ 132.953338612287212, 32.860933613095824 ], [ 132.949373890792458, 32.857478891737514 ], [ 132.957328054346249, 32.850347224744667 ], [ 132.952478053719233, 32.844755558622182 ], [ 132.957388885388809, 32.839995000069223 ], [ 132.953579727722285, 32.835948612938182 ], [ 132.961004162712015, 32.829501946058031 ], [ 132.950791335651729, 32.823945802257015 ], [ 132.951865369890925, 32.812959098683507 ], [ 132.958538365553181, 32.804614414423725 ], [ 132.963051115017038, 32.805119441309216 ], [ 132.965497134285329, 32.799034891846816 ], [ 132.997383773742172, 32.790584135249674 ], [ 132.995160636154537, 32.788702640214751 ], [ 132.997565279414175, 32.786298252362485 ], [ 132.998819662797246, 32.789086747855208 ], [ 133.002406393840033, 32.787553892098515 ], [ 133.00187944238246, 32.782137775438059 ], [ 133.010251946270387, 32.767477999610037 ], [ 133.017917781780284, 32.761555559241742 ], [ 133.014207497378152, 32.7548172251349 ], [ 133.019601945773275, 32.74425027922706 ], [ 133.022577562304718, 32.726630802169836 ], [ 133.02009666732738, 32.72339982943862 ], [ 133.002802217848171, 32.721528279106849 ], [ 132.986896939442317, 32.733514721227436 ], [ 132.9838052788906, 32.730150279212069 ], [ 132.973091336096331, 32.733419278876681 ], [ 132.965709441737431, 32.729393333335736 ], [ 132.965283060564843, 32.737949720703114 ], [ 132.971417223825938, 32.747580558695859 ], [ 132.968396498199922, 32.751856054413452 ], [ 132.96122917038997, 32.750599440711653 ], [ 132.96391871617584, 32.757936829421169 ], [ 132.954496666587943, 32.756539161553121 ], [ 132.952146938630335, 32.762846107961593 ], [ 132.957529494390769, 32.771869999800685 ], [ 132.96969508416089, 32.777872612930821 ], [ 132.965192023093437, 32.774775559144814 ], [ 132.95867243828252, 32.77662108129789 ], [ 132.961026277940391, 32.779124828947772 ], [ 132.955636640918328, 32.778936802291639 ], [ 132.955021855374412, 32.769670080909577 ], [ 132.951847496764572, 32.770829720715085 ], [ 132.945351115361746, 32.764844162328302 ], [ 132.939424863666545, 32.775915386885629 ], [ 132.940982139614107, 32.779435279414656 ], [ 132.947520272042993, 32.780053828621362 ], [ 132.942234994149771, 32.780310639924153 ], [ 132.943512023361222, 32.783255774834174 ], [ 132.935216394421104, 32.786911107961316 ], [ 132.93227277576807, 32.783509720896973 ], [ 132.934807004139998, 32.7784742252054 ], [ 132.930135161908311, 32.783224224818184 ], [ 132.923732503352426, 32.782673053718497 ], [ 132.920012502674922, 32.778237494864527 ], [ 132.92052389136461, 32.784743613227192 ], [ 132.916356394332183, 32.78692749540761 ], [ 132.879456354627109, 32.789666919392857 ], [ 132.875039754381191, 32.787533919055193 ], [ 132.880332502942679, 32.78321999980318 ], [ 132.875924162969795, 32.775080828617376 ], [ 132.879094721044567, 32.769932494988723 ], [ 132.86834610938547, 32.765626107558887 ], [ 132.868962217832177, 32.77093749456975 ], [ 132.865134448695926, 32.771373333012946 ], [ 132.871212775749086, 32.776496386698966 ], [ 132.871497781697371, 32.785714720957685 ], [ 132.866862437551504, 32.787953666828287 ], [ 132.865732244247738, 32.784979305750426 ], [ 132.861736926018352, 32.790640368957895 ], [ 132.860213943019062, 32.785909666997611 ], [ 132.852356938621938, 32.786635829080296 ], [ 132.845929170095133, 32.778084720733318 ], [ 132.839466393659222, 32.781309441377687 ], [ 132.833373606406894, 32.775253332975012 ], [ 132.836278611768535, 32.772898612880738 ], [ 132.833087223596522, 32.76578805387561 ], [ 132.826937224173662, 32.765334999710547 ], [ 132.828034720825713, 32.761238612971681 ], [ 132.81515416283446, 32.761621108127713 ], [ 132.815545551386094, 32.75333916237247 ], [ 132.804111388329943, 32.752852774835731 ], [ 132.802384162998806, 32.746832775112523 ], [ 132.791289727838716, 32.747805559179255 ], [ 132.78673306088217, 32.756846946429505 ], [ 132.779463891145724, 32.75410582902083 ], [ 132.770368326936818, 32.761934440921777 ], [ 132.765153606253989, 32.75977055876433 ], [ 132.76571832743889, 32.755950828667835 ], [ 132.757446667229942, 32.753065279239308 ], [ 132.74334416260308, 32.772996387173578 ], [ 132.73918333314441, 32.772142495279979 ], [ 132.727859999839211, 32.780076666904733 ], [ 132.727193255964039, 32.785506802197233 ], [ 132.721528054076543, 32.786000558778824 ], [ 132.722696938912691, 32.791185829362576 ], [ 132.718520272392766, 32.797794161971069 ], [ 132.715911660195047, 32.79385249459699 ], [ 132.710777223789933, 32.799095559212731 ], [ 132.707036667308444, 32.795117224680212 ], [ 132.698942776088302, 32.796335279049913 ], [ 132.687508327047681, 32.791562495113112 ], [ 132.683278638298589, 32.795704919046841 ], [ 132.68637472081673, 32.788709162098201 ], [ 132.695011089390277, 32.790338468345681 ], [ 132.698958053771207, 32.786327775306631 ], [ 132.696913332684176, 32.784437494794588 ], [ 132.690778885237478, 32.788268333316978 ], [ 132.683487781935696, 32.781078892077232 ], [ 132.66867944170292, 32.784394721239437 ], [ 132.662967224158137, 32.780501946407753 ], [ 132.654564720685357, 32.781134161712259 ], [ 132.648178327268056, 32.775651666990882 ], [ 132.650118326799429, 32.765631386579287 ], [ 132.637306109189694, 32.767021667416088 ], [ 132.62869832736601, 32.762915559005876 ], [ 132.631000830124322, 32.76780777470907 ], [ 132.640393605880263, 32.769481666645675 ], [ 132.633698885295416, 32.784362225136647 ], [ 132.64235166020103, 32.783132774557942 ], [ 132.644680558061395, 32.786765279294229 ], [ 132.626540000320801, 32.796754161675267 ], [ 132.63072333261573, 32.801577775294163 ], [ 132.648607782323324, 32.800591108393007 ], [ 132.648966666678348, 32.804638613381371 ], [ 132.656196393948449, 32.801218053670311 ], [ 132.655402776417077, 32.806236667288431 ], [ 132.64023306070726, 32.808931386874065 ], [ 132.646986393707152, 32.809894999654546 ], [ 132.644043061038474, 32.819825559202229 ], [ 132.649906666859238, 32.818886107607852 ], [ 132.653777223939755, 32.829374720766793 ], [ 132.65700111540923, 32.82376027931349 ], [ 132.660482775959395, 32.832051107672555 ], [ 132.663979441697961, 32.831441945589347 ], [ 132.659635550740177, 32.839418891668572 ], [ 132.674008054328283, 32.840432774752799 ], [ 132.656845836666093, 32.854258612844774 ], [ 132.669730000039522, 32.862113612653161 ], [ 132.667830829729041, 32.864613612828009 ], [ 132.674579999767275, 32.865068891915882 ], [ 132.678609170277014, 32.870488053680788 ], [ 132.690099728020073, 32.874523333285254 ], [ 132.691163891300562, 32.87842972115476 ], [ 132.688025837422515, 32.880175558855001 ], [ 132.69627499389594, 32.88682805357189 ], [ 132.699260557828552, 32.884822495261972 ], [ 132.707357781936139, 32.888483612828509 ], [ 132.709490829937863, 32.881907775423542 ], [ 132.706926666732329, 32.875615279321721 ], [ 132.714334527216693, 32.882439990613136 ], [ 132.71342130974574, 32.87538622469458 ], [ 132.717699688689777, 32.876296333209268 ], [ 132.715178975329536, 32.878781107861869 ], [ 132.720974721006655, 32.877579440938518 ], [ 132.718923333245243, 32.879985279397204 ], [ 132.72239555091403, 32.881501108289569 ], [ 132.713023061165359, 32.885685829137742 ], [ 132.715998612046405, 32.888397224852099 ], [ 132.711346938910197, 32.888429873839641 ], [ 132.703872775907939, 32.896137224753147 ], [ 132.716444163167694, 32.893349440624263 ], [ 132.721948327053724, 32.898879999612348 ], [ 132.719698611801505, 32.902777774674632 ], [ 132.719597781612379, 32.900267774937902 ], [ 132.711295836733598, 32.89998305407471 ], [ 132.713067288924321, 32.909270567782528 ], [ 132.71710033731074, 32.908613972756712 ], [ 132.713708611663151, 32.915553891698778 ], [ 132.711152776179688, 32.914566386629474 ], [ 132.708256913325954, 32.925959640425106 ], [ 132.699824305947004, 32.917725559287192 ], [ 132.699185810676681, 32.920775946352876 ], [ 132.694149196228523, 32.920576134980706 ], [ 132.696048443880613, 32.928539162252605 ], [ 132.688213139225013, 32.925552000224684 ], [ 132.691368612071869, 32.920832054156051 ], [ 132.685946744246962, 32.919694161756183 ], [ 132.683702218082999, 32.923039891577787 ], [ 132.682858716057012, 32.919970494642655 ], [ 132.679306004568502, 32.921546495374514 ], [ 132.67735761256381, 32.92601505395163 ], [ 132.678813527722241, 32.920045694153487 ], [ 132.671633333311775, 32.923378278584721 ], [ 132.671796199634969, 32.918725666556327 ], [ 132.666817327957347, 32.918989694019217 ], [ 132.665577588235124, 32.924644774936439 ], [ 132.664701608092855, 32.921963108111015 ], [ 132.65552778218148, 32.924274333393839 ], [ 132.656398326821432, 32.931819162424461 ], [ 132.652489169939258, 32.939451386672204 ], [ 132.67807472117147, 32.942863332676723 ], [ 132.683391659697349, 32.94683222522707 ], [ 132.681132503362392, 32.96412416200053 ], [ 132.686471114650317, 32.963091386858082 ], [ 132.691424994168187, 32.974193612844999 ], [ 132.687260272443723, 32.975973053713517 ], [ 132.681381114646797, 32.99381610762731 ], [ 132.686916394176365, 32.998048053674779 ], [ 132.676884448658484, 33.010635278895052 ], [ 132.678229728319366, 33.037709720727094 ], [ 132.657673891037348, 33.057057495107358 ], [ 132.669502217953095, 33.071183053854895 ], [ 132.666654163059206, 33.080726108123429 ], [ 132.669311388110145, 33.092391946431235 ], [ 132.663969728120492, 33.108230558993171 ], [ 132.646156939091497, 33.115999440621749 ], [ 132.637475551355692, 33.132391666842011 ], [ 132.628957496691214, 33.132917774735574 ], [ 132.632294994118752, 33.149244441277972 ], [ 132.614966108699036, 33.169578333073673 ], [ 132.619485279322248, 33.173465828884957 ], [ 132.620233332702242, 33.181610828576936 ], [ 132.635659442429414, 33.186399721170233 ], [ 132.634458611875516, 33.17851722459028 ], [ 132.638732503202505, 33.173610278891317 ], [ 132.646964449349866, 33.17170805358387 ], [ 132.662380000136977, 33.154418892118201 ], [ 132.673348053569839, 33.150827495392662 ], [ 132.686214163053251, 33.135149440594262 ], [ 132.695571946188466, 33.137486667076075 ], [ 132.698601659638939, 33.146412495040693 ], [ 132.710405551075382, 33.152971667108829 ], [ 132.719416938740778, 33.166664999989791 ], [ 132.728105836715031, 33.16992694627163 ], [ 132.737772502798862, 33.181782775354861 ], [ 132.737216394421125, 33.186330558808322 ], [ 132.741911115405742, 33.189743333088416 ], [ 132.738405836859897, 33.195906387070181 ], [ 132.740786666971189, 33.201476946104208 ], [ 132.775590557857981, 33.205971666859 ], [ 132.770859169714981, 33.221042494915253 ], [ 132.775089999703823, 33.232531108324054 ], [ 132.771921660256453, 33.241063053916832 ], [ 132.777605550955514, 33.246139720571705 ], [ 132.779608054268351, 33.256165558793555 ], [ 132.787457782250954, 33.2618930540213 ], [ 132.80030165959397, 33.247263613225243 ], [ 132.804664721399831, 33.23580582857619 ], [ 132.804668326781893, 33.235789441129839 ] ] ] ] } },
{ "type": "Feature", "properties": { "code": "390032", "name": "高幡", "PrefCode": "39", "regioncode": "390032" }, "geometry": { "type": "Polygon", "coordinates": [ [ [ 133.025132217877626, 33.481315828762547 ], [ 133.044058884709784, 33.474536386644957 ], [ 133.058801945853133, 33.479738053668314 ], [ 133.060231115173906, 33.47033972100138 ], [ 133.068283332709711, 33.465780829122025 ], [ 133.073418054199919, 33.452545279041431 ], [ 133.090057781941141, 33.452065559078335 ], [ 133.101205278900579, 33.442749161844404 ], [ 133.123299727600397, 33.455599999940091 ], [ 133.151097496852117, 33.460956945706528 ], [ 133.158359999914182, 33.466888891908866 ], [ 133.175608326762926, 33.464367495063925 ], [ 133.183132217777711, 33.472518333154596 ], [ 133.190375836875432, 33.470845559075315 ], [ 133.196819441564003, 33.474282775130007 ], [ 133.205899442105647, 33.466627774652125 ], [ 133.214553060575327, 33.466824162305272 ], [ 133.22114610920562, 33.46191000044621 ], [ 133.233812502644923, 33.461383891653327 ], [ 133.249528053776771, 33.45453805438774 ], [ 133.250878327373016, 33.446321667411098 ], [ 133.258239441996693, 33.441401386564792 ], [ 133.248482217780179, 33.431731107904341 ], [ 133.20878639357727, 33.429214721182461 ], [ 133.206523333285304, 33.410389441219763 ], [ 133.209545836870916, 33.404599999790207 ], [ 133.195860272333789, 33.396499720685597 ], [ 133.182892502587038, 33.400655828703577 ], [ 133.175161387987714, 33.397552774640872 ], [ 133.179122218115936, 33.38326861325595 ], [ 133.17715527939265, 33.376362775022073 ], [ 133.208608611997875, 33.382195829074305 ], [ 133.214229728219493, 33.378475000121227 ], [ 133.227661114668763, 33.379325828923925 ], [ 133.231243891392523, 33.3692924948528 ], [ 133.241109727631851, 33.364697225396696 ], [ 133.243754994397591, 33.357977494665704 ], [ 133.263826886701509, 33.340569278249632 ], [ 133.258433916791887, 33.340584027131172 ], [ 133.257362503177092, 33.333195829424028 ], [ 133.249609300328984, 33.333691640057168 ], [ 133.249421218814291, 33.327799333272651 ], [ 133.243425304734046, 33.334669026854158 ], [ 133.231617587581695, 33.326673667156058 ], [ 133.232222244061404, 33.323088973077688 ], [ 133.237183995345163, 33.324462441088826 ], [ 133.24609216602073, 33.31553919777582 ], [ 133.260085278912584, 33.313411945904647 ], [ 133.260905837434507, 33.309064359632544 ], [ 133.248839727971131, 33.305796946372027 ], [ 133.251499442345448, 33.299706946118704 ], [ 133.244573890972333, 33.301306946158718 ], [ 133.238515278857108, 33.296623332700676 ], [ 133.245899999785252, 33.292041667289141 ], [ 133.242692502956743, 33.289455558827058 ], [ 133.243617197575645, 33.279214865373774 ], [ 133.240568754844276, 33.280908161982154 ], [ 133.243726329406627, 33.2739868922813 ], [ 133.249670000070523, 33.275273332898053 ], [ 133.24969727560881, 33.278441747888394 ], [ 133.251961114713708, 33.276756386897773 ], [ 133.247984994312105, 33.279538053838166 ], [ 133.259695837392997, 33.279801387024463 ], [ 133.255307224049261, 33.267508053953577 ], [ 133.264221387806856, 33.25736389193014 ], [ 133.255995836738521, 33.253394440900763 ], [ 133.255478884842773, 33.249742494620477 ], [ 133.247666109103761, 33.249563613170267 ], [ 133.247375162233993, 33.242135640247625 ], [ 133.256093890720535, 33.237868054067519 ], [ 133.250534994094778, 33.234991666931933 ], [ 133.250233606096117, 33.229766945787958 ], [ 133.253887301557825, 33.230972558936514 ], [ 133.256325279088401, 33.225594999809459 ], [ 133.238650557577216, 33.215991108203127 ], [ 133.234666393639259, 33.203582224839863 ], [ 133.241221945936104, 33.196736667263451 ], [ 133.233346667314891, 33.198248333194101 ], [ 133.218643061228363, 33.193943333418133 ], [ 133.211057497405591, 33.185077494730649 ], [ 133.211083060634792, 33.180624721054073 ], [ 133.224420557862572, 33.170555558891976 ], [ 133.21938610898178, 33.168006945863908 ], [ 133.218944889894829, 33.161366494867877 ], [ 133.214497496862009, 33.164912494715907 ], [ 133.223592218406225, 33.154586107562864 ], [ 133.221509441607509, 33.152159162015778 ], [ 133.208134993934891, 33.149260558927722 ], [ 133.210726667401786, 33.152788612804272 ], [ 133.205345837440518, 33.159354440754896 ], [ 133.206994994423553, 33.165016108306816 ], [ 133.191919169733978, 33.167416387156607 ], [ 133.170573606287007, 33.150422775290906 ], [ 133.163996393818593, 33.135294162195862 ], [ 133.158008884802257, 33.138149161654553 ], [ 133.151946108825882, 33.14697472060692 ], [ 133.181996108733529, 33.176711667409563 ], [ 133.183213606422896, 33.182223891919136 ], [ 133.174662218386743, 33.189597224732211 ], [ 133.164467497377132, 33.188264162361236 ], [ 133.143237224318455, 33.169655000278112 ], [ 133.134639999636306, 33.166909162328011 ], [ 133.130763605955735, 33.169720828853201 ], [ 133.126019999623395, 33.162489721123791 ], [ 133.117020271668252, 33.158762224597012 ], [ 133.111400272404694, 33.163570558734364 ], [ 133.098533061251828, 33.164820279132641 ], [ 133.089410557851011, 33.154084999922873 ], [ 133.094439441726877, 33.150181387361215 ], [ 133.095407782243456, 33.143533891975608 ], [ 133.075512218214385, 33.147228892399539 ], [ 133.071597223832896, 33.123739721111292 ], [ 133.058909727801733, 33.117801946402778 ], [ 133.051344720682323, 33.122666387443871 ], [ 133.056937781653346, 33.133384162249342 ], [ 133.034938054047984, 33.13913889164661 ], [ 133.022418885023626, 33.15014694602479 ], [ 133.004233890881437, 33.14670361278155 ], [ 133.000398327321022, 33.150978053594372 ], [ 133.00252555131317, 33.155906946348523 ], [ 132.994037223738928, 33.16013555860917 ], [ 132.984674720961721, 33.157336107575361 ], [ 132.9727152791869, 33.160906107630808 ], [ 132.962933332607236, 33.147738891636607 ], [ 132.950653891364027, 33.149145828816984 ], [ 132.940281387875757, 33.1452913866882 ], [ 132.935359169889807, 33.13752889204477 ], [ 132.899135550765095, 33.144187225160351 ], [ 132.876869169676525, 33.15916082930886 ], [ 132.880960271999015, 33.169786386732426 ], [ 132.877623606444331, 33.179560000193931 ], [ 132.861324994253096, 33.177082775349845 ], [ 132.841040000395765, 33.188103333002459 ], [ 132.818798053887122, 33.192049999707763 ], [ 132.824511945969562, 33.206724161990508 ], [ 132.817647497234248, 33.213892495242533 ], [ 132.81804027164128, 33.220713612842985 ], [ 132.822998054216896, 33.222706387289975 ], [ 132.827456938786781, 33.237755828568709 ], [ 132.804668326781893, 33.235789441129839 ], [ 132.80030165959397, 33.247263613225243 ], [ 132.786892502586966, 33.262240278665956 ], [ 132.787554721073548, 33.26820027921957 ], [ 132.793117223980744, 33.274841386720652 ], [ 132.816943060973585, 33.283748333418885 ], [ 132.827865551154332, 33.283226946066748 ], [ 132.836939441701929, 33.289480279391455 ], [ 132.849563333181322, 33.289573891621842 ], [ 132.872461659777855, 33.30492638734296 ], [ 132.895785836946857, 33.312137495049399 ], [ 132.903501387878805, 33.331046667369833 ], [ 132.900435837344048, 33.343736945903402 ], [ 132.889859999839132, 33.357746108096478 ], [ 132.859873332888014, 33.368639999836148 ], [ 132.853021659921751, 33.388304440797356 ], [ 132.856206667403853, 33.391933332957024 ], [ 132.854436666718811, 33.398398053727249 ], [ 132.835483890768955, 33.400549721292634 ], [ 132.831618885203397, 33.408851667070849 ], [ 132.834013332849054, 33.42015249484183 ], [ 132.82491527931677, 33.422934440572021 ], [ 132.823403332797625, 33.429468332697468 ], [ 132.827789728413336, 33.438387225090423 ], [ 132.82656221767229, 33.445604440992213 ], [ 132.808167223738451, 33.453539162102686 ], [ 132.809391945681796, 33.464746107846679 ], [ 132.818866394268753, 33.466449720578169 ], [ 132.820566939412743, 33.472618612958684 ], [ 132.832471660139049, 33.476071945763749 ], [ 132.839396108943333, 33.474256108432712 ], [ 132.846938053848135, 33.47918082923195 ], [ 132.872289999883606, 33.47106916201227 ], [ 132.888938612027346, 33.473455279237783 ], [ 132.915213061034024, 33.467653892113503 ], [ 132.944013333348721, 33.471968054182412 ], [ 132.951665551324254, 33.46657833262401 ], [ 132.959021387826851, 33.466280559000666 ], [ 133.025000000449722, 33.481382224809863 ], [ 133.025132217877626, 33.481315828762547 ] ] ] } }
]
}
