{
"type": "FeatureCollection",
"name": "43_kumamoto_region",
"crs": { "type": "name", "properties": { "name": "urn:ogc:def:crs:OGC:1.3:CRS84" } },
"features": [
{ "type": "Feature", "properties": { "code": "430011", "name": "熊本市", "PrefCode": "43", "regioncode": "430011" }, "geometry": { "type": "MultiPolygon", "coordinates": [ [ [ [ 130.574999999950137, 32.756156613337112 ], [ 130.591896199949701, 32.757765441122274 ], [ 130.583333332966959, 32.756917000019598 ], [ 130.574999999950137, 32.756156613337112 ] ] ], [ [ [ 130.594459442249558, 32.761377306417614 ], [ 130.591876135175539, 32.758463054226638 ], [ 130.59437739260261, 32.761373252273813 ], [ 130.594459442249558, 32.761377306417614 ] ] ], [ [ [ 130.592972826934442, 32.768673748095068 ], [ 130.591469273787993, 32.762325027278223 ], [ 130.573041478881237, 32.76280898214884 ], [ 130.574064721209993, 32.768472999629296 ], [ 130.592943164595454, 32.769000918757456 ], [ 130.592972826934442, 32.768673748095068 ] ] ], [ [ [ 130.606652970358368, 32.790568720869828 ], [ 130.598606135264959, 32.7966941975792 ], [ 130.606665110306608, 32.7905805586459 ], [ 130.606652970358368, 32.790568720869828 ] ] ], [ [ [ 130.713214448987742, 32.9767288916251 ], [ 130.718958327165183, 32.97351999994811 ], [ 130.724705279225304, 32.976975558575248 ], [ 130.733611946234419, 32.971967494903993 ], [ 130.728030271579883, 32.964563333331228 ], [ 130.730950829817061, 32.95801361313778 ], [ 130.7284036062415, 32.944233332902058 ], [ 130.732735550605184, 32.93330194572826 ], [ 130.729024448719429, 32.932156667196466 ], [ 130.719975278736229, 32.896951107607606 ], [ 130.724232776321628, 32.887889161855412 ], [ 130.730111388230057, 32.88815389168883 ], [ 130.732310000406301, 32.878743613327117 ], [ 130.731033606116057, 32.862288612629413 ], [ 130.725135550865048, 32.851950000092472 ], [ 130.748555836782543, 32.857827495042898 ], [ 130.760355550867985, 32.85728444122401 ], [ 130.755568327416427, 32.852558892379022 ], [ 130.759661946042002, 32.852011386916047 ], [ 130.768085278712761, 32.857029999634847 ], [ 130.787366939432786, 32.858313612783036 ], [ 130.789364993799495, 32.853456946381016 ], [ 130.804940558260228, 32.852164161946575 ], [ 130.807576108750482, 32.837420278822833 ], [ 130.820527497346234, 32.838573612582195 ], [ 130.828089728258419, 32.831112495145589 ], [ 130.828294449029613, 32.814799440741638 ], [ 130.812706393885037, 32.81470582941057 ], [ 130.806162775591702, 32.805834441006709 ], [ 130.787245836726015, 32.799633891590872 ], [ 130.782217496940007, 32.805601108304529 ], [ 130.778113061268868, 32.804531387213785 ], [ 130.783459441799891, 32.796474441042676 ], [ 130.781403605991727, 32.784849720638135 ], [ 130.784626393992994, 32.784528332616503 ], [ 130.787710830290621, 32.776249440958964 ], [ 130.791541388224573, 32.777879440583774 ], [ 130.795923605590019, 32.768628612920224 ], [ 130.768062503381884, 32.759969441136832 ], [ 130.758433061136884, 32.763880829236939 ], [ 130.746527224352008, 32.753778054014049 ], [ 130.747495939885766, 32.751081224618872 ], [ 130.740427497031419, 32.754361386668734 ], [ 130.73049444905962, 32.751315278577295 ], [ 130.724566109138664, 32.74230833266347 ], [ 130.719746394080857, 32.745370559303922 ], [ 130.712519442118605, 32.738272224783373 ], [ 130.697805837369515, 32.742826387128105 ], [ 130.696143606042597, 32.735118332944751 ], [ 130.725339169966787, 32.737144440763359 ], [ 130.749013061103938, 32.734621945846186 ], [ 130.759631945557885, 32.723309999756736 ], [ 130.76182778242628, 32.711568891790989 ], [ 130.753403606191569, 32.708673332908063 ], [ 130.753634993660057, 32.699898332941757 ], [ 130.764765836973879, 32.692649999597847 ], [ 130.762769170261095, 32.689454161580329 ], [ 130.773044162957831, 32.681500829000129 ], [ 130.777813605913252, 32.667388054115463 ], [ 130.752722502841266, 32.666172224668458 ], [ 130.752432502957731, 32.671427494883062 ], [ 130.747665551124328, 32.674195829374071 ], [ 130.73721832656463, 32.660352494971733 ], [ 130.725456108812409, 32.676932495138601 ], [ 130.71969138794725, 32.678128613244951 ], [ 130.710009728366344, 32.688411386876055 ], [ 130.700965278924514, 32.688819721353127 ], [ 130.696951115401703, 32.692964999735011 ], [ 130.689937782103016, 32.691067225172333 ], [ 130.683704448801336, 32.695719999978053 ], [ 130.672263890666045, 32.694045278866554 ], [ 130.664657781831238, 32.706748333169116 ], [ 130.659514449332391, 32.706375000306082 ], [ 130.656794721399365, 32.701517494836594 ], [ 130.656229727719847, 32.709403891776219 ], [ 130.64397610871049, 32.717308613301896 ], [ 130.629289728238405, 32.708977775004371 ], [ 130.607554358147127, 32.715786541315879 ], [ 130.606347886146068, 32.73077294641439 ], [ 130.603666667183006, 32.731338306118005 ], [ 130.607330700351554, 32.742558360380087 ], [ 130.604606329218768, 32.744958107730554 ], [ 130.608438949298147, 32.746069161662547 ], [ 130.604539882809377, 32.745312586306852 ], [ 130.602814915675935, 32.752628251892361 ], [ 130.606207562229315, 32.753994640440339 ], [ 130.60255530478355, 32.752909972617203 ], [ 130.597699052969006, 32.77638074827297 ], [ 130.60318136242995, 32.778687252115049 ], [ 130.60968649783365, 32.792488640338547 ], [ 130.614380673829146, 32.792657206564854 ], [ 130.612541479305833, 32.797941963750702 ], [ 130.603703891021837, 32.800454360180652 ], [ 130.601667301604721, 32.810404251555042 ], [ 130.595789390268237, 32.810575441103765 ], [ 130.589388884689356, 32.816164413756724 ], [ 130.592972503178544, 32.814940494907944 ], [ 130.594870609590998, 32.818050495334148 ], [ 130.592624577961942, 32.816553748256922 ], [ 130.591459688813643, 32.821939198035636 ], [ 130.589307951101091, 32.816861414422817 ], [ 130.593042411977763, 32.822257531959565 ], [ 130.591148689760303, 32.825246801998389 ], [ 130.578373190570346, 32.828916359702305 ], [ 130.58360282740864, 32.83282072139923 ], [ 130.581146277978405, 32.831808666636732 ], [ 130.577706057288765, 32.839525440646639 ], [ 130.584468859250478, 32.841925640356067 ], [ 130.578887134233923, 32.841480332951051 ], [ 130.571537989586659, 32.8487817928455 ], [ 130.573182775864439, 32.852723891894129 ], [ 130.613165551249267, 32.843084441094106 ], [ 130.622038884886706, 32.844719720638636 ], [ 130.62488583721165, 32.852278053889108 ], [ 130.631482776309099, 32.854606386975206 ], [ 130.626235837414015, 32.861975278936029 ], [ 130.634776108930396, 32.860858892024282 ], [ 130.644851659876281, 32.884940828956132 ], [ 130.651960271849134, 32.887935279089902 ], [ 130.64971360619802, 32.902700000404764 ], [ 130.635580830391064, 32.917514721327393 ], [ 130.641889999923592, 32.923775278906021 ], [ 130.638902775842439, 32.925546107866637 ], [ 130.641739170126698, 32.930408892356525 ], [ 130.664582218095006, 32.935157775011362 ], [ 130.669334162941368, 32.948849441448601 ], [ 130.682896109368016, 32.957434721335346 ], [ 130.691546108965781, 32.959550828807778 ], [ 130.696418612429056, 32.95488582861816 ], [ 130.709242503239011, 32.972528892194646 ], [ 130.70723360574641, 32.978918053725238 ], [ 130.712563332631703, 32.977131946182396 ], [ 130.713214448987742, 32.9767288916251 ] ] ] ] } },
{ "type": "Feature", "properties": { "code": "430012", "name": "山鹿菊池", "PrefCode": "43", "regioncode": "430012" }, "geometry": { "type": "Polygon", "coordinates": [ [ [ 130.6894949936991, 33.164160558962692 ], [ 130.693088885143993, 33.159950279381917 ], [ 130.692053606288937, 33.151546667045125 ], [ 130.707710271611859, 33.15124416208846 ], [ 130.712179727712282, 33.155320000217898 ], [ 130.722267496847621, 33.151778612992644 ], [ 130.732367496762663, 33.154483892417772 ], [ 130.737636666898766, 33.146009161693485 ], [ 130.753869728405334, 33.137448053784681 ], [ 130.756823605624959, 33.132361107878864 ], [ 130.763228884805244, 33.132792494677915 ], [ 130.770889442194061, 33.124331108094225 ], [ 130.792011659910258, 33.123692495012676 ], [ 130.80677778236884, 33.116010558940218 ], [ 130.818294994218718, 33.114429720755084 ], [ 130.820379441957698, 33.106569162237122 ], [ 130.839823060685717, 33.104052494926748 ], [ 130.845744993836433, 33.092176946408983 ], [ 130.86336389083101, 33.095312224979239 ], [ 130.867309169882333, 33.090293613159758 ], [ 130.87673555060519, 33.091925279228292 ], [ 130.886196666742876, 33.087454720558981 ], [ 130.890642503049094, 33.075771667428569 ], [ 130.896794448604965, 33.072917495346189 ], [ 130.897191387772409, 33.065418332989736 ], [ 130.908001945633373, 33.064173333132885 ], [ 130.915851387631506, 33.053484720643382 ], [ 130.928304994280097, 33.05212138709237 ], [ 130.934974720906666, 33.055138332867841 ], [ 130.956669441641452, 33.047464720920175 ], [ 130.959685551047414, 33.035859720849487 ], [ 130.97027221818837, 33.023761386878562 ], [ 130.955682775639616, 33.004236946078265 ], [ 130.955339728345848, 32.980651107562608 ], [ 130.942723606109553, 32.963681666775528 ], [ 130.946379727942144, 32.95907722513391 ], [ 130.95490055791447, 32.958221108317559 ], [ 130.958911660145077, 32.949092225126151 ], [ 130.964658884699816, 32.946598054356798 ], [ 130.957468611587274, 32.939871108365026 ], [ 130.966340557570788, 32.924151387076904 ], [ 130.957262503162042, 32.913840279405406 ], [ 130.96675111517186, 32.903265558858493 ], [ 130.94864194556942, 32.87577582899138 ], [ 130.957420829707644, 32.873027495422605 ], [ 130.971762217652326, 32.87571472095766 ], [ 130.979046939364821, 32.871900829259914 ], [ 130.988468884631402, 32.874751386966977 ], [ 130.984790830132738, 32.867758333380436 ], [ 130.978283060614785, 32.862547225274284 ], [ 130.952490829888006, 32.867201667423046 ], [ 130.92708277604936, 32.86259389199455 ], [ 130.926444162967755, 32.859518612593945 ], [ 130.897783890814026, 32.859658054275826 ], [ 130.898930557899007, 32.843796946072246 ], [ 130.893299728100033, 32.848280278711968 ], [ 130.881735836939356, 32.837734440791849 ], [ 130.874964163165714, 32.836808333337956 ], [ 130.874385278557838, 32.84006944055227 ], [ 130.851413060964092, 32.833795278929017 ], [ 130.833687782265429, 32.822005828806027 ], [ 130.827768885225964, 32.825364161726725 ], [ 130.828084449237963, 32.831167774673133 ], [ 130.820527497346234, 32.838573612582195 ], [ 130.807531388163056, 32.837462494798331 ], [ 130.804940558260228, 32.852164161946575 ], [ 130.789364993799495, 32.853456946381016 ], [ 130.787387223641531, 32.858309440828066 ], [ 130.768085278712761, 32.857029999634847 ], [ 130.759661946042002, 32.852011386916047 ], [ 130.755568327416427, 32.852558892379022 ], [ 130.760355550867985, 32.85728444122401 ], [ 130.748555836782543, 32.857827495042898 ], [ 130.725135550865048, 32.851950000092472 ], [ 130.731033606116057, 32.862288612629413 ], [ 130.732310000406301, 32.878743613327117 ], [ 130.730111388230057, 32.88815389168883 ], [ 130.724232776321628, 32.887889161855412 ], [ 130.719975278736229, 32.896951107607606 ], [ 130.729024448719429, 32.932156667196466 ], [ 130.732735550605184, 32.93330194572826 ], [ 130.7284036062415, 32.944233332902058 ], [ 130.730950829817061, 32.95801361313778 ], [ 130.728030271579883, 32.964563333331228 ], [ 130.733611946234419, 32.971967494903993 ], [ 130.729151388026253, 32.975040559274419 ], [ 130.724705279225304, 32.976975558575248 ], [ 130.718958327165183, 32.97351999994811 ], [ 130.7081211151974, 32.979857224731177 ], [ 130.709242503239011, 32.972528892194646 ], [ 130.697013605693428, 32.955358891799449 ], [ 130.691076667354423, 32.959529441130883 ], [ 130.672831945637881, 32.952403613436047 ], [ 130.66704944157857, 32.936934999950324 ], [ 130.661954162554593, 32.934255558946916 ], [ 130.654924163019814, 32.935253891853677 ], [ 130.651609441822302, 32.932208333248013 ], [ 130.643576394235311, 32.939709440838101 ], [ 130.639261115208342, 32.938785559206224 ], [ 130.629409999971585, 32.944698332761902 ], [ 130.633501388278546, 32.964113612952929 ], [ 130.652758326635535, 32.961985828683112 ], [ 130.654651387851345, 32.971788612554462 ], [ 130.641462776086314, 32.977691945926608 ], [ 130.640905550750631, 32.982805559429096 ], [ 130.644164163245591, 32.98106916191233 ], [ 130.648000271795127, 32.987586386902308 ], [ 130.641520272442676, 32.994008612907237 ], [ 130.647461659727924, 33.004591666572196 ], [ 130.637722217806186, 33.008797775097321 ], [ 130.638313605688381, 33.013868332657466 ], [ 130.632111114636245, 33.019589720589181 ], [ 130.648416109316031, 33.026409721231687 ], [ 130.653138327072156, 33.048118332894774 ], [ 130.649148054039529, 33.052455279287756 ], [ 130.635251659636424, 33.053786387431899 ], [ 130.632349999752705, 33.073410558550506 ], [ 130.63947306113289, 33.080044440898291 ], [ 130.650607782323391, 33.083283892437748 ], [ 130.65876888527589, 33.095218333059677 ], [ 130.651210829915954, 33.103346386826331 ], [ 130.659677782403833, 33.109563053891861 ], [ 130.654688054110466, 33.115395278769142 ], [ 130.659638053953131, 33.115482774710358 ], [ 130.662922503071172, 33.134321108332529 ], [ 130.668899999935093, 33.138953053940327 ], [ 130.667368885265887, 33.156720000028031 ], [ 130.678474721131579, 33.163817494581735 ], [ 130.679839442336402, 33.171247494576278 ], [ 130.689383606368438, 33.164192224991268 ], [ 130.6894949936991, 33.164160558962692 ] ] ] } },
{ "type": "Feature", "properties": { "code": "430013", "name": "荒尾玉名", "PrefCode": "43", "regioncode": "430013" }, "geometry": { "type": "Polygon", "coordinates": [ [ [ 130.582118612384079, 33.114939162412441 ], [ 130.60255832740495, 33.114807775058807 ], [ 130.614389442219021, 33.108493892179411 ], [ 130.631997223593089, 33.113436387179604 ], [ 130.64537861223323, 33.112314440658963 ], [ 130.646319727573427, 33.10836249493326 ], [ 130.655682776239246, 33.108619162344496 ], [ 130.651224163264601, 33.103226386688448 ], [ 130.658802217748189, 33.095391386903032 ], [ 130.650607782323391, 33.083283892437748 ], [ 130.63947306113289, 33.080044440898291 ], [ 130.631762775731545, 33.069046108191401 ], [ 130.636462775736618, 33.060995279208839 ], [ 130.635251659636424, 33.053786387431899 ], [ 130.649148054039529, 33.052455279287756 ], [ 130.653138327072156, 33.048118332894774 ], [ 130.648416109316031, 33.026409721231687 ], [ 130.632111114636245, 33.019682775239914 ], [ 130.638313605688381, 33.013868332657466 ], [ 130.637722217806186, 33.008797775097321 ], [ 130.647461659727924, 33.004591666572196 ], [ 130.641520272442676, 32.994008612907237 ], [ 130.648000271795127, 32.987586386902308 ], [ 130.646023061015512, 32.982590829203446 ], [ 130.64076610906875, 32.981499440746632 ], [ 130.643064448865289, 32.976209721101782 ], [ 130.654644448682461, 32.971893054421002 ], [ 130.652953332929997, 32.962129721109818 ], [ 130.635881945895107, 32.966131386754171 ], [ 130.629256938956587, 32.9455211081127 ], [ 130.651549441753446, 32.932564441395925 ], [ 130.641739170126698, 32.930408892356525 ], [ 130.638902775842439, 32.925546107866637 ], [ 130.641889999923592, 32.923775278906021 ], [ 130.635580830391064, 32.917514721327393 ], [ 130.64971360619802, 32.902700000404764 ], [ 130.651960271849134, 32.887935279089902 ], [ 130.644851659876281, 32.884940828956132 ], [ 130.634776108930396, 32.860858892024282 ], [ 130.626235837414015, 32.861975278936029 ], [ 130.631222776010418, 32.854146667035081 ], [ 130.62488583721165, 32.852278053889108 ], [ 130.622038884886706, 32.844719720638636 ], [ 130.613669728275454, 32.843034721175513 ], [ 130.573182775864439, 32.852723891894129 ], [ 130.568417419428442, 32.843530585767951 ], [ 130.563916913334992, 32.841954720833769 ], [ 130.523709779582759, 32.850584613389231 ], [ 130.522759105348541, 32.869211108106185 ], [ 130.527097561703158, 32.876749278556417 ], [ 130.523208611688119, 32.880918918673217 ], [ 130.47566591395082, 32.90329491902537 ], [ 130.477911414080609, 32.90457827856477 ], [ 130.470920169030592, 32.900409053934766 ], [ 130.465361141103813, 32.904086918676398 ], [ 130.462595421841343, 32.901443721250814 ], [ 130.457019299601029, 32.905434306348184 ], [ 130.463409000724823, 32.911957612553806 ], [ 130.461362386564929, 32.919604612662795 ], [ 130.451649364027048, 32.909096414068301 ], [ 130.443396887256654, 32.915285414390439 ], [ 130.44591800261378, 32.916848748171219 ], [ 130.439426886741444, 32.92144827861523 ], [ 130.443168689683375, 32.927878999616212 ], [ 130.441002671636056, 32.93119913473231 ], [ 130.43812858586557, 32.923947197804978 ], [ 130.440591336121315, 32.929319801667589 ], [ 130.431931556396307, 32.959218053570339 ], [ 130.430611115110992, 32.987538080717911 ], [ 130.427058948611602, 32.987176802367571 ], [ 130.425598392052166, 32.993986162231636 ], [ 130.42968302195402, 32.995869332703592 ], [ 130.417514137067883, 32.993058332576027 ], [ 130.415384189029169, 32.996674558683992 ], [ 130.416845719554431, 32.992709748156415 ], [ 130.414136446240036, 33.002313711708496 ], [ 130.428135551314654, 33.005361107629085 ], [ 130.484182776114267, 33.00153305430706 ], [ 130.499103332852542, 33.006559721354108 ], [ 130.50602389118967, 33.002709161598602 ], [ 130.515792776015815, 33.014018053590348 ], [ 130.51206527858983, 33.022057224661239 ], [ 130.504694721084547, 33.027023054370488 ], [ 130.504473060683267, 33.036788612604425 ], [ 130.495187496705626, 33.049571945788728 ], [ 130.516873333038006, 33.065566107789721 ], [ 130.531438611702583, 33.063970278805357 ], [ 130.53536749701243, 33.078051386762127 ], [ 130.541366394143893, 33.082010559439823 ], [ 130.548077224284498, 33.080743892216901 ], [ 130.549750000162476, 33.084491386968011 ], [ 130.565612218129445, 33.087105000295594 ], [ 130.561199170205555, 33.095911945979594 ], [ 130.561795551123851, 33.104188612714381 ], [ 130.581684994367038, 33.115335278700229 ], [ 130.582118612384079, 33.114939162412441 ] ] ] } },
{ "type": "Feature", "properties": { "code": "430014", "name": "上益城", "PrefCode": "43", "regioncode": "430014" }, "geometry": { "type": "Polygon", "coordinates": [ [ [ 130.962865837088771, 32.86723638664995 ], [ 130.978088611900034, 32.862532224582537 ], [ 130.972575279425655, 32.856646667209986 ], [ 130.979820557772541, 32.849333053877388 ], [ 130.980206938899187, 32.840875000181143 ], [ 130.973955279212873, 32.839347495390655 ], [ 130.971843332903518, 32.834357224806126 ], [ 130.979142218038987, 32.823266946312572 ], [ 130.97655389094939, 32.814974161928092 ], [ 130.989672217998532, 32.813730829414283 ], [ 130.996878612358159, 32.804091107918339 ], [ 130.995014163073279, 32.796582494586517 ], [ 131.002863060981554, 32.788793333245792 ], [ 131.014062502782394, 32.785720559356378 ], [ 131.030363891180741, 32.789299162326529 ], [ 131.038460830203235, 32.783656386832831 ], [ 131.050303060637816, 32.789440559134562 ], [ 131.07361778233485, 32.791885000092748 ], [ 131.075259170074673, 32.795236107860148 ], [ 131.085239999926102, 32.79113138710386 ], [ 131.093774449231546, 32.795134999780487 ], [ 131.099941114890612, 32.790739720661634 ], [ 131.115221387856877, 32.795553892298358 ], [ 131.127164720975202, 32.794810829256392 ], [ 131.141827782026553, 32.804771107800434 ], [ 131.144586938936186, 32.817956386677963 ], [ 131.156895836573653, 32.819659720619654 ], [ 131.169921946240834, 32.814444999936825 ], [ 131.178219728157956, 32.80456944112683 ], [ 131.195856393957456, 32.800653891863647 ], [ 131.205000830024346, 32.78734916233401 ], [ 131.200451945800751, 32.774732495108594 ], [ 131.201927781841732, 32.767911667089834 ], [ 131.208149441943306, 32.765863891905155 ], [ 131.216050272102393, 32.756132775007586 ], [ 131.235101114624854, 32.752540279310494 ], [ 131.235006109344567, 32.744331666972926 ], [ 131.212346938560472, 32.72888055879082 ], [ 131.206606939158974, 32.730273891926629 ], [ 131.195026939341801, 32.725314999587624 ], [ 131.179967496702716, 32.712078053759228 ], [ 131.180407223814427, 32.700127775176725 ], [ 131.172470272385226, 32.684748892447487 ], [ 131.175102775972391, 32.671933054167141 ], [ 131.16293250343233, 32.671713053914345 ], [ 131.151389169874392, 32.680058332626004 ], [ 131.143534993844924, 32.676281386876553 ], [ 131.140190829743005, 32.664647774874936 ], [ 131.127048053724707, 32.654130279089145 ], [ 131.123542502684359, 32.644467775067824 ], [ 131.115548884973123, 32.642105828920933 ], [ 131.119871114860075, 32.629147775449553 ], [ 131.115937223923765, 32.620950559320931 ], [ 131.116206667104052, 32.609488612609425 ], [ 131.120622217841174, 32.605322495137102 ], [ 131.113475278561282, 32.591379441208289 ], [ 131.105935551384619, 32.589075828686589 ], [ 131.108036393764678, 32.581756667436309 ], [ 131.091175836595653, 32.578634440726887 ], [ 131.074776666709909, 32.58478444104918 ], [ 131.051923605689922, 32.587635559033856 ], [ 131.041628326985801, 32.579895279443633 ], [ 131.037723890645111, 32.564728332746427 ], [ 131.040766666748368, 32.559604440892258 ], [ 131.038961388357507, 32.554427495332675 ], [ 131.02394722388533, 32.553335278600287 ], [ 131.019473060733276, 32.549225278823599 ], [ 131.009705550970466, 32.561030828609887 ], [ 131.011191659967153, 32.564459162060757 ], [ 131.000219170178639, 32.569998054166945 ], [ 130.987549442053137, 32.571470279429889 ], [ 130.969822503206046, 32.580394720639902 ], [ 130.95435944213466, 32.577123891754241 ], [ 130.948201114989502, 32.584398333316472 ], [ 130.966091946286383, 32.599083613018365 ], [ 130.966724163389472, 32.60367666744429 ], [ 130.960147781894648, 32.625296667107534 ], [ 130.949161115193419, 32.634750279302011 ], [ 130.963913333233791, 32.640941946113969 ], [ 130.975180830331169, 32.639026945936848 ], [ 130.976659727664355, 32.647902494604466 ], [ 130.947788884649412, 32.647899441406139 ], [ 130.939338054307768, 32.657409720782027 ], [ 130.920290272178363, 32.656880279101642 ], [ 130.906074163391963, 32.664726945791983 ], [ 130.88989888512549, 32.661557494782585 ], [ 130.876119442158597, 32.664179162438472 ], [ 130.872186393886977, 32.661738333157587 ], [ 130.874030272079494, 32.651666667282939 ], [ 130.868084163353501, 32.647007224903575 ], [ 130.842806394299714, 32.640264162161429 ], [ 130.837589999978604, 32.628170278935272 ], [ 130.820084449038177, 32.626310828981616 ], [ 130.813173891162251, 32.629390828923647 ], [ 130.808127224092232, 32.637028612780284 ], [ 130.808080558271172, 32.643139161643035 ], [ 130.79993138842292, 32.653658054076004 ], [ 130.801673332957989, 32.65797416227781 ], [ 130.77634250300423, 32.66333222500225 ], [ 130.773044162957831, 32.681500829000129 ], [ 130.76436055839315, 32.686391387252797 ], [ 130.764765836973879, 32.692649999597847 ], [ 130.753634993660057, 32.699898332941757 ], [ 130.753403606191569, 32.708673332908063 ], [ 130.761833890621574, 32.711649161679532 ], [ 130.754480557831585, 32.731111107691504 ], [ 130.747221115162347, 32.7349311075846 ], [ 130.695287223926357, 32.737159440555786 ], [ 130.699096939172478, 32.743453891783759 ], [ 130.701169999695821, 32.739707774793999 ], [ 130.712348612298683, 32.738272224783373 ], [ 130.719746394080857, 32.745370559303922 ], [ 130.724566109138664, 32.74230833266347 ], [ 130.727090829877966, 32.749028333191063 ], [ 130.740278611568783, 32.754346666565482 ], [ 130.745551894304526, 32.7502063056765 ], [ 130.758433061136884, 32.763880829236939 ], [ 130.768062503381884, 32.759969441136832 ], [ 130.796008053728769, 32.768693053841389 ], [ 130.791541388224573, 32.777879440583774 ], [ 130.787710830290621, 32.776249440958964 ], [ 130.784626393992994, 32.784528332616503 ], [ 130.781403605991727, 32.784849720638135 ], [ 130.783459441799891, 32.796474441042676 ], [ 130.778113061268868, 32.804531387213785 ], [ 130.782217496940007, 32.805601108304529 ], [ 130.787177223849881, 32.799648892282619 ], [ 130.792513605718341, 32.801060558997676 ], [ 130.806162775591702, 32.805834441006709 ], [ 130.81247250270394, 32.814617224605286 ], [ 130.828294449029613, 32.814799440741638 ], [ 130.827768885225964, 32.825364161726725 ], [ 130.833687782265429, 32.822005828806027 ], [ 130.851413060964092, 32.833795278929017 ], [ 130.874385278557838, 32.84006944055227 ], [ 130.874964163165714, 32.836808333337956 ], [ 130.881735836939356, 32.837734440791849 ], [ 130.893299728100033, 32.848280278711968 ], [ 130.898775836735581, 32.843720558556981 ], [ 130.900878054178975, 32.848457224821118 ], [ 130.897783890814026, 32.859658054275826 ], [ 130.926444162967755, 32.859518612593945 ], [ 130.92708277604936, 32.86259389199455 ], [ 130.945608612347655, 32.866857495077397 ], [ 130.962702218032973, 32.867279440793595 ], [ 130.962865837088771, 32.86723638664995 ] ] ] } },
{ "type": "Feature", "properties": { "code": "430015", "name": "宇城八代", "PrefCode": "43", "regioncode": "430015" }, "geometry": { "type": "MultiPolygon", "coordinates": [ [ [ [ 130.494936109214109, 32.479136946113215 ], [ 130.491719441998725, 32.478697225296742 ], [ 130.494909441617551, 32.479204441132083 ], [ 130.494936109214109, 32.479136946113215 ] ] ], [ [ [ 130.494158833263555, 32.491030865082394 ], [ 130.499974552883373, 32.49034138724528 ], [ 130.493755252602909, 32.490838251883872 ], [ 130.491186667430838, 32.484233054312085 ], [ 130.498198884670842, 32.485936667043575 ], [ 130.499760558303137, 32.488405279080439 ], [ 130.496916393876518, 32.48943610808999 ], [ 130.500012554635759, 32.49040705394242 ], [ 130.50265138765144, 32.485902775192983 ], [ 130.490795837358064, 32.483561946027066 ], [ 130.494043579747427, 32.491033640390242 ], [ 130.494158833263555, 32.491030865082394 ] ] ], [ [ [ 130.510944720622433, 32.491748053729737 ], [ 130.507289728338378, 32.48954416163383 ], [ 130.510878327273076, 32.491764999655061 ], [ 130.510944720622433, 32.491748053729737 ] ] ], [ [ [ 130.563423306940081, 32.541256468011625 ], [ 130.557294357948308, 32.54397902701055 ], [ 130.562495720101424, 32.541666666783271 ], [ 130.563423306940081, 32.541256468011625 ] ] ], [ [ [ 130.555945446824921, 32.543315694263924 ], [ 130.55048061029197, 32.545543973275812 ], [ 130.552986641320558, 32.544646198063617 ], [ 130.555945446824921, 32.543315694263924 ] ] ], [ [ [ 130.472808884722326, 32.594498891710543 ], [ 130.4703055507606, 32.593501108289558 ], [ 130.472609169577595, 32.594532774567938 ], [ 130.472808884722326, 32.594498891710543 ] ] ], [ [ [ 130.493467224033225, 32.609730828814747 ], [ 130.509232775672103, 32.60714277511903 ], [ 130.510120000038, 32.594349721162757 ], [ 130.511929364049024, 32.596329918590925 ], [ 130.493978885217416, 32.577431108259077 ], [ 130.488830271899587, 32.576038613291416 ], [ 130.486501660023691, 32.582734720630924 ], [ 130.494480557631732, 32.587363053662045 ], [ 130.49034510973911, 32.592382386737825 ], [ 130.479933061261818, 32.590541945754239 ], [ 130.482156667396339, 32.593783332634757 ], [ 130.479490855618565, 32.597691054198833 ], [ 130.483628053591815, 32.598824440995202 ], [ 130.473527496996439, 32.603901667028367 ], [ 130.493440558235193, 32.609758892159221 ], [ 130.493467224033225, 32.609730828814747 ] ] ], [ [ [ 130.533567612755178, 32.617828278652212 ], [ 130.53068688729013, 32.618941494554406 ], [ 130.533333333066935, 32.617896747636848 ], [ 130.533567612755178, 32.617828278652212 ] ] ], [ [ [ 130.656325551383134, 32.709193891984569 ], [ 130.656703605686971, 32.701568891990803 ], [ 130.664156109417036, 32.707038612741826 ], [ 130.672263890666045, 32.694045278866554 ], [ 130.683704448801336, 32.695719999978053 ], [ 130.689937782103016, 32.691067225172333 ], [ 130.69701749705996, 32.692953892208436 ], [ 130.700965278924514, 32.688819721353127 ], [ 130.712051659756412, 32.687151108436979 ], [ 130.71969138794725, 32.678128613244951 ], [ 130.725843061008504, 32.676513332824129 ], [ 130.734776108730443, 32.660676386705916 ], [ 130.73889027236828, 32.660639161967822 ], [ 130.747665551124328, 32.674195829374071 ], [ 130.752432502957731, 32.671427494883062 ], [ 130.752722502841266, 32.666172224668458 ], [ 130.772728884930189, 32.666880278901829 ], [ 130.791908611992881, 32.657921387362194 ], [ 130.800263061091414, 32.658939440602751 ], [ 130.808127224092232, 32.637028612780284 ], [ 130.813173891162251, 32.629390828923647 ], [ 130.820084449038177, 32.626310828981616 ], [ 130.837589999978604, 32.628170278935272 ], [ 130.842806394299714, 32.640264162161429 ], [ 130.868084163353501, 32.647007224903575 ], [ 130.874030272079494, 32.651666667282939 ], [ 130.872186393886977, 32.661738333157587 ], [ 130.876119442158597, 32.664179162438472 ], [ 130.88989888512549, 32.661557494782585 ], [ 130.906074163391963, 32.664726945791983 ], [ 130.920290272178363, 32.656880279101642 ], [ 130.939338054307768, 32.657409720782027 ], [ 130.947788884649412, 32.647899441406139 ], [ 130.976828053771783, 32.647788892243625 ], [ 130.975180830331169, 32.639026945936848 ], [ 130.963913333233791, 32.640941946113969 ], [ 130.949161115193419, 32.634750279302011 ], [ 130.960147781894648, 32.625296667107534 ], [ 130.966724163389472, 32.60367666744429 ], [ 130.966091946286383, 32.599083613018365 ], [ 130.948201114989502, 32.584398333316472 ], [ 130.95435944213466, 32.577123891754241 ], [ 130.969822503206046, 32.580394720639902 ], [ 130.987549442053137, 32.571470279429889 ], [ 131.000219170178639, 32.569998054166945 ], [ 131.011191659967153, 32.564459162060757 ], [ 131.009705550970466, 32.561030828609887 ], [ 131.017171114655298, 32.553543891637332 ], [ 131.025614163163141, 32.521110279116158 ], [ 131.00923389073148, 32.514652775405295 ], [ 131.00695888474479, 32.490059162000762 ], [ 131.016379442357447, 32.473616386686956 ], [ 131.013779169573127, 32.461663054006806 ], [ 130.987618611609719, 32.447174440747915 ], [ 130.965537223763931, 32.452058333225523 ], [ 130.957335278999949, 32.449270558989156 ], [ 130.95291749704495, 32.441823053691053 ], [ 130.940988327349487, 32.438448333323947 ], [ 130.928413891388004, 32.441629441345697 ], [ 130.910011114721215, 32.439798332626992 ], [ 130.902899169860916, 32.442598054356779 ], [ 130.898080829866444, 32.451856946241151 ], [ 130.901082218269835, 32.468042494765371 ], [ 130.891147781744849, 32.476999162281572 ], [ 130.878900830309135, 32.476410279011191 ], [ 130.876666938628432, 32.485034999565642 ], [ 130.862731946222425, 32.49366110777396 ], [ 130.852865836589103, 32.487377495175338 ], [ 130.839983333364216, 32.499022495291968 ], [ 130.816378611783534, 32.490741108015754 ], [ 130.795060271714192, 32.494300828820258 ], [ 130.785780000246859, 32.484512774944676 ], [ 130.751299441715901, 32.474608613197006 ], [ 130.75169944217555, 32.46857749515533 ], [ 130.736609169877397, 32.471180559435311 ], [ 130.741059441640004, 32.453360000263842 ], [ 130.722739999751298, 32.450385828942899 ], [ 130.729382217915145, 32.427921107772931 ], [ 130.720458884669824, 32.41907555869011 ], [ 130.724324162729999, 32.414150279411899 ], [ 130.724211387745413, 32.40564638727102 ], [ 130.735773606167072, 32.404632774882714 ], [ 130.742691388296976, 32.398924440610472 ], [ 130.739742775708578, 32.398819441164335 ], [ 130.739048053924648, 32.392739999851187 ], [ 130.720782217925034, 32.386503053972831 ], [ 130.709568054222359, 32.367724721318893 ], [ 130.70177972835188, 32.362727775066844 ], [ 130.702452217995528, 32.356711946399287 ], [ 130.697216108736484, 32.354012494581013 ], [ 130.701093333390645, 32.347146667184973 ], [ 130.693530829983843, 32.341977495365143 ], [ 130.684051659956253, 32.338604441441873 ], [ 130.678711387620524, 32.342765000204622 ], [ 130.670567496792614, 32.340246386761407 ], [ 130.665246666900202, 32.354162225406412 ], [ 130.657250829662075, 32.363143054108718 ], [ 130.657128611796111, 32.374144440913255 ], [ 130.652275279180799, 32.378631946407268 ], [ 130.652663606440342, 32.37376555923322 ], [ 130.642192775576177, 32.364888613019104 ], [ 130.632773890702538, 32.367770000385235 ], [ 130.627806667044069, 32.364056667281432 ], [ 130.620086108687019, 32.373962775161999 ], [ 130.606482776359144, 32.376059720779551 ], [ 130.596080558371114, 32.372264161761734 ], [ 130.588329170354996, 32.376606387175059 ], [ 130.577755836562687, 32.371701667298169 ], [ 130.558666109153705, 32.382562494563501 ], [ 130.552895550789117, 32.380269440981976 ], [ 130.546609441672445, 32.371148613018136 ], [ 130.547854721218528, 32.367975559324634 ], [ 130.538453061059954, 32.364676945884412 ], [ 130.530865551104398, 32.367123892353789 ], [ 130.526933332907106, 32.382763332961474 ], [ 130.534240558355123, 32.383165829039854 ], [ 130.530205551245217, 32.387099720875483 ], [ 130.53536722361855, 32.392690279033218 ], [ 130.534763890940894, 32.398112774584945 ], [ 130.543444993591606, 32.405819441114375 ], [ 130.538062218396703, 32.41027749471067 ], [ 130.545496030617414, 32.418058494703814 ], [ 130.542952970003626, 32.419192413898827 ], [ 130.563937808183368, 32.427059387280963 ], [ 130.561408028757569, 32.428325252308582 ], [ 130.569150440640442, 32.43426953181347 ], [ 130.575439663209977, 32.434198197588785 ], [ 130.568221192753867, 32.434982559297737 ], [ 130.573758443597399, 32.439566865118763 ], [ 130.565032865874173, 32.456019414264631 ], [ 130.569283748046587, 32.464617972641349 ], [ 130.565044227908857, 32.468164279158202 ], [ 130.56495044120993, 32.476000775415514 ], [ 130.544648274798078, 32.478458892364017 ], [ 130.542495031620433, 32.484543467906747 ], [ 130.544405913801938, 32.498605558799568 ], [ 130.550519442118571, 32.501005918588305 ], [ 130.562739222337314, 32.49863682912644 ], [ 130.565138392322979, 32.505437559096151 ], [ 130.531152801760413, 32.520033108041559 ], [ 130.532588806828016, 32.522808693766251 ], [ 130.556816200107619, 32.510125467716193 ], [ 130.572589299756487, 32.507474892252503 ], [ 130.536156056756681, 32.525857107719389 ], [ 130.543836860582701, 32.538237747873836 ], [ 130.546776614848909, 32.535836387139625 ], [ 130.54925566801478, 32.538475107740055 ], [ 130.546982114433149, 32.539712386917188 ], [ 130.556901829056187, 32.54292413484103 ], [ 130.562397977284832, 32.537905080555049 ], [ 130.593538755009604, 32.57987713472204 ], [ 130.609264616868586, 32.59340355882722 ], [ 130.615936030623402, 32.588382080868371 ], [ 130.633994993773968, 32.603401107974832 ], [ 130.617846355225197, 32.619134359563077 ], [ 130.640611115410707, 32.623634999655565 ], [ 130.6538941631851, 32.612836107800206 ], [ 130.65234108887023, 32.615716495120182 ], [ 130.65450878055583, 32.613777494735643 ], [ 130.656688884684399, 32.61835638663797 ], [ 130.65413944158206, 32.629119161719984 ], [ 130.66134306063384, 32.632230279104135 ], [ 130.654743061143449, 32.635341107805914 ], [ 130.651648392359448, 32.642624252107623 ], [ 130.636237782447779, 32.63336610755988 ], [ 130.609291504799216, 32.630992972947411 ], [ 130.606546808988128, 32.626698693989567 ], [ 130.606460973195453, 32.630328053796688 ], [ 130.606532528653361, 32.626382027408681 ], [ 130.595101828886413, 32.625284000156512 ], [ 130.593825550608699, 32.622306387130095 ], [ 130.591628053591876, 32.62624666685025 ], [ 130.576854721268433, 32.620570279195078 ], [ 130.563558611740632, 32.624081945625335 ], [ 130.560935837019315, 32.621241107790922 ], [ 130.557040830070264, 32.624966945967856 ], [ 130.545037224388466, 32.622374161838138 ], [ 130.543743554121761, 32.624975892423549 ], [ 130.536921660406392, 32.619257494737667 ], [ 130.532200881565473, 32.618601144327386 ], [ 130.531501945558375, 32.622098053782224 ], [ 130.531176108590557, 32.619031666877959 ], [ 130.523126938857217, 32.618338053958098 ], [ 130.518999441870847, 32.613151946105461 ], [ 130.486177496694154, 32.612694999674545 ], [ 130.466973126408675, 32.604642035701431 ], [ 130.459371750705827, 32.607308387072464 ], [ 130.461542502784368, 32.61701861271888 ], [ 130.451034136915951, 32.62408046803921 ], [ 130.462100558194265, 32.634499161607096 ], [ 130.477867562238316, 32.639320332667296 ], [ 130.499632476857414, 32.654133612875967 ], [ 130.509772114391581, 32.655160802329192 ], [ 130.518008690248962, 32.660719162059706 ], [ 130.512989921947451, 32.661089162035239 ], [ 130.537924747129409, 32.665001278586203 ], [ 130.536533904216412, 32.668995495146021 ], [ 130.541540337416677, 32.668569495286022 ], [ 130.560623060905641, 32.694970639883195 ], [ 130.564456692722274, 32.693942802018739 ], [ 130.567792995850141, 32.699221387157365 ], [ 130.580805550935452, 32.704047161847086 ], [ 130.575104034423703, 32.705817613092449 ], [ 130.588448664174621, 32.704356441396726 ], [ 130.589862334579152, 32.709043135032687 ], [ 130.593239493907618, 32.709553585729452 ], [ 130.591520169120599, 32.706760748309932 ], [ 130.607554358147127, 32.715786541315879 ], [ 130.629289728238405, 32.708977775004371 ], [ 130.64397610871049, 32.717308613301896 ], [ 130.656294449229563, 32.709262225171585 ], [ 130.656325551383134, 32.709193891984569 ] ] ] ] } },
{ "type": "Feature", "properties": { "code": "430020", "name": "阿蘇地方", "PrefCode": "43", "regioncode": "430020" }, "geometry": { "type": "Polygon", "coordinates": [ [ [ 131.062099727820282, 33.193997495088354 ], [ 131.094689441964192, 33.185165559043355 ], [ 131.105584448863283, 33.186353053550647 ], [ 131.1170719462134, 33.178632774882715 ], [ 131.119513060579379, 33.169007224903567 ], [ 131.130852503440337, 33.166117224730215 ], [ 131.133871114760154, 33.160059720579682 ], [ 131.147841115075494, 33.155028054201409 ], [ 131.14893082989397, 33.1519549997235 ], [ 131.145298885435295, 33.150683891648328 ], [ 131.161217223795916, 33.140766667247931 ], [ 131.166928612165748, 33.128737494739653 ], [ 131.163585836617131, 33.11648916194531 ], [ 131.173184085876869, 33.104842305627926 ], [ 131.174548326843819, 33.083083892207924 ], [ 131.185759727829236, 33.073900000184892 ], [ 131.193301115154441, 33.077545558580709 ], [ 131.20426763884052, 33.061593359845745 ], [ 131.216724162889818, 33.053457224771137 ], [ 131.226538611867454, 33.019059721329143 ], [ 131.223625278783629, 33.0171641617967 ], [ 131.247302502808338, 32.995871107965286 ], [ 131.24712499372356, 32.982529721169726 ], [ 131.263510271781684, 32.976557774921446 ], [ 131.256115837276184, 32.963502225047705 ], [ 131.248578885407255, 32.964001386554799 ], [ 131.245981115436166, 32.960002224622997 ], [ 131.252988884629417, 32.956067494619219 ], [ 131.24678944227901, 32.95289833319157 ], [ 131.252630271869634, 32.946458054195887 ], [ 131.245803061362267, 32.939675000400996 ], [ 131.252980830301112, 32.924511945969584 ], [ 131.25322165975183, 32.898040279235545 ], [ 131.257386939056005, 32.88743110835901 ], [ 131.264168053912613, 32.879126666962179 ], [ 131.273392776055857, 32.881677225223825 ], [ 131.273438054222879, 32.870996387373452 ], [ 131.286833332892115, 32.865597775117294 ], [ 131.294242217704209, 32.857119721398078 ], [ 131.314405551275286, 32.850802494839343 ], [ 131.329505836625117, 32.833013892177462 ], [ 131.322898885375366, 32.828652495016684 ], [ 131.291552502845775, 32.827799161602059 ], [ 131.285803060562898, 32.831422495052152 ], [ 131.27594972759789, 32.828710279156098 ], [ 131.272640830410069, 32.824153053720522 ], [ 131.265183606138521, 32.826461107993794 ], [ 131.262614993986858, 32.817864720580417 ], [ 131.254976394445066, 32.815580558595968 ], [ 131.25525722394184, 32.804668333276993 ], [ 131.246613891018342, 32.798992774796773 ], [ 131.245370830099773, 32.786551387236784 ], [ 131.234533060552394, 32.780814162243871 ], [ 131.246465278949472, 32.769396107844159 ], [ 131.234224449199019, 32.753436945658564 ], [ 131.216050272102393, 32.756132775007586 ], [ 131.208149441943306, 32.765863891905155 ], [ 131.201927781841732, 32.767911667089834 ], [ 131.200451945800751, 32.774732495108594 ], [ 131.205000830024346, 32.78734916233401 ], [ 131.195856393957456, 32.800653891863647 ], [ 131.178219728157956, 32.80456944112683 ], [ 131.169921946240834, 32.814444999936825 ], [ 131.149814721372309, 32.820751108177149 ], [ 131.142718885168506, 32.815306946158671 ], [ 131.141827782026553, 32.804771107800434 ], [ 131.127164720975202, 32.794810829256392 ], [ 131.115221387856877, 32.795553892298358 ], [ 131.099941114890612, 32.790739720661634 ], [ 131.093774449231546, 32.795134999780487 ], [ 131.085239999926102, 32.79113138710386 ], [ 131.075259170074673, 32.795236107860148 ], [ 131.07361778233485, 32.791885000092748 ], [ 131.050303060637816, 32.789440559134562 ], [ 131.038460830203235, 32.783656386832831 ], [ 131.030363891180741, 32.789299162326529 ], [ 131.014062502782394, 32.785720559356378 ], [ 131.002863060981554, 32.788793333245792 ], [ 130.995014163073279, 32.796582494586517 ], [ 130.996878612358159, 32.804091107918339 ], [ 130.989672217998532, 32.813730829414283 ], [ 130.97655389094939, 32.814974161928092 ], [ 130.979142218038987, 32.823266946312572 ], [ 130.971843332903518, 32.834357224806126 ], [ 130.973552503445376, 32.839032774942666 ], [ 130.980215279211848, 32.841118891823442 ], [ 130.979820557772541, 32.849333053877388 ], [ 130.972575279425655, 32.856646667209986 ], [ 130.988468884631402, 32.874751386966977 ], [ 130.979046939364821, 32.871900829259914 ], [ 130.971762217652326, 32.87571472095766 ], [ 130.957420829707644, 32.873027495422605 ], [ 130.94864194556942, 32.87577582899138 ], [ 130.96675111517186, 32.903265558858493 ], [ 130.957262503162042, 32.913840279405406 ], [ 130.966340557570788, 32.924151387076904 ], [ 130.957468611587274, 32.939871108365026 ], [ 130.964658884699816, 32.946598054356798 ], [ 130.958911660145077, 32.949092225126151 ], [ 130.95490055791447, 32.958221108317559 ], [ 130.946379727942144, 32.95907722513391 ], [ 130.942784162858857, 32.962986667101063 ], [ 130.955339728345848, 32.980651107562608 ], [ 130.955561115353248, 33.003948054159423 ], [ 130.97027221818837, 33.023761386878562 ], [ 130.991285837371606, 33.023963053552109 ], [ 131.00329389110027, 33.032820279432428 ], [ 131.004863890656111, 33.039801667013364 ], [ 131.012186667181027, 33.043495829269148 ], [ 131.015149169798406, 33.051248333343949 ], [ 131.012644449082131, 33.054383333124349 ], [ 131.017743332588793, 33.063690828868687 ], [ 131.010781945930148, 33.070948053809673 ], [ 131.01449778184724, 33.079755558872023 ], [ 131.024050271802707, 33.087542224594017 ], [ 131.008981388080656, 33.108585828972878 ], [ 130.993512217914599, 33.120155829228167 ], [ 130.994609169577529, 33.129295278554309 ], [ 130.978332217557863, 33.140900278624997 ], [ 130.984618611759629, 33.143179441278221 ], [ 130.981511388439912, 33.148115278597288 ], [ 130.985516394166325, 33.168547495070868 ], [ 130.99317194592868, 33.177590829353335 ], [ 130.99316555084954, 33.183812225054169 ], [ 131.005989170064254, 33.177626667336881 ], [ 131.015543061163385, 33.177452775325378 ], [ 131.034666109353566, 33.187407774848964 ], [ 131.039173060888061, 33.194258613244472 ], [ 131.061881660210474, 33.194222775260926 ], [ 131.062099727820282, 33.193997495088354 ] ] ] } },
{ "type": "Feature", "properties": { "code": "430031", "name": "天草地方", "PrefCode": "43", "regioncode": "430031" }, "geometry": { "type": "MultiPolygon", "coordinates": [ [ [ [ 129.974125279158329, 32.149093612580202 ], [ 129.974840830140238, 32.144090828828723 ], [ 129.971304994430056, 32.144451108032285 ], [ 129.974112218304299, 32.149127495437597 ], [ 129.974125279158329, 32.149093612580202 ] ] ], [ [ [ 130.042962217832155, 32.154538891556626 ], [ 130.046439170431427, 32.153845829021861 ], [ 130.041405836710055, 32.153309720667153 ], [ 130.04312749703638, 32.158818053810194 ], [ 130.04286972795569, 32.15457861281277 ], [ 130.042962217832155, 32.154538891556626 ] ] ], [ [ [ 130.052518054164921, 32.170055559416596 ], [ 130.055822775800493, 32.161964721394838 ], [ 130.052054720748856, 32.162658333415379 ], [ 130.052398885000571, 32.170061108233597 ], [ 130.052518054164921, 32.170055559416596 ] ] ], [ [ [ 130.044075836630668, 32.178934440971716 ], [ 130.049193333405697, 32.174424440735379 ], [ 130.044022775730582, 32.17895722529579 ], [ 130.044075836630668, 32.178934440971716 ] ] ], [ [ [ 130.005896083237758, 32.183275341683725 ], [ 130.004124033897142, 32.185087377580487 ], [ 130.00596193339652, 32.183328216424115 ], [ 130.005896083237758, 32.183275341683725 ] ] ], [ [ [ 130.012836887112712, 32.184817422685967 ], [ 130.007223424121776, 32.185310684640456 ], [ 130.012837729777516, 32.18486341401541 ], [ 130.012836887112712, 32.184817422685967 ] ] ], [ [ [ 130.01674610874602, 32.18652722455181 ], [ 130.016167445371366, 32.182388414094078 ], [ 130.012610272346251, 32.183234999895376 ], [ 130.016706108699964, 32.186561108308581 ], [ 130.01674610874602, 32.18652722455181 ] ] ], [ [ [ 129.965189441739426, 32.187140829285909 ], [ 129.971294162995264, 32.184372775383338 ], [ 129.97332944210018, 32.177184441209022 ], [ 129.965666938578465, 32.181232224987241 ], [ 129.96514972767784, 32.187135278670212 ], [ 129.965189441739426, 32.187140829285909 ] ] ], [ [ [ 130.003323916965314, 32.188951982048366 ], [ 130.006332645635098, 32.186793865444599 ], [ 130.003288365865501, 32.18892400863615 ], [ 130.003323916965314, 32.188951982048366 ] ] ], [ [ [ 130.029191555845728, 32.190819414384521 ], [ 130.03927666658501, 32.183720828953142 ], [ 130.038229052628708, 32.178708828949368 ], [ 130.032595486192804, 32.18081418862397 ], [ 130.036307497293251, 32.176228053581838 ], [ 130.04719832684134, 32.170844441118106 ], [ 130.048451945800707, 32.166982774735345 ], [ 130.043445551271247, 32.162951107707499 ], [ 130.046962217932105, 32.156461667272197 ], [ 130.032230558393621, 32.175168054162441 ], [ 130.024442503219007, 32.171029161866386 ], [ 130.020902502748413, 32.158168612891245 ], [ 130.017127224341948, 32.162402774868212 ], [ 130.01526861165712, 32.17167166721373 ], [ 130.021751880944635, 32.173794739036055 ], [ 130.016971945598925, 32.176452494686941 ], [ 130.019033332922049, 32.18087277495863 ], [ 130.024150272117481, 32.18125082926241 ], [ 130.019237004184447, 32.18602244138259 ], [ 130.028722633143047, 32.191134161812158 ], [ 130.029191555845728, 32.190819414384521 ] ] ], [ [ [ 130.078084993927405, 32.201672494889806 ], [ 130.081764162686, 32.197895559032872 ], [ 130.070231114674243, 32.19421361316779 ], [ 130.078104993950319, 32.201689440815073 ], [ 130.078084993927405, 32.201672494889806 ] ] ], [ [ [ 129.974110558155758, 32.208017774900441 ], [ 129.976423891449485, 32.206230829189451 ], [ 129.97023972768136, 32.201162224956761 ], [ 129.974037782317851, 32.208046108041515 ], [ 129.974110558155758, 32.208017774900441 ] ] ], [ [ [ 130.091871387754395, 32.218930000219359 ], [ 130.089518326909342, 32.213517774925435 ], [ 130.091791946141484, 32.218980829002135 ], [ 130.091871387754395, 32.218930000219359 ] ] ], [ [ [ 129.984616109146145, 32.238636667048581 ], [ 129.98160666731394, 32.236043333433145 ], [ 129.984549728387265, 32.238698613250449 ], [ 129.984616109146145, 32.238636667048581 ] ] ], [ [ [ 130.141194059658233, 32.277649892328725 ], [ 130.148352503065666, 32.274580829042065 ], [ 130.150714720807741, 32.269055828763555 ], [ 130.13519055799793, 32.262555279002981 ], [ 130.131873060593307, 32.268299999845169 ], [ 130.141085421554976, 32.277783892212881 ], [ 130.141194059658233, 32.277649892328725 ] ] ], [ [ [ 130.303568885395862, 32.320953613118775 ], [ 130.302786109191629, 32.31785305377548 ], [ 130.303515837086252, 32.320936667193507 ], [ 130.303568885395862, 32.320953613118775 ] ] ], [ [ [ 130.302998326711418, 32.336468333047208 ], [ 130.299946667105019, 32.329618613408343 ], [ 130.303867497187298, 32.326884440564527 ], [ 130.300178612153331, 32.321184720898202 ], [ 130.299296666807777, 32.328192224791394 ], [ 130.29375722431655, 32.333243332713664 ], [ 130.302958611750569, 32.336456945831458 ], [ 130.302998326711418, 32.336468333047208 ] ] ], [ [ [ 130.290591660177029, 32.340910000096471 ], [ 130.285444721396857, 32.336073332818103 ], [ 130.290588689716287, 32.340912892316169 ], [ 130.290591660177029, 32.340910000096471 ] ] ], [ [ [ 130.335061387972701, 32.344450828842753 ], [ 130.327611114561364, 32.33887555915976 ], [ 130.335008327072728, 32.344456667241445 ], [ 130.335061387972701, 32.344450828842753 ] ] ], [ [ [ 130.355293022355113, 32.352132972658637 ], [ 130.363530895034842, 32.345878468416629 ], [ 130.369317976643401, 32.349105333044747 ], [ 130.367685667559613, 32.351081441255587 ], [ 130.373179416396965, 32.34957019800629 ], [ 130.374647172928803, 32.344132306061113 ], [ 130.348961660252485, 32.31504027928554 ], [ 130.336382776244136, 32.311398332567023 ], [ 130.328786109391444, 32.304306667418814 ], [ 130.321050558436582, 32.307666666783291 ], [ 130.300411388175121, 32.304408333078186 ], [ 130.309068885420743, 32.310913892062501 ], [ 130.315284994007357, 32.308979999827159 ], [ 130.32187277620767, 32.317447224809655 ], [ 130.327505837224635, 32.317486667275944 ], [ 130.327706030808713, 32.311436215608921 ], [ 130.330600660691971, 32.312796279224983 ], [ 130.334470000090505, 32.32882994574544 ], [ 130.329741659749857, 32.32739194598156 ], [ 130.329330272074458, 32.333238053693265 ], [ 130.335417223625996, 32.340102693984193 ], [ 130.338483606033606, 32.338696387228538 ], [ 130.336809947920869, 32.341445198337283 ], [ 130.340428910665764, 32.341422414013266 ], [ 130.345772503298463, 32.349716387301498 ], [ 130.355730804233303, 32.352652721445963 ], [ 130.355293022355113, 32.352132972658637 ] ] ], [ [ [ 130.360254720578951, 32.35621110765652 ], [ 130.360748145310708, 32.349031414168508 ], [ 130.356536394439104, 32.352772225158105 ], [ 130.360228053881656, 32.356256107933064 ], [ 130.360254720578951, 32.35621110765652 ] ] ], [ [ [ 130.314608884592417, 32.368025279243284 ], [ 130.313386938856183, 32.365031667277663 ], [ 130.324163890850969, 32.366187775445553 ], [ 130.320046939314807, 32.363442225278504 ], [ 130.323864838391614, 32.357538333427385 ], [ 130.327802776277167, 32.364688333100162 ], [ 130.327949169718522, 32.357455828723573 ], [ 130.331043333083471, 32.36002638700819 ], [ 130.334582775974354, 32.358752775220466 ], [ 130.333347781974567, 32.354501946107973 ], [ 130.342285837121722, 32.355601666783571 ], [ 130.339244993661623, 32.347314720797783 ], [ 130.329569728260367, 32.347855829383093 ], [ 130.321435551009927, 32.34043694590838 ], [ 130.317139170336532, 32.343909440568268 ], [ 130.309894448669979, 32.339388613393851 ], [ 130.313725836678032, 32.347134162111956 ], [ 130.32399165988727, 32.348836666878697 ], [ 130.31738212668381, 32.352246171223896 ], [ 130.301919728412827, 32.350673891886629 ], [ 130.299203890946842, 32.357725828584194 ], [ 130.303832217682725, 32.363278613417322 ], [ 130.311043060988482, 32.357765558833535 ], [ 130.314608884592417, 32.368188892003786 ], [ 130.314608884592417, 32.368025279243284 ] ] ], [ [ [ 130.316251945970635, 32.37075527923281 ], [ 130.314866667163074, 32.36870972087695 ], [ 130.316256108932294, 32.37078222471996 ], [ 130.316251945970635, 32.37075527923281 ] ] ], [ [ [ 130.350660609999181, 32.371861009178303 ], [ 130.348440596656246, 32.368290287866557 ], [ 130.35133910531556, 32.370042919045545 ], [ 130.355331647337721, 32.364752459258625 ], [ 130.348977639406598, 32.360552000274652 ], [ 130.340976938634867, 32.36825722519086 ], [ 130.343878612008439, 32.372186667180983 ], [ 130.350640959812495, 32.371874883019473 ], [ 130.350660609999181, 32.371861009178303 ] ] ], [ [ [ 130.310199663283925, 32.374475386929589 ], [ 130.310588171307131, 32.370207333101973 ], [ 130.304817418689026, 32.366723441333818 ], [ 130.310150271617772, 32.374494359926814 ], [ 130.310199663283925, 32.374475386929589 ] ] ], [ [ [ 130.413748611809069, 32.374536666733832 ], [ 130.407854915571988, 32.370612531643076 ], [ 130.413748611809069, 32.374626667286918 ], [ 130.413748611809069, 32.374536666733832 ] ] ], [ [ [ 130.3143828022246, 32.376890865221299 ], [ 130.312151505087968, 32.375760640441229 ], [ 130.314259728203979, 32.376894973324397 ], [ 130.3143828022246, 32.376890865221299 ] ] ], [ [ [ 130.235747497149305, 32.380630278664455 ], [ 130.235940272225889, 32.368070278620507 ], [ 130.230488611660121, 32.365741946433729 ], [ 130.229884162923895, 32.377089720614151 ], [ 130.235700830429096, 32.380641666779525 ], [ 130.235747497149305, 32.380630278664455 ] ] ], [ [ [ 130.324468469644216, 32.382087918722505 ], [ 130.328007223654481, 32.378682640291686 ], [ 130.323313606138072, 32.377591667321667 ], [ 130.325829973974237, 32.372913667431874 ], [ 130.319077782213981, 32.370620532011969 ], [ 130.319870661401978, 32.377067865289803 ], [ 130.317241776686728, 32.376802306281434 ], [ 130.324397082359496, 32.382080386900384 ], [ 130.324468469644216, 32.382087918722505 ] ] ], [ [ [ 130.344340947176988, 32.392381081321901 ], [ 130.336552892002373, 32.383793865194775 ], [ 130.344351193153102, 32.392565495401357 ], [ 130.344340947176988, 32.392381081321901 ] ] ], [ [ [ 130.400000000299883, 32.394178414202486 ], [ 130.407223579804395, 32.387000108368341 ], [ 130.39742321690801, 32.387061801860739 ], [ 130.399929000622933, 32.394203359597441 ], [ 130.400000000299883, 32.394178414202486 ] ] ], [ [ [ 130.328472503203557, 32.395523333235303 ], [ 130.33098221785508, 32.394153612699142 ], [ 130.326440830380079, 32.386188053835667 ], [ 130.328425837382497, 32.395506387309979 ], [ 130.328472503203557, 32.395523333235303 ] ] ], [ [ [ 130.41508394316952, 32.399429613186157 ], [ 130.423617522830455, 32.392851279263198 ], [ 130.424125550753615, 32.381419494913814 ], [ 130.428436497746247, 32.379285586260835 ], [ 130.436730078030791, 32.382118829320575 ], [ 130.419489026697306, 32.367097972993122 ], [ 130.415980660778928, 32.369250333036518 ], [ 130.41865641995787, 32.378867864660265 ], [ 130.421437301790093, 32.378566586378895 ], [ 130.409626225669854, 32.383401026935871 ], [ 130.407782581301149, 32.392447864977044 ], [ 130.411705136283103, 32.394966053940266 ], [ 130.407911893918822, 32.396730828664886 ], [ 130.415068858840868, 32.399444918748031 ], [ 130.41508394316952, 32.399429613186157 ] ] ], [ [ [ 130.232247496724654, 32.403190828893685 ], [ 130.234711114826155, 32.400834440557048 ], [ 130.231610272196349, 32.399109441047926 ], [ 130.23212138839142, 32.403185279177364 ], [ 130.232247496724654, 32.403190828893685 ] ] ], [ [ [ 130.231589999678818, 32.406979161858885 ], [ 130.228429169570632, 32.404329440751155 ], [ 130.231450557996936, 32.407063612695595 ], [ 130.231589999678818, 32.406979161858885 ] ] ], [ [ [ 130.39393389143595, 32.504629305997753 ], [ 130.393224254395932, 32.502407747619486 ], [ 130.391985357338399, 32.505495468241293 ], [ 130.39393389143595, 32.504629305997753 ] ] ], [ [ [ 130.06513830069207, 32.522668413916222 ], [ 130.061771854987228, 32.522639278579902 ], [ 130.065136304197154, 32.522738332608014 ], [ 130.06513830069207, 32.522668413916222 ] ] ], [ [ [ 130.429639831113377, 32.528956414307117 ], [ 130.431395083816142, 32.524079972712627 ], [ 130.425731855041136, 32.520765197555875 ], [ 130.422405226819819, 32.524457559368898 ], [ 130.429640661187591, 32.529030864682738 ], [ 130.429639831113377, 32.528956414307117 ] ] ], [ [ [ 130.419016420371577, 32.529818495427264 ], [ 130.417782555020949, 32.52758008105593 ], [ 130.41903166028294, 32.529915197728258 ], [ 130.419016420371577, 32.529818495427264 ] ] ], [ [ [ 130.460665939881324, 32.530292225006235 ], [ 130.457953139425854, 32.515665865287531 ], [ 130.451283891238631, 32.510640054395026 ], [ 130.45222797703957, 32.506741198347697 ], [ 130.437441504721733, 32.486065306069065 ], [ 130.435551854634468, 32.472863162205215 ], [ 130.438023280649986, 32.470908667401147 ], [ 130.43460655025217, 32.471377467795946 ], [ 130.437335888340613, 32.469381891960779 ], [ 130.432416719056391, 32.466913225065355 ], [ 130.428629882563087, 32.455182441316651 ], [ 130.417369779691626, 32.448633233736814 ], [ 130.414861894261094, 32.440781494870123 ], [ 130.418631556401238, 32.439072026652752 ], [ 130.41014236098124, 32.440608720715943 ], [ 130.41249635532256, 32.437603639696249 ], [ 130.406312944287038, 32.435203359947138 ], [ 130.414747522979837, 32.43343302741232 ], [ 130.415616082816086, 32.430239801925381 ], [ 130.423967224208127, 32.432507224828612 ], [ 130.415773332873073, 32.422383053834892 ], [ 130.407256354697097, 32.422363305622127 ], [ 130.402133864885968, 32.426962441263697 ], [ 130.411052476690543, 32.415065945736842 ], [ 130.404254449183554, 32.408671387374682 ], [ 130.403486912890799, 32.398495892071821 ], [ 130.400730998936524, 32.400556586017672 ], [ 130.404016886969771, 32.394437918974859 ], [ 130.392230025994991, 32.394902360355672 ], [ 130.380448781286304, 32.382385865015692 ], [ 130.3767665242558, 32.389440414243779 ], [ 130.366868690137949, 32.38974910833474 ], [ 130.361654812119923, 32.380700414092871 ], [ 130.356192437930758, 32.376951332937722 ], [ 130.352033281210993, 32.378798802123072 ], [ 130.355530169082044, 32.382521838012451 ], [ 130.351496380553613, 32.382456423125461 ], [ 130.353836225861187, 32.386829873899615 ], [ 130.348482244260254, 32.394755386851671 ], [ 130.3507025031181, 32.398691386698204 ], [ 130.344950245957193, 32.394794639561042 ], [ 130.355056938626831, 32.406923332845565 ], [ 130.353782503060188, 32.410425828888947 ], [ 130.351412218399219, 32.409181107821894 ], [ 130.353847575305394, 32.414859766265238 ], [ 130.349374994060781, 32.421716882827923 ], [ 130.344692217871625, 32.417315278777153 ], [ 130.34667111488011, 32.413972495134601 ], [ 130.342881556138991, 32.405840198366491 ], [ 130.339460557558709, 32.405771107950329 ], [ 130.342772140122179, 32.405210919348519 ], [ 130.334062516372114, 32.403990026718418 ], [ 130.32934194617394, 32.397913332834094 ], [ 130.325012776218728, 32.401661666652672 ], [ 130.325270804304182, 32.398807305712637 ], [ 130.312818170722039, 32.395875441198712 ], [ 130.312886432862683, 32.398502413955271 ], [ 130.306940143373026, 32.394624702767885 ], [ 130.308139804808206, 32.397309811298783 ], [ 130.291628054191392, 32.401215000372019 ], [ 130.286210271986533, 32.397325278738663 ], [ 130.27844832682888, 32.402815279201832 ], [ 130.27455552501749, 32.412347892341415 ], [ 130.273828197413422, 32.40924027871597 ], [ 130.261532088135368, 32.410560495170785 ], [ 130.261262802336546, 32.402470658094444 ], [ 130.252371025402567, 32.393220891630904 ], [ 130.25244055828523, 32.387510559065106 ], [ 130.234114162838409, 32.385100559443288 ], [ 130.240395551413599, 32.396533333046932 ], [ 130.246836394284287, 32.395101667208223 ], [ 130.24732891070073, 32.401193829431747 ], [ 130.242958612050415, 32.399758053691301 ], [ 130.246114929360601, 32.408419179701411 ], [ 130.242333605711451, 32.414702224827863 ], [ 130.238455836967319, 32.412926667231943 ], [ 130.228557497430643, 32.420818891778481 ], [ 130.232827768986454, 32.415392476981253 ], [ 130.228192424840586, 32.41167815282455 ], [ 130.223561660042606, 32.413151945605875 ], [ 130.220074150301912, 32.424799351408979 ], [ 130.210080467339708, 32.431345666769175 ], [ 130.205328080026902, 32.442408945816226 ], [ 130.206050777921178, 32.452651748179676 ], [ 130.228782218224865, 32.461503053822923 ], [ 130.234790558237705, 32.460775828741532 ], [ 130.250959728308885, 32.470282775229919 ], [ 130.254122776145323, 32.476962225326474 ], [ 130.269774163347051, 32.479352224925265 ], [ 130.285947445118609, 32.487602892259702 ], [ 130.291185110204765, 32.484339891972468 ], [ 130.286737561589234, 32.487847559117597 ], [ 130.294551115241802, 32.492435559353623 ], [ 130.291380558066408, 32.492672224943306 ], [ 130.293933060662312, 32.497937494719679 ], [ 130.310076498431727, 32.509310359985193 ], [ 130.314500999221764, 32.51686755919053 ], [ 130.322087224046186, 32.51847361256722 ], [ 130.319779637420424, 32.519217946351205 ], [ 130.334779728401827, 32.521890558802284 ], [ 130.339812554905507, 32.513919711925212 ], [ 130.343261115008545, 32.521643053684045 ], [ 130.361980751610417, 32.528314296567601 ], [ 130.361860829713578, 32.521108612672379 ], [ 130.367262218176847, 32.528003053797931 ], [ 130.368173890612638, 32.52463194600756 ], [ 130.373874189442404, 32.52438194616991 ], [ 130.36868610937654, 32.520787495346667 ], [ 130.3700699996308, 32.512850829002616 ], [ 130.378031945917655, 32.523667225262272 ], [ 130.384617224405474, 32.524338053858173 ], [ 130.377778222886718, 32.519543892136937 ], [ 130.381101439979489, 32.518454224982577 ], [ 130.377021115132379, 32.518301108209641 ], [ 130.381750829637099, 32.518081107956846 ], [ 130.377903216959908, 32.516749828941499 ], [ 130.382069248097423, 32.51542391887881 ], [ 130.379209727746797, 32.511536945573653 ], [ 130.381787860121676, 32.510002161670457 ], [ 130.387517781720362, 32.518701107769971 ], [ 130.391469169866355, 32.507805558579719 ], [ 130.389326341737387, 32.50463851415617 ], [ 130.394681166902387, 32.500017828959699 ], [ 130.400052750034433, 32.50921710838287 ], [ 130.404126108732953, 32.508282225344487 ], [ 130.400384422703041, 32.510736494993296 ], [ 130.405178301137767, 32.51167186456496 ], [ 130.402486938721268, 32.514579531919935 ], [ 130.40896518799309, 32.515343360307895 ], [ 130.410787367343232, 32.520129000053373 ], [ 130.416300635965626, 32.518600864838106 ], [ 130.417583527857573, 32.524627026715962 ], [ 130.428867587768991, 32.516156612737518 ], [ 130.434344772893041, 32.518023027041124 ], [ 130.431177197869488, 32.520948161928175 ], [ 130.437985188066023, 32.527635829130247 ], [ 130.449729273687126, 32.527032919133944 ], [ 130.445171114755226, 32.526600161768101 ], [ 130.445441388009726, 32.523662225031728 ], [ 130.455206743896156, 32.522176278812253 ], [ 130.451709921675615, 32.526724225042983 ], [ 130.457588885218911, 32.525803613346113 ], [ 130.460514423002337, 32.530310359835312 ], [ 130.460665939881324, 32.530292225006235 ] ] ], [ [ [ 130.373821115052465, 32.526840558644892 ], [ 130.374054162669495, 32.532821107807933 ], [ 130.373867781772788, 32.526863054286594 ], [ 130.373821115052465, 32.526840558644892 ] ] ], [ [ [ 130.432352607287044, 32.533318828601125 ], [ 130.436249753723246, 32.528172972604636 ], [ 130.429613917148572, 32.530345161799801 ], [ 130.432353696366022, 32.533333332867073 ], [ 130.432352607287044, 32.533318828601125 ] ] ], [ [ [ 130.42177367071838, 32.53613722475319 ], [ 130.425023799908558, 32.532485747918997 ], [ 130.422196200094618, 32.531884891974244 ], [ 130.421558664400891, 32.536149441143834 ], [ 130.42177367071838, 32.53613722475319 ] ] ], [ [ [ 130.439479780367606, 32.538997108429839 ], [ 130.437688781412248, 32.530536279425803 ], [ 130.434058003374275, 32.535692386794267 ], [ 130.436911284228472, 32.534333306137228 ], [ 130.439283579773473, 32.538996531964415 ], [ 130.439479780367606, 32.538997108429839 ] ] ], [ [ [ 130.197072775788001, 32.543989162369996 ], [ 130.197565551209323, 32.540347495340711 ], [ 130.194212217619793, 32.54008805442021 ], [ 130.197039728400796, 32.544006108295321 ], [ 130.197072775788001, 32.543989162369996 ] ] ], [ [ [ 130.403643696199651, 32.544068495164993 ], [ 130.40804739297289, 32.542354197588224 ], [ 130.405078612188277, 32.535637892374893 ], [ 130.398032943765429, 32.536151666965907 ], [ 130.400455667894789, 32.536998278847534 ], [ 130.397399688844644, 32.539036414199188 ], [ 130.397821996987659, 32.53567700029339 ], [ 130.394070609970754, 32.539636612739514 ], [ 130.404195914110232, 32.544186828859097 ], [ 130.403643696199651, 32.544068495164993 ] ] ], [ [ [ 130.39137269779178, 32.54716241391435 ], [ 130.396343891057768, 32.544748333169082 ], [ 130.389078249361773, 32.543218026990417 ], [ 130.391329882867808, 32.547180829331865 ], [ 130.39137269779178, 32.54716241391435 ] ] ], [ [ [ 130.132817951287507, 32.547167360185597 ], [ 130.129665862589604, 32.546701225381298 ], [ 130.1327719707499, 32.547222306064612 ], [ 130.132817951287507, 32.547167360185597 ] ] ], [ [ [ 130.411195887979943, 32.547643107843214 ], [ 130.419991725237992, 32.544430197995268 ], [ 130.419802166137174, 32.540913945921943 ], [ 130.426497950619932, 32.544290775199158 ], [ 130.42885002580806, 32.540979829355706 ], [ 130.416320583827996, 32.538074054174331 ], [ 130.410330699702058, 32.542304251939754 ], [ 130.412633411103116, 32.543794026573096 ], [ 130.405171114655332, 32.544624440765404 ], [ 130.411102166032151, 32.547369802074741 ], [ 130.411195887979943, 32.547643107843214 ] ] ], [ [ [ 130.463353165416265, 32.547391161872667 ], [ 130.462049300434956, 32.543963558671351 ], [ 130.463547523299667, 32.547620333411714 ], [ 130.463353165416265, 32.547391161872667 ] ] ], [ [ [ 130.188989467789725, 32.550958359640617 ], [ 130.191572723602349, 32.549521531693358 ], [ 130.183524034106995, 32.549848694261868 ], [ 130.188042218173905, 32.550964440856319 ], [ 130.188989467789725, 32.550958359640617 ] ] ], [ [ [ 130.176644410211452, 32.550239793231924 ], [ 130.189014734242619, 32.548771459335455 ], [ 130.190037716667348, 32.546460081167879 ], [ 130.186170584205115, 32.546835162312959 ], [ 130.190648728656015, 32.542404675635339 ], [ 130.188266692553839, 32.535996026695329 ], [ 130.19129955902747, 32.539054414129964 ], [ 130.199854163039277, 32.53582638667848 ], [ 130.19362749731124, 32.52985638656304 ], [ 130.195869545842925, 32.517662738844365 ], [ 130.192486913240487, 32.518922522656339 ], [ 130.19038111469672, 32.513828332711455 ], [ 130.193833904311305, 32.512303305553132 ], [ 130.194864306142904, 32.517854612800193 ], [ 130.198657782330883, 32.509929161901368 ], [ 130.192439857113754, 32.496851414061553 ], [ 130.197838755354383, 32.494244613098488 ], [ 130.192145551276212, 32.4962016673731 ], [ 130.195790272403201, 32.491239279369324 ], [ 130.197009611004773, 32.494253865323685 ], [ 130.196849727732797, 32.488050558586451 ], [ 130.205612749628699, 32.479722874211348 ], [ 130.203191335811539, 32.474209441012931 ], [ 130.208598495224464, 32.472310080945533 ], [ 130.202387198010797, 32.46936797315351 ], [ 130.20687219169838, 32.469607306132332 ], [ 130.206275136288582, 32.465755559271713 ], [ 130.203222554877016, 32.466557802200839 ], [ 130.205113306633848, 32.464207918660577 ], [ 130.19697425415859, 32.458500134773431 ], [ 130.203843307422744, 32.45742461305548 ], [ 130.198042308805611, 32.457645721273082 ], [ 130.203194423184186, 32.453565278614747 ], [ 130.208592476961257, 32.42608858621935 ], [ 130.210742113857577, 32.428145404986481 ], [ 130.217078885382307, 32.424313613182733 ], [ 130.216794060197799, 32.42031602686319 ], [ 130.205800271765156, 32.42077916242846 ], [ 130.212729856597662, 32.42043353228172 ], [ 130.209492412345071, 32.413612323849691 ], [ 130.197771894357516, 32.405395278569301 ], [ 130.197100271660247, 32.401950278882339 ], [ 130.201899170110664, 32.399506775017699 ], [ 130.201363605845813, 32.391735279059958 ], [ 130.193297029734254, 32.387873494865971 ], [ 130.199418053900104, 32.385077224734175 ], [ 130.207798029355672, 32.396267279411461 ], [ 130.219441140896038, 32.392513946261658 ], [ 130.215501114784729, 32.387687774970914 ], [ 130.221671336363102, 32.388577135226683 ], [ 130.22359557707432, 32.383383613363094 ], [ 130.218349999752718, 32.382958054170899 ], [ 130.21740373489456, 32.376600504709586 ], [ 130.220945304682118, 32.378316802378606 ], [ 130.224944228293566, 32.365943134667987 ], [ 130.218741945884176, 32.365104441316987 ], [ 130.215030610174608, 32.356388532205074 ], [ 130.216161970798339, 32.359213595031463 ], [ 130.210465174828073, 32.357070324435995 ], [ 130.211746601724371, 32.353056116846346 ], [ 130.213884968316734, 32.356285180316888 ], [ 130.206812516284685, 32.348179865008831 ], [ 130.20919197133253, 32.336755152927992 ], [ 130.202948755380817, 32.332073197819852 ], [ 130.204405279380239, 32.325147224664761 ], [ 130.193750830336626, 32.3235513866872 ], [ 130.181537223963801, 32.311080558920708 ], [ 130.1720630613612, 32.31089389203953 ], [ 130.166788612204755, 32.323071108245074 ], [ 130.169323060910642, 32.322479161883848 ], [ 130.168035836984359, 32.326600558768803 ], [ 130.177392775656131, 32.33869861305061 ], [ 130.163948885033051, 32.329108892061754 ], [ 130.160267224253062, 32.332046495149655 ], [ 130.161264423114744, 32.335867207305796 ], [ 130.157538431153739, 32.33518479274403 ], [ 130.159849481068704, 32.332758413769852 ], [ 130.155510000386244, 32.330405279180354 ], [ 130.160140829935472, 32.32139666682275 ], [ 130.15162917035002, 32.322275828766521 ], [ 130.157023061165432, 32.312365000344528 ], [ 130.148749728217467, 32.311446108151415 ], [ 130.149386666761302, 32.314197225121916 ], [ 130.142995615755126, 32.317313829269835 ], [ 130.144576667079605, 32.310791945791721 ], [ 130.140904254028214, 32.312812360002454 ], [ 130.139798755208403, 32.303954847238458 ], [ 130.142551555709815, 32.303465532408438 ], [ 130.13961058376151, 32.297372108436093 ], [ 130.144902218062953, 32.297086386627484 ], [ 130.145963332641713, 32.30388000026187 ], [ 130.148404993795452, 32.2994372252478 ], [ 130.14824583717575, 32.302498612820784 ], [ 130.163438884896664, 32.30182833281134 ], [ 130.166470829565242, 32.29588055944032 ], [ 130.158124527425116, 32.287135972747024 ], [ 130.145015279032009, 32.281453054215149 ], [ 130.136661945992046, 32.291583891883135 ], [ 130.131487496950513, 32.285788333265032 ], [ 130.134101854916707, 32.285155640420498 ], [ 130.122743268187378, 32.278362314569222 ], [ 130.114543890987875, 32.266338054157927 ], [ 130.109022049128384, 32.265499386887257 ], [ 130.112156109117223, 32.260948332599526 ], [ 130.10675610920714, 32.25352916224108 ], [ 130.091560000193908, 32.25410138736919 ], [ 130.093666394088928, 32.246876666624928 ], [ 130.102893060566316, 32.248956946006331 ], [ 130.099727937993976, 32.243993945564171 ], [ 130.102058326930319, 32.235077225033933 ], [ 130.098260829873425, 32.229016387096635 ], [ 130.095310829631103, 32.231113613302682 ], [ 130.089942217859175, 32.226743892017055 ], [ 130.084128611646179, 32.237776666959689 ], [ 130.085825278913603, 32.239846107711742 ], [ 130.089345279361169, 32.2366327751825 ], [ 130.085467497127297, 32.242101108279599 ], [ 130.088509728241434, 32.240454999998292 ], [ 130.091891089202477, 32.243710577281377 ], [ 130.079785564252461, 32.242533765820667 ], [ 130.078368612221766, 32.234134721140492 ], [ 130.08290944211717, 32.23069582874956 ], [ 130.072490738656711, 32.223723892143937 ], [ 130.086350000052562, 32.219747224954517 ], [ 130.080815279001968, 32.218461946261868 ], [ 130.07761416286337, 32.212102494734381 ], [ 130.057092503416357, 32.211002495268986 ], [ 130.0450558368575, 32.199089721113808 ], [ 130.043566874311864, 32.209606603561951 ], [ 130.038304513842263, 32.21217352318962 ], [ 130.037339728345842, 32.208639720846463 ], [ 130.041392437710897, 32.206766558929587 ], [ 130.038731946322287, 32.206299999645296 ], [ 130.031957976579406, 32.211756081278168 ], [ 130.033357004222466, 32.215422639743053 ], [ 130.028784721437773, 32.214477080852646 ], [ 130.032558781262765, 32.200032108095343 ], [ 130.034701970919286, 32.201069360062945 ], [ 130.032180440974685, 32.195594945750202 ], [ 130.027497367109845, 32.198048054374283 ], [ 130.025886200188097, 32.192882612942299 ], [ 130.024011699180619, 32.195515945704358 ], [ 130.021062438181048, 32.192821027368552 ], [ 130.024997223942819, 32.191909918807767 ], [ 130.022889999973586, 32.188730053649124 ], [ 130.012992165855849, 32.189538775294295 ], [ 130.013869196406404, 32.197603414266212 ], [ 130.010668611767073, 32.201886440906549 ], [ 130.008232776421551, 32.196661135203271 ], [ 130.010803190814613, 32.19621322516025 ], [ 129.999524993583691, 32.190648332754392 ], [ 130.000114993811962, 32.193951946425216 ], [ 129.991259169974796, 32.196472225412947 ], [ 129.990284448768307, 32.199854721318388 ], [ 129.998013060554399, 32.205465278599775 ], [ 129.996574449251511, 32.217331946312299 ], [ 130.000478612198208, 32.221645000416515 ], [ 130.003587224071225, 32.218121667081334 ], [ 130.003467782412258, 32.222451107732468 ], [ 130.006649441718423, 32.221318053685309 ], [ 130.003700052115732, 32.211239532278626 ], [ 130.014650271992537, 32.222282224944763 ], [ 130.011096666577942, 32.239037494884542 ], [ 130.006423605764894, 32.239031946067485 ], [ 130.006085279012495, 32.24288777495093 ], [ 130.003665057696367, 32.240249693768419 ], [ 130.006994357803478, 32.238159693615046 ], [ 130.000193061260802, 32.234814721022587 ], [ 129.996593605710359, 32.239127495437629 ], [ 129.993882503175087, 32.235609441122847 ], [ 129.994492218341293, 32.239674440622991 ], [ 129.988334448775845, 32.240147775399578 ], [ 130.000921388011761, 32.249202225302497 ], [ 129.998829376974186, 32.253889847038863 ], [ 129.986021114582854, 32.241726108073465 ], [ 129.983316667030635, 32.246236108309802 ], [ 129.973692502906715, 32.239730278629509 ], [ 129.967196938987627, 32.243123891954099 ], [ 129.993790558287742, 32.282881387166356 ], [ 129.991906394064927, 32.284871666893991 ], [ 130.003960830328083, 32.287989441059892 ], [ 130.010893605955175, 32.29839110776345 ], [ 130.024155278643207, 32.301740279290527 ], [ 130.028295551398628, 32.296249161869355 ], [ 130.02593416283139, 32.287319161949824 ], [ 130.030751115171938, 32.285266945912895 ], [ 130.03280296968137, 32.279407000332867 ], [ 130.030207224084165, 32.275778612692875 ], [ 130.033957612853669, 32.274851441341013 ], [ 130.037498327385947, 32.280503612951406 ], [ 130.032376394255266, 32.283835279174866 ], [ 130.036927497106376, 32.285729720849986 ], [ 130.029722502991149, 32.287082224764902 ], [ 130.03189832724604, 32.297111946259349 ], [ 130.028408327282591, 32.298645559245188 ], [ 130.034876666924674, 32.302355278873051 ], [ 130.040118326799416, 32.299716667090593 ], [ 130.042353606134043, 32.303206945843954 ], [ 130.045386109281594, 32.297698892390031 ], [ 130.049956938761738, 32.304757225065941 ], [ 130.051631530370855, 32.301205856265312 ], [ 130.045104305819109, 32.292184558970291 ], [ 130.051516667160513, 32.28803582899036 ], [ 130.051731114999029, 32.278761332969168 ], [ 130.060121660186496, 32.279895558833005 ], [ 130.061084851185001, 32.275985820089602 ], [ 130.062841659714877, 32.284693333130861 ], [ 130.067226666777287, 32.287799720980388 ], [ 130.061229844381842, 32.296117955279442 ], [ 130.067004993785531, 32.295361342152262 ], [ 130.071691114553346, 32.300332774637866 ], [ 130.065697652025051, 32.305776630886839 ], [ 130.056577781839223, 32.303534162371761 ], [ 130.054686939250928, 32.309183054154687 ], [ 130.040638611582722, 32.314936666593951 ], [ 130.036979727932135, 32.304999161582089 ], [ 130.030730271584844, 32.303166667008099 ], [ 130.026855550643177, 32.307051386612272 ], [ 130.026894720614905, 32.316173053643581 ], [ 130.024078093429353, 32.314679278825736 ], [ 130.025263579750458, 32.307785630902174 ], [ 130.018230557594165, 32.30936833338194 ], [ 130.017517275601904, 32.314209215782739 ], [ 130.006708378788744, 32.311204287647797 ], [ 130.005093968911638, 32.31578794595697 ], [ 130.006238651192916, 32.311071449687688 ], [ 130.000868327111675, 32.308787224750688 ], [ 130.002029441805348, 32.305421666676637 ], [ 129.994220829927372, 32.306538053588326 ], [ 129.994521323100685, 32.322253837644553 ], [ 129.986955550658195, 32.317328332636521 ], [ 129.98663055815382, 32.322909721306644 ], [ 129.976864721130028, 32.329184161719752 ], [ 129.981069170405931, 32.341744721141993 ], [ 129.974806939188966, 32.355906386770357 ], [ 129.985349467603896, 32.374065108118316 ], [ 129.994694448889732, 32.378130828874703 ], [ 129.993984682347332, 32.382665135087962 ], [ 129.988259727704303, 32.383774161948054 ], [ 129.996460558208241, 32.391396386633971 ], [ 129.997908053913648, 32.399881667305181 ], [ 130.003206939448773, 32.402272225382944 ], [ 129.997237224418427, 32.404831667147789 ], [ 130.004860271984057, 32.411580278706936 ], [ 130.001154994107765, 32.414669720631139 ], [ 130.003693139027177, 32.424555657617532 ], [ 130.00721944192378, 32.424924928242888 ], [ 130.008209441712438, 32.430956945606624 ], [ 130.018979727932106, 32.440155919260292 ], [ 130.037766769620816, 32.466028577257077 ], [ 130.035662243617708, 32.47105022518781 ], [ 130.038438559591896, 32.474843829079475 ], [ 130.031225422115654, 32.476943053579134 ], [ 130.031245331307105, 32.486098532421408 ], [ 130.031432866034038, 32.477072413860867 ], [ 130.035137003569957, 32.476003864586744 ], [ 130.037636394004494, 32.482732945569012 ], [ 130.034161388437383, 32.483931640233038 ], [ 130.037701920407358, 32.48292813532521 ], [ 130.040501607962938, 32.489817306423618 ], [ 130.047364721204985, 32.491037494884552 ], [ 130.040376835122856, 32.509052080988795 ], [ 130.032248444110451, 32.515034305588756 ], [ 130.036298611991469, 32.512445829211686 ], [ 130.033869300327979, 32.519532135299869 ], [ 130.027144721351874, 32.520203053827913 ], [ 130.012604994225171, 32.529770414073425 ], [ 130.025407223964294, 32.5377374676101 ], [ 130.037698326716509, 32.536025135052 ], [ 130.042581336059925, 32.528592027000514 ], [ 130.039125836788003, 32.524662225281531 ], [ 130.042285836821975, 32.528693054141172 ], [ 130.03916683508146, 32.532760080713217 ], [ 130.033067509757871, 32.531522558719189 ], [ 130.034180894732572, 32.521732054190977 ], [ 130.045959533205973, 32.512591081413348 ], [ 130.052049831134809, 32.517719225262113 ], [ 130.06602478581533, 32.515885261195876 ], [ 130.068840583825931, 32.521042532287083 ], [ 130.086292334623636, 32.525573757423047 ], [ 130.109077860155139, 32.541532279291289 ], [ 130.107827393319553, 32.539401747592649 ], [ 130.116286030675838, 32.541432414074677 ], [ 130.118817172574495, 32.548632541058964 ], [ 130.129955109740536, 32.547587359768897 ], [ 130.127284462308126, 32.546509739033297 ], [ 130.133061529965744, 32.544168071699175 ], [ 130.132975213935083, 32.546901422562655 ], [ 130.134310103728353, 32.543776189419646 ], [ 130.135290946619989, 32.547777775024372 ], [ 130.176756731937644, 32.550753288133819 ], [ 130.176644410211452, 32.550239793231924 ] ] ], [ [ [ 130.117897782157002, 32.552309162038227 ], [ 130.12612418937988, 32.552589585940666 ], [ 130.115711388170098, 32.54890110829956 ], [ 130.10517499403079, 32.550081946025045 ], [ 130.11764972755293, 32.552342224713925 ], [ 130.117897782157002, 32.552309162038227 ] ] ], [ [ [ 130.456549584595678, 32.565626440707717 ], [ 130.453403864896472, 32.560772748363718 ], [ 130.456466641022757, 32.565631306040018 ], [ 130.456549584595678, 32.565626440707717 ] ] ], [ [ [ 130.456072529323819, 32.572224279127227 ], [ 130.454782750423647, 32.566482946031158 ], [ 130.452654643297251, 32.568789332961387 ], [ 130.456287249656953, 32.572474531674345 ], [ 130.456072529323819, 32.572224279127227 ] ] ], [ [ [ 130.389730803733642, 32.58679613543336 ], [ 130.392756393792638, 32.583857495427139 ], [ 130.386211478676842, 32.579909612838435 ], [ 130.380191530215029, 32.581891721325917 ], [ 130.389719727683314, 32.586824440695409 ], [ 130.389730803733642, 32.58679613543336 ] ] ], [ [ [ 130.473495278784185, 32.587807495019945 ], [ 130.487390558027869, 32.57045516157649 ], [ 130.463854889991239, 32.539384468018852 ], [ 130.466275939583056, 32.555670468117683 ], [ 130.461785641694064, 32.560918747901951 ], [ 130.461653410776307, 32.565399225194142 ], [ 130.464919389618217, 32.565151161596873 ], [ 130.460545499075579, 32.574460027008683 ], [ 130.462676329349165, 32.580269386622945 ], [ 130.467726498379307, 32.580564386737137 ], [ 130.465124942262378, 32.581722468017517 ], [ 130.46750153027142, 32.581026107668777 ], [ 130.467244720767326, 32.585214441093626 ], [ 130.473546719105912, 32.587872613130628 ], [ 130.473495278784185, 32.587807495019945 ] ] ], [ [ [ 130.449346031194409, 32.597585332597077 ], [ 130.452213307298393, 32.597629197929166 ], [ 130.45044455307368, 32.593752081193657 ], [ 130.449176472116505, 32.597599720850496 ], [ 130.449346031194409, 32.597585332597077 ] ] ], [ [ [ 130.336901802876014, 32.606925999835084 ], [ 130.343735913881346, 32.603662558880046 ], [ 130.340706108700033, 32.59772702708068 ], [ 130.333902996426218, 32.599000747686432 ], [ 130.330504112175049, 32.605073495345607 ], [ 130.336214942066022, 32.606568054372246 ], [ 130.336901802876014, 32.606925999835084 ] ] ], [ [ [ 130.443145914352499, 32.625865829144743 ], [ 130.446367328189694, 32.622303108201947 ], [ 130.443951244654272, 32.618701559029773 ], [ 130.447508638013346, 32.620353612729104 ], [ 130.45810542162792, 32.614024495334263 ], [ 130.449493528103858, 32.60631546808446 ], [ 130.451643060678748, 32.601510829261429 ], [ 130.440810169054089, 32.601759161755979 ], [ 130.445229856672654, 32.599154054216285 ], [ 130.441276861438041, 32.595001413984107 ], [ 130.445217716724301, 32.596725613096623 ], [ 130.444717522795486, 32.591777494635721 ], [ 130.448684616701712, 32.589962107865063 ], [ 130.453108274827059, 32.592958135409674 ], [ 130.452605187779227, 32.587259892430154 ], [ 130.455312087782659, 32.586592640438084 ], [ 130.459925057695273, 32.58880086456827 ], [ 130.45629313931704, 32.581019027306297 ], [ 130.451731193339924, 32.579759134676351 ], [ 130.452261698918278, 32.575913945672085 ], [ 130.449074500687743, 32.577751134707171 ], [ 130.451127782421281, 32.575157945882552 ], [ 130.448314578055374, 32.571039972716619 ], [ 130.44228085557711, 32.57188474818264 ], [ 130.450749169638584, 32.566652225419944 ], [ 130.446512308796059, 32.555902639795022 ], [ 130.453257496636184, 32.553812225054173 ], [ 130.442080026172334, 32.547544640173044 ], [ 130.445952917892896, 32.550144531644889 ], [ 130.441596589311189, 32.555597721058007 ], [ 130.438167665005835, 32.550286054357969 ], [ 130.440867107830854, 32.547717252449274 ], [ 130.431403060802722, 32.549521666591716 ], [ 130.430208611837998, 32.547115559235749 ], [ 130.421184085976847, 32.552637721253859 ], [ 130.425103890831906, 32.547575918593793 ], [ 130.422727639169239, 32.545677748329467 ], [ 130.411216497743226, 32.553125000018781 ], [ 130.405157613133383, 32.550771000281486 ], [ 130.407207029580832, 32.56761710804318 ], [ 130.419509559118865, 32.575058279416112 ], [ 130.416581283799246, 32.581961999746568 ], [ 130.406223528293253, 32.584221468146268 ], [ 130.399099196171051, 32.581646999609404 ], [ 130.393747782134483, 32.586329999729742 ], [ 130.397521192649037, 32.592148919137344 ], [ 130.394319921826991, 32.590713945592142 ], [ 130.410736667163519, 32.60370889195184 ], [ 130.410568080252801, 32.614460775344583 ], [ 130.414379611230174, 32.612916640290791 ], [ 130.417949780358185, 32.616763775427955 ], [ 130.417355162111107, 32.612032468223902 ], [ 130.414239922234742, 32.611689080986366 ], [ 130.415492801951359, 32.606744666832981 ], [ 130.42100758773006, 32.607996693992277 ], [ 130.425152633187508, 32.603764387316687 ], [ 130.423744331735634, 32.61040846797647 ], [ 130.419551388385912, 32.609193892184408 ], [ 130.419587030317302, 32.61752894560442 ], [ 130.425995667566099, 32.61797997269764 ], [ 130.430477638632169, 32.613495026674173 ], [ 130.436594993564199, 32.622897775012348 ], [ 130.443081802583151, 32.625867305831548 ], [ 130.443145914352499, 32.625865829144743 ] ] ] ] } },
{ "type": "Feature", "properties": { "code": "430032", "name": "芦北地方", "PrefCode": "43", "regioncode": "430032" }, "geometry": { "type": "MultiPolygon", "coordinates": [ [ [ [ 130.365350946588933, 32.200366558769701 ], [ 130.370130363025851, 32.199915359905958 ], [ 130.363657665269102, 32.19424705355874 ], [ 130.360185498861711, 32.196396333424104 ], [ 130.365349104777465, 32.200388468053404 ], [ 130.365350946588933, 32.200366558769701 ] ] ], [ [ [ 130.480162502597523, 32.349909999646798 ], [ 130.478190558247775, 32.348004721141024 ], [ 130.480095836753549, 32.349921386862547 ], [ 130.480162502597523, 32.349909999646798 ] ] ], [ [ [ 130.540208053858692, 32.402109162108218 ], [ 130.530237223569088, 32.387225829208717 ], [ 130.534161388337452, 32.383024720914193 ], [ 130.526933332907106, 32.382763332961474 ], [ 130.53164306087865, 32.366683613058342 ], [ 130.538453061059954, 32.364676945884412 ], [ 130.547854721218528, 32.367975559324634 ], [ 130.546609441672445, 32.371148613018136 ], [ 130.552963606085655, 32.380360829188987 ], [ 130.559019441993769, 32.38259110829307 ], [ 130.577755836562687, 32.371701667298169 ], [ 130.588329170354996, 32.376606387175059 ], [ 130.596080558371114, 32.372264161761734 ], [ 130.610011387815348, 32.375825558902477 ], [ 130.621561659642907, 32.372912775304371 ], [ 130.625223332990458, 32.364507224928559 ], [ 130.632773890702538, 32.367770000385235 ], [ 130.642192775576177, 32.364888613019104 ], [ 130.637576393635754, 32.355838333272516 ], [ 130.609605836740002, 32.347581386871582 ], [ 130.602980829801481, 32.340342494610468 ], [ 130.600924449004197, 32.32729166707685 ], [ 130.612444721246902, 32.310597495278216 ], [ 130.598622502926219, 32.294781667040354 ], [ 130.604180830281166, 32.291354161865115 ], [ 130.603624721004167, 32.280124721378854 ], [ 130.613875836700572, 32.27713833276789 ], [ 130.590424448629506, 32.262118332595037 ], [ 130.5933005578745, 32.253793613284699 ], [ 130.584257782071063, 32.241650558726349 ], [ 130.587624449009127, 32.22988110772701 ], [ 130.581230271959498, 32.211344720582417 ], [ 130.586963890671086, 32.207178053624318 ], [ 130.579400829684573, 32.194383333224323 ], [ 130.595026938742308, 32.183715000446966 ], [ 130.596768885076017, 32.175968612661393 ], [ 130.58267778205402, 32.15491389176276 ], [ 130.562592218256327, 32.155159721444022 ], [ 130.54186472108006, 32.149421946066013 ], [ 130.540293332971032, 32.136675828626664 ], [ 130.520741114810676, 32.13523944134721 ], [ 130.505517497334722, 32.140658891794487 ], [ 130.491850557757061, 32.133586107912606 ], [ 130.482335550645189, 32.139601108304532 ], [ 130.476901659783834, 32.138987775165731 ], [ 130.473502217953069, 32.118613332938992 ], [ 130.467032775742041, 32.115655828753518 ], [ 130.463309999756802, 32.118815558990889 ], [ 130.453734720980606, 32.112904720776271 ], [ 130.448821114902557, 32.116780558675885 ], [ 130.42883666727846, 32.113825279413163 ], [ 130.422890000073494, 32.117776666659893 ], [ 130.402670557800093, 32.120203613106298 ], [ 130.400762503087094, 32.122908054363279 ], [ 130.403329441600476, 32.124365278934533 ], [ 130.392025550738595, 32.134156386907762 ], [ 130.386623890680085, 32.147451946050523 ], [ 130.361360271559306, 32.16719416218092 ], [ 130.362353501712846, 32.172009198066064 ], [ 130.36488080440563, 32.169934721110565 ], [ 130.363341854842815, 32.17455236030321 ], [ 130.368639584749076, 32.173228559150743 ], [ 130.360298197403949, 32.182180999853301 ], [ 130.371946277698612, 32.184093586250071 ], [ 130.374503891141671, 32.182474080814245 ], [ 130.369726783264468, 32.177662386809743 ], [ 130.378018689910618, 32.176451197864537 ], [ 130.374632244182749, 32.187242666715747 ], [ 130.379130219583999, 32.188460613166797 ], [ 130.379799195576425, 32.194951999735054 ], [ 130.376413838927533, 32.196556586317456 ], [ 130.379717522745523, 32.198004198035335 ], [ 130.374185058093985, 32.197639720796531 ], [ 130.371288054000502, 32.201554558695989 ], [ 130.384617030151844, 32.207587107558993 ], [ 130.377640532184842, 32.211705107704631 ], [ 130.388249611330593, 32.214299224629542 ], [ 130.384340440958681, 32.216837386636143 ], [ 130.387285422084574, 32.218412801909324 ], [ 130.383877004120563, 32.217221306318265 ], [ 130.398941218562413, 32.228390720655284 ], [ 130.402365966416255, 32.235399694040723 ], [ 130.409988521153423, 32.230610558630417 ], [ 130.409767716906686, 32.234154386615728 ], [ 130.415078029227743, 32.232848919042453 ], [ 130.416259584612249, 32.236986775319451 ], [ 130.420119300365513, 32.235236000341217 ], [ 130.422587275682304, 32.238167414294765 ], [ 130.424165836784027, 32.23355244069262 ], [ 130.425729078834024, 32.235729333342135 ], [ 130.432470414877798, 32.230913107653862 ], [ 130.434820363169251, 32.233134918741541 ], [ 130.436069728335383, 32.240412080753003 ], [ 130.431405161618954, 32.240867748347966 ], [ 130.424149442143062, 32.249955278913035 ], [ 130.43607837891409, 32.253661314917792 ], [ 130.428243864762635, 32.264497918943846 ], [ 130.433173605577508, 32.263534441061665 ], [ 130.435196692573413, 32.269461027304601 ], [ 130.450737782422834, 32.272258053766222 ], [ 130.444958612150344, 32.278629720785034 ], [ 130.446932309278736, 32.282070586288569 ], [ 130.449328003384721, 32.278687639822749 ], [ 130.452503385422915, 32.281146828763212 ], [ 130.448849339225717, 32.28774155912572 ], [ 130.458899078729587, 32.290595054018581 ], [ 130.457898366216682, 32.284917586277629 ], [ 130.465854111678027, 32.277135495406867 ], [ 130.467870558079881, 32.285772945864835 ], [ 130.464295109931413, 32.29565744123795 ], [ 130.477597172971173, 32.286957999612071 ], [ 130.482611192852346, 32.295420891660854 ], [ 130.49079888516053, 32.298791054263802 ], [ 130.473232218092448, 32.299686639626771 ], [ 130.482187301902513, 32.299385495344382 ], [ 130.483439947795432, 32.303187441347404 ], [ 130.480847523394573, 32.300271946293321 ], [ 130.470330777643312, 32.300505108124298 ], [ 130.471709221603305, 32.31639877538322 ], [ 130.466638637962888, 32.318650107616406 ], [ 130.469373579726948, 32.324268441335562 ], [ 130.465110116938376, 32.326457251800775 ], [ 130.471533890676596, 32.32670277481327 ], [ 130.473912113653228, 32.33167899978605 ], [ 130.474842140352507, 32.327357919232611 ], [ 130.482240117287688, 32.327592775386336 ], [ 130.484963606185488, 32.331440441123505 ], [ 130.47999111519789, 32.333859225323067 ], [ 130.48258625195399, 32.344790054017835 ], [ 130.490114475003111, 32.346313332894056 ], [ 130.494690311009094, 32.352588305705808 ], [ 130.493961335847075, 32.350014613283804 ], [ 130.507046057029925, 32.353688865448817 ], [ 130.507607134161958, 32.358147829159066 ], [ 130.503325422330477, 32.360827945553297 ], [ 130.499979390336648, 32.357185414275477 ], [ 130.495658105637176, 32.362428639869904 ], [ 130.486412476954342, 32.359659918670388 ], [ 130.486252826606687, 32.36321816188871 ], [ 130.51330472063637, 32.391992225261049 ], [ 130.519567198267623, 32.393654360360472 ], [ 130.538062218396703, 32.41027749471067 ], [ 130.543239170251582, 32.406846108061472 ], [ 130.540224994388041, 32.402138891896413 ], [ 130.540208053858692, 32.402109162108218 ] ] ] ] } },
{ "type": "Feature", "properties": { "code": "430040", "name": "球磨地方", "PrefCode": "43", "regioncode": "430040" }, "geometry": { "type": "Polygon", "coordinates": [ [ [ 130.842115837276083, 32.495697775432063 ], [ 130.852865836589103, 32.487377495175338 ], [ 130.862731946222425, 32.49366110777396 ], [ 130.876666938628432, 32.485034999565642 ], [ 130.878966393584278, 32.476370829350344 ], [ 130.891147781744849, 32.476999162281572 ], [ 130.901147782444241, 32.467914999677532 ], [ 130.899093060896121, 32.449531107874407 ], [ 130.902899169860916, 32.442598054356779 ], [ 130.910011114721215, 32.439798332626992 ], [ 130.928413891388004, 32.441629441345697 ], [ 130.940988327349487, 32.438448333323947 ], [ 130.95291749704495, 32.441823053691053 ], [ 130.957335278999949, 32.449270558989156 ], [ 130.965537223763931, 32.452058333225523 ], [ 130.987618611609719, 32.447174440747915 ], [ 131.01433610892434, 32.462748891847923 ], [ 131.019892217651773, 32.438674162082975 ], [ 131.043343060733719, 32.408424161945561 ], [ 131.068120557617704, 32.40748389196807 ], [ 131.073243605907805, 32.391417224825091 ], [ 131.069307782328337, 32.384318613313383 ], [ 131.074083891058763, 32.383027495322722 ], [ 131.079857223831823, 32.374288053650787 ], [ 131.074338520606261, 32.360910225426608 ], [ 131.078031529931195, 32.355112027298276 ], [ 131.096548003387738, 32.350188775091965 ], [ 131.09922763864472, 32.341689865195178 ], [ 131.103584306270818, 32.341510359615484 ], [ 131.111916108641594, 32.32995638707763 ], [ 131.090495550729202, 32.293985278697733 ], [ 131.07859416289034, 32.281223054400471 ], [ 131.070514162598556, 32.280417775360092 ], [ 131.058942048936501, 32.286844197601681 ], [ 131.050506393755086, 32.285825000423472 ], [ 131.054244449221983, 32.26706444107117 ], [ 131.044510557915942, 32.263048612903219 ], [ 131.041997224392503, 32.2521572248761 ], [ 131.046910000396224, 32.244210828766768 ], [ 131.057198327340984, 32.245894721164518 ], [ 131.071564449339917, 32.23689082934834 ], [ 131.068965550719668, 32.225714440768854 ], [ 131.077372503138577, 32.22124027941544 ], [ 131.08421111525081, 32.206213054089233 ], [ 131.100531660108118, 32.201542774879215 ], [ 131.10016583658421, 32.195468892275585 ], [ 131.10443527896507, 32.191648612693371 ], [ 131.101443891022768, 32.172705278725687 ], [ 131.108965550819562, 32.16014861336788 ], [ 131.09721832656453, 32.152196666642908 ], [ 131.071799169695964, 32.160282495440867 ], [ 131.058764720615386, 32.154827224996495 ], [ 131.049465836779063, 32.162943892446719 ], [ 131.045298612241254, 32.161261108013775 ], [ 131.037353605584485, 32.170211946124482 ], [ 131.021623891029776, 32.169032225356943 ], [ 131.012126108633083, 32.174330829404312 ], [ 131.002250557917023, 32.169420558911725 ], [ 130.997724720619431, 32.159592225301026 ], [ 130.992386939405833, 32.157923053905847 ], [ 130.995854994112733, 32.155865279159343 ], [ 130.992635836674594, 32.148041666589677 ], [ 130.974777496983961, 32.137052495276464 ], [ 130.974525836997827, 32.120835558614203 ], [ 130.961658053876135, 32.12016444133593 ], [ 130.955594721219427, 32.115413332859077 ], [ 130.94425861214529, 32.119643892151942 ], [ 130.933085278562771, 32.116082495011199 ], [ 130.927299727600371, 32.122707775343599 ], [ 130.915931946202363, 32.125406666884203 ], [ 130.913803332757652, 32.130242495095104 ], [ 130.906011945594855, 32.133594441030652 ], [ 130.900740000150904, 32.13238333302445 ], [ 130.897237496913021, 32.125918053775194 ], [ 130.878531115418696, 32.121396946012283 ], [ 130.876356108647542, 32.116715829072291 ], [ 130.869092776410525, 32.114895279293762 ], [ 130.8631958372182, 32.102772224758439 ], [ 130.857447781689871, 32.099693053991302 ], [ 130.838701115064509, 32.10726555875857 ], [ 130.82757499409081, 32.103132774657865 ], [ 130.820796667132527, 32.094924441110095 ], [ 130.809252775994878, 32.099210558720358 ], [ 130.775600271835174, 32.10191333263424 ], [ 130.759417496820106, 32.096807775258696 ], [ 130.751623891029794, 32.104068891566158 ], [ 130.741992217566803, 32.097883612638668 ], [ 130.735236109259063, 32.108948333298997 ], [ 130.724475279410626, 32.100938332638009 ], [ 130.699072776187791, 32.106999441271228 ], [ 130.670237496863024, 32.129103332852594 ], [ 130.666986108622041, 32.128001945733274 ], [ 130.654776667009628, 32.135867224792662 ], [ 130.651643891252661, 32.151265828755072 ], [ 130.622696109437925, 32.156058612714844 ], [ 130.614603060882587, 32.167654999978311 ], [ 130.61672250304116, 32.173680278721918 ], [ 130.610466666903221, 32.186663053657071 ], [ 130.588618326674464, 32.185819162224618 ], [ 130.579400829684573, 32.194383333224323 ], [ 130.586963890671086, 32.207178053624318 ], [ 130.581230271959498, 32.211344720582417 ], [ 130.587624449009127, 32.22988110772701 ], [ 130.584257782071063, 32.241650558726349 ], [ 130.5933005578745, 32.253793613284699 ], [ 130.590424448629506, 32.262118332595037 ], [ 130.613875836700572, 32.27713833276789 ], [ 130.603624721004167, 32.280124721378854 ], [ 130.604180830281166, 32.291354161865115 ], [ 130.598622502926219, 32.294781667040354 ], [ 130.612444721246902, 32.310597495278216 ], [ 130.600924449004197, 32.32729166707685 ], [ 130.604279727827247, 32.342927774797033 ], [ 130.609711388369988, 32.347624720704346 ], [ 130.638930271714685, 32.356810828656876 ], [ 130.643431115054, 32.368528054226374 ], [ 130.652900829609621, 32.37410749496496 ], [ 130.652275279180799, 32.378631946407268 ], [ 130.657128611796111, 32.374144440913255 ], [ 130.657250829662075, 32.363143054108718 ], [ 130.665246666900202, 32.354162225406412 ], [ 130.670567496792614, 32.340246386761407 ], [ 130.678711387620524, 32.342765000204622 ], [ 130.684051659956253, 32.338604441441873 ], [ 130.693530829983843, 32.341977495365143 ], [ 130.701093333390645, 32.347146667184973 ], [ 130.697216108736484, 32.354012494581013 ], [ 130.702452217995528, 32.356711946399287 ], [ 130.70177972835188, 32.362727775066844 ], [ 130.709568054222359, 32.367724721318893 ], [ 130.720782217925034, 32.386503053972831 ], [ 130.739048053924648, 32.392739999851187 ], [ 130.739742775708578, 32.398819441164335 ], [ 130.742691388296976, 32.398924440610472 ], [ 130.735773606167072, 32.404632774882714 ], [ 130.724211387745413, 32.40564638727102 ], [ 130.724324162729999, 32.414150279411899 ], [ 130.720434163206164, 32.418735278610257 ], [ 130.729382217915145, 32.427921107772931 ], [ 130.722739999751298, 32.450385828942899 ], [ 130.741126394367711, 32.453534162071946 ], [ 130.736983061219348, 32.460362494933236 ], [ 130.736609169877397, 32.471180559435311 ], [ 130.75169944217555, 32.46857749515533 ], [ 130.751299441715901, 32.474608613197006 ], [ 130.785780000246859, 32.484512774944676 ], [ 130.794691946276316, 32.494220279242541 ], [ 130.816068885270852, 32.490717775105281 ], [ 130.839983333364216, 32.499022495291968 ], [ 130.842120830312183, 32.495913333033968 ], [ 130.842115837276083, 32.495697775432063 ] ] ] } }
]
}
