{
"type": "FeatureCollection",
"name": "19_yamanashi_forecast",
"crs": { "type": "name", "properties": { "name": "urn:ogc:def:crs:OGC:1.3:CRS84" } },
"features": [
{ "type": "Feature", "properties": { "code": "190000", "name": "山梨県", "PrefCode": "19", "regioncode": "19" }, "geometry": { "type": "Polygon", "coordinates": [ [ [ 138.72901128374383, 35.909220613440596 ], [ 138.727362385765559, 35.90923755936592 ], [ 138.724232087640758, 35.908003945825499 ], [ 138.721712114422644, 35.90794477493148 ], [ 138.719334889693414, 35.908124775138333 ], [ 138.716863218163098, 35.909376720459306 ], [ 138.713337392806466, 35.908733386836388 ], [ 138.712020752056105, 35.909449505290468 ], [ 138.710257133859727, 35.909342558812114 ], [ 138.708060195321877, 35.909752837623387 ], [ 138.707631025351589, 35.908613386698505 ], [ 138.705684384326901, 35.905950612830566 ], [ 138.702924112258074, 35.904670891048852 ], [ 138.701756615075737, 35.903427559434363 ], [ 138.700247470844147, 35.903196720552273 ], [ 138.699493865049931, 35.901259775118604 ], [ 138.697023580274049, 35.899160332983058 ], [ 138.696167198157696, 35.898952837803279 ], [ 138.693463333366253, 35.899303107552441 ], [ 138.693232775971865, 35.898232837875241 ], [ 138.691932217797671, 35.895849774747376 ], [ 138.69009221838121, 35.895322558889006 ], [ 138.688899468235945, 35.894232279296318 ], [ 138.685845577411555, 35.893865613107607 ], [ 138.685221413737281, 35.892263387245578 ], [ 138.685521141587515, 35.891401441023731 ], [ 138.685338638567373, 35.890624505016945 ], [ 138.685689467694829, 35.889957279105204 ], [ 138.68363807993353, 35.888392000090789 ], [ 138.683926693062517, 35.885865612907764 ], [ 138.682867250323397, 35.883702801842901 ], [ 138.683039467797244, 35.883073919425897 ], [ 138.682705330986323, 35.882572801893332 ], [ 138.682677561720197, 35.881461134623692 ], [ 138.680476160746252, 35.878647531858178 ], [ 138.679203385328037, 35.874837802222828 ], [ 138.677491997058041, 35.872610587108966 ], [ 138.676176472366365, 35.86980141440381 ], [ 138.673727587857911, 35.870636135449331 ], [ 138.670644254129115, 35.870860305858457 ], [ 138.669079806088234, 35.871428639620092 ], [ 138.665678715800141, 35.873864197974399 ], [ 138.663459831106366, 35.873128639774961 ], [ 138.661172336234358, 35.873844197951428 ], [ 138.660305966247392, 35.873787531669279 ], [ 138.658810415268476, 35.87549974821485 ], [ 138.657461245140439, 35.875876135175531 ], [ 138.655677366117629, 35.875820585851386 ], [ 138.65202739294989, 35.873980586434982 ], [ 138.649653773602836, 35.8734703057101 ], [ 138.645966860782096, 35.873727802296287 ], [ 138.64248824893366, 35.874764747595066 ], [ 138.640067691271042, 35.872906694288588 ], [ 138.635602723686816, 35.871528919424122 ], [ 138.634234112014724, 35.870053080685182 ], [ 138.631209948280571, 35.871356135377425 ], [ 138.62824080506914, 35.87335697314586 ], [ 138.62464664112963, 35.871243080703664 ], [ 138.621870803594788, 35.870438360142259 ], [ 138.617760558303189, 35.871066693972807 ], [ 138.614700557484753, 35.872485026462869 ], [ 138.61270252829911, 35.872713359833767 ], [ 138.610873645402421, 35.873610305870955 ], [ 138.610410856076214, 35.874930864967496 ], [ 138.606749223198108, 35.878481694174923 ], [ 138.606981167347044, 35.879387531809186 ], [ 138.606573671038177, 35.879811413765765 ], [ 138.60666311311229, 35.880997532310346 ], [ 138.606161725783068, 35.88219086521633 ], [ 138.606582827035936, 35.88341169309524 ], [ 138.605968392227624, 35.884909198300932 ], [ 138.606218392065216, 35.888071415163722 ], [ 138.606045357107632, 35.891854198412602 ], [ 138.60498841808112, 35.893751134807076 ], [ 138.60764508375371, 35.89594280241846 ], [ 138.606990078729268, 35.897056973400652 ], [ 138.607122308747648, 35.898088082099378 ], [ 138.607475357401881, 35.898471413624918 ], [ 138.607143696424487, 35.899528359845988 ], [ 138.608050078148608, 35.900300026724892 ], [ 138.608117029977052, 35.901305865373445 ], [ 138.608935083887104, 35.902176694199113 ], [ 138.609198689567961, 35.903561694216876 ], [ 138.609872866339742, 35.904232252116799 ], [ 138.610635641621684, 35.904335306329358 ], [ 138.611898170164523, 35.907206694133663 ], [ 138.612255940259502, 35.90915336033936 ], [ 138.612027328098748, 35.909383639843156 ], [ 138.607647327562177, 35.908191973380895 ], [ 138.604910389303086, 35.908751412847494 ], [ 138.602699027438234, 35.909762803011006 ], [ 138.601165965736755, 35.911274747731454 ], [ 138.601357081564174, 35.912606134665452 ], [ 138.600988196747949, 35.913422253234444 ], [ 138.597566549756493, 35.914925026668698 ], [ 138.596777665357081, 35.916890054332612 ], [ 138.593831310067003, 35.917540053730534 ], [ 138.592366303662061, 35.918322838028587 ], [ 138.591017418619003, 35.919768667290214 ], [ 138.590388249318266, 35.919449774887255 ], [ 138.589254643087429, 35.917860612577272 ], [ 138.587583528257255, 35.917786720680681 ], [ 138.585234086284117, 35.918396171446204 ], [ 138.584349637226069, 35.918009505234522 ], [ 138.583039078590673, 35.918024225337774 ], [ 138.580981855128584, 35.917050053617118 ], [ 138.580481854554023, 35.915070332829657 ], [ 138.579153528012966, 35.913003946175252 ], [ 138.576510194789762, 35.911422000025311 ], [ 138.574474643190342, 35.912307837636661 ], [ 138.573052412139191, 35.911998387215874 ], [ 138.572111025203753, 35.91222866761899 ], [ 138.568933256364744, 35.914051999899925 ], [ 138.569087133964103, 35.914558386560316 ], [ 138.568849662581897, 35.914925053648346 ], [ 138.566608002557359, 35.916381720639947 ], [ 138.565241336118788, 35.916591721330917 ], [ 138.564415226981168, 35.917333946204678 ], [ 138.562790220392458, 35.916855053617894 ], [ 138.558838833145728, 35.916427836975174 ], [ 138.55829133577663, 35.915998667004942 ], [ 138.556213838897634, 35.916315332686509 ], [ 138.556911893569122, 35.917166441178381 ], [ 138.557042165763391, 35.917928666974433 ], [ 138.556598559875738, 35.918529225243617 ], [ 138.55539910528455, 35.919136999672844 ], [ 138.553898560370385, 35.919026440617813 ], [ 138.552389104973258, 35.917472000232692 ], [ 138.550296057017476, 35.916459225113215 ], [ 138.546765771922878, 35.91629338742996 ], [ 138.545276886718966, 35.914700054064269 ], [ 138.542018831803716, 35.914672279402225 ], [ 138.540158833263604, 35.913673945596145 ], [ 138.539285227331447, 35.914276440105652 ], [ 138.535921050616025, 35.914583667402383 ], [ 138.534774111935803, 35.915114225141451 ], [ 138.530978807426095, 35.915710613254248 ], [ 138.529955745861002, 35.914810333430182 ], [ 138.529057690959689, 35.914535891817991 ], [ 138.527810752164555, 35.915473106798515 ], [ 138.525887977348361, 35.916231999707065 ], [ 138.521667419415962, 35.918677559421894 ], [ 138.518376861203251, 35.918861720791824 ], [ 138.516515473210575, 35.919895612892276 ], [ 138.514640195188917, 35.920014225376235 ], [ 138.514000752033098, 35.92034561295975 ], [ 138.512777418643054, 35.92007450513438 ], [ 138.511545188259902, 35.921766999547458 ], [ 138.510571854707337, 35.922338945885713 ], [ 138.509158249054053, 35.92179727882143 ], [ 138.508839882754501, 35.921039775365387 ], [ 138.505536278076875, 35.918704504909044 ], [ 138.504892943554523, 35.917610054260649 ], [ 138.504656834645289, 35.915522279030029 ], [ 138.503762672009771, 35.914795892116786 ], [ 138.503389584661704, 35.913144225125961 ], [ 138.502757911648359, 35.912195053658877 ], [ 138.501355694110089, 35.911837000277387 ], [ 138.499647082047318, 35.912388109323842 ], [ 138.497396251635791, 35.911269224994783 ], [ 138.494701505070452, 35.911341440555077 ], [ 138.496005667727445, 35.908075612799337 ], [ 138.495909273893972, 35.905088666608719 ], [ 138.495549558565358, 35.903638945980617 ], [ 138.493006783036662, 35.899925333187639 ], [ 138.491019248039947, 35.898233107671842 ], [ 138.490132308759144, 35.89637477467619 ], [ 138.487730078380423, 35.896212278873634 ], [ 138.485554526620149, 35.897964775154321 ], [ 138.482575616771328, 35.898828693589394 ], [ 138.482142827029861, 35.89877341406185 ], [ 138.48124810591537, 35.897913973351251 ], [ 138.479659779974895, 35.89813036012805 ], [ 138.478238105604191, 35.897404252004662 ], [ 138.477058948711601, 35.89742786460431 ], [ 138.476054772010229, 35.897049802206652 ], [ 138.47458891124927, 35.897180360385391 ], [ 138.471602243848565, 35.896196747581882 ], [ 138.470942243989384, 35.896886468235948 ], [ 138.469825863372989, 35.89737564007379 ], [ 138.469233917011707, 35.898420360011642 ], [ 138.465339441562037, 35.900135359958938 ], [ 138.463643891252673, 35.902015080631543 ], [ 138.460208612337624, 35.903609252165325 ], [ 138.456830532103481, 35.903227332575398 ], [ 138.456181089385836, 35.901901505250294 ], [ 138.456157472289533, 35.900737332861695 ], [ 138.455388029434062, 35.899741504566862 ], [ 138.454584968121821, 35.899858440714524 ], [ 138.454138859420937, 35.901523720743171 ], [ 138.454182749934034, 35.903314558719956 ], [ 138.452834112204528, 35.90571122499307 ], [ 138.451652438109591, 35.906399837682443 ], [ 138.451130778262836, 35.908040945733092 ], [ 138.450269948998994, 35.908970666662981 ], [ 138.450376887383527, 35.910243441181933 ], [ 138.449041361769446, 35.912073171239911 ], [ 138.448947470749204, 35.91301261294177 ], [ 138.44627608317478, 35.914745945568995 ], [ 138.445420532032017, 35.916788999312928 ], [ 138.444371919828313, 35.917807054352124 ], [ 138.445269143756036, 35.918703171214418 ], [ 138.445533605591436, 35.919791504674265 ], [ 138.444416108916357, 35.921729558972004 ], [ 138.444576108200863, 35.922528441134716 ], [ 138.44495333332975, 35.922904558298796 ], [ 138.447281945205646, 35.92358483787001 ], [ 138.447573606137098, 35.924140387768716 ], [ 138.447103644717458, 35.924852333368563 ], [ 138.448413917368498, 35.925107053747581 ], [ 138.448040026026433, 35.9262153872304 ], [ 138.448516692791259, 35.928090945840552 ], [ 138.44806447499559, 35.929063441224912 ], [ 138.447473644692991, 35.929210946228238 ], [ 138.44965977967513, 35.931187585938403 ], [ 138.450115057863741, 35.932189251732609 ], [ 138.451799221856618, 35.933312306217999 ], [ 138.452443112159926, 35.934380081175846 ], [ 138.452895357834564, 35.936074802310316 ], [ 138.454354811825169, 35.938479800802213 ], [ 138.453952581046792, 35.940025360382151 ], [ 138.452773969143436, 35.940725918766191 ], [ 138.452389559330754, 35.941507306417122 ], [ 138.451883994650643, 35.941649251811555 ], [ 138.452329000782811, 35.942149801871892 ], [ 138.45180538311206, 35.943133694364576 ], [ 138.450865668016263, 35.943708414211983 ], [ 138.451129001202503, 35.944290081322265 ], [ 138.450562892363678, 35.945411467565236 ], [ 138.448605109638152, 35.946172865085714 ], [ 138.446283722016233, 35.947625639811463 ], [ 138.445550388739548, 35.949243414052376 ], [ 138.444774280108959, 35.949674531954145 ], [ 138.444677886275485, 35.950212864332286 ], [ 138.442605966092515, 35.951392306309913 ], [ 138.424193190763162, 35.958974801645809 ], [ 138.419747081962328, 35.959850081216302 ], [ 138.417454577866579, 35.958971748447482 ], [ 138.414015421974227, 35.959415919109404 ], [ 138.411017912346892, 35.960642865975558 ], [ 138.408290973649628, 35.962527027500357 ], [ 138.405019585385617, 35.963141748293083 ], [ 138.401217081802997, 35.964518134604305 ], [ 138.398255135865838, 35.964317027308994 ], [ 138.394748469666183, 35.965515080756404 ], [ 138.391266809116019, 35.966138694045526 ], [ 138.383869299828348, 35.969203694195187 ], [ 138.381434033753749, 35.971420639950622 ], [ 138.374897912208894, 35.971333413806065 ], [ 138.372854306281283, 35.971708414012141 ], [ 138.371435965697287, 35.971249802036766 ], [ 138.370460415315961, 35.97138063990468 ], [ 138.370285668049178, 35.969415080741442 ], [ 138.369522049203283, 35.968232865254606 ], [ 138.369443995244296, 35.9672245318867 ], [ 138.3680553826498, 35.966262586449261 ], [ 138.364433165258447, 35.964683135018731 ], [ 138.361755084029937, 35.96231508067649 ], [ 138.360962309163256, 35.959777306277715 ], [ 138.361619532815212, 35.958475080760422 ], [ 138.360346446231574, 35.957211198737866 ], [ 138.359705616321207, 35.955702026627307 ], [ 138.359915331027764, 35.950713134703449 ], [ 138.359093643856681, 35.950392585749285 ], [ 138.357159195840268, 35.950934802299344 ], [ 138.355943359198704, 35.950420918890359 ], [ 138.354243087448594, 35.948971468058858 ], [ 138.35236586329404, 35.948150081261304 ], [ 138.34898167306585, 35.944482027223842 ], [ 138.34504666697012, 35.941333134716444 ], [ 138.345559973913737, 35.938411224798244 ], [ 138.345667198282626, 35.934377613436141 ], [ 138.344171919798328, 35.932057054089853 ], [ 138.344028559770322, 35.930491224690343 ], [ 138.342225226612982, 35.926016504857841 ], [ 138.341387445174519, 35.925215386980597 ], [ 138.338992969649894, 35.924317054188748 ], [ 138.337871581608283, 35.922971504731208 ], [ 138.337485187891161, 35.92102150473869 ], [ 138.335324915612432, 35.920179838228989 ], [ 138.333126278255236, 35.917216224948902 ], [ 138.331453217292164, 35.914173721340205 ], [ 138.330910168869309, 35.910892332615106 ], [ 138.329024578321651, 35.908117053559238 ], [ 138.328544863754473, 35.906720667225045 ], [ 138.327510972553455, 35.905412613201577 ], [ 138.326466524210787, 35.90329402719766 ], [ 138.323544838223825, 35.901846802188231 ], [ 138.321823450392003, 35.899592360099405 ], [ 138.320597055709641, 35.898772359157078 ], [ 138.319197612579842, 35.896940973447215 ], [ 138.313589247845584, 35.891489305686946 ], [ 138.307288664140628, 35.887103467650945 ], [ 138.306590336974523, 35.884447640146504 ], [ 138.30504418923806, 35.882075135059495 ], [ 138.304056419768017, 35.881192919018076 ], [ 138.303248366319167, 35.879425693640883 ], [ 138.302093917400384, 35.87834541361002 ], [ 138.301351698821918, 35.876893468059166 ], [ 138.299643605667939, 35.875255693795282 ], [ 138.297254162749482, 35.872226251940049 ], [ 138.296115550892068, 35.870074026794953 ], [ 138.294821115302284, 35.869289585945694 ], [ 138.292747197725021, 35.866812918681319 ], [ 138.290425811002478, 35.865782640056864 ], [ 138.289324136999426, 35.863992080869878 ], [ 138.286106913103595, 35.86131489176887 ], [ 138.284092166420464, 35.860239864678078 ], [ 138.283640777799747, 35.859315721343535 ], [ 138.281069662834739, 35.859672919469688 ], [ 138.278949663096569, 35.860391251155363 ], [ 138.274921920710085, 35.863752918762259 ], [ 138.272841088245741, 35.864929305742919 ], [ 138.268029415824913, 35.870126531913968 ], [ 138.267146912899761, 35.872630972941124 ], [ 138.265758858784352, 35.874722919227395 ], [ 138.26406108894821, 35.876168747589702 ], [ 138.260629728379286, 35.878305134774223 ], [ 138.258841672904964, 35.87894653215676 ], [ 138.253614448947701, 35.882423440689308 ], [ 138.251455836817513, 35.885010387319596 ], [ 138.248603606371375, 35.885924558971283 ], [ 138.244985006053298, 35.884938169960606 ], [ 138.241894695383962, 35.88452817083845 ], [ 138.23866858618635, 35.882890107892194 ], [ 138.236848300808447, 35.880268441135684 ], [ 138.233113839032512, 35.876749278856209 ], [ 138.232354669132746, 35.875679000185755 ], [ 138.232092438515338, 35.873757891813284 ], [ 138.229859947978298, 35.869424558896355 ], [ 138.228266860127519, 35.861805387408765 ], [ 138.226821556070036, 35.857451252273506 ], [ 138.225753502322391, 35.856642080967333 ], [ 138.224174060784321, 35.856211250848617 ], [ 138.223352113709097, 35.855319585630411 ], [ 138.222468780709733, 35.853888748067334 ], [ 138.222264890012752, 35.852177640385833 ], [ 138.21910958623846, 35.847060414306725 ], [ 138.218219027186365, 35.846225413572029 ], [ 138.216145694168517, 35.845491252019713 ], [ 138.215630415011674, 35.844891531918734 ], [ 138.215445135784421, 35.843543747645867 ], [ 138.214465966531179, 35.842706531880992 ], [ 138.213901530431372, 35.84169708065582 ], [ 138.213589856886415, 35.839443197945286 ], [ 138.21252622600457, 35.838112359597744 ], [ 138.21257316521951, 35.836803468305447 ], [ 138.208512334976376, 35.832639864438249 ], [ 138.206779559029542, 35.831535414228028 ], [ 138.204700078246105, 35.828139027394229 ], [ 138.203819533144951, 35.825502639635147 ], [ 138.205152581126754, 35.824162360204809 ], [ 138.204430635965196, 35.823280413060672 ], [ 138.203408974644503, 35.823134305603787 ], [ 138.203454253710902, 35.822675413939237 ], [ 138.204161478769265, 35.822205135058994 ], [ 138.204374253868764, 35.821038747640159 ], [ 138.205842022991078, 35.819597081340305 ], [ 138.205053968665766, 35.818852919326844 ], [ 138.20603258213805, 35.818155414141074 ], [ 138.205692866832351, 35.815734306093418 ], [ 138.202628663482074, 35.813475135369231 ], [ 138.201688663301184, 35.812082081023277 ], [ 138.201178664064173, 35.811885134891099 ], [ 138.199042554770131, 35.812145693668867 ], [ 138.197450609957741, 35.808005694307383 ], [ 138.195720051739045, 35.805691531838761 ], [ 138.194755330993758, 35.805280973338313 ], [ 138.193885888023374, 35.805836532230217 ], [ 138.193384501593528, 35.805783197936307 ], [ 138.193487833696622, 35.803939305354731 ], [ 138.19170477215755, 35.803907640225475 ], [ 138.19038199623219, 35.803128197808121 ], [ 138.190121996832772, 35.802400972726787 ], [ 138.187785032053625, 35.799952919191924 ], [ 138.187584475143467, 35.798855135656027 ], [ 138.186507250109571, 35.797498467880018 ], [ 138.186390583758453, 35.795875134929588 ], [ 138.185587809329945, 35.795532918609354 ], [ 138.186118081084601, 35.793514026950845 ], [ 138.185174188637916, 35.791079892223308 ], [ 138.189144476036859, 35.787964612776705 ], [ 138.191206977620027, 35.784474054334169 ], [ 138.199988911359242, 35.780956838187592 ], [ 138.202448910588828, 35.781025441171209 ], [ 138.205933645021787, 35.782697108185062 ], [ 138.208725305228768, 35.780618224551461 ], [ 138.209973359183209, 35.77890794604491 ], [ 138.209993916785947, 35.777758224862225 ], [ 138.211659195915217, 35.77642017125396 ], [ 138.211820856247527, 35.775776279152012 ], [ 138.213721414211932, 35.77484850525434 ], [ 138.215021970587486, 35.774665171260722 ], [ 138.215578910838076, 35.772829892385687 ], [ 138.216995031895294, 35.771519892229321 ], [ 138.221182242966165, 35.770749333315109 ], [ 138.222616937721568, 35.768084612415009 ], [ 138.223819441913747, 35.767275441108779 ], [ 138.224678612827802, 35.765688775316789 ], [ 138.227986108871846, 35.765301838409187 ], [ 138.229018339025174, 35.764422385984403 ], [ 138.232427497131312, 35.763417944882292 ], [ 138.233388339999919, 35.762568504632839 ], [ 138.234600830264185, 35.760226000029945 ], [ 138.236034163445993, 35.758430721200853 ], [ 138.236900272629555, 35.757986838321983 ], [ 138.234359169839877, 35.756929053932765 ], [ 138.232906939203986, 35.755417387102796 ], [ 138.231131115408743, 35.754866558644835 ], [ 138.229558053661322, 35.753045170698101 ], [ 138.228378611683638, 35.753650440515457 ], [ 138.227669999870614, 35.753665441207204 ], [ 138.225318611764578, 35.751752387162981 ], [ 138.22200333298747, 35.750427666903363 ], [ 138.221686938901144, 35.749738504728271 ], [ 138.22055416274452, 35.7490654413171 ], [ 138.220925811177267, 35.747790171179531 ], [ 138.219699144000401, 35.745845441214215 ], [ 138.218853307334371, 35.745324613240371 ], [ 138.217708028802576, 35.745187107798813 ], [ 138.21299496884285, 35.741643224954942 ], [ 138.212440803899995, 35.740181558632059 ], [ 138.210716914154318, 35.738557107824306 ], [ 138.208000245714857, 35.736918505284848 ], [ 138.207051919610421, 35.73548710834342 ], [ 138.204735811008959, 35.734613225420048 ], [ 138.203060246333393, 35.734679892163342 ], [ 138.200549975001422, 35.733119054001179 ], [ 138.200144137042344, 35.73258186466137 ], [ 138.199911089425314, 35.731210197992311 ], [ 138.198534423424917, 35.729440198206646 ], [ 138.197474424005577, 35.727032413615063 ], [ 138.195694136874977, 35.725940748167034 ], [ 138.192443307112967, 35.72526408117244 ], [ 138.190004423065716, 35.723663251957589 ], [ 138.187980803671167, 35.723159360016496 ], [ 138.186454694628537, 35.721952693761864 ], [ 138.18632274969525, 35.720403802193744 ], [ 138.186042476878924, 35.720089640224785 ], [ 138.183498586190808, 35.719867414149917 ], [ 138.18314775616409, 35.719139359893575 ], [ 138.181848300558727, 35.718337972219672 ], [ 138.181153307179443, 35.716521586302235 ], [ 138.180490803607768, 35.715697972783289 ], [ 138.180102192162508, 35.714093531891024 ], [ 138.180630247088288, 35.711639080579175 ], [ 138.181807756422927, 35.71070046805221 ], [ 138.182076912719367, 35.709639640357182 ], [ 138.183574694916274, 35.707786586381928 ], [ 138.186313840111666, 35.705311865250451 ], [ 138.186728559775247, 35.704375197957063 ], [ 138.191232165831821, 35.701831586058915 ], [ 138.192478273653478, 35.699654359760927 ], [ 138.192491893885858, 35.698613532088871 ], [ 138.193604384035211, 35.696928802422349 ], [ 138.193584112416943, 35.696040197597085 ], [ 138.193982995918645, 35.695493532100897 ], [ 138.193317445443768, 35.691999918661395 ], [ 138.193652724393814, 35.691183801890986 ], [ 138.193433839300269, 35.689729640410633 ], [ 138.193698275055453, 35.688961864898204 ], [ 138.193299663148991, 35.687595468256291 ], [ 138.191281893844348, 35.685428532001197 ], [ 138.19241050614005, 35.68326241412916 ], [ 138.192089104628508, 35.682446026662831 ], [ 138.193192410901133, 35.6808454681439 ], [ 138.192462969890244, 35.67895991896512 ], [ 138.192687690684465, 35.677081026568146 ], [ 138.194244916269895, 35.674879918773286 ], [ 138.194241309089193, 35.673718802280973 ], [ 138.193340752273912, 35.672153251671261 ], [ 138.196663527799615, 35.67005880167244 ], [ 138.199204915674386, 35.669306278661907 ], [ 138.201029882922853, 35.667361557689787 ], [ 138.202915719884572, 35.665993224807551 ], [ 138.20328238697266, 35.664987666747493 ], [ 138.205573217430128, 35.664178775130438 ], [ 138.206083501752232, 35.662709891748136 ], [ 138.207142671996735, 35.661655719935595 ], [ 138.207898781503673, 35.659802108380632 ], [ 138.208336004902776, 35.656438775229333 ], [ 138.208114060315665, 35.6556643339419 ], [ 138.209013475891311, 35.65511794633619 ], [ 138.211025693680881, 35.651771801927168 ], [ 138.21710902725988, 35.647728467994455 ], [ 138.217728754578388, 35.646755693820239 ], [ 138.217985383318819, 35.644890972940118 ], [ 138.219583994805589, 35.644364864147235 ], [ 138.222287055603147, 35.645378197745686 ], [ 138.228782048452786, 35.645897054405566 ], [ 138.2305695589381, 35.643926504904357 ], [ 138.231547860345586, 35.641090107922196 ], [ 138.23231535706816, 35.64009733282569 ], [ 138.231799532922196, 35.638730107908202 ], [ 138.231990922143382, 35.637136775441888 ], [ 138.230478689639881, 35.635337053961905 ], [ 138.229672581424552, 35.632379000290655 ], [ 138.229645357147547, 35.630562332885404 ], [ 138.229196199744933, 35.629791225384793 ], [ 138.229281192872804, 35.627809000884724 ], [ 138.228267587679056, 35.627095108252718 ], [ 138.228960078245109, 35.626187613167872 ], [ 138.228917859571652, 35.625108414122053 ], [ 138.231290609274311, 35.624747586332091 ], [ 138.232137833594265, 35.623500359753848 ], [ 138.233506718660237, 35.622763973278779 ], [ 138.236205888091376, 35.622221747735523 ], [ 138.236883671144597, 35.621109531879426 ], [ 138.236453671100094, 35.619880360090576 ], [ 138.236690336689776, 35.619500919032248 ], [ 138.236433113497469, 35.618586467691387 ], [ 138.234076161285884, 35.614925360017423 ], [ 138.235727003598413, 35.614429251708657 ], [ 138.236254227550603, 35.612728971864613 ], [ 138.23574644604173, 35.612038973320011 ], [ 138.235987833971421, 35.610906748447746 ], [ 138.235113671358931, 35.608426467707375 ], [ 138.235138664417946, 35.607379802535888 ], [ 138.235730337385235, 35.606088135059451 ], [ 138.240758663681504, 35.605003972655254 ], [ 138.240474501297285, 35.604169532198227 ], [ 138.2410628269879, 35.603372026897603 ], [ 138.241706445695968, 35.599042586246412 ], [ 138.243293644785922, 35.597455082286274 ], [ 138.243173917142599, 35.596892586024069 ], [ 138.24243946780723, 35.59631925203189 ], [ 138.242858639114957, 35.595303974099181 ], [ 138.243511142225543, 35.594769532188195 ], [ 138.242805032326487, 35.593823135129639 ], [ 138.243603358708128, 35.592793973463131 ], [ 138.243578079664758, 35.591524252142563 ], [ 138.24195335906029, 35.590193694383515 ], [ 138.241218910624298, 35.588567864915092 ], [ 138.239495576659579, 35.586716197694443 ], [ 138.239339196246988, 35.584880918819408 ], [ 138.238695305044303, 35.583767026627015 ], [ 138.240595032035117, 35.582554801662809 ], [ 138.241131698868912, 35.580388693683346 ], [ 138.241118366419528, 35.577672305832323 ], [ 138.240474475216956, 35.576155359981954 ], [ 138.240918080205347, 35.575151197669697 ], [ 138.241466420239135, 35.574816468205483 ], [ 138.242046420006318, 35.572704252099584 ], [ 138.243745862581591, 35.571157305765098 ], [ 138.245713086389856, 35.56998980228758 ], [ 138.245092802391014, 35.569190919225605 ], [ 138.244665032665239, 35.564822585593902 ], [ 138.244358080561028, 35.56411619780431 ], [ 138.244448911188329, 35.563461747661563 ], [ 138.245668365802544, 35.561505918263549 ], [ 138.248987782360359, 35.559057306249713 ], [ 138.250341114550906, 35.558452027439159 ], [ 138.251785005773513, 35.556606999913186 ], [ 138.252210830265653, 35.555531721012187 ], [ 138.255238611972459, 35.554597278641552 ], [ 138.256691114203591, 35.554625892371064 ], [ 138.259558053961086, 35.552897837864975 ], [ 138.259377223679962, 35.550597279440922 ], [ 138.260201387584061, 35.546128387215333 ], [ 138.259921387262239, 35.544671170738013 ], [ 138.260075279250827, 35.542895613142093 ], [ 138.258848053594875, 35.540048387423212 ], [ 138.258496083227669, 35.537739225185135 ], [ 138.257863865225318, 35.53651477483703 ], [ 138.257583864903495, 35.534670612458854 ], [ 138.258181089385857, 35.532460332478422 ], [ 138.257348300983381, 35.53084866643286 ], [ 138.258605811309167, 35.529651170565103 ], [ 138.261058585385513, 35.529418666138611 ], [ 138.262272191708348, 35.527397000071574 ], [ 138.263800531969082, 35.526703666840831 ], [ 138.263662750435628, 35.526092558624725 ], [ 138.26296525334385, 35.525370332874616 ], [ 138.26353885893127, 35.524525053788238 ], [ 138.263161088813263, 35.522993386935298 ], [ 138.263949974112052, 35.522066721002432 ], [ 138.264680532081002, 35.519953666728384 ], [ 138.267284384167056, 35.517054774957955 ], [ 138.268997445176069, 35.514233947039088 ], [ 138.266895226833299, 35.512970333014493 ], [ 138.263542723318096, 35.509289774803335 ], [ 138.263416057405152, 35.508690613181329 ], [ 138.262170777859183, 35.507255612656479 ], [ 138.26017744493322, 35.505733946264684 ], [ 138.260416886730013, 35.50415310718023 ], [ 138.259360777777715, 35.499905054274905 ], [ 138.259526613662388, 35.497873386847402 ], [ 138.258903839440677, 35.493951721294934 ], [ 138.259880752294976, 35.489361170581617 ], [ 138.259069921739524, 35.487839505089141 ], [ 138.259286030625844, 35.486845613034689 ], [ 138.25854741922808, 35.484942278863116 ], [ 138.258422140069797, 35.482903081412132 ], [ 138.258653800032903, 35.482055027017907 ], [ 138.258302970905447, 35.480823080820585 ], [ 138.258587976853732, 35.479700865402663 ], [ 138.257880751795369, 35.476017531883656 ], [ 138.255508780905529, 35.472782252299169 ], [ 138.255208222981196, 35.471075865159094 ], [ 138.255486834749718, 35.469925586396755 ], [ 138.255205161688878, 35.468908080843335 ], [ 138.253626835310229, 35.466151414156514 ], [ 138.252609052765592, 35.465351972615508 ], [ 138.245772386786257, 35.463196694272085 ], [ 138.245566549956379, 35.461891694346264 ], [ 138.24400403365928, 35.458608360387586 ], [ 138.244345421703883, 35.456222531844446 ], [ 138.244216252078445, 35.454361973026664 ], [ 138.245789830936019, 35.452810864629726 ], [ 138.246570389412, 35.451315305556932 ], [ 138.246665668086166, 35.450261694022004 ], [ 138.247942048886557, 35.448601693913076 ], [ 138.248305383086972, 35.447184749076939 ], [ 138.249705667082935, 35.446312252008852 ], [ 138.255476744356315, 35.44438919840286 ], [ 138.255398418802088, 35.440312252308672 ], [ 138.257278689859731, 35.437751694485144 ], [ 138.257400610050126, 35.436555865061166 ], [ 138.259257560787887, 35.432079467993105 ], [ 138.25944367098873, 35.431083360009097 ], [ 138.258935032425825, 35.429775865363922 ], [ 138.259565862774366, 35.42634058554961 ], [ 138.259078637968855, 35.425070026960213 ], [ 138.259469467142253, 35.423930306238674 ], [ 138.259021673111761, 35.4224678017477 ], [ 138.259264448695376, 35.421830865002448 ], [ 138.258634449320425, 35.421114224941562 ], [ 138.258125005864372, 35.418507279187622 ], [ 138.258194967723625, 35.415968667520019 ], [ 138.257600246953871, 35.414552837843246 ], [ 138.25821581131072, 35.4124395047794 ], [ 138.257718833357558, 35.409748665768348 ], [ 138.258171607833447, 35.408355891111512 ], [ 138.258117173668666, 35.40742450463722 ], [ 138.255375472600008, 35.405712558787627 ], [ 138.253013799847054, 35.405016171459181 ], [ 138.252055719695818, 35.404341171807687 ], [ 138.25095182886389, 35.40269866710986 ], [ 138.249234617483694, 35.402379225221125 ], [ 138.248447912141501, 35.400851170944861 ], [ 138.24649985738256, 35.399891721126096 ], [ 138.246451505332743, 35.397275613079159 ], [ 138.247303450194181, 35.396135612668445 ], [ 138.247558170573143, 35.395206171427731 ], [ 138.246092581407538, 35.392763414000399 ], [ 138.246040635666873, 35.391244531909649 ], [ 138.24305172535685, 35.38923869391067 ], [ 138.240284188564488, 35.388272586410778 ], [ 138.238156939391274, 35.385089802052789 ], [ 138.237007782083538, 35.384526197825835 ], [ 138.236060804062959, 35.381415360130802 ], [ 138.233775772434001, 35.379170386104477 ], [ 138.233560751727396, 35.377726225085269 ], [ 138.232854642727602, 35.376655946414871 ], [ 138.232666004532575, 35.374342613121144 ], [ 138.232929052633722, 35.373031505000029 ], [ 138.232214305645698, 35.372187612668256 ], [ 138.232034577933518, 35.371163721928269 ], [ 138.2343501433445, 35.370172332687048 ], [ 138.237579585429557, 35.3699165052426 ], [ 138.242728755427834, 35.365851225153961 ], [ 138.244606549752575, 35.365764560186335 ], [ 138.246918222897762, 35.367112053978133 ], [ 138.251145719999045, 35.363786773840616 ], [ 138.251461829000277, 35.361245108075309 ], [ 138.250989856696606, 35.35950733279725 ], [ 138.251037081895902, 35.358216775084145 ], [ 138.252465966131467, 35.356278441097231 ], [ 138.252418715751219, 35.355284837725151 ], [ 138.252857326804246, 35.354856774820348 ], [ 138.25289483752681, 35.353959837776358 ], [ 138.253873722594335, 35.352743171060524 ], [ 138.254564553011733, 35.350528999713617 ], [ 138.255813696045266, 35.348798999074575 ], [ 138.255141192911765, 35.348469559422654 ], [ 138.253921439722717, 35.345420944920704 ], [ 138.255259781114091, 35.341818747337356 ], [ 138.256549221869136, 35.340930693796508 ], [ 138.257139753596789, 35.338974305919521 ], [ 138.254540829795474, 35.33575930604718 ], [ 138.252560531643326, 35.334290413671681 ], [ 138.250128003104919, 35.333709027149951 ], [ 138.248737419196573, 35.331602386840757 ], [ 138.250196886677031, 35.331311802397806 ], [ 138.251109662580916, 35.330758748117773 ], [ 138.252035226844328, 35.32926125190528 ], [ 138.251596303726501, 35.325612946080639 ], [ 138.253326861045821, 35.325491837978007 ], [ 138.255023255818628, 35.324184333440314 ], [ 138.254463501589385, 35.321056558813211 ], [ 138.254803501980064, 35.319817386563216 ], [ 138.257197665440003, 35.317746837846357 ], [ 138.257679611225171, 35.316612666841138 ], [ 138.259802139856902, 35.316297946393149 ], [ 138.261334915573912, 35.315195999895536 ], [ 138.264645747203531, 35.315402081341006 ], [ 138.26560994814065, 35.314699585817266 ], [ 138.270233839420257, 35.314259865000793 ], [ 138.275279414713282, 35.310360972980561 ], [ 138.276407445147584, 35.307418748276689 ], [ 138.277599662894204, 35.306732640199243 ], [ 138.279545811090429, 35.306320972834669 ], [ 138.281689688728193, 35.304867919319065 ], [ 138.285435252634898, 35.304379865338547 ], [ 138.287850272272294, 35.306745108400094 ], [ 138.289852244085864, 35.309469278984068 ], [ 138.291518663555507, 35.310058441044248 ], [ 138.293916445887362, 35.311774000369894 ], [ 138.295216744157528, 35.31438927924188 ], [ 138.295436226400739, 35.315818170672117 ], [ 138.296051777267735, 35.316399252323663 ], [ 138.302703190999523, 35.316588973302544 ], [ 138.3051490519872, 35.31798953159165 ], [ 138.308980752060165, 35.318493973018519 ], [ 138.311279662926154, 35.319588108004837 ], [ 138.312330220363492, 35.32067338736698 ], [ 138.313595525113442, 35.322748108038809 ], [ 138.315149689406667, 35.322966171151904 ], [ 138.316863333176343, 35.324043387192603 ], [ 138.318955551057911, 35.324124505141867 ], [ 138.322968079613247, 35.326501972687936 ], [ 138.32584394334333, 35.327611972614477 ], [ 138.328039494227369, 35.327672252372622 ], [ 138.330932555692925, 35.32696586458303 ], [ 138.332292827052356, 35.32627586513911 ], [ 138.335637833819078, 35.326495585702787 ], [ 138.336394773400116, 35.325848360713337 ], [ 138.336769493917132, 35.324690026723431 ], [ 138.338021996817815, 35.323382532078256 ], [ 138.34003697822402, 35.322038640071241 ], [ 138.341345577236666, 35.320028945779256 ], [ 138.343373332613282, 35.317994504842602 ], [ 138.34584888561767, 35.316549774552527 ], [ 138.348436354754085, 35.315653946372606 ], [ 138.350149689156865, 35.315234224679784 ], [ 138.352444136687609, 35.315678387247829 ], [ 138.352921945591333, 35.316747558852796 ], [ 138.356163863971233, 35.316457558969205 ], [ 138.357835836754475, 35.317914225061486 ], [ 138.358669441741426, 35.31734505403108 ], [ 138.358523022219742, 35.315335053070271 ], [ 138.359134384044637, 35.313523108005086 ], [ 138.3611277169706, 35.31334144135451 ], [ 138.362849663281395, 35.312155080892296 ], [ 138.364670777834249, 35.312025919360735 ], [ 138.366246588809076, 35.310334801809688 ], [ 138.367508248606896, 35.309676748083518 ], [ 138.368214059031629, 35.306440080845107 ], [ 138.370594863961855, 35.30476508094381 ], [ 138.370935109867446, 35.302262891819055 ], [ 138.372504811747717, 35.299178441132199 ], [ 138.372338144889568, 35.298182612837365 ], [ 138.371538689858767, 35.297532613439387 ], [ 138.371073696294161, 35.296430666941774 ], [ 138.369592866317817, 35.295893721318237 ], [ 138.368968690053066, 35.295163441239879 ], [ 138.368314228219106, 35.293213999726333 ], [ 138.367350051563676, 35.29197094600238 ], [ 138.366764501180796, 35.290320386976305 ], [ 138.366721141267703, 35.288398999814035 ], [ 138.367694474820269, 35.286457612628794 ], [ 138.367164721075028, 35.283806252956254 ], [ 138.367556667206486, 35.282042359567299 ], [ 138.366704422870839, 35.280512360057401 ], [ 138.367470531939603, 35.279850414065436 ], [ 138.368120803832085, 35.278337079892367 ], [ 138.368895811692369, 35.277957919422477 ], [ 138.369339104616074, 35.276940973247349 ], [ 138.368564383639409, 35.275863197828357 ], [ 138.367100752297915, 35.271338748184746 ], [ 138.36703185523595, 35.27018819782711 ], [ 138.369136859678406, 35.268537946369179 ], [ 138.371048494592401, 35.265587387647884 ], [ 138.372226549815537, 35.264975170567709 ], [ 138.373555694739593, 35.263322945997231 ], [ 138.374330699901975, 35.260252945617026 ], [ 138.376155668049705, 35.259010999857821 ], [ 138.376059830896565, 35.258323505025771 ], [ 138.377313994845053, 35.256389891580284 ], [ 138.37720150494556, 35.255405721197121 ], [ 138.377905667812342, 35.254913774950808 ], [ 138.378213968899558, 35.253937107611478 ], [ 138.381201479864444, 35.252748224550999 ], [ 138.382509780302144, 35.249553251681277 ], [ 138.386152282801618, 35.246243531613743 ], [ 138.385618391275784, 35.244645198017508 ], [ 138.385872243809104, 35.243196305665037 ], [ 138.386630026054945, 35.24193713519071 ], [ 138.386638911356727, 35.239785748213762 ], [ 138.388201673168737, 35.237312135047034 ], [ 138.388998054316858, 35.232779640068372 ], [ 138.390892749600766, 35.228832440964425 ], [ 138.390944421947552, 35.226887171405906 ], [ 138.391796912697373, 35.224824945015257 ], [ 138.391689104668558, 35.223432720743517 ], [ 138.390737717271918, 35.221866612554152 ], [ 138.39072939044911, 35.219376612840449 ], [ 138.391508276186073, 35.218730775504923 ], [ 138.392016329290186, 35.21652717119207 ], [ 138.393376588958517, 35.215162720683054 ], [ 138.393066589051955, 35.213411333266492 ], [ 138.394211581599279, 35.209581332912251 ], [ 138.394499922233649, 35.207030226064148 ], [ 138.394969053579075, 35.206469387252469 ], [ 138.395856004550978, 35.206445225167045 ], [ 138.396630998921523, 35.20582355891014 ], [ 138.398520726350512, 35.201416333197244 ], [ 138.398697107685393, 35.200269945801438 ], [ 138.402704889619031, 35.200843558583415 ], [ 138.405852113884066, 35.202082441251719 ], [ 138.406523774352763, 35.202708278564273 ], [ 138.407574331789988, 35.202930224949966 ], [ 138.413657639288658, 35.201066333244739 ], [ 138.414919027491237, 35.200331641092419 ], [ 138.415569026889102, 35.199548864888243 ], [ 138.418363190808691, 35.199334972830798 ], [ 138.419034577883508, 35.197635800951502 ], [ 138.420205693937646, 35.196114414248882 ], [ 138.42127763815256, 35.195359694194565 ], [ 138.421320700390083, 35.194362748042465 ], [ 138.424574837858586, 35.190347468460971 ], [ 138.4252290011176, 35.187602748368192 ], [ 138.426163164698323, 35.186948864798296 ], [ 138.426826225849709, 35.185839134668356 ], [ 138.42696399389331, 35.183885801788392 ], [ 138.427480389108723, 35.182667197932915 ], [ 138.429392049203784, 35.18183553188436 ], [ 138.430941751061027, 35.180386918321688 ], [ 138.436452309126821, 35.178998586315743 ], [ 138.438785642443463, 35.177993864625194 ], [ 138.440425914124717, 35.177997747897791 ], [ 138.440796200084606, 35.179027198246672 ], [ 138.441360362790533, 35.179373865311675 ], [ 138.444576199931703, 35.179256919271438 ], [ 138.449299247762156, 35.178498306052006 ], [ 138.451813410460545, 35.179136080965407 ], [ 138.453501193325451, 35.178970802660444 ], [ 138.454220363179274, 35.178377467745975 ], [ 138.456833410833269, 35.178211919644411 ], [ 138.461130078390511, 35.179491359938368 ], [ 138.465344772743151, 35.177857198251161 ], [ 138.467135616115911, 35.177925803033418 ], [ 138.470274227573555, 35.176408585587808 ], [ 138.472215889052109, 35.17610969410714 ], [ 138.477898663692486, 35.178083586388425 ], [ 138.47803199717896, 35.176323586164642 ], [ 138.478880336658221, 35.175383306294577 ], [ 138.481118949779784, 35.174802197663325 ], [ 138.48208756189149, 35.173858027326162 ], [ 138.482892284251534, 35.174273306368036 ], [ 138.484356161108053, 35.17416053228277 ], [ 138.485725331259118, 35.172610801647238 ], [ 138.487184773558511, 35.17156553222361 ], [ 138.487206446320556, 35.170354694013952 ], [ 138.487643670618922, 35.169748613008153 ], [ 138.490747523279651, 35.168424999813965 ], [ 138.491492243772086, 35.168384440389673 ], [ 138.49309975405049, 35.170168892280628 ], [ 138.495725862558629, 35.171609720412334 ], [ 138.495764474950647, 35.172703612581699 ], [ 138.496608080398687, 35.17321610833676 ], [ 138.496251141277185, 35.174055837706817 ], [ 138.496384474763772, 35.174507774913934 ], [ 138.497891971437411, 35.175643586282547 ], [ 138.500027249757864, 35.176523332785621 ], [ 138.501133645201662, 35.176523332785621 ], [ 138.503854188819787, 35.182004440752394 ], [ 138.504030856139138, 35.183078054108989 ], [ 138.50554197078543, 35.184510836905645 ], [ 138.505477250174977, 35.185225279023484 ], [ 138.506230855969307, 35.186068891666082 ], [ 138.50806891105151, 35.186601388343433 ], [ 138.50909335937115, 35.187477223694941 ], [ 138.511060584078791, 35.188179721017377 ], [ 138.51230946810756, 35.188974720806755 ], [ 138.513725576574188, 35.190565000074741 ], [ 138.514190583628647, 35.191271386965013 ], [ 138.514194747489682, 35.193031108398998 ], [ 138.513906135259958, 35.19378971981979 ], [ 138.515765863104207, 35.194233612591177 ], [ 138.515197523047277, 35.195388054315288 ], [ 138.515632528718243, 35.196041945979061 ], [ 138.516816419642169, 35.196283893287102 ], [ 138.516446134581543, 35.196695558853037 ], [ 138.515662529202473, 35.196865001019034 ], [ 138.514453086740673, 35.196626945077526 ], [ 138.515541970585559, 35.197599721050324 ], [ 138.515356977342663, 35.198196946432006 ], [ 138.517332802267106, 35.198608612897203 ], [ 138.518047523174687, 35.198334171285012 ], [ 138.517586977656947, 35.197494720704867 ], [ 138.517828079602282, 35.197175838194426 ], [ 138.518564189985455, 35.197115278747162 ], [ 138.519020309939378, 35.197745000231635 ], [ 138.521207249814779, 35.197188333374925 ], [ 138.521353645054774, 35.197636107620326 ], [ 138.520729467890646, 35.19867750366393 ], [ 138.522120025718664, 35.199226386888313 ], [ 138.524246693030477, 35.198976109160185 ], [ 138.525456693071988, 35.197938892266109 ], [ 138.526584475293362, 35.19833861303664 ], [ 138.527596135253475, 35.198245838075024 ], [ 138.528482802039775, 35.197539441292236 ], [ 138.532206693184435, 35.19958999987864 ], [ 138.533136420409505, 35.200688054110458 ], [ 138.532680026162325, 35.202132775407335 ], [ 138.532843646117385, 35.203496946227119 ], [ 138.532180584066737, 35.204146666835243 ], [ 138.531913644599058, 35.205377505067872 ], [ 138.532942529274351, 35.207440278246281 ], [ 138.53224530467719, 35.208308053873623 ], [ 138.531216420001897, 35.211113052825169 ], [ 138.527380026367155, 35.216803613795776 ], [ 138.529158078682485, 35.218684439735171 ], [ 138.532275031767313, 35.223390838416492 ], [ 138.530600310655927, 35.228201386684702 ], [ 138.530088079301436, 35.228867504631694 ], [ 138.530341971404937, 35.229598053607333 ], [ 138.529860025619769, 35.230667504901476 ], [ 138.526902528628852, 35.232572224928276 ], [ 138.52605418914959, 35.236708892301579 ], [ 138.524030895309579, 35.2420041346831 ], [ 138.523083113295115, 35.248605802415909 ], [ 138.522136718934462, 35.249801360244646 ], [ 138.520565330825434, 35.250741918904509 ], [ 138.520526719332679, 35.251726359983593 ], [ 138.521466718614192, 35.253594134961418 ], [ 138.520657561697135, 35.254748305989608 ], [ 138.520708948958941, 35.255353865388656 ], [ 138.516679494263258, 35.258679414423511 ], [ 138.515887276976287, 35.260011359836426 ], [ 138.515990609978758, 35.26125441266106 ], [ 138.514242827044882, 35.262230802109855 ], [ 138.514793695972344, 35.264886359817694 ], [ 138.515715057703801, 35.26607330573853 ], [ 138.515422308592747, 35.267308027243701 ], [ 138.516601996984605, 35.267566360199396 ], [ 138.518100051676129, 35.268494694374681 ], [ 138.520321440981775, 35.270884134595178 ], [ 138.520355887714118, 35.273208587106637 ], [ 138.51985644561853, 35.274782747825611 ], [ 138.520786160253124, 35.276001359774966 ], [ 138.521363113117218, 35.278536359765269 ], [ 138.520751725211994, 35.279892198366326 ], [ 138.520639804583425, 35.281401640273543 ], [ 138.521724527265178, 35.283814972782807 ], [ 138.520372865115746, 35.286026360728044 ], [ 138.520209247858588, 35.288221919705904 ], [ 138.518108144675239, 35.290982747555802 ], [ 138.517496744179425, 35.292758306051041 ], [ 138.516472309349638, 35.294259693630011 ], [ 138.516102023389749, 35.296083864978414 ], [ 138.516506471896264, 35.296802197563409 ], [ 138.516566743560475, 35.298852468366761 ], [ 138.512752334752463, 35.303299972915454 ], [ 138.512778171375544, 35.303800252279871 ], [ 138.513587328292601, 35.304728585555836 ], [ 138.513475383382342, 35.307279413614083 ], [ 138.512596834776218, 35.309773170695337 ], [ 138.512596782615447, 35.311444135338604 ], [ 138.512093191047938, 35.313555251573632 ], [ 138.513913995334633, 35.315270801906024 ], [ 138.51504649809749, 35.315363585860837 ], [ 138.515730946925714, 35.315892198366328 ], [ 138.516665109607175, 35.317216360146972 ], [ 138.51826233523866, 35.317369694555794 ], [ 138.519605382782288, 35.31878219764036 ], [ 138.520621219194027, 35.319008027298651 ], [ 138.525399804657354, 35.321866107834637 ], [ 138.526897860248141, 35.326160558563004 ], [ 138.531530078350556, 35.328324170923793 ], [ 138.5332606347705, 35.330325837867179 ], [ 138.535086200068122, 35.330564721184999 ], [ 138.534741751630577, 35.332001106665814 ], [ 138.535025914014795, 35.332658892394022 ], [ 138.53489564092115, 35.340892504985163 ], [ 138.533404253803383, 35.3420899999536 ], [ 138.532675109568686, 35.343989171163344 ], [ 138.530628444147396, 35.345579441438133 ], [ 138.529448716185357, 35.34968750497444 ], [ 138.530721776688665, 35.351688054060503 ], [ 138.531021217655166, 35.353532225431934 ], [ 138.530779856705067, 35.355391668190975 ], [ 138.53018596600964, 35.356187775045839 ], [ 138.530287638863456, 35.358326945632086 ], [ 138.529815694438867, 35.359272224833376 ], [ 138.530664307312009, 35.360679721392103 ], [ 138.529923501568419, 35.364559721354112 ], [ 138.530584332401077, 35.368113892442238 ], [ 138.530122114144319, 35.371440837224895 ], [ 138.530712139553657, 35.376023333610021 ], [ 138.529269364389734, 35.378216108286836 ], [ 138.528171051153208, 35.379046946059759 ], [ 138.529785772195737, 35.380801667263199 ], [ 138.531748833042229, 35.384309170731683 ], [ 138.533459106152918, 35.385066666993112 ], [ 138.534591608016399, 35.386226386838359 ], [ 138.535358833143732, 35.387891945656804 ], [ 138.535309105131205, 35.389023891739271 ], [ 138.535847717198408, 35.389880279251543 ], [ 138.534028300565637, 35.394841386620726 ], [ 138.532440272300846, 35.39675750465517 ], [ 138.533295279353752, 35.399459170604302 ], [ 138.531247249660851, 35.402121945371562 ], [ 138.531841141255768, 35.403692505205015 ], [ 138.531415305072301, 35.405812225254067 ], [ 138.532206419790555, 35.407251666631169 ], [ 138.531766446264555, 35.409333360646144 ], [ 138.533159221820711, 35.410544748341522 ], [ 138.536406446200544, 35.411917801765185 ], [ 138.537091996698337, 35.413159198937933 ], [ 138.538295330964843, 35.41417725127917 ], [ 138.542291167203643, 35.415259467550413 ], [ 138.545425615699628, 35.416518080445087 ], [ 138.546767003994091, 35.418975864644494 ], [ 138.547950894917903, 35.419450864965484 ], [ 138.549318392329951, 35.421245305626428 ], [ 138.551777029986056, 35.422472532181644 ], [ 138.552237302109916, 35.422998360386089 ], [ 138.553034811907082, 35.423086135117103 ], [ 138.553993969446196, 35.424181414041072 ], [ 138.554486743968141, 35.42551086473469 ], [ 138.555607030340298, 35.426129467900694 ], [ 138.556751192813408, 35.427962802441414 ], [ 138.55633289204934, 35.428864747809939 ], [ 138.558919830585751, 35.434168918660703 ], [ 138.56346455274695, 35.434604748110701 ], [ 138.566141803901246, 35.435905306284894 ], [ 138.567817912666555, 35.437677801689233 ], [ 138.570480414939311, 35.439481973014722 ], [ 138.574989052702676, 35.440765864952766 ], [ 138.577421556060017, 35.440893333060899 ], [ 138.578060999215836, 35.442925837757286 ], [ 138.580284331956364, 35.44394277493916 ], [ 138.582011309974064, 35.445674999601579 ], [ 138.583018223312365, 35.443445558665644 ], [ 138.585282943752873, 35.441789440929995 ], [ 138.585342672226602, 35.440404720601407 ], [ 138.586137393226181, 35.439769441306737 ], [ 138.586468780809696, 35.438734171444935 ], [ 138.587505720712556, 35.437634171080163 ], [ 138.588850143319519, 35.436649170622786 ], [ 138.590741803391552, 35.436135836699577 ], [ 138.5924207000553, 35.436100558993644 ], [ 138.592934578068366, 35.435103054362514 ], [ 138.593852088003473, 35.434836945868426 ], [ 138.595453475697354, 35.433538612616928 ], [ 138.597344864174261, 35.432704171260525 ], [ 138.609163527874557, 35.393163892000075 ], [ 138.613940467578573, 35.393700837623612 ], [ 138.618036615097822, 35.395427775171754 ], [ 138.623414942245859, 35.395556387217539 ], [ 138.638954942116925, 35.398282774630388 ], [ 138.663824668973348, 35.398100278804861 ], [ 138.671182970517748, 35.39282999980469 ], [ 138.680535615826102, 35.357678332988712 ], [ 138.684273671292999, 35.358186107303084 ], [ 138.687031439649331, 35.357990558717347 ], [ 138.689468948633134, 35.359119171012992 ], [ 138.694197807882574, 35.358988891624108 ], [ 138.698653358665638, 35.359653334134123 ], [ 138.69946586285937, 35.360422224805859 ], [ 138.70044450061323, 35.362673891586894 ], [ 138.713034189076666, 35.363585838315828 ], [ 138.717450025798144, 35.364823613019382 ], [ 138.718978392139206, 35.365553054030272 ], [ 138.720891413807749, 35.365707224808602 ], [ 138.724805304721144, 35.365245000256607 ], [ 138.72648725008662, 35.36415194625539 ], [ 138.73078141393114, 35.362798613165523 ], [ 138.746870636071094, 35.366331107894382 ], [ 138.786464059868536, 35.374262532090256 ], [ 138.789391310860424, 35.375120306357132 ], [ 138.799104642765087, 35.37664364009197 ], [ 138.801710505735286, 35.376655585786693 ], [ 138.810342723937651, 35.375575026965976 ], [ 138.815464112079212, 35.376424468114749 ], [ 138.817481051309528, 35.376407801878599 ], [ 138.819718003383173, 35.375872252002864 ], [ 138.821748831743207, 35.374087802809925 ], [ 138.824062996909788, 35.375704197490791 ], [ 138.829159973853734, 35.378113081053925 ], [ 138.829820246207419, 35.37889863976045 ], [ 138.83070583740448, 35.381106693918866 ], [ 138.832686667056123, 35.383238359662641 ], [ 138.833981413811216, 35.383854747798409 ], [ 138.843739494182387, 35.386596413793541 ], [ 138.84489533075498, 35.387205863659744 ], [ 138.846612309210741, 35.388756134787855 ], [ 138.851207301675686, 35.390541414954384 ], [ 138.852978417520035, 35.389743360167984 ], [ 138.853583696330588, 35.38865808080584 ], [ 138.85634119309168, 35.387999198804039 ], [ 138.862832632719915, 35.390148901350756 ], [ 138.870919118022925, 35.382980532125885 ], [ 138.874262477231582, 35.379173522939766 ], [ 138.873463604961444, 35.381709252280245 ], [ 138.876769273583136, 35.383757505004894 ], [ 138.878911244658298, 35.385842774724324 ], [ 138.882584617286284, 35.385738892236134 ], [ 138.885198495014606, 35.3862613866537 ], [ 138.887941554958843, 35.386353053650566 ], [ 138.888893527814162, 35.387792504920242 ], [ 138.891076886589076, 35.38889610796906 ], [ 138.892649389857525, 35.390370559054134 ], [ 138.897107471332788, 35.391350838070764 ], [ 138.898641633804459, 35.392015278782139 ], [ 138.902866977928738, 35.396331946362295 ], [ 138.907549780198224, 35.397436667268437 ], [ 138.910936743935622, 35.397737225192827 ], [ 138.913919830236068, 35.400150278912292 ], [ 138.916402917760479, 35.400613613227733 ], [ 138.916590973194957, 35.401678333188556 ], [ 138.91580070024213, 35.404004998931612 ], [ 138.915817108372948, 35.405531667352591 ], [ 138.916605188778476, 35.408286946385545 ], [ 138.918066303816886, 35.411339170766155 ], [ 138.920715228125346, 35.412508613182013 ], [ 138.923367470932135, 35.414153332910018 ], [ 138.925123578890066, 35.414685838580624 ], [ 138.925663605591012, 35.415310837725031 ], [ 138.926660025639762, 35.418185278727663 ], [ 138.926725863208048, 35.420025558732618 ], [ 138.928421698602619, 35.421102504077339 ], [ 138.930169780111328, 35.42087055902914 ], [ 138.930098105942875, 35.424191107833394 ], [ 138.930644526823471, 35.426329171354212 ], [ 138.929471750620905, 35.428519721108273 ], [ 138.926590636648598, 35.430652775405292 ], [ 138.926198418022636, 35.432391386153597 ], [ 138.92646900064392, 35.433146667384847 ], [ 138.92720150564503, 35.433547774909925 ], [ 138.927911505111979, 35.435179440978459 ], [ 138.927800973036597, 35.436742504962695 ], [ 138.927403747884682, 35.437644721027084 ], [ 138.928574578853841, 35.439168892030807 ], [ 138.93090600470839, 35.440113054274093 ], [ 138.930996835335691, 35.441360558742872 ], [ 138.933572410938041, 35.444275278581301 ], [ 138.935489079357581, 35.445166387119116 ], [ 138.937391336141332, 35.447001108414497 ], [ 138.937633554145236, 35.44765610804302 ], [ 138.937369663379286, 35.448867504731595 ], [ 138.940583307074007, 35.44957027904519 ], [ 138.943728613085113, 35.452174170701483 ], [ 138.947431414228504, 35.454259170624255 ], [ 138.949301970809415, 35.456094999884385 ], [ 138.953144773012923, 35.457851386632228 ], [ 138.954566445585101, 35.459906107281085 ], [ 138.957026471794279, 35.460750278402656 ], [ 138.95748286604146, 35.461372504937231 ], [ 138.958727302023476, 35.462086107987545 ], [ 138.961454837870519, 35.462104721255912 ], [ 138.964404553027748, 35.462642505946917 ], [ 138.965675109818562, 35.46315889216919 ], [ 138.966331506094207, 35.463826108188414 ], [ 138.969230143356526, 35.46351528000622 ], [ 138.970041244607842, 35.46448166719523 ], [ 138.973463476158599, 35.466545026731637 ], [ 138.976533774214317, 35.466177802063953 ], [ 138.977276005383374, 35.465203359647376 ], [ 138.977428470147856, 35.464453081344686 ], [ 138.978769338634152, 35.46374169422387 ], [ 138.980922386658904, 35.465325865296506 ], [ 138.982199611023248, 35.467331694302288 ], [ 138.983949610785999, 35.467819467694312 ], [ 138.985035187823769, 35.468546693675023 ], [ 138.986630467322243, 35.471806972613763 ], [ 138.988036861312139, 35.472660585717506 ], [ 138.98882158185063, 35.473640585944338 ], [ 138.992648249317313, 35.474350305722055 ], [ 138.995720220112162, 35.47367280235801 ], [ 138.996990506206998, 35.474134468431032 ], [ 138.997674383965659, 35.474917802214861 ], [ 138.998607716572906, 35.475147802029483 ], [ 139.004201607618143, 35.474397801617329 ], [ 139.005999688734732, 35.474843919311468 ], [ 139.007873022422132, 35.474497801732241 ], [ 139.010120803232553, 35.475632801912354 ], [ 139.010693307150518, 35.476465333108706 ], [ 139.011812749958494, 35.477226441047492 ], [ 139.012263865185332, 35.478110333425207 ], [ 139.013229144409593, 35.478504775175281 ], [ 139.014593022050349, 35.479831170871876 ], [ 139.01720747084812, 35.479025333352524 ], [ 139.019714161979095, 35.479142279392704 ], [ 139.020950272037453, 35.478793080736125 ], [ 139.022484162014507, 35.479333360146484 ], [ 139.023685551047379, 35.48097310932161 ], [ 139.026460557608743, 35.480747251784294 ], [ 139.027549442352893, 35.480967802422185 ], [ 139.027874449246497, 35.48452783798939 ], [ 139.030620272807369, 35.488701999897444 ], [ 139.033445550571741, 35.490255612906253 ], [ 139.035661698628587, 35.490987251860247 ], [ 139.037317248892009, 35.491108081173081 ], [ 139.03820031119551, 35.492925585847161 ], [ 139.039271698729976, 35.493991973151083 ], [ 139.039509467787752, 35.495215026852065 ], [ 139.040461413663365, 35.495919748197878 ], [ 139.041232801752471, 35.497025864851821 ], [ 139.04370089488043, 35.498941946913362 ], [ 139.04429810587294, 35.502770279025185 ], [ 139.045049221444515, 35.503942225153594 ], [ 139.045361725063572, 35.506040278735952 ], [ 139.046063386016499, 35.507969170740694 ], [ 139.04597505820243, 35.50954917075768 ], [ 139.04623980422366, 35.509810000231369 ], [ 139.051637328300103, 35.510541360395507 ], [ 139.053220947189061, 35.508858558875431 ], [ 139.054782607331504, 35.508917171290477 ], [ 139.05643983123332, 35.508384640438862 ], [ 139.058185109555211, 35.508366305960294 ], [ 139.060081244653816, 35.507499360407223 ], [ 139.061624305917007, 35.507760170995141 ], [ 139.065203217354679, 35.509274053754609 ], [ 139.066805161728894, 35.509442946434888 ], [ 139.068708495001147, 35.510967945714185 ], [ 139.074701581612771, 35.509954333325879 ], [ 139.077662996050435, 35.510968505092478 ], [ 139.080334423195154, 35.512710467614056 ], [ 139.085789974227964, 35.512086305738478 ], [ 139.087128053916672, 35.514375198156927 ], [ 139.088491114973067, 35.515238532032697 ], [ 139.090464188871238, 35.517696864818504 ], [ 139.091004474576948, 35.519243533262511 ], [ 139.093539494352285, 35.520937694119368 ], [ 139.094304500852104, 35.521871306415733 ], [ 139.09808144030626, 35.523223532440113 ], [ 139.100844812338323, 35.525189640189808 ], [ 139.104114553044269, 35.526891027099282 ], [ 139.106242360696456, 35.530072693600005 ], [ 139.106866808556447, 35.532494080437516 ], [ 139.110125966040528, 35.532288838059458 ], [ 139.110166550645886, 35.534581612851184 ], [ 139.11223544730808, 35.53516938725744 ], [ 139.111956278859225, 35.536466613443508 ], [ 139.113102697731392, 35.537384946258328 ], [ 139.11398435799174, 35.538729946230092 ], [ 139.11186435825357, 35.540096892357724 ], [ 139.112503799610749, 35.541044945967542 ], [ 139.111677173362978, 35.54490661324968 ], [ 139.113396615061788, 35.547783558864182 ], [ 139.112749947651992, 35.549036333360164 ], [ 139.111960779066749, 35.549793558925671 ], [ 139.112661920211508, 35.550334386922486 ], [ 139.113158029419537, 35.551289666584921 ], [ 139.114399974279422, 35.552193837775462 ], [ 139.115454449163508, 35.553876613215152 ], [ 139.117894449269443, 35.555464108182093 ], [ 139.121285862852346, 35.556173279373411 ], [ 139.122392802386003, 35.556765505423812 ], [ 139.123862529332314, 35.558128559285649 ], [ 139.124692826612772, 35.560076052867601 ], [ 139.125736160695283, 35.560450775183199 ], [ 139.12653338540747, 35.561593279306464 ], [ 139.128274811933125, 35.562486054288001 ], [ 139.129178975029731, 35.563874945672239 ], [ 139.12921924757029, 35.565079946382468 ], [ 139.129862048794621, 35.566439667356804 ], [ 139.128605382932165, 35.568489666564915 ], [ 139.128862607023734, 35.57016133267939 ], [ 139.127006783136608, 35.571807171164096 ], [ 139.127050947043585, 35.572692999782191 ], [ 139.128109027309847, 35.575231613248377 ], [ 139.127925421720875, 35.576400224690644 ], [ 139.127102087891103, 35.577855225238523 ], [ 139.127759882612509, 35.578953558260139 ], [ 139.127771000031657, 35.581000224580748 ], [ 139.126723774582615, 35.581621333257999 ], [ 139.12405600498073, 35.581999667250898 ], [ 139.124713773621806, 35.58313133274487 ], [ 139.125929882757987, 35.582998838325807 ], [ 139.125742386701859, 35.583476613055325 ], [ 139.12405600498073, 35.58446855897688 ], [ 139.122248222877261, 35.584101333409876 ], [ 139.122093774208338, 35.585574666637626 ], [ 139.122424616802732, 35.585942170095109 ], [ 139.121828495788463, 35.58622799982237 ], [ 139.121437664816426, 35.586987972816758 ], [ 139.122041582053384, 35.588747412762928 ], [ 139.123734086359036, 35.590802134311105 ], [ 139.124596886936843, 35.592647413647285 ], [ 139.125527171741624, 35.593196027075066 ], [ 139.127132995791158, 35.593019107046189 ], [ 139.129333279807042, 35.594596332654703 ], [ 139.130006354909369, 35.596162721432506 ], [ 139.130152476755484, 35.598165775130497 ], [ 139.131691115152876, 35.601899946425419 ], [ 139.131906938954103, 35.603078559228152 ], [ 139.131683605813805, 35.60466046760655 ], [ 139.133104746886602, 35.606701026631129 ], [ 139.132523086970991, 35.608796586393396 ], [ 139.130100310680859, 35.61125435980091 ], [ 139.128170584105192, 35.61229463978583 ], [ 139.127796977848334, 35.612899081327612 ], [ 139.1301031129683, 35.614426306428925 ], [ 139.13371477321823, 35.615810747967714 ], [ 139.134413670554522, 35.616509639908031 ], [ 139.13383535701621, 35.617570748191554 ], [ 139.132501167794771, 35.618180197158438 ], [ 139.131840610355994, 35.617761026750031 ], [ 139.131052826726659, 35.618034080708298 ], [ 139.130004228012808, 35.617640199235836 ], [ 139.129794500715661, 35.618066027325369 ], [ 139.13027116658111, 35.619076305926853 ], [ 139.129049780223227, 35.619282413452652 ], [ 139.127906160940597, 35.62065464039938 ], [ 139.126578391979251, 35.620756306058752 ], [ 139.126273385108675, 35.621226585838315 ], [ 139.126381167057275, 35.621830198205146 ], [ 139.125466719313749, 35.621988532844568 ], [ 139.126241478961106, 35.623272135200921 ], [ 139.125657031147171, 35.62331019810722 ], [ 139.125237859839444, 35.624002414379959 ], [ 139.123490610203589, 35.623951557718271 ], [ 139.123176200021703, 35.625860721295282 ], [ 139.123919532860214, 35.627531559134184 ], [ 139.12369702979413, 35.627925440606646 ], [ 139.124211751371263, 35.629086558897654 ], [ 139.124033968892604, 35.629810720888088 ], [ 139.124389532950659, 35.630751000758153 ], [ 139.123824280266376, 35.631837387185726 ], [ 139.124351506017206, 35.632244055219019 ], [ 139.124084838144881, 35.632491838227793 ], [ 139.123462048634678, 35.632339332993865 ], [ 139.123303165408856, 35.632841000012206 ], [ 139.123684280105522, 35.633063225187755 ], [ 139.123703450054222, 35.634308775429702 ], [ 139.125164553401532, 35.636271838074947 ], [ 139.125120143080153, 35.637612107612711 ], [ 139.12555208835829, 35.638139613052772 ], [ 139.125685694339381, 35.639009612703489 ], [ 139.126638756273678, 35.639403774764446 ], [ 139.127229299692544, 35.640045441044322 ], [ 139.126937081181381, 35.64090961308824 ], [ 139.127553475612444, 35.641080998689176 ], [ 139.127051529804362, 35.641354054446083 ], [ 139.127038754934688, 35.64188127929765 ], [ 139.125825422005732, 35.641925999885018 ], [ 139.126203217304692, 35.64361877488659 ], [ 139.125383747861747, 35.643834891866845 ], [ 139.125126549850506, 35.645032386835226 ], [ 139.12442128441478, 35.645350172172755 ], [ 139.124472114096875, 35.646004613322305 ], [ 139.123703217129787, 35.646118775061495 ], [ 139.123468223379859, 35.646862107900006 ], [ 139.122546834668697, 35.646842946045183 ], [ 139.121735719927642, 35.647607108081615 ], [ 139.12147488955452, 35.648216837636994 ], [ 139.121717392643632, 35.64890764017548 ], [ 139.119619339061273, 35.651182081388015 ], [ 139.119090168976186, 35.652424026247843 ], [ 139.117554060371617, 35.653482081333038 ], [ 139.117168223334943, 35.654537639900241 ], [ 139.118193527809126, 35.655914305900524 ], [ 139.119659636782899, 35.656568468260275 ], [ 139.120078521206892, 35.657575135184402 ], [ 139.119619079157246, 35.65880625220683 ], [ 139.119883838668329, 35.660489026747257 ], [ 139.123898274685644, 35.662918467913016 ], [ 139.124781088776331, 35.665064306072907 ], [ 139.126965524939123, 35.666993467874306 ], [ 139.130002477032804, 35.66761319789083 ], [ 139.130785005923372, 35.669518747991901 ], [ 139.130438612252192, 35.670814585624669 ], [ 139.131341387694988, 35.671994585182006 ], [ 139.129740271596347, 35.673716802188721 ], [ 139.128719169654005, 35.6753793060102 ], [ 139.127392244256725, 35.67651374771134 ], [ 139.124826420003387, 35.677713721211319 ], [ 139.123325006343975, 35.677517332658852 ], [ 139.122343332478863, 35.678703999789832 ], [ 139.119515551001996, 35.680302613075185 ], [ 139.118932528613414, 35.681492891883522 ], [ 139.116486135226978, 35.68382483754624 ], [ 139.113625032069649, 35.684362613244048 ], [ 139.112615032257963, 35.684963694019302 ], [ 139.111160856388437, 35.686484252446348 ], [ 139.110493644865869, 35.687740359829775 ], [ 139.108263358567228, 35.689741747083986 ], [ 139.10585919644484, 35.690979802376035 ], [ 139.104723087400657, 35.690901748416991 ], [ 139.099283359039873, 35.69235005441152 ], [ 139.097408080118839, 35.692331999622127 ], [ 139.095706938724334, 35.69111783841754 ], [ 139.093110272221338, 35.691514225401249 ], [ 139.092106666589416, 35.690552838442784 ], [ 139.087670830744287, 35.691802837630917 ], [ 139.085789170234079, 35.693082838202486 ], [ 139.084395006124737, 35.693076721013938 ], [ 139.083577497203805, 35.69438086478516 ], [ 139.082014721002679, 35.695552801920314 ], [ 139.078161946216937, 35.695709198520774 ], [ 139.07632277687469, 35.694885585001771 ], [ 139.075493333050986, 35.694969748055485 ], [ 139.074808340132904, 35.695558640319064 ], [ 139.072205810949526, 35.695360305633642 ], [ 139.070690830117769, 35.697590027158071 ], [ 139.066736083003889, 35.698401694082975 ], [ 139.065305525129929, 35.697836414419044 ], [ 139.0627208304021, 35.700727225780895 ], [ 139.058537782292888, 35.702073614305903 ], [ 139.053176108790467, 35.70459194626136 ], [ 139.052088341004151, 35.704832505016157 ], [ 139.051757781696324, 35.705992224861347 ], [ 139.050681672721112, 35.707368863882039 ], [ 139.048421672821974, 35.708005802425873 ], [ 139.047375837724758, 35.709249693418656 ], [ 139.043378885427273, 35.70957441432779 ], [ 139.041143061103412, 35.710710251776732 ], [ 139.038877223704958, 35.711196919002646 ], [ 139.037584720758332, 35.712747468021291 ], [ 139.036160271979043, 35.713534667091267 ], [ 139.034777781969183, 35.714958837980021 ], [ 139.0323497536383, 35.716214946262824 ], [ 139.030011698880912, 35.716323278596462 ], [ 139.028977522594687, 35.716767999643537 ], [ 139.024848366359038, 35.719701053960534 ], [ 139.022083360258989, 35.722658559045328 ], [ 139.022065330650548, 35.724804360332996 ], [ 139.020899494516129, 35.727280747908253 ], [ 139.018483113305138, 35.729865467817149 ], [ 139.017930336915583, 35.731217693841529 ], [ 139.016655913939303, 35.732032135174961 ], [ 139.015748144561258, 35.733114080750283 ], [ 139.014979247594283, 35.733234359678022 ], [ 139.014522310156508, 35.734364332647885 ], [ 139.013794811681237, 35.734989332691612 ], [ 139.012415914462963, 35.738488505740008 ], [ 139.011881478847272, 35.738863225357591 ], [ 139.01143011720626, 35.740591558653534 ], [ 139.01068066088385, 35.741216279008142 ], [ 139.010389274245654, 35.742292108294237 ], [ 139.008587885422685, 35.744400720816657 ], [ 139.008095110001364, 35.745615134730713 ], [ 139.007123165002099, 35.746274864793236 ], [ 139.005183190651792, 35.74895902723739 ], [ 139.005155422284929, 35.75045153221248 ], [ 139.003211802982378, 35.750500135173127 ], [ 139.002153476301942, 35.750118197596805 ], [ 139.000383191431183, 35.750485972649585 ], [ 138.997217951047674, 35.751978197935557 ], [ 138.995610725854362, 35.753768197744193 ], [ 138.992572672091228, 35.755380972653825 ], [ 138.992752113819051, 35.757583468102609 ], [ 138.991096030257609, 35.759360134562598 ], [ 138.989362140050844, 35.763489585775801 ], [ 138.987340751874285, 35.765028198092921 ], [ 138.986511854838341, 35.766463468414372 ], [ 138.984396886806962, 35.767764864756771 ], [ 138.984284669402086, 35.768781251553548 ], [ 138.983772995627305, 35.769475413959242 ], [ 138.983954668573119, 35.770963198392963 ], [ 138.983664942083465, 35.772231252370432 ], [ 138.985321335910953, 35.7744167749143 ], [ 138.985616057235347, 35.777977332987575 ], [ 138.986704941979497, 35.780894838026427 ], [ 138.986709947606073, 35.781234838417106 ], [ 138.986083553613184, 35.781516224594156 ], [ 138.986425226742881, 35.782252891657663 ], [ 138.98468858640922, 35.783835666982498 ], [ 138.985045253036105, 35.785267613409701 ], [ 138.984864422754981, 35.785609280244159 ], [ 138.983395524983507, 35.786059558202112 ], [ 138.981675524805723, 35.787133170659331 ], [ 138.980761088753297, 35.787330667176604 ], [ 138.979520245562981, 35.787087891592989 ], [ 138.979088028689603, 35.787811225307848 ], [ 138.976719974347361, 35.789244838178774 ], [ 138.976078859351901, 35.791865666767137 ], [ 138.976993022010447, 35.792200666927272 ], [ 138.977105252905176, 35.792751775074407 ], [ 138.975924694868809, 35.793734558702965 ], [ 138.975646666760326, 35.794495108162778 ], [ 138.974678612228217, 35.794893720968503 ], [ 138.973586393697133, 35.79757650475193 ], [ 138.97179610880346, 35.798998198008462 ], [ 138.971105836864922, 35.80141958574535 ], [ 138.97139527916886, 35.802861531734379 ], [ 138.971241388079648, 35.803702081286076 ], [ 138.970221387806873, 35.804872360071386 ], [ 138.970944449027115, 35.807956801765044 ], [ 138.970855837027329, 35.809445694163514 ], [ 138.9710833331294, 35.809981532721622 ], [ 138.972056420267677, 35.810662919358322 ], [ 138.972233916761866, 35.811523747722845 ], [ 138.971848638204165, 35.814380413625258 ], [ 138.969629195930679, 35.816214304846369 ], [ 138.96976141425796, 35.817448466973246 ], [ 138.969453087090415, 35.819062919118494 ], [ 138.970074474557464, 35.821281532216972 ], [ 138.969646978225569, 35.822730134987808 ], [ 138.96972922212592, 35.824510414024417 ], [ 138.970090895278645, 35.824999027383285 ], [ 138.970479221638811, 35.827357080365005 ], [ 138.969765615890537, 35.831225414321466 ], [ 138.969296720167563, 35.831382918886675 ], [ 138.964253942665437, 35.829381531632407 ], [ 138.962681166902371, 35.829396532324154 ], [ 138.961388106376035, 35.830655999574788 ], [ 138.959299222281402, 35.8313643325979 ], [ 138.958319779634166, 35.832910170068374 ], [ 138.953261997843015, 35.836517386768037 ], [ 138.95225338478599, 35.837740441368339 ], [ 138.950195887929908, 35.839345721328016 ], [ 138.947379779653147, 35.842927134679599 ], [ 138.947975888076826, 35.844821305658797 ], [ 138.947810894856957, 35.847558252011765 ], [ 138.94841535708315, 35.848394359811891 ], [ 138.948547588000906, 35.849544359784431 ], [ 138.946803968928066, 35.852840467713463 ], [ 138.945749532714785, 35.854085748158809 ], [ 138.943933411198032, 35.854818801746376 ], [ 138.942772865775169, 35.853758531631001 ], [ 138.937510052047287, 35.852334640431366 ], [ 138.935146719145791, 35.851015468089429 ], [ 138.932182801894896, 35.851274108613268 ], [ 138.930993916136345, 35.849910505265655 ], [ 138.926630026054909, 35.848918278755605 ], [ 138.922623333200363, 35.850686612996867 ], [ 138.921150271567853, 35.850527720777734 ], [ 138.920323060760666, 35.851221332798332 ], [ 138.917635551039893, 35.851416332797555 ], [ 138.914857495776914, 35.852540224551774 ], [ 138.913116393906535, 35.85235135972755 ], [ 138.912198612376073, 35.852906918619453 ], [ 138.910946083395061, 35.852727467898376 ], [ 138.910117470544947, 35.852143306068797 ], [ 138.909046083010367, 35.850678027169295 ], [ 138.906625252853246, 35.849743027219006 ], [ 138.904976057199292, 35.848585802093169 ], [ 138.902974112365428, 35.848450803062178 ], [ 138.901248833167188, 35.847268306087528 ], [ 138.898301023673412, 35.846212467831151 ], [ 138.896931310331752, 35.844889973393606 ], [ 138.896710467414209, 35.843453306424976 ], [ 138.894409052835613, 35.840793027276447 ], [ 138.893218690390313, 35.839967026956799 ], [ 138.892222672338562, 35.839778585713191 ], [ 138.890435162752624, 35.842226359558879 ], [ 138.8887760053085, 35.84313302726747 ], [ 138.885647950992166, 35.847133306157218 ], [ 138.881802917570667, 35.847447747815352 ], [ 138.879981803017813, 35.846868305627879 ], [ 138.877694033852663, 35.847870000200373 ], [ 138.87716236095423, 35.84910999982668 ], [ 138.875452335157206, 35.850149440744133 ], [ 138.874217056072325, 35.851438612601953 ], [ 138.872375383017584, 35.8548358376039 ], [ 138.871210388648592, 35.855265279169373 ], [ 138.869431505359785, 35.857249171012484 ], [ 138.86656593976636, 35.858179999907122 ], [ 138.865118444060954, 35.859247774864969 ], [ 138.862441751385745, 35.858710278856336 ], [ 138.860686744198006, 35.857666387194058 ], [ 138.858811166702026, 35.857574441407394 ], [ 138.858401725159524, 35.858303612621683 ], [ 138.857782282926109, 35.858410559100093 ], [ 138.856855887689107, 35.860050837975848 ], [ 138.857054812329807, 35.862614440903769 ], [ 138.856628417667366, 35.86461638663701 ], [ 138.855900635905641, 35.86509389156987 ], [ 138.85073394171809, 35.865807775208737 ], [ 138.849831439669288, 35.866631946307336 ], [ 138.846949441663469, 35.866903864421886 ], [ 138.845448689905197, 35.867390865296272 ], [ 138.844711503932785, 35.866373838182142 ], [ 138.841721194277739, 35.864913000134891 ], [ 138.838099339313089, 35.864304305699193 ], [ 138.834445668133185, 35.86227874826568 ], [ 138.832426692837657, 35.862250413325967 ], [ 138.83172494195253, 35.862907504777581 ], [ 138.83074855969835, 35.863022224995746 ], [ 138.83052717269095, 35.864731667132787 ], [ 138.829359662918137, 35.865480278991754 ], [ 138.827830776769019, 35.865795000339062 ], [ 138.826012412343061, 35.865290558912193 ], [ 138.82449547278793, 35.865620279152608 ], [ 138.821913255692266, 35.864590025709163 ], [ 138.819366614877481, 35.865202694248978 ], [ 138.815072438442371, 35.862972720914399 ], [ 138.814690116855445, 35.862259640370155 ], [ 138.813604863573687, 35.862367774852999 ], [ 138.812899299563128, 35.863542775079054 ], [ 138.811149805219429, 35.864860172159297 ], [ 138.810179922365592, 35.866207945640213 ], [ 138.809902891605248, 35.867343053738978 ], [ 138.808759221960599, 35.868970748401352 ], [ 138.808824085563174, 35.869717081378269 ], [ 138.808404889973758, 35.870019532375579 ], [ 138.805846226122526, 35.869641666929454 ], [ 138.801929533820953, 35.870427775121755 ], [ 138.799583942744789, 35.871519720258959 ], [ 138.796970336611821, 35.872130000199377 ], [ 138.79486586276937, 35.873420864581306 ], [ 138.79326002612936, 35.874987251560469 ], [ 138.792003645351997, 35.875451135361686 ], [ 138.791790855863383, 35.879775838384262 ], [ 138.792788105986347, 35.881932775077587 ], [ 138.791941414065036, 35.882640558614924 ], [ 138.791560311059584, 35.883997774977388 ], [ 138.791728663247227, 35.886796386943729 ], [ 138.791118663895304, 35.890807775158748 ], [ 138.79062005187393, 35.891878613207496 ], [ 138.788137250333875, 35.893875838399254 ], [ 138.781980558156306, 35.897091667446546 ], [ 138.781498339876521, 35.897814440883792 ], [ 138.781319169743938, 35.898882775219931 ], [ 138.779349999802662, 35.899908333303017 ], [ 138.777155252912621, 35.900419170708233 ], [ 138.775484423167654, 35.900173612622154 ], [ 138.771145745579815, 35.900550026562541 ], [ 138.765667108050707, 35.899108360262687 ], [ 138.759246783212575, 35.901684197567704 ], [ 138.757708443390015, 35.902604197725623 ], [ 138.753571750835704, 35.902866693643034 ], [ 138.74910697840437, 35.901607532161904 ], [ 138.746495278834118, 35.9029811350714 ], [ 138.743310830730366, 35.903867251472548 ], [ 138.740288858644021, 35.905470586198646 ], [ 138.738862166056151, 35.905887278974774 ], [ 138.737389390408111, 35.905696720727121 ], [ 138.736077445018168, 35.904313666842313 ], [ 138.734402970320843, 35.904011721263998 ], [ 138.732937691421398, 35.904727279440465 ], [ 138.72901128374383, 35.909220613440596 ] ] ] } }
]
}
