{
"type": "FeatureCollection",
"name": "05_akita_area",
"crs": { "type": "name", "properties": { "name": "urn:ogc:def:crs:OGC:1.3:CRS84" } },
"features": [
{ "type": "Feature", "properties": { "code": "050010", "name": "沿岸", "PrefCode": "05", "regioncode": "050010" }, "geometry": { "type": "MultiPolygon", "coordinates": [ [ [ [ 140.047233839070486, 39.543291838347727 ], [ 140.045414694932333, 39.541225666631249 ], [ 140.047011634579349, 39.543310387764222 ], [ 140.047233839070486, 39.543291838347727 ] ] ], [ [ [ 140.012847406282845, 39.774743567961366 ], [ 140.038826498144431, 39.758432135934356 ], [ 140.012860843053545, 39.774752134903167 ], [ 140.012847406282845, 39.774743567961366 ] ] ], [ [ [ 140.010549026916124, 39.775964358968054 ], [ 140.004764733205889, 39.782245225037173 ], [ 140.010512568400372, 39.776074891942756 ], [ 140.010549026916124, 39.775964358968054 ] ] ], [ [ [ 140.033036900232787, 39.790313928045407 ], [ 140.023977924941391, 39.788438927914228 ], [ 140.020482386952608, 39.781546270144304 ], [ 140.023865849629374, 39.78852821620427 ], [ 140.033046562548861, 39.790315703307101 ], [ 140.033036900232787, 39.790313928045407 ] ] ], [ [ [ 139.852106278182305, 39.861164505437614 ], [ 139.86157900097021, 39.853157640712595 ], [ 139.852109027409711, 39.861177026698499 ], [ 139.852106278182305, 39.861164505437614 ] ] ], [ [ [ 139.848761530420347, 39.878493720908523 ], [ 139.850638196995305, 39.875811721333946 ], [ 139.848393332686214, 39.878268586426202 ], [ 139.848761530420347, 39.878493720908523 ] ] ], [ [ [ 139.708993165302445, 39.948924919249691 ], [ 139.707070195333358, 39.951999107772679 ], [ 139.708391919951168, 39.94999546771669 ], [ 139.708993165302445, 39.948924919249691 ] ] ], [ [ [ 139.792513397974972, 39.96032203563351 ], [ 139.787291479118494, 39.962223134989756 ], [ 139.792517470105281, 39.960339009437803 ], [ 139.792513397974972, 39.96032203563351 ] ] ], [ [ [ 139.697991893611061, 40.016172585896186 ], [ 139.701149728077553, 40.012985946144568 ], [ 139.696275940382407, 40.01446825190834 ], [ 139.697989169564607, 40.016173171354808 ], [ 139.697991893611061, 40.016172585896186 ] ] ], [ [ [ 139.97053347573933, 40.199995198319812 ], [ 139.968070168803365, 40.197795694016122 ], [ 139.982436887052813, 40.211700224585741 ], [ 139.970537912094983, 40.199999999800184 ], [ 139.97053347573933, 40.199995198319812 ] ] ], [ [ [ 139.863726025335836, 39.890479440873548 ], [ 139.860071543866752, 39.890308692891892 ], [ 139.859707976741788, 39.894525720985314 ], [ 139.851125939810345, 39.887428945889212 ], [ 139.861338106768244, 39.887420306102285 ], [ 139.857550700104753, 39.881616053737957 ], [ 139.849385914428467, 39.882205332709987 ], [ 139.856904227847849, 39.877996802310633 ], [ 139.846910195049531, 39.878421505348228 ], [ 139.849321388071644, 39.874846891770687 ], [ 139.857532826978399, 39.876534748379981 ], [ 139.850406783446374, 39.873409667222404 ], [ 139.851575668282521, 39.870620170784321 ], [ 139.865848196936781, 39.874219666804208 ], [ 139.858748755350803, 39.872308468061419 ], [ 139.861248585553881, 39.866331721232029 ], [ 139.849650778260866, 39.863415279191827 ], [ 139.84756000019388, 39.868371720878258 ], [ 139.848382698203068, 39.862814747902348 ], [ 139.837953916939796, 39.862957586323603 ], [ 139.8384820492073, 39.867069864982341 ], [ 139.830004357914845, 39.868851612611877 ], [ 139.821613579802943, 39.863654774947975 ], [ 139.820993644740952, 39.858559468045087 ], [ 139.814533217334201, 39.857340359669934 ], [ 139.792828520419903, 39.867692919792489 ], [ 139.786839144411033, 39.86207646835436 ], [ 139.78413435691516, 39.865573197944798 ], [ 139.779192334958339, 39.864555251723516 ], [ 139.77860243815212, 39.861280973038504 ], [ 139.782587717249385, 39.862596504025475 ], [ 139.780870245965161, 39.860022279204884 ], [ 139.784103813240449, 39.859022901285925 ], [ 139.774681310394271, 39.860850107846261 ], [ 139.771955226952173, 39.858389774968202 ], [ 139.774301530291496, 39.862929891701185 ], [ 139.771652114053836, 39.864746505147139 ], [ 139.755288105861496, 39.856847198439482 ], [ 139.755039609690243, 39.863433171203951 ], [ 139.746598275290239, 39.8653150538467 ], [ 139.740272632875758, 39.871449558850088 ], [ 139.740987173019676, 39.876866838333967 ], [ 139.736298392057165, 39.883608972975765 ], [ 139.738933021641742, 39.885292974191486 ], [ 139.734978171105809, 39.888391892272068 ], [ 139.734924084978616, 39.905351775064446 ], [ 139.728576419965862, 39.910089864955353 ], [ 139.71757007789688, 39.909001278786036 ], [ 139.717705524790176, 39.915199748069995 ], [ 139.708495136041734, 39.923343027358897 ], [ 139.711194890032175, 39.926505387213922 ], [ 139.705684890445355, 39.928061720671906 ], [ 139.70615111518191, 39.93958708127883 ], [ 139.701717977302906, 39.942249586249432 ], [ 139.709662360729453, 39.947026197700893 ], [ 139.718907807749247, 39.946032694153587 ], [ 139.721061894490958, 39.954894171129126 ], [ 139.715094720944649, 39.960295305983664 ], [ 139.708202217858116, 39.956325747934955 ], [ 139.701610000201413, 39.961005891808497 ], [ 139.701902282564333, 39.976005775046531 ], [ 139.694231167134717, 39.979496441407719 ], [ 139.697973022237306, 39.984524467330345 ], [ 139.693994526726101, 39.988886252098894 ], [ 139.696343774445722, 39.994251170355255 ], [ 139.692956161397774, 39.995276467634937 ], [ 139.697747588280663, 39.995941640394449 ], [ 139.695258638075757, 39.998831198101357 ], [ 139.70170055833421, 40.006822332784509 ], [ 139.72335141373685, 39.981675441168704 ], [ 139.734437275659843, 39.983858108365041 ], [ 139.742164917077275, 39.97842666725694 ], [ 139.765719001430853, 39.974865279109395 ], [ 139.782421855284497, 39.967842558687209 ], [ 139.787783501807212, 39.962985874298738 ], [ 139.786009390321169, 39.960854586270216 ], [ 139.793680778245403, 39.957697532415239 ], [ 139.818346446231544, 39.960146747874148 ], [ 139.849624695223611, 39.973498279022408 ], [ 139.885199467881193, 39.999489946104177 ], [ 139.909973307222458, 40.024681332577472 ], [ 139.911991167358565, 40.027721532123053 ], [ 139.908359169839855, 40.029646387071182 ], [ 139.914268858720902, 40.030343135027692 ], [ 139.908714527053803, 40.030382747465865 ], [ 139.914577613066399, 40.030385386976093 ], [ 139.923725965680887, 40.04104772127539 ], [ 139.949067367165298, 40.078864000173496 ], [ 139.976025472697415, 40.132700026784846 ], [ 139.992152970883012, 40.17578635985268 ], [ 139.992107859989801, 40.182246612791005 ], [ 139.983973554136242, 40.183529973229724 ], [ 139.988420078423928, 40.200208639816935 ], [ 139.978085745760609, 40.202367108055626 ], [ 139.994988560273896, 40.199250973353799 ], [ 139.997829728159445, 40.210036693738459 ], [ 139.993553476112083, 40.210709251730634 ], [ 139.994196030922126, 40.213629414266109 ], [ 139.999207612741202, 40.212552171245761 ], [ 139.998732633104623, 40.209973224085104 ], [ 140.002385642383501, 40.211936864994357 ], [ 140.002678520997051, 40.206310055164977 ], [ 140.005224747224361, 40.211366532039847 ], [ 140.002801362093237, 40.217370639843182 ], [ 140.025566886702563, 40.216744504855058 ], [ 139.997785305247703, 40.220324053912009 ], [ 139.983390583908431, 40.211100613302733 ], [ 140.000869585063356, 40.220235360073843 ], [ 140.005660026289206, 40.226746026308092 ], [ 140.019222672388537, 40.282995836888404 ], [ 140.026148948615173, 40.343281776033166 ], [ 140.024934423185186, 40.353720413866085 ], [ 140.014686030635858, 40.363637134646126 ], [ 140.012017250195981, 40.37355055941083 ], [ 139.983095331084769, 40.384648919212282 ], [ 139.978226354762569, 40.398482027423654 ], [ 139.971340271936015, 40.400715640314615 ], [ 139.973669416210669, 40.397405531739935 ], [ 139.956169299873409, 40.410804612742709 ], [ 139.947026523055683, 40.412679081374563 ], [ 139.944116471597908, 40.422818558829476 ], [ 139.936309778873238, 40.428203837736987 ], [ 139.959544476196697, 40.434862721237664 ], [ 139.969846719250768, 40.427450721173898 ], [ 139.981208417634434, 40.427377081087457 ], [ 139.995054501264235, 40.435046747709293 ], [ 140.019443216731133, 40.419841640079653 ], [ 140.017368469978919, 40.427043892161919 ], [ 140.026038975018764, 40.438946918565478 ], [ 140.020066978408408, 40.446828306281361 ], [ 140.022722243836597, 40.451268305987583 ], [ 140.036171673384047, 40.461617695100585 ], [ 140.048688079691146, 40.460100170986152 ], [ 140.053619727968112, 40.467790441076033 ], [ 140.068149170447896, 40.468859865390527 ], [ 140.093582309076396, 40.458924802038041 ], [ 140.099501218706337, 40.453073945905942 ], [ 140.099174306149393, 40.443969224799957 ], [ 140.111622411645044, 40.435415864550578 ], [ 140.136729921948358, 40.439616613116243 ], [ 140.151939364310238, 40.434979892108402 ], [ 140.185467108220564, 40.443305613263476 ], [ 140.194051582314728, 40.434779747987022 ], [ 140.209203217154823, 40.438638586002014 ], [ 140.220168833424964, 40.431145504861206 ], [ 140.245381283819256, 40.43809708081568 ], [ 140.250054305062235, 40.442993748163019 ], [ 140.266867108230485, 40.440742639861014 ], [ 140.291041284128028, 40.446583466753623 ], [ 140.306442723652822, 40.442530694436073 ], [ 140.310726640622079, 40.436287332794222 ], [ 140.317611633470165, 40.439683467817815 ], [ 140.33521608285605, 40.439383441392749 ], [ 140.333404772712129, 40.427322054269439 ], [ 140.3364078347538, 40.424202306091615 ], [ 140.332680363408144, 40.419684801912126 ], [ 140.336997665010244, 40.407859531791985 ], [ 140.333158248754216, 40.40320286472047 ], [ 140.333426109127686, 40.387955613061138 ], [ 140.338276472181519, 40.378458945823752 ], [ 140.350134278873952, 40.373537801628288 ], [ 140.356433774399193, 40.36655836018025 ], [ 140.350929999919572, 40.349646973329186 ], [ 140.335497639004871, 40.331719467679363 ], [ 140.333439169082453, 40.314979468227932 ], [ 140.325376939394346, 40.311728080886269 ], [ 140.322757302407695, 40.301905279904815 ], [ 140.327417690873745, 40.289479134954149 ], [ 140.323103943392312, 40.272321332963202 ], [ 140.311059273766546, 40.264479946192637 ], [ 140.307597418985779, 40.252478532158591 ], [ 140.287561556220908, 40.25357994535824 ], [ 140.273564188636442, 40.236619918674364 ], [ 140.282857367173847, 40.224435134673797 ], [ 140.27880630446748, 40.214941775142847 ], [ 140.273074668761069, 40.211389559180873 ], [ 140.286989415629137, 40.210173414071846 ], [ 140.299370855280813, 40.205243107583385 ], [ 140.299402554584276, 40.20119030558817 ], [ 140.285444812028572, 40.19545891899395 ], [ 140.273955083460351, 40.196615612620462 ], [ 140.271051284089594, 40.186782532388008 ], [ 140.254300751778374, 40.181810305801037 ], [ 140.253382827255791, 40.164006640394177 ], [ 140.258137081561131, 40.158511612720815 ], [ 140.248113113029831, 40.137717946126372 ], [ 140.25029069995594, 40.130690972810214 ], [ 140.247036278301721, 40.126310413794613 ], [ 140.247733332927055, 40.117600108358374 ], [ 140.242873384898871, 40.111648440922863 ], [ 140.253129662703827, 40.097099775434344 ], [ 140.246781971610744, 40.089222837563966 ], [ 140.25547980524891, 40.08567610746644 ], [ 140.251627366809544, 40.07898972179828 ], [ 140.251214383736851, 40.072407224913547 ], [ 140.254226886861375, 40.071348026790076 ], [ 140.249910246260924, 40.068623027031151 ], [ 140.25040252885367, 40.063547197645107 ], [ 140.240453384815964, 40.060584441418882 ], [ 140.242514863869928, 40.051887748121146 ], [ 140.236672114226735, 40.047500802120396 ], [ 140.241724967733148, 40.039844387008884 ], [ 140.239887524189953, 40.031815505081568 ], [ 140.24518894941059, 40.028059919130044 ], [ 140.241453722311462, 40.021728801642951 ], [ 140.243878755000651, 40.016928504746772 ], [ 140.23605211441361, 40.011748252380016 ], [ 140.234284475348318, 39.991423773788199 ], [ 140.250432632759839, 39.983605918678279 ], [ 140.252676354929918, 39.970127000360833 ], [ 140.247785888408089, 39.959130891677376 ], [ 140.261267393175672, 39.94972302709607 ], [ 140.266946394260799, 39.941759667075019 ], [ 140.266311971120672, 39.937126612603151 ], [ 140.275481803142725, 39.927909053560029 ], [ 140.292432995786157, 39.927477333112506 ], [ 140.295743087273763, 39.919707053937429 ], [ 140.29276452726117, 39.912047054128323 ], [ 140.300112697942723, 39.90121286478194 ], [ 140.296711971880086, 39.888559801993324 ], [ 140.303894864256677, 39.879608694086016 ], [ 140.298273838866635, 39.865888413019889 ], [ 140.305065577414553, 39.860547558822816 ], [ 140.306476003964463, 39.84740310826686 ], [ 140.296461607817037, 39.832946440725721 ], [ 140.306328637456772, 39.830194467600677 ], [ 140.309620636383329, 39.825626134638469 ], [ 140.308641802577199, 39.816738892086278 ], [ 140.313575188344316, 39.813171386750128 ], [ 140.314411634289513, 39.807327198191672 ], [ 140.310928105847438, 39.797181359831939 ], [ 140.320563748018571, 39.796478000059722 ], [ 140.340404358074693, 39.804581026593155 ], [ 140.349136031402736, 39.811477413851605 ], [ 140.347777612646723, 39.818996891893107 ], [ 140.372863165103013, 39.836027440713849 ], [ 140.400781920149598, 39.834852080758992 ], [ 140.404138145059392, 39.829017080573863 ], [ 140.430021335915967, 39.824580613404635 ], [ 140.432049728012657, 39.819636693878351 ], [ 140.458603385038259, 39.823961892427462 ], [ 140.460792632573998, 39.815177413606818 ], [ 140.470977249700354, 39.805356774595509 ], [ 140.474946251968049, 39.795727585959355 ], [ 140.483506004598553, 39.794410613359162 ], [ 140.490073114082975, 39.780735251630631 ], [ 140.506296057317286, 39.768971532010653 ], [ 140.509463696192711, 39.755958135159858 ], [ 140.51561352834176, 39.747792558979484 ], [ 140.508739416390995, 39.740574774706147 ], [ 140.510458339181127, 39.736233918960238 ], [ 140.507104226778665, 39.729376386910758 ], [ 140.483261776609766, 39.717543108327845 ], [ 140.444703450004226, 39.704498747819002 ], [ 140.414604642989957, 39.71473222511213 ], [ 140.406987470695299, 39.706857504969946 ], [ 140.395406614723584, 39.706013359928647 ], [ 140.394971361739067, 39.70122253199429 ], [ 140.382944942055474, 39.69628394634708 ], [ 140.347707275770176, 39.691290171104583 ], [ 140.342151750702783, 39.683650441114992 ], [ 140.341791803349111, 39.675031252290523 ], [ 140.334362282693291, 39.680408531728403 ], [ 140.325255253027535, 39.680643000274301 ], [ 140.306679973801806, 39.668243612852507 ], [ 140.309047108137634, 39.647600505359094 ], [ 140.29528505895837, 39.648805251561157 ], [ 140.29220194556342, 39.655438891991309 ], [ 140.265879026695757, 39.652364838366623 ], [ 140.271332502992664, 39.638288946477758 ], [ 140.284490053073569, 39.640480559230468 ], [ 140.284181855408406, 39.625149694003255 ], [ 140.276052917608126, 39.624144721401819 ], [ 140.276925499212439, 39.615723027295928 ], [ 140.267556588765615, 39.609852467017788 ], [ 140.266280557801565, 39.598056360112992 ], [ 140.254633644826868, 39.58841194595459 ], [ 140.25617596594816, 39.578007198173736 ], [ 140.243487030102415, 39.573151946405233 ], [ 140.239558494628909, 39.562706414369586 ], [ 140.232821828764486, 39.559907278098478 ], [ 140.235280246086518, 39.551695305893702 ], [ 140.227314422822474, 39.54793033281868 ], [ 140.228258339550848, 39.54346863876674 ], [ 140.245514059726133, 39.541060224649698 ], [ 140.250901582442111, 39.514964027567885 ], [ 140.263118080135314, 39.512083133929536 ], [ 140.270479052666246, 39.503846972659687 ], [ 140.26901800417761, 39.496718919142836 ], [ 140.275386161142478, 39.491860559317388 ], [ 140.26548477290396, 39.483923332695724 ], [ 140.280920052118745, 39.468944080804761 ], [ 140.283793799744103, 39.45884155919066 ], [ 140.27952933870813, 39.458539054233995 ], [ 140.281806057004019, 39.455463505036789 ], [ 140.278901335828095, 39.450997108429874 ], [ 140.268973217040411, 39.449571027381069 ], [ 140.270468106118301, 39.432551837897051 ], [ 140.278204890043753, 39.424323441373758 ], [ 140.306510699808996, 39.416563053841912 ], [ 140.302225745921533, 39.403816693585611 ], [ 140.285186252443623, 39.396770080874603 ], [ 140.302691946376285, 39.390054999638551 ], [ 140.315843670648974, 39.390414134904461 ], [ 140.320192335208162, 39.382589667079515 ], [ 140.300946445921795, 39.378240306445036 ], [ 140.300616719386198, 39.374234467946394 ], [ 140.299608366233201, 39.37791335971383 ], [ 140.294074163192136, 39.37852836019573 ], [ 140.294338948783547, 39.372434197879954 ], [ 140.292131673438007, 39.376735052680601 ], [ 140.286410558000966, 39.37287172075338 ], [ 140.262165109032594, 39.379754027326555 ], [ 140.267978585743208, 39.365789278152704 ], [ 140.272912776403587, 39.36281677507418 ], [ 140.268860584148683, 39.355963171263397 ], [ 140.298343502150942, 39.35473446802132 ], [ 140.301769921844539, 39.346685279402152 ], [ 140.320106083029373, 39.348662440719124 ], [ 140.319331634547325, 39.345543558588417 ], [ 140.329727524006103, 39.339417135792246 ], [ 140.327530052170232, 39.325772720634575 ], [ 140.342102581169229, 39.326781559421477 ], [ 140.340563968852166, 39.312448224905722 ], [ 140.352457081129501, 39.305414279145737 ], [ 140.355932412251036, 39.297598999694117 ], [ 140.34246933908878, 39.295572667045008 ], [ 140.339104085884969, 39.290893775027769 ], [ 140.33952389121464, 39.280384332670849 ], [ 140.33048364520414, 39.27355019828309 ], [ 140.329737612600752, 39.261589081071293 ], [ 140.340555187871701, 39.258941800723562 ], [ 140.347827275908116, 39.246774000419862 ], [ 140.341183917403896, 39.24449125216961 ], [ 140.3352630211715, 39.249175171397098 ], [ 140.326726057361725, 39.245786026803728 ], [ 140.31036263282931, 39.248251359912388 ], [ 140.299963164968176, 39.243964198189246 ], [ 140.286676134995673, 39.243963946379097 ], [ 140.281910273140625, 39.240300360173535 ], [ 140.262541530167596, 39.237874027064777 ], [ 140.248398145058445, 39.224557413893592 ], [ 140.232909079190676, 39.225504414397278 ], [ 140.226520921303518, 39.22950861343179 ], [ 140.220540751654426, 39.221050838525457 ], [ 140.227029442055141, 39.215831667097802 ], [ 140.230047664867925, 39.203679972752582 ], [ 140.236763646325244, 39.195181332652453 ], [ 140.248701193205534, 39.197016865136277 ], [ 140.257325525252895, 39.190139333063826 ], [ 140.257109493708185, 39.182106278282163 ], [ 140.263654889061968, 39.175060135017247 ], [ 140.27374780861453, 39.171488721227547 ], [ 140.279682113738659, 39.16339702705119 ], [ 140.281635305425084, 39.151002837710848 ], [ 140.292230195067532, 39.145371694048492 ], [ 140.303129301975787, 39.133469693771417 ], [ 140.303937782602702, 39.122354135335115 ], [ 140.312678468936269, 39.116308000413937 ], [ 140.316976162619881, 39.101482171065413 ], [ 140.330609856959427, 39.100420170654388 ], [ 140.341601752319093, 39.088214586234244 ], [ 140.343359416104249, 39.073972360236269 ], [ 140.331484188644481, 39.059099639336921 ], [ 140.342724162889908, 39.04561653197743 ], [ 140.318795746526575, 39.031261666792545 ], [ 140.318735837289069, 39.025124999818956 ], [ 140.310722528921588, 39.013589225062731 ], [ 140.293907588064826, 39.018218198411205 ], [ 140.286634916368371, 39.028092640263196 ], [ 140.266210220025641, 39.031287748031218 ], [ 140.260564864377102, 39.035235000195144 ], [ 140.25287649905124, 39.028225026763607 ], [ 140.245440830629946, 39.030900892062562 ], [ 140.231581829138122, 39.026958468358657 ], [ 140.201550143024747, 39.035026639867567 ], [ 140.204765837173682, 39.053496306309569 ], [ 140.198107134436782, 39.061256585922763 ], [ 140.17514616106655, 39.057433333181848 ], [ 140.171156719007399, 39.051031693557889 ], [ 140.162195811187757, 39.054190332917585 ], [ 140.151863839244811, 39.048395946116045 ], [ 140.137795525043543, 39.065567891744877 ], [ 140.127627134384852, 39.063050999604002 ], [ 140.116862826857982, 39.068231027140257 ], [ 140.114495811232814, 39.0783632245832 ], [ 140.096221971267028, 39.084889387035616 ], [ 140.075795940330408, 39.086181666950438 ], [ 140.062730777603406, 39.092546694274574 ], [ 140.0672179773278, 39.099313053954347 ], [ 140.061638147182862, 39.111070865028466 ], [ 140.062439195812317, 39.133498640250082 ], [ 140.007766394103896, 39.123040279385464 ], [ 139.997640830959654, 39.115839225200148 ], [ 139.994446718741187, 39.105515640334602 ], [ 139.948052243915981, 39.117166693787965 ], [ 139.945653942675335, 39.112830892231955 ], [ 139.906039533197941, 39.118828306381261 ], [ 139.869589856886478, 39.11825817127766 ], [ 139.877984332111282, 39.121078973116141 ], [ 139.877117497174822, 39.125142306172563 ], [ 139.885070998827587, 39.133116693680506 ], [ 139.881428444167454, 39.139115613294962 ], [ 139.88329953314701, 39.14523446829611 ], [ 139.894931996714377, 39.156051027333092 ], [ 139.90491936373769, 39.181374775125846 ], [ 139.905020998820078, 39.197346332667166 ], [ 139.897300972861672, 39.203119667238923 ], [ 139.894155914164116, 39.203591802319863 ], [ 139.896257664859377, 39.20049058557214 ], [ 139.892837081765947, 39.202455053857705 ], [ 139.892075913572626, 39.212887945922034 ], [ 139.894772501949433, 39.211274081034048 ], [ 139.892584838119888, 39.212930612457853 ], [ 139.902973307272418, 39.224110306045816 ], [ 139.914966978143639, 39.24914141444475 ], [ 139.909838949408027, 39.259056666631921 ], [ 139.907622581017336, 39.254319414009785 ], [ 139.915728144538321, 39.275572440815552 ], [ 139.928475188279435, 39.288330081268271 ], [ 139.949974137396566, 39.290033586081165 ], [ 139.956229027447762, 39.291775053975641 ], [ 139.95780389143647, 39.295839054328951 ], [ 139.958023267559838, 39.292532532250618 ], [ 139.96134230910036, 39.293320865365672 ], [ 139.958684280055536, 39.296872585801225 ], [ 139.961190920824379, 39.294012251564197 ], [ 139.968076938899685, 39.296949865443992 ], [ 139.984887366958446, 39.32045813473519 ], [ 139.993560441361296, 39.341894892135599 ], [ 139.993841946248835, 39.337925360167276 ], [ 139.996760506192459, 39.342154333056101 ], [ 139.993816550293673, 39.342877108291987 ], [ 139.99683581092404, 39.342238748819227 ], [ 140.013630505343599, 39.382140306430074 ], [ 140.014089831380716, 39.389568441230608 ], [ 140.01060610868501, 39.389210332990501 ], [ 140.013919973727866, 39.391487000025109 ], [ 140.00921508410886, 39.391889666974578 ], [ 140.015067107560981, 39.391710720773176 ], [ 140.01602133591598, 39.394398000267529 ], [ 140.009805161678969, 39.393003999834775 ], [ 140.010638885376352, 39.395328802182519 ], [ 140.016229663867989, 39.396093467839307 ], [ 140.021518754886642, 39.405633441030545 ], [ 140.045032088260314, 39.498699000558474 ], [ 140.042593332816068, 39.506212468430704 ], [ 140.044959170329548, 39.502154667104264 ], [ 140.045452140903649, 39.506983693742541 ], [ 140.042634967829599, 39.507491531908727 ], [ 140.046364719856001, 39.508830278894322 ], [ 140.05134094662742, 39.5374509727842 ], [ 140.049021114832613, 39.539845468093915 ], [ 140.056132723346536, 39.566216224599145 ], [ 140.063018807072353, 39.653558611940468 ], [ 140.058206938599369, 39.7278054313756 ], [ 140.054040804039914, 39.738869667301344 ], [ 140.048528003964293, 39.740666531635156 ], [ 140.048247134897451, 39.755398666914971 ], [ 140.038675642267094, 39.759592945757902 ], [ 140.049323942645856, 39.75924177398872 ], [ 140.04952160823575, 39.773512558857533 ], [ 140.042843606047654, 39.772839026899646 ], [ 140.046081920844017, 39.763496668036851 ], [ 140.043041193396448, 39.761998802203038 ], [ 140.037213773596818, 39.76767566739818 ], [ 140.040823606424397, 39.768434640346413 ], [ 140.039673773725781, 39.771961892027775 ], [ 140.027743165114998, 39.76912424318931 ], [ 140.036627367059396, 39.771418170911886 ], [ 140.033386978426392, 39.781026774965767 ], [ 140.042335421642406, 39.782849892308718 ], [ 140.040610505770246, 39.786703387451439 ], [ 140.034547224374933, 39.785492361283502 ], [ 140.033145344082413, 39.789685369384358 ], [ 140.038454305621826, 39.78859789207911 ], [ 140.034029585397093, 39.791044225210896 ], [ 140.037699728559687, 39.794169918806745 ], [ 140.032220946239704, 39.809075532409963 ], [ 140.007129637222988, 39.845897504666141 ], [ 139.965921919560969, 39.881401837924557 ], [ 139.950042244853762, 39.88992353214536 ], [ 139.945861945972069, 39.887510277877084 ], [ 139.948920025838561, 39.889959135405832 ], [ 139.942883087384644, 39.888929559151904 ], [ 139.943045965399051, 39.892436108439711 ], [ 139.92604732812174, 39.899169559227801 ], [ 139.897780752179983, 39.902312026978507 ], [ 139.89164927429465, 39.898952801930307 ], [ 139.85851455390366, 39.896009414403011 ], [ 139.863733371897638, 39.890488604065865 ], [ 139.863726025335836, 39.890479440873548 ] ] ] ] } },
{ "type": "Feature", "properties": { "code": "050020", "name": "内陸", "PrefCode": "05", "regioncode": "050020" }, "geometry": { "type": "Polygon", "coordinates": [ [ [ 140.880061505034519, 40.510246171323786 ], [ 140.861322606752992, 40.440629306397398 ], [ 140.892325914109733, 40.423351586106889 ], [ 140.911499468225998, 40.423305747662198 ], [ 140.920029416424541, 40.427305198276315 ], [ 140.926247249910716, 40.421320441185458 ], [ 140.93296169892335, 40.421273748384806 ], [ 140.941954915786823, 40.430201278766049 ], [ 140.951263838755267, 40.426307639685888 ], [ 140.972207393556459, 40.430850108146046 ], [ 140.984392969859755, 40.428096749165718 ], [ 140.985550803826641, 40.421713667052131 ], [ 140.978759195680368, 40.415979748866391 ], [ 140.982737834183808, 40.413510865234286 ], [ 140.981403748384309, 40.405646359591856 ], [ 140.98768077794557, 40.397093531741177 ], [ 140.98440919632742, 40.388426559238383 ], [ 140.994102607349532, 40.376405080430175 ], [ 140.991182775764514, 40.361063613095325 ], [ 140.995432282873594, 40.353365224825325 ], [ 140.980899053348708, 40.343268252028281 ], [ 140.971859339736852, 40.343708559202696 ], [ 140.968354279726327, 40.350866386574523 ], [ 140.962081283624457, 40.34713389161584 ], [ 140.968170777559408, 40.338721865221942 ], [ 140.967416938840756, 40.333662107620228 ], [ 140.962577613166332, 40.323161775395647 ], [ 140.957339830269007, 40.324516252423166 ], [ 140.956895550789113, 40.304718054394755 ], [ 140.943973722009673, 40.296259414340568 ], [ 140.944597977414787, 40.288137693599708 ], [ 140.952392698364406, 40.287418774656771 ], [ 140.957513554107322, 40.2824256658119 ], [ 140.945710466664764, 40.258074918822501 ], [ 140.955073891247139, 40.247628134930551 ], [ 140.944494475339866, 40.246164278758499 ], [ 140.940165642630404, 40.240475946307924 ], [ 140.941731855141029, 40.227678359768561 ], [ 140.905159442054696, 40.22191933341054 ], [ 140.895787302142367, 40.213646252272781 ], [ 140.899108716094474, 40.212387053919429 ], [ 140.898685693889774, 40.208054251602505 ], [ 140.889525227407375, 40.20053563960812 ], [ 140.892693645095733, 40.192458080975712 ], [ 140.859189974238006, 40.171425891691626 ], [ 140.868791504224646, 40.159516305633076 ], [ 140.883606834887587, 40.157317054038856 ], [ 140.882371025202701, 40.150846198093632 ], [ 140.866988949880238, 40.132367837006143 ], [ 140.874036782971189, 40.122385838036053 ], [ 140.871203217054926, 40.115951640256071 ], [ 140.881026834620798, 40.113726304725219 ], [ 140.875335862659995, 40.094565693651873 ], [ 140.862826550205227, 40.084705945822805 ], [ 140.854919882546596, 40.085162919233369 ], [ 140.851324695178619, 40.077854837630696 ], [ 140.844477808404235, 40.074590946115336 ], [ 140.855441387709902, 40.046343306298581 ], [ 140.855222580857458, 40.037137441140032 ], [ 140.850400700232171, 40.031425774879665 ], [ 140.855861919691961, 40.015705468132921 ], [ 140.848998638276612, 40.00806827872816 ], [ 140.850807327796019, 39.993753532299706 ], [ 140.845312723703273, 39.974959108076405 ], [ 140.848064188711419, 39.958358802117061 ], [ 140.857353450701225, 39.952863170998569 ], [ 140.852223385001253, 39.936129504573046 ], [ 140.857571245816416, 39.930081946025041 ], [ 140.854694942317792, 39.923289134585957 ], [ 140.868054254400363, 39.911660920315285 ], [ 140.867014642611707, 39.900831134948987 ], [ 140.878700894630697, 39.886220107771805 ], [ 140.878141283393575, 39.874595586117437 ], [ 140.85847372178489, 39.870325468345754 ], [ 140.852924422723959, 39.865787440737847 ], [ 140.843172750022404, 39.871212000233697 ], [ 140.844241025003384, 39.873574225170387 ], [ 140.832486938921193, 39.875144613233374 ], [ 140.834031803325161, 39.881213532478569 ], [ 140.825817366977958, 39.886238053743227 ], [ 140.815650336993485, 39.879351441216102 ], [ 140.799227367449134, 39.881636278591429 ], [ 140.78223635462416, 39.867848586143396 ], [ 140.783085668069134, 39.86064886385401 ], [ 140.787651219428312, 39.85895105444763 ], [ 140.78388603141525, 39.856314413979078 ], [ 140.789095863383409, 39.850183532344204 ], [ 140.783018495007582, 39.831239414167669 ], [ 140.788287470890168, 39.82649605424956 ], [ 140.786648949289656, 39.82339938717206 ], [ 140.804002087626259, 39.815105693572946 ], [ 140.81134503234739, 39.818327306160313 ], [ 140.821319441938726, 39.815423027450834 ], [ 140.825033995422586, 39.809740504620663 ], [ 140.841647301981425, 39.804920892085534 ], [ 140.848270557939941, 39.793251387241753 ], [ 140.822207613290743, 39.774542838381365 ], [ 140.816126808605418, 39.762885693819783 ], [ 140.805330362906034, 39.756645279256304 ], [ 140.803727301573758, 39.744752134603402 ], [ 140.774822476775967, 39.73455272093139 ], [ 140.783997523966605, 39.72907791901082 ], [ 140.794460583788918, 39.709595999955468 ], [ 140.809903606166586, 39.708022531714505 ], [ 140.811350271797664, 39.695537973099022 ], [ 140.822575811024876, 39.688174748665745 ], [ 140.818409169247843, 39.680099441036418 ], [ 140.82256780795808, 39.66912597278548 ], [ 140.822304136626713, 39.649953360259417 ], [ 140.815346977680974, 39.646117026879324 ], [ 140.807105253204895, 39.632196748281387 ], [ 140.808388145096842, 39.624263108155958 ], [ 140.802571803146293, 39.61884841422301 ], [ 140.804872192497783, 39.612009197766326 ], [ 140.797540920976758, 39.604089224638074 ], [ 140.782195862649019, 39.60396880181878 ], [ 140.778753139146147, 39.598367135235151 ], [ 140.780661854860796, 39.590326000044911 ], [ 140.763863501999026, 39.587567225347243 ], [ 140.754296719118315, 39.570719505101124 ], [ 140.729619415703496, 39.565127999957269 ], [ 140.727479195608453, 39.55595410839544 ], [ 140.739708196576089, 39.546597640069081 ], [ 140.741359364443156, 39.536185667134873 ], [ 140.737838858576538, 39.522397640139047 ], [ 140.724681026108556, 39.518594107731928 ], [ 140.721129390209285, 39.51405689221184 ], [ 140.723966394233798, 39.504418838058996 ], [ 140.719779143592632, 39.504801891694001 ], [ 140.713574720796828, 39.49885358592428 ], [ 140.713271413644861, 39.494056639902055 ], [ 140.724404552927808, 39.480534359872877 ], [ 140.689526939216989, 39.464809441402679 ], [ 140.681900921190618, 39.457223332590786 ], [ 140.676795472632989, 39.447791666552234 ], [ 140.685595059164712, 39.437262973307611 ], [ 140.685124968242803, 39.424665413977721 ], [ 140.679670077312267, 39.417067613079951 ], [ 140.658380895961614, 39.415094919594935 ], [ 140.657549830660173, 39.411157666992779 ], [ 140.663709663270424, 39.403669837892778 ], [ 140.653124811860607, 39.390998440625594 ], [ 140.665650804041434, 39.384203054427473 ], [ 140.675112191774247, 39.385865774985575 ], [ 140.678972802352973, 39.383181865250947 ], [ 140.67563968912043, 39.368341531636418 ], [ 140.692730506008161, 39.358596638923814 ], [ 140.68845289238709, 39.347524667029802 ], [ 140.703236109159207, 39.343585640065271 ], [ 140.708201829151108, 39.334459441350191 ], [ 140.709349688737234, 39.329969414157176 ], [ 140.698586589000001, 39.328429746935342 ], [ 140.694044161908664, 39.319764198059318 ], [ 140.692638974808915, 39.313628891760004 ], [ 140.697225447096798, 39.3102857753683 ], [ 140.69358588807836, 39.299592972937376 ], [ 140.70401980536974, 39.301869864802484 ], [ 140.710797172751427, 39.295802558940977 ], [ 140.717327471185968, 39.296508080683452 ], [ 140.717828716422218, 39.272608838327301 ], [ 140.743711088895679, 39.261753639918595 ], [ 140.751349442023184, 39.262807226272514 ], [ 140.757230195217403, 39.254791053564304 ], [ 140.768920335904795, 39.252462667418229 ], [ 140.777169467197268, 39.241572891875535 ], [ 140.788662386559963, 39.238428666849529 ], [ 140.787624253256695, 39.226785054386824 ], [ 140.77022697709333, 39.223407639650929 ], [ 140.763050415044631, 39.213226865327613 ], [ 140.767610896026099, 39.204774053779602 ], [ 140.76470267199079, 39.198037414894827 ], [ 140.788518807097375, 39.188601504955557 ], [ 140.79739272439474, 39.189956197820322 ], [ 140.807857690779883, 39.178383108393803 ], [ 140.788530466807629, 39.172674559183633 ], [ 140.78374280178889, 39.16541263978155 ], [ 140.774131051007316, 39.167853225346107 ], [ 140.759190895343636, 39.143714360429442 ], [ 140.749726162132788, 39.140410802516556 ], [ 140.751262970409812, 39.133070802175837 ], [ 140.758112438238527, 39.133659639580742 ], [ 140.769980750811101, 39.124164865416276 ], [ 140.766605525924319, 39.120217946001446 ], [ 140.755955472766914, 39.11830189181893 ], [ 140.755931414103543, 39.112187413818162 ], [ 140.763246808993131, 39.108858225226982 ], [ 140.752468197749181, 39.087579386979201 ], [ 140.770467418936278, 39.078879838333933 ], [ 140.77834547286534, 39.082093386700478 ], [ 140.802386913325449, 39.077894891835854 ], [ 140.803904384379848, 39.067180413944982 ], [ 140.799531672848502, 39.060973506322284 ], [ 140.810233527855075, 39.057238135331716 ], [ 140.793558910915067, 39.041861305754708 ], [ 140.795286939340826, 39.029429054407387 ], [ 140.780112022851654, 39.014722467967601 ], [ 140.778688248563867, 39.008144721301903 ], [ 140.764032892004479, 39.000192054219951 ], [ 140.767902217913047, 38.994710639584412 ], [ 140.76457345020458, 38.985387613447642 ], [ 140.774956912831271, 38.970417252254435 ], [ 140.772177224399456, 38.966635864753414 ], [ 140.77359016905109, 38.958084467724063 ], [ 140.745251141027438, 38.95637191932866 ], [ 140.732092140340114, 38.949266467573466 ], [ 140.722449195673903, 38.932949081135234 ], [ 140.711816056965517, 38.926876972894036 ], [ 140.71159027227327, 38.923238081172542 ], [ 140.707059415859362, 38.92026672113235 ], [ 140.700392580553171, 38.923817359683483 ], [ 140.685648003152892, 38.917604747661017 ], [ 140.671114720567971, 38.897130800845844 ], [ 140.653340659943524, 38.891604386833023 ], [ 140.654076523912522, 38.889013000249804 ], [ 140.645014474738332, 38.888634505278276 ], [ 140.637971673354059, 38.883059332722098 ], [ 140.630004253793345, 38.889279413614076 ], [ 140.613589532830702, 38.893912360167349 ], [ 140.607144526998354, 38.886602747918516 ], [ 140.597823021615227, 38.885057306149804 ], [ 140.590327056348656, 38.889175171397085 ], [ 140.585621283595401, 38.880054170763401 ], [ 140.579912309005977, 38.881345054031044 ], [ 140.561985771925947, 38.87301335957892 ], [ 140.554264253092924, 38.876210891919186 ], [ 140.553055524692809, 38.882814747702469 ], [ 140.53795224370117, 38.900368612921227 ], [ 140.525995965741345, 38.897452000009821 ], [ 140.515821894964574, 38.900355640200701 ], [ 140.500335863409418, 38.894785693604945 ], [ 140.482440854761649, 38.916549774552493 ], [ 140.471626834510857, 38.914855639776022 ], [ 140.462122192085531, 38.919431467688128 ], [ 140.458308339957966, 38.933884504666196 ], [ 140.451501529671873, 38.937684224847146 ], [ 140.449582503229976, 38.945595026689205 ], [ 140.453722750804332, 38.952520559176492 ], [ 140.449834747775412, 38.963324748038758 ], [ 140.451086614855512, 38.972146386846305 ], [ 140.446340414878364, 38.973202531771449 ], [ 140.446300052405604, 38.979591972991216 ], [ 140.437867393765259, 38.98194505272204 ], [ 140.43200997438089, 38.991807279082707 ], [ 140.413569754440687, 38.989997333210397 ], [ 140.410610778065006, 38.994053171316864 ], [ 140.394675331001736, 38.991222973361573 ], [ 140.376225109701068, 38.994458332985744 ], [ 140.36403367071739, 39.009495333043219 ], [ 140.362209558724203, 39.025955333072204 ], [ 140.354165641930877, 39.023848440952861 ], [ 140.331493941792019, 39.030943278909263 ], [ 140.330199143775531, 39.037929946409974 ], [ 140.342724162889908, 39.04561653197743 ], [ 140.331484188644481, 39.059099639336921 ], [ 140.343359416104249, 39.073972360236269 ], [ 140.341045887657629, 39.08921735909388 ], [ 140.330609856959427, 39.100420170654388 ], [ 140.316976160821241, 39.101482171065413 ], [ 140.312678468936269, 39.116308000413937 ], [ 140.303937781703326, 39.122354135335115 ], [ 140.303129300177147, 39.133469693771417 ], [ 140.292230195067532, 39.145371694048492 ], [ 140.281635305425084, 39.151002837710848 ], [ 140.279682113738659, 39.16339702705119 ], [ 140.273747807715267, 39.171488721227547 ], [ 140.263654889061968, 39.175060135017247 ], [ 140.257109493708185, 39.182106278282163 ], [ 140.257325525252895, 39.190139333063826 ], [ 140.248701193205534, 39.197016865136277 ], [ 140.236763645425981, 39.195181332652453 ], [ 140.230047664867925, 39.203679972752582 ], [ 140.227029442055141, 39.215831667097802 ], [ 140.220527419205041, 39.220860279378428 ], [ 140.226520921303518, 39.22950861343179 ], [ 140.232909079190676, 39.225504414397278 ], [ 140.248398145058445, 39.224557413893592 ], [ 140.262541530167596, 39.237874027064777 ], [ 140.281910273140625, 39.240300360173535 ], [ 140.286676134995673, 39.243963946379097 ], [ 140.299963164968176, 39.243964198189246 ], [ 140.31036263282931, 39.248251359912388 ], [ 140.326726057361725, 39.245786026803728 ], [ 140.3352630211715, 39.249175171397098 ], [ 140.341183917403896, 39.24449125216961 ], [ 140.347827275908116, 39.246774000419862 ], [ 140.340555187871701, 39.258941800723562 ], [ 140.329737612600752, 39.261589081071293 ], [ 140.33048364520414, 39.27355019828309 ], [ 140.33952389121464, 39.280384332670849 ], [ 140.339104085884969, 39.290893775027769 ], [ 140.34246933908878, 39.295572667045008 ], [ 140.355932412251036, 39.297598999694117 ], [ 140.352457081129501, 39.305414279145737 ], [ 140.340563968852166, 39.312448224905722 ], [ 140.342102581169229, 39.326781559421477 ], [ 140.327530052170232, 39.325772720634575 ], [ 140.329727523106726, 39.339417135792246 ], [ 140.319331634547325, 39.345543558588417 ], [ 140.320106083029373, 39.348662440719124 ], [ 140.301935746037884, 39.346663333246283 ], [ 140.298343502150942, 39.35473446802132 ], [ 140.292114305730706, 39.353227278915824 ], [ 140.281015084378737, 39.357712585567413 ], [ 140.277147587691047, 39.353588972752959 ], [ 140.269366420424035, 39.35523122474126 ], [ 140.272912776403587, 39.36281677507418 ], [ 140.261903165298918, 39.377986801949419 ], [ 140.286410558000966, 39.37287172075338 ], [ 140.292131673438007, 39.376735052680601 ], [ 140.294338948783547, 39.372434197879954 ], [ 140.294074163192136, 39.37852836019573 ], [ 140.299608366233201, 39.37791335971383 ], [ 140.300616719386198, 39.374234467946394 ], [ 140.300946445921795, 39.378240306445036 ], [ 140.320192335208162, 39.382589667079515 ], [ 140.315843670648974, 39.390414134904461 ], [ 140.302691946376285, 39.390054999638551 ], [ 140.285186252443623, 39.396770080874603 ], [ 140.302225745921533, 39.403816693585611 ], [ 140.306510699808996, 39.416563053841912 ], [ 140.278204890043753, 39.424323441373758 ], [ 140.270468106118301, 39.432551837897051 ], [ 140.268973217040411, 39.449571027381069 ], [ 140.278901335828095, 39.450997108429874 ], [ 140.281806057004019, 39.455463505036789 ], [ 140.27952933870813, 39.458539054233995 ], [ 140.283793799744103, 39.45884155919066 ], [ 140.280920052118745, 39.468944080804761 ], [ 140.26548477290396, 39.483923332695724 ], [ 140.275386161142478, 39.491860559317388 ], [ 140.26901800417761, 39.496718919142836 ], [ 140.270479052666246, 39.503846972659687 ], [ 140.263118080135314, 39.512083133929536 ], [ 140.250901582442111, 39.514964027567885 ], [ 140.245264033808212, 39.541345504891183 ], [ 140.228258339550848, 39.54346863876674 ], [ 140.22757080424924, 39.546218108179175 ], [ 140.235280246086518, 39.551695305893702 ], [ 140.232821828764486, 39.559907278098478 ], [ 140.239558494628909, 39.562706414369586 ], [ 140.241082892261716, 39.570562252346122 ], [ 140.25617596594816, 39.578007198173736 ], [ 140.254633644826868, 39.58841194595459 ], [ 140.266280557801565, 39.598056360112992 ], [ 140.267556588765615, 39.609852467017788 ], [ 140.276925499212439, 39.615723027295928 ], [ 140.276052917608126, 39.624144721401819 ], [ 140.284181855408406, 39.625149694003255 ], [ 140.284490053073569, 39.640480559230468 ], [ 140.271332502992664, 39.638288946477758 ], [ 140.265250700059823, 39.65164622519319 ], [ 140.29220194556342, 39.655438891991309 ], [ 140.29528505895837, 39.648805251561157 ], [ 140.309047108137634, 39.647600505359094 ], [ 140.306679973801806, 39.668243612852507 ], [ 140.325255253027535, 39.680643000274301 ], [ 140.334362282693291, 39.680408531728403 ], [ 140.341791803349111, 39.675031252290523 ], [ 140.342151750702783, 39.683650441114992 ], [ 140.347707275770176, 39.691290171104583 ], [ 140.382944942055474, 39.69628394634708 ], [ 140.394971361739067, 39.70122253199429 ], [ 140.395406614723584, 39.706013359928647 ], [ 140.406987470695299, 39.706857504969946 ], [ 140.414604642989957, 39.71473222511213 ], [ 140.444703450004226, 39.704498747819002 ], [ 140.483261776609766, 39.717543108327845 ], [ 140.507104226778665, 39.729376386910758 ], [ 140.510458339181127, 39.736233918960238 ], [ 140.508739416390995, 39.740574774706147 ], [ 140.51561352834176, 39.747792558979484 ], [ 140.509463696192711, 39.755958135159858 ], [ 140.506296057317286, 39.768971532010653 ], [ 140.490073114082975, 39.780735251630631 ], [ 140.483506004598553, 39.794410613359162 ], [ 140.474946251968049, 39.795727585959355 ], [ 140.470977249700354, 39.805356774595509 ], [ 140.460792632573998, 39.815177413606818 ], [ 140.458603385038259, 39.823961892427462 ], [ 140.432049728012657, 39.819636693878351 ], [ 140.430021335915967, 39.824580613404635 ], [ 140.404138145059392, 39.829017080573863 ], [ 140.400781920149598, 39.834852080758992 ], [ 140.372863165103013, 39.836027440713849 ], [ 140.347777612646723, 39.818996891893107 ], [ 140.349136031402736, 39.811477413851605 ], [ 140.340404358074693, 39.804581026593155 ], [ 140.320563748018571, 39.796478000059722 ], [ 140.310928105847438, 39.797181359831939 ], [ 140.314411634289513, 39.807327198191672 ], [ 140.313575188344316, 39.813171386750128 ], [ 140.308641802577199, 39.816738892086278 ], [ 140.309620636383329, 39.825626134638469 ], [ 140.306328637456772, 39.830194467600677 ], [ 140.296461607817037, 39.832946440725721 ], [ 140.306476003964463, 39.84740310826686 ], [ 140.305065577414553, 39.860547558822816 ], [ 140.298273838866635, 39.865888413019889 ], [ 140.303894864256677, 39.879608694086016 ], [ 140.296711971880086, 39.888559801993324 ], [ 140.300112697942723, 39.90121286478194 ], [ 140.29276452726117, 39.912047054128323 ], [ 140.295743087273763, 39.919707053937429 ], [ 140.292432995786157, 39.927477333112506 ], [ 140.275481803142725, 39.927909053560029 ], [ 140.266311971120672, 39.937126612603151 ], [ 140.266946394260799, 39.941759667075019 ], [ 140.261267393175672, 39.94972302709607 ], [ 140.247785888408089, 39.959130891677376 ], [ 140.252676354929918, 39.970127000360833 ], [ 140.250432632759839, 39.983605918678279 ], [ 140.234284475348318, 39.991423773788199 ], [ 140.23605211441361, 40.011748252380016 ], [ 140.243878755000651, 40.016928504746772 ], [ 140.241453722311462, 40.021728801642951 ], [ 140.24518894941059, 40.028059919130044 ], [ 140.239887524189953, 40.031815505081568 ], [ 140.241724967733148, 40.039844387008884 ], [ 140.236672114226735, 40.047500802120396 ], [ 140.242514863869928, 40.051887748121146 ], [ 140.240453384815964, 40.060584441418882 ], [ 140.25040252885367, 40.063547197645107 ], [ 140.249910246260924, 40.068623027031151 ], [ 140.254226886861375, 40.071348026790076 ], [ 140.251214383736851, 40.072407224913547 ], [ 140.251627366809544, 40.07898972179828 ], [ 140.25547980524891, 40.08567610746644 ], [ 140.246781971610744, 40.089222837563966 ], [ 140.253129662703827, 40.097099775434344 ], [ 140.242873384898871, 40.111648440922863 ], [ 140.247733332927055, 40.117600108358374 ], [ 140.247036278301721, 40.126310413794613 ], [ 140.25029069995594, 40.130690972810214 ], [ 140.248113113029831, 40.137717946126372 ], [ 140.258137081561131, 40.158511612720815 ], [ 140.253382827255791, 40.164006640394177 ], [ 140.254264086418516, 40.181681135276222 ], [ 140.271051284089594, 40.186782532388008 ], [ 140.273955083460351, 40.196615612620462 ], [ 140.285444812028572, 40.19545891899395 ], [ 140.299402554584276, 40.20119030558817 ], [ 140.299370855280813, 40.205243107583385 ], [ 140.286989415629137, 40.210173414071846 ], [ 140.273074668761069, 40.211389559180873 ], [ 140.27880630446748, 40.214941775142847 ], [ 140.282857367173847, 40.224435134673797 ], [ 140.273498080372178, 40.236417135042814 ], [ 140.287561556220908, 40.25357994535824 ], [ 140.307793527849071, 40.252621027038799 ], [ 140.311059273766546, 40.264479946192637 ], [ 140.323103943392312, 40.272321332963202 ], [ 140.322343061183346, 40.27791219778976 ], [ 140.326283021644144, 40.28028053182112 ], [ 140.327022386673889, 40.292290838351562 ], [ 140.322757302407695, 40.301905279904815 ], [ 140.325376939394346, 40.311728080886269 ], [ 140.333439169082453, 40.314979468227932 ], [ 140.335497639004871, 40.331719467679363 ], [ 140.350929999919572, 40.349646973329186 ], [ 140.356433774399193, 40.366558361079569 ], [ 140.350134278873952, 40.373537801628288 ], [ 140.338276472181519, 40.378458946723072 ], [ 140.333426109127686, 40.387955614859777 ], [ 140.333158248754216, 40.40320286472047 ], [ 140.336997665010244, 40.407859531791985 ], [ 140.332680363408144, 40.419684802811446 ], [ 140.3364078347538, 40.424202306990935 ], [ 140.333404772712129, 40.427322054269439 ], [ 140.33521608285605, 40.439383441392749 ], [ 140.34066719843247, 40.443228721228536 ], [ 140.343370725978275, 40.461661559533411 ], [ 140.347016834759188, 40.461559054806571 ], [ 140.347808470184759, 40.467547694270706 ], [ 140.361301220075347, 40.478391614281634 ], [ 140.377947912166519, 40.476540198871135 ], [ 140.387708170695532, 40.487102442224 ], [ 140.394132607234155, 40.485023558590399 ], [ 140.402237107756378, 40.474907109175774 ], [ 140.427076835027947, 40.482591584933743 ], [ 140.434764642774098, 40.480438506332064 ], [ 140.437268806810039, 40.478454613589577 ], [ 140.433460220213078, 40.467701776915533 ], [ 140.437019415813438, 40.465470387148684 ], [ 140.439954500799672, 40.450082000384043 ], [ 140.464382022912105, 40.45644758618721 ], [ 140.481011803252159, 40.451635613392909 ], [ 140.48432155569526, 40.44622227923486 ], [ 140.481211582248761, 40.44183030692318 ], [ 140.498133580200602, 40.436397506040123 ], [ 140.508362827082919, 40.428548333838592 ], [ 140.529194254411323, 40.430758585940055 ], [ 140.52982267097957, 40.420285775668049 ], [ 140.524269027293826, 40.419665801935253 ], [ 140.523809364010958, 40.410212722139477 ], [ 140.532345772039776, 40.411233837571615 ], [ 140.540325005994305, 40.402800749055359 ], [ 140.547703358823014, 40.404010197812454 ], [ 140.559145084278271, 40.397059334121025 ], [ 140.569369248192288, 40.400735973986059 ], [ 140.556414137302681, 40.414834919096279 ], [ 140.554872996091945, 40.422525468875335 ], [ 140.562082724238394, 40.427046028051791 ], [ 140.587217495690993, 40.429292920332045 ], [ 140.589730507257173, 40.436112920075232 ], [ 140.611237808378178, 40.423860081677503 ], [ 140.625781414280937, 40.423998668104105 ], [ 140.63629121906456, 40.409484721842489 ], [ 140.634199299757938, 40.402264136180975 ], [ 140.640884034270812, 40.405173864782114 ], [ 140.661480414789366, 40.404448531874323 ], [ 140.666025383364854, 40.41150046857183 ], [ 140.675384812259381, 40.412083505349528 ], [ 140.687170336841632, 40.418302359566269 ], [ 140.687913333333768, 40.427349334304381 ], [ 140.699228053831689, 40.429415999748642 ], [ 140.715549442253064, 40.427882054013651 ], [ 140.723016445752478, 40.416610866098665 ], [ 140.733569780421135, 40.415802774878216 ], [ 140.735858340090431, 40.427859747229604 ], [ 140.73120192033241, 40.431107836757292 ], [ 140.735479104976775, 40.433974225230372 ], [ 140.734093799189509, 40.439682585582887 ], [ 140.752059921728119, 40.438755026623255 ], [ 140.762713695380853, 40.45124725195916 ], [ 140.769383112640639, 40.453914748167165 ], [ 140.773260078290036, 40.451397505290686 ], [ 140.7868466940198, 40.457231359739524 ], [ 140.793214501148327, 40.449404613032527 ], [ 140.80496169932303, 40.449836586189576 ], [ 140.81062897504728, 40.487129667400268 ], [ 140.820193333355746, 40.495455559426603 ], [ 140.826944695041675, 40.49607997311233 ], [ 140.845020946759405, 40.507359693794911 ], [ 140.852587301962444, 40.505217441231991 ], [ 140.879867133661378, 40.510253613213706 ], [ 140.880061505034519, 40.510246171323786 ] ] ] } }
]
}
