{
"type": "FeatureCollection",
"name": "06_yamagata_area",
"crs": { "type": "name", "properties": { "name": "urn:ogc:def:crs:OGC:1.3:CRS84" } },
"features": [
{ "type": "Feature", "properties": { "code": "060010", "name": "村山", "PrefCode": "06", "regioncode": "060010" }, "geometry": { "type": "Polygon", "coordinates": [ [ [ 140.461015939633967, 38.714480945739126 ], [ 140.464271673399026, 38.702463721623531 ], [ 140.471764553991079, 38.703411467665148 ], [ 140.4744563291963, 38.694815612650473 ], [ 140.48334977976856, 38.695758080571011 ], [ 140.491225770652818, 38.691748332719442 ], [ 140.495044668876403, 38.697473306248128 ], [ 140.502280310987658, 38.698243838182634 ], [ 140.515129468250393, 38.690000135198147 ], [ 140.524662917759542, 38.694135360058851 ], [ 140.543693605575527, 38.679481107866877 ], [ 140.549124695048704, 38.661218891638612 ], [ 140.543075187669842, 38.656355026163567 ], [ 140.546533087232206, 38.649680838000336 ], [ 140.537396977988237, 38.634271747942876 ], [ 140.552217886246467, 38.613343918686951 ], [ 140.56212197065247, 38.607253027205502 ], [ 140.55844586318608, 38.597636667398319 ], [ 140.56973466792067, 38.594065775215427 ], [ 140.571004228262609, 38.580256892941293 ], [ 140.57871997434745, 38.568327693568278 ], [ 140.566413450020718, 38.560375837674826 ], [ 140.569916589978675, 38.555579414158672 ], [ 140.564639637109622, 38.545723641333041 ], [ 140.554288664290539, 38.541349801152478 ], [ 140.555113994615226, 38.531036224841955 ], [ 140.571955693900236, 38.52563808113257 ], [ 140.567800077811398, 38.5202303326638 ], [ 140.570302087971072, 38.515304225109958 ], [ 140.563465887840493, 38.510706225312106 ], [ 140.569150441339843, 38.505962612684471 ], [ 140.567408495006134, 38.501302612725453 ], [ 140.574140584220686, 38.494661224635877 ], [ 140.604229780180276, 38.482282197865175 ], [ 140.60821022002574, 38.458402558931027 ], [ 140.620039636020465, 38.455198333836108 ], [ 140.613436200220576, 38.453602838500274 ], [ 140.59776461694355, 38.436528838035485 ], [ 140.592357523181249, 38.441721054083416 ], [ 140.58039260723308, 38.437268918925497 ], [ 140.579396808615911, 38.423175640443503 ], [ 140.571300855250342, 38.413114082049276 ], [ 140.578217197565664, 38.392780531995982 ], [ 140.567571439570315, 38.385331171396501 ], [ 140.563550245147781, 38.37727261274091 ], [ 140.552211141331213, 38.376212695159779 ], [ 140.545528806209518, 38.364116694030258 ], [ 140.526312581060779, 38.3575259998251 ], [ 140.521580829591699, 38.347330532378237 ], [ 140.529742023375775, 38.320697585725043 ], [ 140.520283475701945, 38.309515197768235 ], [ 140.504341283723306, 38.314326917853009 ], [ 140.501983721771353, 38.30482669379694 ], [ 140.49245357996881, 38.302226197980701 ], [ 140.492143553981919, 38.292962639514258 ], [ 140.496948340293784, 38.283143505068779 ], [ 140.487992633253498, 38.274559972564759 ], [ 140.471180169129525, 38.269361440578052 ], [ 140.471066472339885, 38.23478383800375 ], [ 140.46707085643493, 38.232751359387805 ], [ 140.474288443756791, 38.224479441073413 ], [ 140.470956719077435, 38.213837306446578 ], [ 140.478348470005926, 38.198375999952475 ], [ 140.480022632638452, 38.181565586282829 ], [ 140.469593839683967, 38.170557639823244 ], [ 140.467658197367996, 38.156975838164442 ], [ 140.452009339059828, 38.151060053678577 ], [ 140.443753060855101, 38.140928775342786 ], [ 140.445685253371835, 38.129854774578234 ], [ 140.431835615621253, 38.127209837863802 ], [ 140.42515771685521, 38.121907971975361 ], [ 140.425610194554906, 38.11491586447562 ], [ 140.417463943006624, 38.103478278599709 ], [ 140.421311997250882, 38.088453504825452 ], [ 140.417674163132233, 38.0803352788501 ], [ 140.402768689823233, 38.070344694052437 ], [ 140.383015384152714, 38.0715100265665 ], [ 140.380164228396438, 38.069470919047717 ], [ 140.382006200026126, 38.063549333035326 ], [ 140.373657470615854, 38.057008613256926 ], [ 140.355644112086225, 38.058475531620559 ], [ 140.34441891010465, 38.053355279322716 ], [ 140.315348716170433, 38.058422414063216 ], [ 140.302711556093527, 38.053566027350314 ], [ 140.289084720883238, 38.059338720705455 ], [ 140.277090362929926, 38.056160666781409 ], [ 140.269178885697102, 38.059260891576912 ], [ 140.261427108274461, 38.072343558708326 ], [ 140.247931970683908, 38.081527080210662 ], [ 140.233523191142467, 38.082501197971965 ], [ 140.23784878089657, 38.094473080967987 ], [ 140.212725668255075, 38.098805802345964 ], [ 140.210481167272064, 38.110594667010332 ], [ 140.188285006148135, 38.117742666590857 ], [ 140.19031693887564, 38.121337108420846 ], [ 140.185252724233919, 38.124754891924795 ], [ 140.183410168944192, 38.134963198093146 ], [ 140.188360506032609, 38.137381531732331 ], [ 140.194739494432156, 38.132764306227784 ], [ 140.206340752423898, 38.137220413691182 ], [ 140.209995771687545, 38.142525946115597 ], [ 140.202238716143938, 38.151185359816566 ], [ 140.206313216981471, 38.164673640076501 ], [ 140.198317250240962, 38.168739748440714 ], [ 140.202464254421898, 38.181869441121876 ], [ 140.193706912643961, 38.189662748337241 ], [ 140.193024383868305, 38.210087135313074 ], [ 140.185542607205662, 38.222590999674935 ], [ 140.173156860700601, 38.222695467621804 ], [ 140.169929026603313, 38.239489612555644 ], [ 140.143620272058001, 38.24497522522654 ], [ 140.150874837703668, 38.244686026638874 ], [ 140.140156329051365, 38.256472134881164 ], [ 140.136577107347648, 38.253629666575932 ], [ 140.125300830169294, 38.256913026614939 ], [ 140.113487885257769, 38.24764700040879 ], [ 140.105904720826288, 38.251311440970255 ], [ 140.090089754138944, 38.241205171881234 ], [ 140.071548664439433, 38.269031721237013 ], [ 140.054172309204773, 38.26065680177004 ], [ 140.042480219686468, 38.244551053688213 ], [ 140.029273384958856, 38.247716892120934 ], [ 140.013005939672439, 38.243371639589554 ], [ 140.007013112964842, 38.2283011352892 ], [ 139.998982996268296, 38.222977000388312 ], [ 139.994184059147074, 38.205777891636444 ], [ 139.98884372206021, 38.199199305903278 ], [ 139.994637689777619, 38.192262918598885 ], [ 139.99330182871654, 38.188194332602393 ], [ 139.977549143678061, 38.179683279160031 ], [ 139.957898054052066, 38.198563837750953 ], [ 139.960512826605736, 38.203737972929162 ], [ 139.940733968497966, 38.208775224996714 ], [ 139.945226523685164, 38.220842412747174 ], [ 139.940755913754515, 38.222950197893397 ], [ 139.944157367368689, 38.230485720739466 ], [ 139.93215444876887, 38.233975197297582 ], [ 139.916572893024636, 38.246422972742039 ], [ 139.921375447219134, 38.263047054078356 ], [ 139.911349493884131, 38.27259010834689 ], [ 139.899330777793239, 38.276239585988151 ], [ 139.898888002879062, 38.293152305634464 ], [ 139.87932557741351, 38.303429278638362 ], [ 139.874814721022631, 38.316774251930212 ], [ 139.882922581412117, 38.326246386561536 ], [ 139.897770506203983, 38.332239108048441 ], [ 139.904622802400468, 38.345799585882219 ], [ 139.902356667326444, 38.348504838327699 ], [ 139.917437393321165, 38.366892224896333 ], [ 139.909905084651996, 38.379364945735688 ], [ 139.921294358048272, 38.393528196868829 ], [ 139.914390947084598, 38.410398694244407 ], [ 139.917079026975557, 38.418267532820437 ], [ 139.927287470740225, 38.420358053681298 ], [ 139.935092282982509, 38.433580224547768 ], [ 139.933433671426883, 38.4481579462323 ], [ 139.924188274769108, 38.452031837099639 ], [ 139.929218340354169, 38.459674586113294 ], [ 139.927620803557261, 38.465280666569583 ], [ 139.932558638270621, 38.469636468148565 ], [ 139.926176328674728, 38.479688973067709 ], [ 139.942184033566377, 38.48889808118156 ], [ 139.934584501473637, 38.494532251961914 ], [ 139.932654476323137, 38.502980558805803 ], [ 139.9475824128981, 38.506484694313258 ], [ 139.95093914412621, 38.513031891908327 ], [ 139.974678859341907, 38.52326183756378 ], [ 139.993235745633228, 38.538160946370624 ], [ 140.003263916696483, 38.541395054138491 ], [ 140.00765258220099, 38.539315332336798 ], [ 140.026199196435869, 38.54680972109179 ], [ 140.035629299452694, 38.533228639789968 ], [ 140.039042970356832, 38.518028386700735 ], [ 140.035568755293866, 38.517095081073194 ], [ 140.035008469565241, 38.505489838185554 ], [ 140.041750777776201, 38.499310946243213 ], [ 140.056156782909284, 38.497650080986489 ], [ 140.086757418819843, 38.512552748410656 ], [ 140.113392218076456, 38.494459666780244 ], [ 140.122507081736444, 38.493714640518306 ], [ 140.126624086332527, 38.496959053617502 ], [ 140.12307985724965, 38.500944892093173 ], [ 140.124664306212821, 38.503878468016921 ], [ 140.151176641189068, 38.514050000007558 ], [ 140.162776226441792, 38.531346865065814 ], [ 140.178536446000294, 38.535663719704928 ], [ 140.183731529986176, 38.531762865363987 ], [ 140.210686640775862, 38.533706332681163 ], [ 140.217548664039668, 38.545662973067806 ], [ 140.235566419354882, 38.551094252297958 ], [ 140.241055615824052, 38.568495891971907 ], [ 140.25486136216216, 38.574584694328223 ], [ 140.256568859065624, 38.579551360406981 ], [ 140.265506497826664, 38.584703251753695 ], [ 140.275929105244131, 38.603342333382045 ], [ 140.301723359445532, 38.614133532436597 ], [ 140.299447640296421, 38.640597386760021 ], [ 140.313357588382019, 38.645210053601147 ], [ 140.320028443657861, 38.658286946185683 ], [ 140.3142315297614, 38.680056360112985 ], [ 140.318666328688209, 38.682333278957685 ], [ 140.330574864338587, 38.679311000202574 ], [ 140.351942387431336, 38.689123639744253 ], [ 140.374085836592144, 38.684537135080745 ], [ 140.396550440850206, 38.702380054096295 ], [ 140.413787081908367, 38.704928614064329 ], [ 140.421601971054201, 38.699347467311838 ], [ 140.438357328228221, 38.713338504568355 ], [ 140.454536328788663, 38.720488721877075 ], [ 140.459720557957439, 38.721365107613678 ], [ 140.461055668084668, 38.71487094573763 ], [ 140.461015939633967, 38.714480945739126 ] ] ] } },
{ "type": "Feature", "properties": { "code": "060020", "name": "置賜", "PrefCode": "06", "regioncode": "060020" }, "geometry": { "type": "Polygon", "coordinates": [ [ [ 139.903840001015283, 38.274697360195091 ], [ 139.911349493884131, 38.27259010834689 ], [ 139.921375447219134, 38.263047054078356 ], [ 139.916572893024636, 38.246422972742039 ], [ 139.93215444876887, 38.233975197297582 ], [ 139.944157367368689, 38.230485720739466 ], [ 139.940755913754515, 38.222950197893397 ], [ 139.945226523685164, 38.220842412747174 ], [ 139.940733968497966, 38.208775224996714 ], [ 139.960512826605736, 38.203737972929162 ], [ 139.957898054052066, 38.198563837750953 ], [ 139.977549143678061, 38.179683279160031 ], [ 139.993307392821976, 38.188204333063595 ], [ 139.994637689777619, 38.192262918598885 ], [ 139.98884372206021, 38.199199305903278 ], [ 139.994184059147074, 38.205777891636444 ], [ 139.998982996268296, 38.222977000388312 ], [ 140.007013112964842, 38.2283011352892 ], [ 140.01258900228072, 38.24311219776979 ], [ 140.029273384958856, 38.247716892120934 ], [ 140.042480219686468, 38.244551053688213 ], [ 140.054172309204773, 38.26065680177004 ], [ 140.071548664439433, 38.269031721237013 ], [ 140.090089754138944, 38.241205171881234 ], [ 140.105904720826288, 38.251311440970255 ], [ 140.113487885257769, 38.24764700040879 ], [ 140.125300830169294, 38.256913026614939 ], [ 140.136577107347648, 38.253629666575932 ], [ 140.140364668694588, 38.256387693936972 ], [ 140.150874837703668, 38.244686026638874 ], [ 140.143620272058001, 38.24497522522654 ], [ 140.169735137266798, 38.239659053822322 ], [ 140.173156860700601, 38.222695467621804 ], [ 140.185542607205662, 38.222590999674935 ], [ 140.191649663101543, 38.213332667168913 ], [ 140.193706912643961, 38.189662748337241 ], [ 140.202464254421898, 38.181869441121876 ], [ 140.198317250240962, 38.168739748440714 ], [ 140.206313216981471, 38.164673640076501 ], [ 140.202238716143938, 38.151185359816566 ], [ 140.209995771687545, 38.142525946115597 ], [ 140.206340752423898, 38.137220413691182 ], [ 140.194739494432156, 38.132764306227784 ], [ 140.188360506032609, 38.137381531732331 ], [ 140.183410168944192, 38.134963198093146 ], [ 140.185252724233919, 38.124754891924795 ], [ 140.19031693887564, 38.121337108420846 ], [ 140.188285006148135, 38.117742666590857 ], [ 140.210481167272064, 38.110594667010332 ], [ 140.212725668255075, 38.098805802345964 ], [ 140.23784878089657, 38.094473080967987 ], [ 140.233523191142467, 38.082501197971965 ], [ 140.247931970683908, 38.081527080210662 ], [ 140.261427108274461, 38.072343558708326 ], [ 140.26898416268898, 38.059414774572247 ], [ 140.278705666733231, 38.055298171073787 ], [ 140.283392944029174, 38.049972667404745 ], [ 140.275920584167693, 38.035977468985038 ], [ 140.276068340081906, 38.028719440949487 ], [ 140.281380051748101, 38.025710053975843 ], [ 140.289614526789023, 38.007205748346678 ], [ 140.276246225982618, 37.993031865428293 ], [ 140.274889221860121, 37.982025775169461 ], [ 140.280002580854443, 37.976644413708755 ], [ 140.27129713355589, 37.966817999251305 ], [ 140.272491828035527, 37.957929414011289 ], [ 140.278074669110765, 37.952628585940545 ], [ 140.275288780752703, 37.947246639920536 ], [ 140.281004358164637, 37.941347774380347 ], [ 140.276504501381737, 37.926350531551861 ], [ 140.264529831386653, 37.91193691905363 ], [ 140.270720077269857, 37.890737440580494 ], [ 140.264765810793619, 37.885955774939134 ], [ 140.269962438016137, 37.866545504871226 ], [ 140.265467327854935, 37.862154639624976 ], [ 140.267339195647423, 37.847566305940347 ], [ 140.262115965579369, 37.834416305668015 ], [ 140.268994059728129, 37.823787945957008 ], [ 140.28738147777301, 37.813827641332637 ], [ 140.291366252350713, 37.814938197939512 ], [ 140.298801829041281, 37.807808198289763 ], [ 140.282211310403682, 37.798229054227534 ], [ 140.276287977008565, 37.781768000193097 ], [ 140.266034423250062, 37.779065252359544 ], [ 140.254950142335247, 37.764617801970019 ], [ 140.244371246236142, 37.758413972726714 ], [ 140.237254865020077, 37.746468467745615 ], [ 140.20482082981755, 37.747530026589516 ], [ 140.199598586305797, 37.752811135225784 ], [ 140.166414253914695, 37.757290973099998 ], [ 140.146009753647263, 37.752720224558743 ], [ 140.14069291764406, 37.738078694176465 ], [ 140.115371167245598, 37.734356000029436 ], [ 140.101757977448756, 37.737994306292251 ], [ 140.086730143281557, 37.75804386483253 ], [ 140.069122724334306, 37.757844171271529 ], [ 140.064999662804212, 37.767618279360136 ], [ 140.053517082047733, 37.770839107738709 ], [ 140.051259611042269, 37.77935961305576 ], [ 140.037297496882047, 37.767900531584303 ], [ 139.992568755343882, 37.758699531758054 ], [ 139.978039779612232, 37.766240919083202 ], [ 139.978945940103131, 37.77355172113505 ], [ 139.967361166684555, 37.783542838331357 ], [ 139.968782022672258, 37.788465864807847 ], [ 139.959362282543339, 37.797679197936702 ], [ 139.962130388606624, 37.805802505081601 ], [ 139.957919027141429, 37.814861386843575 ], [ 139.940992217816643, 37.82166530580929 ], [ 139.937031946167394, 37.82829586516209 ], [ 139.927958248974051, 37.827523360115038 ], [ 139.930085472966311, 37.822470892417812 ], [ 139.924826743959102, 37.81351397219214 ], [ 139.907380467334747, 37.815427306824802 ], [ 139.898831440018967, 37.810280108140546 ], [ 139.886619636786918, 37.809157053655156 ], [ 139.879446809622664, 37.810270107679401 ], [ 139.876422048738618, 37.817329837901752 ], [ 139.857717172709386, 37.826538721185102 ], [ 139.837874694761467, 37.814495414032194 ], [ 139.8216139440284, 37.811993775292535 ], [ 139.809485446795975, 37.803302693764351 ], [ 139.804236497916122, 37.805418559319094 ], [ 139.803417107613541, 37.815161864728339 ], [ 139.794743139284492, 37.81781658606667 ], [ 139.782954475168935, 37.831968801618928 ], [ 139.741306782182278, 37.820292774891698 ], [ 139.720856472248443, 37.83968664042618 ], [ 139.715636523806552, 37.854158278981458 ], [ 139.706664227871897, 37.856046081861223 ], [ 139.69728269813811, 37.848733613365596 ], [ 139.68037085623007, 37.847074197816028 ], [ 139.6788325289981, 37.851708053583877 ], [ 139.657131024677142, 37.863537775348107 ], [ 139.656874696310297, 37.871590838246618 ], [ 139.638590700300597, 37.879923891574379 ], [ 139.631839856624197, 37.889273586207082 ], [ 139.629317082017792, 37.893657468217611 ], [ 139.631771581893076, 37.900945504831213 ], [ 139.624805746288189, 37.918068801633922 ], [ 139.631786134722347, 37.930304864977586 ], [ 139.639385641634135, 37.934716532442053 ], [ 139.642989027221915, 37.946674252015157 ], [ 139.640093748028107, 37.952425081052695 ], [ 139.645246860654197, 37.962627001135274 ], [ 139.637973774370266, 37.969952251695133 ], [ 139.64429077789714, 37.979618333219548 ], [ 139.639343799776611, 37.985519721358116 ], [ 139.644923022879311, 37.991764135206722 ], [ 139.643657470815697, 37.995268838186405 ], [ 139.654457276382232, 37.997024667354594 ], [ 139.652292048839058, 38.021204613302302 ], [ 139.656764889987699, 38.028517640276903 ], [ 139.654674332254672, 38.035165386573397 ], [ 139.68007011574332, 38.043163695148451 ], [ 139.682052633422359, 38.049526440892578 ], [ 139.690432167310746, 38.052446721239221 ], [ 139.692725524863135, 38.057028640259603 ], [ 139.686165473258029, 38.065037802752443 ], [ 139.691801920222474, 38.075060279308502 ], [ 139.671333139113131, 38.076874171405962 ], [ 139.672485667979231, 38.089116638821849 ], [ 139.682670507238186, 38.108074081353834 ], [ 139.693892826892466, 38.115801559094734 ], [ 139.688353645204643, 38.134575387044549 ], [ 139.69226314023183, 38.148657864668792 ], [ 139.690627302208327, 38.155164505537527 ], [ 139.684747249585939, 38.159309225440438 ], [ 139.682241387630029, 38.171407251843277 ], [ 139.687558664301037, 38.182124441190069 ], [ 139.696227082014275, 38.185463026797322 ], [ 139.702624111713476, 38.199188801821776 ], [ 139.698636276742832, 38.202945748447576 ], [ 139.721624552631056, 38.205865441536957 ], [ 139.730647976822752, 38.200948225580191 ], [ 139.73891416285835, 38.202022386623923 ], [ 139.754894577822597, 38.193099333067835 ], [ 139.76396577220271, 38.19895430629623 ], [ 139.77605894856174, 38.198151504888074 ], [ 139.786365693621974, 38.192244000460278 ], [ 139.810953722236604, 38.211515837885656 ], [ 139.860185330588592, 38.231066225026325 ], [ 139.868576550267676, 38.247985586165896 ], [ 139.875694942367772, 38.252127775376607 ], [ 139.876598300571231, 38.261789414250131 ], [ 139.899511894058719, 38.275627359914779 ], [ 139.903755278583276, 38.274779026730755 ], [ 139.903840001015283, 38.274697360195091 ] ] ] } },
{ "type": "Feature", "properties": { "code": "060030", "name": "庄内", "PrefCode": "06", "regioncode": "060030" }, "geometry": { "type": "MultiPolygon", "coordinates": [ [ [ [ 139.540326937937948, 38.566597666848907 ], [ 139.541033942662352, 38.562400279049712 ], [ 139.540356445593602, 38.566666667332868 ], [ 139.540326937937948, 38.566597666848907 ] ] ], [ [ [ 139.682609883039731, 38.726202864870345 ], [ 139.684150699595193, 38.723010720368507 ], [ 139.682542801709019, 38.7261958375679 ], [ 139.682609883039731, 38.726202864870345 ] ] ], [ [ [ 139.792017795085258, 38.941666666583444 ], [ 139.800295850373232, 38.949578053884125 ], [ 139.798929235196056, 38.946611649108377 ], [ 139.792017795085258, 38.941666666583444 ] ] ], [ [ [ 139.821041725195528, 38.96604402631084 ], [ 139.801116381016186, 38.948565721231091 ], [ 139.81821988284139, 38.960853197916776 ], [ 139.825664772910955, 38.975438440631592 ], [ 139.821002995891604, 38.966057305700133 ], [ 139.821041725195528, 38.96604402631084 ] ] ], [ [ [ 140.063448469871105, 39.105782224570078 ], [ 140.0672179773278, 39.099313053954347 ], [ 140.063970778128919, 39.091455586406255 ], [ 140.114495811232814, 39.0783632245832 ], [ 140.116862826857982, 39.068231027140257 ], [ 140.127627134384852, 39.063050999604002 ], [ 140.137795525043543, 39.065567891744877 ], [ 140.150808520796659, 39.049535666837585 ], [ 140.135082891861998, 39.04291127863263 ], [ 140.131262387449283, 39.033794360021773 ], [ 140.114370920581564, 39.024468892225627 ], [ 140.121056328686677, 39.013402774918177 ], [ 140.120945615847518, 39.002321945601352 ], [ 140.117946419991313, 39.00091391934194 ], [ 140.118252309096874, 38.993518359784503 ], [ 140.113226978442412, 38.99658061340466 ], [ 140.109928910890631, 38.991811999624133 ], [ 140.115947665052772, 38.981802838430326 ], [ 140.137116472147568, 38.981841386970473 ], [ 140.147166394213741, 38.970008864717386 ], [ 140.137626082877432, 38.960955865420885 ], [ 140.143907612646217, 38.950744999781989 ], [ 140.141275940032642, 38.945954748313056 ], [ 140.126706641398414, 38.945543973075928 ], [ 140.12061243771393, 38.93707538741927 ], [ 140.123996446279079, 38.921227919233161 ], [ 140.140093864840082, 38.914648134703725 ], [ 140.118243449875422, 38.894767973363344 ], [ 140.115664553076726, 38.887738278698635 ], [ 140.118506809141991, 38.882434667226164 ], [ 140.114565940365878, 38.877316918640929 ], [ 140.120417691323496, 38.872712720715526 ], [ 140.092611919904243, 38.863643693701533 ], [ 140.088737198063313, 38.858349532305112 ], [ 140.087760583783961, 38.842309000360103 ], [ 140.113303281421395, 38.835216720974927 ], [ 140.117474474667347, 38.831128080996166 ], [ 140.117448975290017, 38.821084197877497 ], [ 140.112023385171142, 38.817421171949604 ], [ 140.089018222712866, 38.819130414437154 ], [ 140.076795383000558, 38.814208504918611 ], [ 140.085255810907029, 38.800516801609149 ], [ 140.073358781182833, 38.797712972675583 ], [ 140.074755499366916, 38.793277694410108 ], [ 140.065612672187171, 38.788677171114614 ], [ 140.055561193394396, 38.789160803128595 ], [ 140.03641111518084, 38.774670892147981 ], [ 140.032171088724795, 38.777122026760196 ], [ 140.028674137001872, 38.770412333362572 ], [ 140.038680726134658, 38.753995332618558 ], [ 140.034079856600215, 38.748984532310374 ], [ 140.04503642029465, 38.743547531593379 ], [ 140.042900025915515, 38.740387802255327 ], [ 140.046413995509511, 38.730579197971679 ], [ 140.056238586141944, 38.725943864617705 ], [ 140.049673606251986, 38.707326197645955 ], [ 140.038802140006851, 38.699979893057673 ], [ 140.042724137409095, 38.696475171192276 ], [ 140.042595576624649, 38.683320505237191 ], [ 140.03204189391829, 38.679105559074344 ], [ 140.033608300682545, 38.674093918799372 ], [ 140.041815357193059, 38.669160837902382 ], [ 140.043435422007178, 38.659748946156981 ], [ 140.055027782106549, 38.658876946414011 ], [ 140.062839027199402, 38.647910027026171 ], [ 140.063550998879577, 38.640765640022323 ], [ 140.06920247711264, 38.640936720753132 ], [ 140.071815031938286, 38.633759801673534 ], [ 140.080044279220147, 38.6340947739547 ], [ 140.08124403418492, 38.629572864895863 ], [ 140.091645550701628, 38.628108387292286 ], [ 140.095718975050772, 38.622398134766172 ], [ 140.108578859426871, 38.61923561303314 ], [ 140.111591141318172, 38.612618414008637 ], [ 140.105209728346381, 38.600242918875665 ], [ 140.117458832758984, 38.578534361171876 ], [ 140.110137886354437, 38.578192440728628 ], [ 140.107466226285396, 38.572574694266791 ], [ 140.099306666569419, 38.569610278791401 ], [ 140.097244721666584, 38.557142279392735 ], [ 140.083252607022246, 38.556019251886994 ], [ 140.076963385351974, 38.551066802291132 ], [ 140.078374811948038, 38.545919586519744 ], [ 140.073486135077133, 38.540050171078576 ], [ 140.057134837902481, 38.532807748079165 ], [ 140.054323969075995, 38.528288054050506 ], [ 140.043221920255519, 38.527567802312262 ], [ 140.024711698885881, 38.546545000251626 ], [ 140.00765258220099, 38.539315332336798 ], [ 140.003263916696483, 38.541395054138491 ], [ 139.993235745633228, 38.538160946370624 ], [ 139.974678859341907, 38.52326183756378 ], [ 139.95093914412621, 38.513031891908327 ], [ 139.9475824128981, 38.506484694313258 ], [ 139.932654476323137, 38.502980558805803 ], [ 139.934584501473637, 38.494532251961914 ], [ 139.942184033566377, 38.48889808118156 ], [ 139.926176328674728, 38.479688973067709 ], [ 139.932558638270621, 38.469636468148565 ], [ 139.927620803557261, 38.465280666569583 ], [ 139.929218340354169, 38.459674586113294 ], [ 139.924188274769108, 38.452031837099639 ], [ 139.933433671426883, 38.4481579462323 ], [ 139.935092282982509, 38.433580224547768 ], [ 139.927287470740225, 38.420358053681298 ], [ 139.917079026975557, 38.418267532820437 ], [ 139.914390947084598, 38.410398694244407 ], [ 139.921294358048272, 38.393528196868829 ], [ 139.909905084651996, 38.379364945735688 ], [ 139.917437393321165, 38.366892224896333 ], [ 139.902356667326444, 38.348504838327699 ], [ 139.904622802400468, 38.345799585882219 ], [ 139.897770506203983, 38.332239108048441 ], [ 139.882922581412117, 38.326246386561536 ], [ 139.874814721022631, 38.316774251930212 ], [ 139.847588339630192, 38.336707332977085 ], [ 139.848935577115299, 38.342846748278873 ], [ 139.827695356655454, 38.344742639661149 ], [ 139.826040051007567, 38.350460945616192 ], [ 139.816491336406102, 38.356012332902878 ], [ 139.803806226276379, 38.355142945690432 ], [ 139.790627197687058, 38.348767468244091 ], [ 139.785352698168595, 38.352758306950363 ], [ 139.770721724927739, 38.35290558532455 ], [ 139.761628586190341, 38.361061413753305 ], [ 139.750110143168627, 38.359419251697148 ], [ 139.732399688894589, 38.371600693817015 ], [ 139.728779104671958, 38.37723930634894 ], [ 139.731118859148069, 38.381447333127994 ], [ 139.722635162182996, 38.393844000100557 ], [ 139.709805057957169, 38.386765224935232 ], [ 139.703389170373953, 38.40021825177098 ], [ 139.717208418234009, 38.421323639574382 ], [ 139.720132866038966, 38.450692080175429 ], [ 139.715147250345353, 38.459438441231157 ], [ 139.719087834036372, 38.466242585926636 ], [ 139.7134150058979, 38.469628414719637 ], [ 139.711396355257648, 38.476801170837405 ], [ 139.725146743827281, 38.485244694187315 ], [ 139.721764474550923, 38.496226332779088 ], [ 139.702528197218612, 38.499162774842262 ], [ 139.693161724833772, 38.506798612565944 ], [ 139.653063644671533, 38.506967864975024 ], [ 139.637808807230726, 38.511421225009599 ], [ 139.631288469687206, 38.521973693631082 ], [ 139.621213943069051, 38.525584531900677 ], [ 139.599828520769734, 38.522059864870926 ], [ 139.581702555428706, 38.532954306096428 ], [ 139.577266108943832, 38.539624558826404 ], [ 139.571027198046863, 38.538501251631487 ], [ 139.560726550390086, 38.54286708065132 ], [ 139.556416809388338, 38.548339027224358 ], [ 139.552297055564736, 38.547686251619268 ], [ 139.549952581446519, 38.553226802075301 ], [ 139.544204060069433, 38.554060171439801 ], [ 139.542957004362279, 38.558313279434344 ], [ 139.539107587645162, 38.55793310812652 ], [ 139.542108585742653, 38.562110414064421 ], [ 139.541778949139257, 38.559066306065233 ], [ 139.548218248773196, 38.559778891982319 ], [ 139.543125005814431, 38.562225467931057 ], [ 139.557549727637934, 38.575466198106596 ], [ 139.556452891987419, 38.579978945771757 ], [ 139.565335357340928, 38.592569946345975 ], [ 139.563565110241711, 38.595480306271156 ], [ 139.570103579916349, 38.599574639857792 ], [ 139.56827124542167, 38.602389999898605 ], [ 139.574080751625502, 38.605023052971546 ], [ 139.574152048977908, 38.61136208089539 ], [ 139.587227497251206, 38.625365107913467 ], [ 139.59189510997146, 38.64101294639039 ], [ 139.591761335817068, 38.637434640196545 ], [ 139.596032112791818, 38.6403309464161 ], [ 139.595155525607083, 38.646725693635915 ], [ 139.61123505755188, 38.664319801717511 ], [ 139.609782826915989, 38.669130639567413 ], [ 139.615143475191303, 38.671463721073906 ], [ 139.624472087916615, 38.684791136002161 ], [ 139.627575668082727, 38.687551748014812 ], [ 139.635248806986965, 38.684661639922808 ], [ 139.647929999669827, 38.693440774971862 ], [ 139.652650310863237, 38.702532134850173 ], [ 139.660616524433067, 38.704300586003285 ], [ 139.662381582444141, 38.713155999749631 ], [ 139.667413060864078, 38.714008441036754 ], [ 139.668985331208091, 38.718183865592948 ], [ 139.68118219220446, 38.717595838477223 ], [ 139.676993774243329, 38.718200081268776 ], [ 139.690318637794917, 38.723141414344866 ], [ 139.698543553941931, 38.73049102663964 ], [ 139.696957692143883, 38.73508186513601 ], [ 139.70876533015587, 38.74475733288466 ], [ 139.707399196116057, 38.750407585341861 ], [ 139.723389584561687, 38.759081918795573 ], [ 139.722596161283832, 38.763298919909289 ], [ 139.734497860288116, 38.762766774866805 ], [ 139.729522387148563, 38.766203278658452 ], [ 139.745795084475617, 38.774564532027568 ], [ 139.75379555142365, 38.785993639994558 ], [ 139.777391167368592, 38.832317613367195 ], [ 139.804848780646807, 38.906100279204566 ], [ 139.808688806643204, 38.925308414052097 ], [ 139.800540661122682, 38.928493837920314 ], [ 139.795250751720914, 38.935745198382278 ], [ 139.800623307020032, 38.928584414039506 ], [ 139.808689441564525, 38.925369135377366 ], [ 139.810060362695594, 38.929746892105413 ], [ 139.802917172689376, 38.930147252293921 ], [ 139.807928053936621, 38.936154468154257 ], [ 139.816002192447286, 38.93684153221102 ], [ 139.817784449093097, 38.942800946406578 ], [ 139.811555252672861, 38.944881054017458 ], [ 139.812398611706612, 38.950980134725512 ], [ 139.821767834218235, 38.949234531748289 ], [ 139.823988949230738, 38.953256171335283 ], [ 139.835872554774596, 38.955992775046582 ], [ 139.837534864342615, 38.962863278917268 ], [ 139.833739805347818, 38.963978946371356 ], [ 139.829449584131112, 38.957973639771694 ], [ 139.818886978351429, 38.960524692660499 ], [ 139.826010388668578, 38.974861198185806 ], [ 139.832332581283708, 38.973186108352252 ], [ 139.838583216642178, 38.98165946761037 ], [ 139.86715143958736, 39.052327999737429 ], [ 139.870614669431461, 39.066478108178217 ], [ 139.864592801816457, 39.069143838117668 ], [ 139.870305862925306, 39.066582837827752 ], [ 139.872781776557758, 39.069606693993762 ], [ 139.863740894726561, 39.070841224842695 ], [ 139.869917691248475, 39.070635135303291 ], [ 139.867533164923657, 39.07369872081938 ], [ 139.87280269838584, 39.077794864741293 ], [ 139.870994254381344, 39.082119226021518 ], [ 139.87934280212869, 39.096204837783091 ], [ 139.877673306977613, 39.105366225171224 ], [ 139.86919263263394, 39.112415695028346 ], [ 139.869548690419833, 39.118222171416107 ], [ 139.906039533197941, 39.118828306381261 ], [ 139.945653942675335, 39.112830892231955 ], [ 139.948052243915981, 39.117166693787965 ], [ 139.994446718741187, 39.105515640334602 ], [ 139.997640830959654, 39.115839225200148 ], [ 140.007766394103896, 39.123040279385464 ], [ 140.062439195812317, 39.133498640250082 ], [ 140.062873450549318, 39.106942504692881 ], [ 140.063448469871105, 39.105782224570078 ] ] ], [ [ [ 139.550292892103357, 39.184827171736629 ], [ 139.550564721184969, 39.187432918694299 ], [ 139.550223307060037, 39.184982305688891 ], [ 139.550292892103357, 39.184827171736629 ] ] ], [ [ [ 139.522555940404345, 39.187509999586837 ], [ 139.52079150472423, 39.185418919347683 ], [ 139.522498170654103, 39.18752972082001 ], [ 139.522555940404345, 39.187509999586837 ] ] ], [ [ [ 139.55039182921962, 39.208550468029728 ], [ 139.558866200214993, 39.204868693935111 ], [ 139.555261088828274, 39.205710639234667 ], [ 139.564542244329232, 39.196598774813651 ], [ 139.554059921927887, 39.193424891945256 ], [ 139.547365811083409, 39.186667720638866 ], [ 139.550419999583369, 39.182915223858572 ], [ 139.544270245675307, 39.181421919386139 ], [ 139.541065356880836, 39.182976694319052 ], [ 139.539147951017185, 39.19546913549226 ], [ 139.549377976712321, 39.200712441126313 ], [ 139.550195446962334, 39.208548252999549 ], [ 139.55039182921962, 39.208550468029728 ] ] ] ] } },
{ "type": "Feature", "properties": { "code": "060040", "name": "最上", "PrefCode": "06", "regioncode": "060040" }, "geometry": { "type": "Polygon", "coordinates": [ [ [ 140.193519339246222, 39.060381053642743 ], [ 140.20114855975828, 39.059677135391553 ], [ 140.204726393808073, 39.053685467910043 ], [ 140.200658469712721, 39.035572468094983 ], [ 140.217519416288042, 39.033091306019003 ], [ 140.227151777732388, 39.027112387326838 ], [ 140.245440829730569, 39.030900892062562 ], [ 140.250644254928488, 39.027635054414304 ], [ 140.260564864377102, 39.035235000195144 ], [ 140.266210220025641, 39.031287748031218 ], [ 140.286634916368371, 39.028092640263196 ], [ 140.293907588064826, 39.018218198411205 ], [ 140.310722528921588, 39.013589225062731 ], [ 140.318735837289069, 39.025124999818956 ], [ 140.318795745627199, 39.031261666792545 ], [ 140.328171633913826, 39.034749108184826 ], [ 140.344252438399394, 39.025824864825722 ], [ 140.362065939691433, 39.026037837776073 ], [ 140.36403367071739, 39.009495333043219 ], [ 140.376225109701068, 38.994458332985744 ], [ 140.394675331001736, 38.991222973361573 ], [ 140.410610778065006, 38.994053171316864 ], [ 140.413569754440687, 38.989997333210397 ], [ 140.43185856002458, 38.9919019992779 ], [ 140.437867393765259, 38.98194505272204 ], [ 140.445936419630129, 38.979986135052116 ], [ 140.453692633408423, 38.958839170691249 ], [ 140.449582503229976, 38.945595026689205 ], [ 140.451501529671873, 38.937684224847146 ], [ 140.458308339957966, 38.933884504666196 ], [ 140.464659195765307, 38.917324279691798 ], [ 140.482440854761649, 38.916549774552493 ], [ 140.500120311203432, 38.894852360348182 ], [ 140.515821894964574, 38.900355640200701 ], [ 140.525995965741345, 38.897452000009821 ], [ 140.5354999741445, 38.900718612873732 ], [ 140.547472802328002, 38.891071667123811 ], [ 140.54763574599292, 38.880981747709541 ], [ 140.538687107624014, 38.871064919010848 ], [ 140.540046420306112, 38.861891612907641 ], [ 140.553476977580544, 38.858833251553392 ], [ 140.559131311161195, 38.847250945874521 ], [ 140.566301970959216, 38.848043918591998 ], [ 140.590728249309336, 38.83604419798138 ], [ 140.592940272175838, 38.827788053775691 ], [ 140.59888705629271, 38.825266891653769 ], [ 140.595672244378648, 38.802326919251982 ], [ 140.603526161403238, 38.783705198136431 ], [ 140.626981243889304, 38.773953665729152 ], [ 140.637283307078974, 38.777386919370883 ], [ 140.64646236074941, 38.769516306432422 ], [ 140.635031750914663, 38.760946413945874 ], [ 140.631339300068703, 38.747114000011152 ], [ 140.620355641599645, 38.738658252176663 ], [ 140.620237912249877, 38.730719666679306 ], [ 140.607038949288153, 38.721313108812978 ], [ 140.609104332299125, 38.708788694043051 ], [ 140.606640441703121, 38.703712918616361 ], [ 140.62363488993833, 38.699784775247224 ], [ 140.620728469942947, 38.696290918990769 ], [ 140.62442413676456, 38.687171198092358 ], [ 140.613506134200748, 38.661795197890115 ], [ 140.606014967716646, 38.655417748230548 ], [ 140.602019778989643, 38.640603919435364 ], [ 140.587862114445102, 38.633942613161139 ], [ 140.575943580132162, 38.639212919140959 ], [ 140.569403774064995, 38.638212694060655 ], [ 140.562752218240348, 38.648062441428578 ], [ 140.546533087232206, 38.649680838000336 ], [ 140.543011309724193, 38.656198919144856 ], [ 140.549124695048704, 38.661218891638612 ], [ 140.545052334597585, 38.668576946768724 ], [ 140.546376743691781, 38.674695801769872 ], [ 140.539398780729243, 38.68544027924554 ], [ 140.530162218111968, 38.688083946117274 ], [ 140.524662917759542, 38.694135360058851 ], [ 140.511508301267099, 38.69052933316226 ], [ 140.502280310987658, 38.698243838182634 ], [ 140.495044668876403, 38.697473306248128 ], [ 140.491225770652818, 38.691748332719442 ], [ 140.48334977976856, 38.695758080571011 ], [ 140.4744563291963, 38.694815612650473 ], [ 140.471764553991079, 38.703411467665148 ], [ 140.464271673399026, 38.702463721623531 ], [ 140.465002724196438, 38.708278441197137 ], [ 140.457928054436252, 38.721717333388256 ], [ 140.438357328228221, 38.713338504568355 ], [ 140.423240310991673, 38.699811639795371 ], [ 140.413787081908367, 38.704928614064329 ], [ 140.396550440850206, 38.702380054096295 ], [ 140.374085836592144, 38.684537135080745 ], [ 140.351942387431336, 38.689123639744253 ], [ 140.330574864338587, 38.679311000202574 ], [ 140.318666328688209, 38.682333278957685 ], [ 140.312816252268249, 38.679061945552405 ], [ 140.320028443657861, 38.658286946185683 ], [ 140.313357588382019, 38.645210053601147 ], [ 140.299447640296421, 38.640597386760021 ], [ 140.302536161314833, 38.614979639798605 ], [ 140.288499559007505, 38.606302774753317 ], [ 140.275929105244131, 38.603342333382045 ], [ 140.265506497826664, 38.584703251753695 ], [ 140.256568859065624, 38.579551360406981 ], [ 140.25486136216216, 38.574584694328223 ], [ 140.241055615824052, 38.568495891971907 ], [ 140.235566419354882, 38.551094252297958 ], [ 140.217548664039668, 38.545662973067806 ], [ 140.210686640775862, 38.533706332681163 ], [ 140.183731529986176, 38.531762865363987 ], [ 140.178536446000294, 38.535663719704928 ], [ 140.162776226441792, 38.531346865065814 ], [ 140.151176641189068, 38.514050000007558 ], [ 140.124664306212821, 38.503878468016921 ], [ 140.12307985724965, 38.500944892093173 ], [ 140.126624086332527, 38.496959053617502 ], [ 140.122361529161253, 38.493687414442661 ], [ 140.113392218076456, 38.494459666780244 ], [ 140.08947413672206, 38.512260504718597 ], [ 140.080303995333225, 38.511245000156691 ], [ 140.074552283161438, 38.505003919195588 ], [ 140.050367523142768, 38.496294837736627 ], [ 140.035008469565241, 38.505489838185554 ], [ 140.035568755293866, 38.517095081073194 ], [ 140.039042970356832, 38.518028386700735 ], [ 140.035755422175043, 38.532735027099875 ], [ 140.043504138305366, 38.52747974789213 ], [ 140.054323969075995, 38.528288054050506 ], [ 140.057134837902481, 38.532807748079165 ], [ 140.073486135077133, 38.540050171078576 ], [ 140.078374811948038, 38.545919586519744 ], [ 140.076963385351974, 38.551066802291132 ], [ 140.083252607022246, 38.556019251886994 ], [ 140.097244721666584, 38.557142279392735 ], [ 140.099163332621742, 38.569469441361662 ], [ 140.107466226285396, 38.572574694266791 ], [ 140.110137886354437, 38.578192440728628 ], [ 140.117463281705113, 38.578882693781338 ], [ 140.112370414663019, 38.583106586399879 ], [ 140.105209728346381, 38.600242918875665 ], [ 140.111591141318172, 38.612618414008637 ], [ 140.108578859426871, 38.61923561303314 ], [ 140.095718975050772, 38.622398134766172 ], [ 140.091645550701628, 38.628108387292286 ], [ 140.08124403418492, 38.629572864895863 ], [ 140.080044279220147, 38.6340947739547 ], [ 140.071815031938286, 38.633759801673534 ], [ 140.06920247711264, 38.640936720753132 ], [ 140.063550998879577, 38.640765640022323 ], [ 140.062839027199402, 38.647910027026171 ], [ 140.055027782106549, 38.658876946414011 ], [ 140.043435422007178, 38.659748946156981 ], [ 140.041815357193059, 38.669160837902382 ], [ 140.033608300682545, 38.674093918799372 ], [ 140.03204189391829, 38.679105559074344 ], [ 140.042595576624649, 38.683320505237191 ], [ 140.042724137409095, 38.696475171192276 ], [ 140.038802140006851, 38.699979893057673 ], [ 140.049673606251986, 38.707326197645955 ], [ 140.056238586141944, 38.725943864617705 ], [ 140.046413995509511, 38.730579197971679 ], [ 140.042900025915515, 38.740387802255327 ], [ 140.04503642029465, 38.743547531593379 ], [ 140.034079856600215, 38.748984532310374 ], [ 140.038680726134658, 38.753995332618558 ], [ 140.028672476853444, 38.770230666711939 ], [ 140.029654942121965, 38.774373694990061 ], [ 140.032171088724795, 38.777122026760196 ], [ 140.03641111518084, 38.774670892147981 ], [ 140.055561193394396, 38.789160803128595 ], [ 140.065612672187171, 38.788677171114614 ], [ 140.074755499366916, 38.793277694410108 ], [ 140.073358781182833, 38.797712972675583 ], [ 140.085255810907029, 38.800516801609149 ], [ 140.076795383000558, 38.814208504918611 ], [ 140.089018222712866, 38.819130414437154 ], [ 140.112023385171142, 38.817421171949604 ], [ 140.117448975290017, 38.821084197877497 ], [ 140.117474474667347, 38.831128080996166 ], [ 140.113303281421395, 38.835216720974927 ], [ 140.087760583783961, 38.842309000360103 ], [ 140.088737198063313, 38.858349532305112 ], [ 140.092611919904243, 38.863643693701533 ], [ 140.120519921757023, 38.872876332576766 ], [ 140.114565940365878, 38.877316918640929 ], [ 140.118506809141991, 38.882434667226164 ], [ 140.115664553076726, 38.887738278698635 ], [ 140.118243449875422, 38.894767973363344 ], [ 140.13503383924035, 38.907254837840526 ], [ 140.140253022359161, 38.915686467656428 ], [ 140.130464305683176, 38.916144279235141 ], [ 140.123996446279079, 38.921227919233161 ], [ 140.121233281091122, 38.940842892085868 ], [ 140.126706641398414, 38.945543973075928 ], [ 140.141275940032642, 38.945954748313056 ], [ 140.143907612646217, 38.950744999781989 ], [ 140.137626082877432, 38.960955865420885 ], [ 140.147166394213741, 38.970008864717386 ], [ 140.137116472147568, 38.981841386970473 ], [ 140.120484915646443, 38.981087279354483 ], [ 140.111347300937268, 38.985113973131433 ], [ 140.110247807790188, 38.993072000172731 ], [ 140.113226978442412, 38.99658061340466 ], [ 140.118252309096874, 38.993518359784503 ], [ 140.12184333170444, 39.010265559208221 ], [ 140.114370920581564, 39.024468892225627 ], [ 140.131262387449283, 39.033794360021773 ], [ 140.140020699595652, 39.046076531606673 ], [ 140.157501089303878, 39.049104531848741 ], [ 140.162500532073977, 39.054260891926674 ], [ 140.171156719007399, 39.051031693557889 ], [ 140.17514616106655, 39.057433333181848 ], [ 140.19322569441033, 39.060477720870153 ], [ 140.193519339246222, 39.060381053642743 ] ] ] } }
]
}
