{
"type": "FeatureCollection",
"name": "07_fukushima_area",
"crs": { "type": "name", "properties": { "name": "urn:ogc:def:crs:OGC:1.3:CRS84" } },
"features": [
{ "type": "Feature", "properties": { "code": "070010", "name": "中通り", "PrefCode": "07", "regioncode": "070010" }, "geometry": { "type": "Polygon", "coordinates": [ [ [ 140.285530973375785, 37.972848612773305 ], [ 140.302419532735257, 37.96903227941624 ], [ 140.308527082358978, 37.963589225362512 ], [ 140.314205498884689, 37.96441174800384 ], [ 140.316452166334443, 37.958110891804267 ], [ 140.328508444409294, 37.958370359704361 ], [ 140.333836807922467, 37.951461720981683 ], [ 140.336037690886769, 37.955108414321899 ], [ 140.350227860527411, 37.950139505333937 ], [ 140.355770440753304, 37.952132558570781 ], [ 140.353557911568373, 37.954778107723541 ], [ 140.358874422916301, 37.958970333414186 ], [ 140.384490855968238, 37.952216891596322 ], [ 140.388407173252517, 37.969115775172952 ], [ 140.398304279818717, 37.974384865269371 ], [ 140.407451634185577, 37.97367310762786 ], [ 140.40912133618076, 37.963813946156733 ], [ 140.429127197562138, 37.954414386814562 ], [ 140.444650558176818, 37.956983169837486 ], [ 140.448195331349552, 37.950956224650099 ], [ 140.461617030301795, 37.952591134573254 ], [ 140.474879831638987, 37.946782223720675 ], [ 140.467429882882811, 37.938169197950174 ], [ 140.469530972576422, 37.917868667405116 ], [ 140.476662191706851, 37.906916388080901 ], [ 140.488857717209953, 37.899470774956342 ], [ 140.498347664713037, 37.900359892395159 ], [ 140.503380830261221, 37.905579865118739 ], [ 140.515792218236356, 37.903493413690114 ], [ 140.521887393188763, 37.908830333353251 ], [ 140.531666199335746, 37.905215838440256 ], [ 140.558945694688077, 37.909938442005569 ], [ 140.56369469515414, 37.912182585957623 ], [ 140.562609974270913, 37.918125359997418 ], [ 140.566379247904024, 37.922790891686361 ], [ 140.590980466875067, 37.906256586072629 ], [ 140.615494358078195, 37.91481833339941 ], [ 140.627342283919347, 37.89907327910862 ], [ 140.644672048876032, 37.895448693802223 ], [ 140.647291854935247, 37.898795892216697 ], [ 140.660348002858086, 37.900895748040398 ], [ 140.666976446106219, 37.895057666777973 ], [ 140.690080532190905, 37.888213027409336 ], [ 140.690889389633639, 37.883674197606183 ], [ 140.681870246214999, 37.87592377456258 ], [ 140.687457276332339, 37.871387667007298 ], [ 140.685818028978929, 37.867937971959918 ], [ 140.691441166876416, 37.861353838309071 ], [ 140.692006887208095, 37.850863108145973 ], [ 140.67923396907247, 37.836337774668607 ], [ 140.684377082136734, 37.830522531689553 ], [ 140.685387198860212, 37.815556278599445 ], [ 140.695307834389155, 37.804515505086556 ], [ 140.693906589017956, 37.797780027226509 ], [ 140.678370583935362, 37.787271027336089 ], [ 140.677982698243, 37.779754413635317 ], [ 140.681895837323054, 37.77867163978442 ], [ 140.684444642806056, 37.770177279557856 ], [ 140.699970117726821, 37.763860332688239 ], [ 140.702497612874595, 37.759546747084755 ], [ 140.722741114710743, 37.761435747861526 ], [ 140.735663449808385, 37.768298918660207 ], [ 140.736690894669096, 37.760877026053947 ], [ 140.728391672937391, 37.751861613023095 ], [ 140.704656394077347, 37.750108775899321 ], [ 140.697991166759039, 37.743522748276291 ], [ 140.685016225818231, 37.74268553161204 ], [ 140.678107471082967, 37.738369999875658 ], [ 140.676502890795859, 37.728101973327455 ], [ 140.669306888102483, 37.722279774991648 ], [ 140.671661920261499, 37.719048946151986 ], [ 140.667179856565213, 37.715645613854065 ], [ 140.668170661247132, 37.711457278630576 ], [ 140.661603060732773, 37.708657559598748 ], [ 140.662126328567297, 37.700427305975438 ], [ 140.654045330927374, 37.700077865401227 ], [ 140.644895668000686, 37.691653440953587 ], [ 140.646090635874202, 37.6842128919115 ], [ 140.655971388268995, 37.687603693955339 ], [ 140.659591414012652, 37.680542585971637 ], [ 140.66717483834816, 37.6760336667204 ], [ 140.66236800338072, 37.663077559381918 ], [ 140.668731634057735, 37.652845865444363 ], [ 140.667904423250548, 37.631092278685742 ], [ 140.67422552498806, 37.622376973918279 ], [ 140.697181245418165, 37.606336027385794 ], [ 140.718245965878737, 37.601443667791102 ], [ 140.726247977861931, 37.593686667106056 ], [ 140.713102776372125, 37.572620359342181 ], [ 140.697881167082301, 37.573681586336193 ], [ 140.698551608070375, 37.561496278930179 ], [ 140.693142891930961, 37.558503559092003 ], [ 140.681881995857452, 37.540915305596911 ], [ 140.695932335309067, 37.525892693792855 ], [ 140.705456329346134, 37.523331802320854 ], [ 140.691563995382126, 37.503040532094928 ], [ 140.702486355161227, 37.502097108195017 ], [ 140.730571051313063, 37.490290586241599 ], [ 140.741401778269505, 37.490462468268333 ], [ 140.747756523644739, 37.484910775212143 ], [ 140.766240661077745, 37.482173198434396 ], [ 140.764087004211888, 37.479377081187408 ], [ 140.771565357155623, 37.472145945578973 ], [ 140.779869728405288, 37.475662586159501 ], [ 140.792340661392473, 37.468586134842326 ], [ 140.799480310767763, 37.47264635984169 ], [ 140.809022697739351, 37.472154358736702 ], [ 140.819425279053462, 37.463875973397535 ], [ 140.834335888390569, 37.468153107679825 ], [ 140.835905005711538, 37.460591440642531 ], [ 140.845528999863518, 37.455388612594447 ], [ 140.842894423338976, 37.449266973292254 ], [ 140.844092386854186, 37.442040052806249 ], [ 140.850607198063813, 37.437972504627453 ], [ 140.850434746766268, 37.423826694046738 ], [ 140.861987859552187, 37.411244720867217 ], [ 140.858041582253236, 37.405420864181565 ], [ 140.859798585936005, 37.387048945952131 ], [ 140.851637522553688, 37.383451504883112 ], [ 140.850152996363704, 37.37931402722063 ], [ 140.854137470567821, 37.375920946294684 ], [ 140.850338171269641, 37.371232107775597 ], [ 140.819319079012303, 37.381929225153669 ], [ 140.795351698622085, 37.381994640939979 ], [ 140.790203774184874, 37.377669946011224 ], [ 140.788744916444784, 37.382082721440497 ], [ 140.770174694106913, 37.38723391940988 ], [ 140.764155939944771, 37.383460359607966 ], [ 140.755472892060425, 37.392833442009817 ], [ 140.742942725226612, 37.393615999678673 ], [ 140.740595837328101, 37.401051559282109 ], [ 140.72873461680922, 37.404623531550783 ], [ 140.726294228196139, 37.400399108332238 ], [ 140.714997638929958, 37.397253892253389 ], [ 140.712642827104901, 37.393211413575955 ], [ 140.715753916610083, 37.388961134848557 ], [ 140.699746666775354, 37.374276107856133 ], [ 140.69902083024715, 37.36939972112026 ], [ 140.706765836674094, 37.36543861310156 ], [ 140.70172128391016, 37.354839332968879 ], [ 140.707184578105853, 37.346270721116923 ], [ 140.71243105115218, 37.345602945719406 ], [ 140.723216446881565, 37.319540198021798 ], [ 140.695736005212552, 37.315094748423974 ], [ 140.690888859033635, 37.305489252427094 ], [ 140.695160466981974, 37.292638999790086 ], [ 140.689125888349167, 37.287250972554375 ], [ 140.693841114775637, 37.277537081271362 ], [ 140.685496134638925, 37.268213225060322 ], [ 140.682781478882248, 37.234375775321837 ], [ 140.66802418776615, 37.225576359661318 ], [ 140.663175552310008, 37.228383865023432 ], [ 140.654321218649329, 37.226029171009486 ], [ 140.647185745725665, 37.217618640188164 ], [ 140.627863773794161, 37.211996414203213 ], [ 140.61759408619821, 37.203691972806325 ], [ 140.607448690304864, 37.204318918982949 ], [ 140.605194162780435, 37.198338639616566 ], [ 140.607909636920226, 37.188166414248656 ], [ 140.601124475114489, 37.178982801914856 ], [ 140.609682555005975, 37.171769224670015 ], [ 140.608628611621157, 37.16774422521587 ], [ 140.613957250326962, 37.160827559144593 ], [ 140.611699415995304, 37.154254252431883 ], [ 140.620933190714254, 37.152749054425385 ], [ 140.624043255891593, 37.14294917086761 ], [ 140.63234258104535, 37.154997468358545 ], [ 140.634922917658628, 37.143861748021322 ], [ 140.642877522779486, 37.133509134838732 ], [ 140.642885058198885, 37.122503414201276 ], [ 140.655878171740255, 37.117316972700166 ], [ 140.653042802683217, 37.114856666801757 ], [ 140.664901219116018, 37.09001125221755 ], [ 140.653041673134794, 37.085805278590783 ], [ 140.655459221665865, 37.08094505357144 ], [ 140.652152166289511, 37.080031972797372 ], [ 140.657253138921305, 37.078129278943095 ], [ 140.657166472155041, 37.074919026591829 ], [ 140.640032826853485, 37.068459081221647 ], [ 140.642874746572375, 37.056650559176035 ], [ 140.633827496641743, 37.055619865064784 ], [ 140.62499744467641, 37.049145332691012 ], [ 140.627740531600352, 37.043939251795109 ], [ 140.620607393316618, 37.034486108147405 ], [ 140.620922724404295, 37.020375586064517 ], [ 140.61731418929844, 37.015156640366683 ], [ 140.61210927392392, 37.012739613442477 ], [ 140.598475914132223, 37.015711918670149 ], [ 140.603035109982443, 37.010098667019918 ], [ 140.599403800445089, 37.005223026721353 ], [ 140.565921504673724, 36.985730838307575 ], [ 140.57094927428966, 36.973946694184633 ], [ 140.582433917191565, 36.965350721358732 ], [ 140.582732994831872, 36.953450946903729 ], [ 140.587040557675664, 36.946302360065943 ], [ 140.567444527243197, 36.936675108569432 ], [ 140.570583994855497, 36.931314559219572 ], [ 140.56495802859024, 36.91285661364185 ], [ 140.571803695883887, 36.912473306397999 ], [ 140.580773579836887, 36.904407721339339 ], [ 140.579855227236976, 36.893633720919524 ], [ 140.593282139559165, 36.880032748412646 ], [ 140.592246251863116, 36.873452972876464 ], [ 140.588755084579589, 36.874911053602318 ], [ 140.58047263250603, 36.866889720584197 ], [ 140.575332245286972, 36.869072531672032 ], [ 140.57227494243466, 36.864078668295974 ], [ 140.538035887846036, 36.858856279094084 ], [ 140.535122477420487, 36.85211272082546 ], [ 140.527923995296192, 36.848365801640512 ], [ 140.528482826821119, 36.839994721379355 ], [ 140.519104306218765, 36.836239747866102 ], [ 140.513984422643034, 36.823507053707601 ], [ 140.504423695796959, 36.823169585807818 ], [ 140.501481114961507, 36.818172639555712 ], [ 140.488000389006856, 36.818362972972864 ], [ 140.489323385266061, 36.809576612770513 ], [ 140.480589611121673, 36.803736360544633 ], [ 140.478620362939409, 36.796941666824523 ], [ 140.46497435778042, 36.791315359716123 ], [ 140.438501024602715, 36.821541838085409 ], [ 140.4309698059119, 36.817039386758324 ], [ 140.423066445959762, 36.820519171322758 ], [ 140.41509866397223, 36.832026414187737 ], [ 140.392869001303438, 36.83244683825103 ], [ 140.37705914366461, 36.838058026856515 ], [ 140.376889778840336, 36.84704855924366 ], [ 140.368407276174935, 36.861230251874701 ], [ 140.372433190239576, 36.871254359800901 ], [ 140.365211829362465, 36.884324946339234 ], [ 140.346381388190593, 36.885044531679853 ], [ 140.326526031051571, 36.891302170958454 ], [ 140.321665005635509, 36.908021945556413 ], [ 140.292703916552568, 36.933197441009156 ], [ 140.285124720829231, 36.935535279029978 ], [ 140.272974889879379, 36.930154801602839 ], [ 140.243037327710567, 36.943486251789125 ], [ 140.241211581649281, 36.952077918661075 ], [ 140.253089830831073, 36.962967892054621 ], [ 140.243670195023583, 36.973999279343332 ], [ 140.244201361603587, 36.978990945675662 ], [ 140.250976445606511, 36.983374801605862 ], [ 140.250246498277306, 36.988658693643856 ], [ 140.243954551661318, 36.991389801598132 ], [ 140.240213218165536, 37.000275080930294 ], [ 140.246016394041362, 37.005198666785077 ], [ 140.244895304574698, 37.010240613313726 ], [ 140.252046199072879, 37.010226135128107 ], [ 140.2494635539, 37.025561693917098 ], [ 140.224654500704673, 37.023804558933307 ], [ 140.219983865363133, 37.018487641091838 ], [ 140.20308046718992, 37.023962387254414 ], [ 140.195593333265833, 37.036526027754007 ], [ 140.199782891567224, 37.047692666783178 ], [ 140.190650661099198, 37.056666306305033 ], [ 140.19458627783456, 37.060235999691656 ], [ 140.19339046729624, 37.065106837610529 ], [ 140.172827003763246, 37.070254973388387 ], [ 140.165617522930347, 37.078685801908307 ], [ 140.157199973799834, 37.081420278722931 ], [ 140.152917716979118, 37.086171109309305 ], [ 140.156233061406738, 37.091389440770115 ], [ 140.14937800429152, 37.092554170738424 ], [ 140.140085188180933, 37.104662251561706 ], [ 140.128260052059773, 37.104057837898949 ], [ 140.097559830621776, 37.124345946108576 ], [ 140.08906693898814, 37.121509585998638 ], [ 140.065483605983673, 37.127486026159204 ], [ 140.059473217315144, 37.125474667222193 ], [ 140.038656355406488, 37.139432774902673 ], [ 140.028521192898779, 37.139574225670003 ], [ 140.023255305288217, 37.143324802397785 ], [ 140.01706319061384, 37.139575973052786 ], [ 139.990308002712254, 37.142748387328254 ], [ 139.963015861992517, 37.148492720562672 ], [ 139.961261192949792, 37.153295747800598 ], [ 139.96401500608772, 37.160881252268041 ], [ 139.959902580839525, 37.180293613259721 ], [ 139.982140999307717, 37.20193619759749 ], [ 139.993674423236143, 37.196347305883535 ], [ 139.999528715677798, 37.199679748221854 ], [ 140.017622866602096, 37.196944134664136 ], [ 140.039220000103001, 37.206099584728122 ], [ 140.048651776758106, 37.203170667292511 ], [ 140.063613501761779, 37.213182279138948 ], [ 140.071356860630658, 37.209956694246102 ], [ 140.071888754762313, 37.223974170671511 ], [ 140.083096667277459, 37.226426081398586 ], [ 140.089220699675593, 37.232998027437077 ], [ 140.086251388290975, 37.246546332946934 ], [ 140.092788858818835, 37.242091891927316 ], [ 140.10147836563408, 37.242384668018076 ], [ 140.099290388840473, 37.251702999693748 ], [ 140.114626328941995, 37.261702441014904 ], [ 140.115344746962592, 37.271736885748737 ], [ 140.104615736027426, 37.285973412742862 ], [ 140.117403839215854, 37.308361053919555 ], [ 140.107282942653796, 37.31455633330819 ], [ 140.108745499305428, 37.322663000297268 ], [ 140.114359974033619, 37.319510774902369 ], [ 140.115571672894475, 37.328940504700597 ], [ 140.121372801913367, 37.328267441289427 ], [ 140.129865939961178, 37.334364666696047 ], [ 140.134558755282342, 37.330029668234658 ], [ 140.145553838738692, 37.335630775439995 ], [ 140.153586939385832, 37.331446053692503 ], [ 140.166760414661439, 37.338314945978027 ], [ 140.168039078840479, 37.346170224576269 ], [ 140.175073306987542, 37.346576891710242 ], [ 140.173817782364836, 37.355771892159169 ], [ 140.180941777241287, 37.360318278066131 ], [ 140.183702670741695, 37.368801892293561 ], [ 140.198215979384031, 37.378506004348651 ], [ 140.191323654363259, 37.399925697113304 ], [ 140.180170475487103, 37.412070979292309 ], [ 140.184201292655644, 37.421394889462647 ], [ 140.181250290568528, 37.427635498279699 ], [ 140.195612159673487, 37.429939110801399 ], [ 140.203770328138148, 37.441839590324889 ], [ 140.216103701724478, 37.449556395811044 ], [ 140.199895939945691, 37.453897330697316 ], [ 140.201526886556621, 37.465205414198579 ], [ 140.19282016851605, 37.474456251754646 ], [ 140.19878255497099, 37.484749278556421 ], [ 140.192620052273696, 37.4936426400958 ], [ 140.187128885389825, 37.495003468135621 ], [ 140.190019338821457, 37.51032094605489 ], [ 140.178374746097688, 37.513125134717257 ], [ 140.165259688983497, 37.526087891642931 ], [ 140.17165955874168, 37.535182891077625 ], [ 140.179138275011496, 37.535235387203386 ], [ 140.190994616708281, 37.544736224597159 ], [ 140.192228301295131, 37.55392677520058 ], [ 140.20313596615199, 37.559898440860422 ], [ 140.210036082899023, 37.562464837981963 ], [ 140.217727249612949, 37.554638441111194 ], [ 140.22826627786651, 37.555044252090624 ], [ 140.240344915785272, 37.576469560222051 ], [ 140.238420532081932, 37.590081802133511 ], [ 140.248683773337575, 37.598976000042398 ], [ 140.263855668104611, 37.603535721096705 ], [ 140.285269728415301, 37.627416054307503 ], [ 140.280681919734889, 37.636535026969966 ], [ 140.282585667594503, 37.654540081159894 ], [ 140.277910895371633, 37.661956198319956 ], [ 140.263209559173902, 37.664516667110547 ], [ 140.245183773812187, 37.676135559008912 ], [ 140.230749144157699, 37.679154081295849 ], [ 140.236604863823459, 37.70298486455988 ], [ 140.231275641457728, 37.707890359652424 ], [ 140.229280363298244, 37.716383279165029 ], [ 140.231876030654348, 37.730208081238004 ], [ 140.244251219118496, 37.735142108221794 ], [ 140.237254865020077, 37.746468467745615 ], [ 140.240427224436871, 37.753527054030371 ], [ 140.254950142335247, 37.764617801970019 ], [ 140.266175252585867, 37.779176919379381 ], [ 140.276287977008565, 37.781768000193097 ], [ 140.282211310403682, 37.798229054227534 ], [ 140.298801829041281, 37.807808198289763 ], [ 140.291366252350713, 37.814938197939512 ], [ 140.28738147777301, 37.813827641332637 ], [ 140.268994059728129, 37.823787945957008 ], [ 140.262115965579369, 37.834416305668015 ], [ 140.267339195647423, 37.847566305940347 ], [ 140.265467327854935, 37.862154639624976 ], [ 140.269962438016137, 37.866545504871226 ], [ 140.264765810793619, 37.885955774939134 ], [ 140.270720077269857, 37.890737440580494 ], [ 140.264529831386653, 37.91193691905363 ], [ 140.276504501381737, 37.926350531551861 ], [ 140.281004358164637, 37.941347774380347 ], [ 140.275288780752703, 37.947246639920536 ], [ 140.278074669110765, 37.952628585940545 ], [ 140.272491828035527, 37.957929414011289 ], [ 140.27129713355589, 37.966817999251305 ], [ 140.277737004259393, 37.975844413688776 ], [ 140.285045693803795, 37.972955559251716 ], [ 140.285530973375785, 37.972848612773305 ] ] ] } },
{ "type": "Feature", "properties": { "code": "070020", "name": "浜通り", "PrefCode": "07", "regioncode": "070020" }, "geometry": { "type": "MultiPolygon", "coordinates": [ [ [ [ 140.900000000000091, 36.915519251712169 ], [ 140.882550948067887, 36.908409919382336 ], [ 140.90667311257414, 36.91761661281646 ], [ 140.900022217751257, 36.915525919285813 ], [ 140.900000000000091, 36.915519251712169 ] ] ], [ [ [ 140.865025615639752, 36.912634559337505 ], [ 140.872347471258877, 36.917655531877358 ], [ 140.865081996836693, 36.912683585878824 ], [ 140.865025615639752, 36.912634559337505 ] ] ], [ [ [ 140.882886420372074, 36.920405531889855 ], [ 140.87340691309862, 36.918185252347598 ], [ 140.882914474723293, 36.92041664031575 ], [ 140.882886420372074, 36.920405531889855 ] ] ], [ [ [ 140.901087056422625, 36.930363775268063 ], [ 140.900155033228316, 36.934684388174048 ], [ 140.901541920023647, 36.930753304921154 ], [ 140.901087056422625, 36.930363775268063 ] ] ], [ [ [ 140.906693061335773, 36.934411972734381 ], [ 140.903886161217429, 36.936665612627962 ], [ 140.906608884792263, 36.934490864861573 ], [ 140.906693061335773, 36.934411972734381 ] ] ], [ [ [ 140.910028418376896, 36.938779505070158 ], [ 140.897908079794092, 36.935645892044363 ], [ 140.890884889925815, 36.926738054117948 ], [ 140.888178301087805, 36.914827171236993 ], [ 140.890772671621562, 36.926687225335229 ], [ 140.897886979000987, 36.935741721103625 ], [ 140.910007860774272, 36.938860053748556 ], [ 140.910028418376896, 36.938779505070158 ] ] ], [ [ [ 140.957159143879494, 36.953996251725698 ], [ 140.953067108060623, 36.952747972940642 ], [ 140.957084967797073, 36.954136251886553 ], [ 140.957159143879494, 36.953996251725698 ] ] ], [ [ [ 140.969038858956196, 36.96111172102917 ], [ 140.971326420378091, 36.962345332770951 ], [ 140.969102191912725, 36.961140054170244 ], [ 140.969038858956196, 36.96111172102917 ] ] ], [ [ [ 140.999999999800252, 37.108031522936471 ], [ 140.997388612294685, 37.103362847217682 ], [ 141.000048457070648, 37.108063667404394 ], [ 140.999999999800252, 37.108031522936471 ] ] ], [ [ [ 141.007559558826642, 37.148536666833763 ], [ 141.009317886311464, 37.146176109240116 ], [ 141.007433165408315, 37.14846889212572 ], [ 141.007559558826642, 37.148536666833763 ] ] ], [ [ [ 141.022953060935038, 37.665423946358089 ], [ 141.021178949448995, 37.670646467760321 ], [ 141.022601088769306, 37.666660640076543 ], [ 141.022953060935038, 37.665423946358089 ] ] ], [ [ [ 141.018741555578345, 37.688246026632896 ], [ 141.019693086866482, 37.685325414436363 ], [ 141.018553839188371, 37.688207639970642 ], [ 141.018741555578345, 37.688246026632896 ] ] ], [ [ [ 140.973306498196393, 37.832941693604312 ], [ 140.970926303905912, 37.832875413569525 ], [ 140.974036614598162, 37.833009053724879 ], [ 140.973306498196393, 37.832941693604312 ] ] ], [ [ [ 140.900507497323247, 37.902525801624506 ], [ 140.901119663142026, 37.897637774963414 ], [ 140.914866446329484, 37.898028775008015 ], [ 140.920209857299142, 37.891997388069058 ], [ 140.931170830369638, 37.896197431566293 ], [ 140.933414137052864, 37.879562694163042 ], [ 140.946410506139955, 37.853208414137043 ], [ 140.949792502921696, 37.858146134636456 ], [ 140.967786329075921, 37.859415197653277 ], [ 140.955856251964519, 37.859367892414355 ], [ 140.956873112704102, 37.856402558731133 ], [ 140.949375278646244, 37.855250504707101 ], [ 140.952482334692036, 37.846207945640231 ], [ 140.958774668915908, 37.845045775142466 ], [ 140.953882217590376, 37.840633837881342 ], [ 140.962382802024763, 37.841626279329375 ], [ 140.955118392399982, 37.838558774567844 ], [ 140.959482334642075, 37.831374053869524 ], [ 140.962466251916112, 37.830495386552911 ], [ 140.967490337009508, 37.844650306366589 ], [ 140.963026082587703, 37.831450945904464 ], [ 140.970282310180551, 37.828071108394965 ], [ 140.972520025778635, 37.831617531823667 ], [ 140.975366744279881, 37.827405890669354 ], [ 140.974897691175556, 37.831992532029801 ], [ 140.97547935109128, 37.827302287870339 ], [ 140.980877588330145, 37.825676919754073 ], [ 140.976544136702614, 37.837263413575727 ], [ 140.978468664297452, 37.829158036214437 ], [ 140.987353529042252, 37.822730532088428 ], [ 140.989047197969853, 37.773226892307264 ], [ 140.991805227129589, 37.766961467597696 ], [ 141.000611440765397, 37.763087001164251 ], [ 141.011344384435802, 37.73977072094209 ], [ 141.011226030956664, 37.689512801774413 ], [ 141.017475161749417, 37.686201801971663 ], [ 141.013476108635587, 37.684192505180022 ], [ 141.014572970366316, 37.675038225134017 ], [ 141.017295641780493, 37.671541252726684 ], [ 141.032130026379718, 37.673327837809495 ], [ 141.041004189191995, 37.664976837610993 ], [ 141.032039390005934, 37.67316161341779 ], [ 141.019069948419428, 37.671762747652735 ], [ 141.022251556464198, 37.664282748050425 ], [ 141.03307355370157, 37.666949360224862 ], [ 141.019986680440979, 37.662593359895709 ], [ 141.019225576998792, 37.658292891803569 ], [ 141.024530077900863, 37.642187305599748 ], [ 141.022489105188129, 37.619785973144189 ], [ 141.027628690211941, 37.602681251838362 ], [ 141.025217782274922, 37.584372386876225 ], [ 141.030384305591269, 37.529864946210353 ], [ 141.040171414279371, 37.486082197935161 ], [ 141.045269274357565, 37.483967107596015 ], [ 141.041151764342544, 37.48406550511902 ], [ 141.044728975162116, 37.481500306793748 ], [ 141.040992775895916, 37.479128054416208 ], [ 141.045895966026023, 37.479730171210463 ], [ 141.040212361311546, 37.478687748141112 ], [ 141.036811089360299, 37.471041080781333 ], [ 141.0392404666743, 37.453357000025562 ], [ 141.034610025632219, 37.433690945680667 ], [ 141.040823280669883, 37.423613278629944 ], [ 141.035210699913932, 37.430280306391069 ], [ 141.036532438021709, 37.419900585843436 ], [ 141.042851115186863, 37.423322440578204 ], [ 141.033895278644309, 37.418965972601598 ], [ 141.035486421261453, 37.368084585834993 ], [ 141.039178144555763, 37.363929306092643 ], [ 141.033320271913112, 37.356561505009495 ], [ 141.032205005556648, 37.344111440790414 ], [ 141.02753089523469, 37.339043279024168 ], [ 141.030731970903844, 37.335893468308996 ], [ 141.027275693718366, 37.338182197950118 ], [ 141.029721855079629, 37.334201359705048 ], [ 141.026625759071635, 37.333807792995287 ], [ 141.025443942883726, 37.324801386674721 ], [ 141.036093138987212, 37.319107278777949 ], [ 141.027430245809228, 37.322292225106139 ], [ 141.028041530292398, 37.313706694308564 ], [ 141.030077563029181, 37.319293225302147 ], [ 141.032502191922731, 37.315599440761616 ], [ 141.029366550026339, 37.313701107720021 ], [ 141.038613307358332, 37.318947080743214 ], [ 141.031593644631016, 37.313501081409811 ], [ 141.025344526428853, 37.313426134608505 ], [ 141.024503722368991, 37.296480891879696 ], [ 141.012805914061801, 37.253550252142475 ], [ 141.012926666932231, 37.240912171159835 ], [ 141.020813189776959, 37.240611278687595 ], [ 141.023247328101775, 37.235072640190253 ], [ 141.016491114573341, 37.234857134749006 ], [ 141.020916718831586, 37.234538225258916 ], [ 141.016486108946879, 37.234547694220737 ], [ 141.016462723875634, 37.230172693914767 ], [ 141.02231836619967, 37.229238505152921 ], [ 141.028782749724201, 37.237971747797985 ], [ 141.02243058360466, 37.22906266700852 ], [ 141.012321505932846, 37.229132467889144 ], [ 141.002515965639418, 37.200158387199849 ], [ 140.999150000172449, 37.170898412931479 ], [ 141.002130557579221, 37.166559225427989 ], [ 141.000689274390538, 37.155020919080187 ], [ 141.005140895136265, 37.147353641057748 ], [ 140.999836860982441, 37.150021586027435 ], [ 141.005576978195108, 37.144542252423037 ], [ 141.001435188283381, 37.143987027179605 ], [ 140.998840362692704, 37.13533619840689 ], [ 141.000541996915672, 37.108968504093241 ], [ 140.994762114380137, 37.10561563994986 ], [ 140.99678582280751, 37.102600856144647 ], [ 140.989776420445537, 37.101752612892824 ], [ 140.984221219134042, 37.0920737484048 ], [ 140.97417372164, 37.0527551079619 ], [ 140.972808301661871, 37.022074560092904 ], [ 140.975660660711014, 37.011562026766171 ], [ 140.981230699936873, 37.010497558615498 ], [ 140.979652087573868, 37.008347359642983 ], [ 140.98210211422122, 37.011517000409299 ], [ 140.979531167429514, 37.006401440773914 ], [ 140.982981024354899, 36.995443919301465 ], [ 140.970631581682255, 36.987922864748441 ], [ 140.966919830485836, 36.970137026602572 ], [ 140.95883610879946, 36.969849586189525 ], [ 140.957720168850756, 36.965218467957982 ], [ 140.961719999878142, 36.967894585966405 ], [ 140.959734384034618, 36.965415693779278 ], [ 140.949236640958247, 36.960384918629131 ], [ 140.951040169268481, 36.955038504823165 ], [ 140.937265772397495, 36.952491918866997 ], [ 140.925760946910259, 36.941095864582564 ], [ 140.924972282844692, 36.935319720528753 ], [ 140.908754448658897, 36.934306973288244 ], [ 140.914941996575976, 36.936455297174291 ], [ 140.91038907889299, 36.939218224941158 ], [ 140.916264616918625, 36.940692891863534 ], [ 140.90940797699659, 36.945482865441932 ], [ 140.905215499495739, 36.940989721198719 ], [ 140.903156693226833, 36.944656802169732 ], [ 140.895100920670984, 36.93903146812778 ], [ 140.89572513560654, 36.942412053873227 ], [ 140.893269000763894, 36.941668170649621 ], [ 140.891157523001311, 36.936845360125346 ], [ 140.884985135855345, 36.938359197918714 ], [ 140.888303555065022, 36.934386360042538 ], [ 140.879090039373864, 36.9330293514235 ], [ 140.882755940434322, 36.929048450225821 ], [ 140.880490636333889, 36.927707269674784 ], [ 140.875882165729422, 36.93313758573106 ], [ 140.873426252119884, 36.931642622009463 ], [ 140.874521530144534, 36.927289747723705 ], [ 140.868892335313035, 36.926278639947327 ], [ 140.872222827921291, 36.922274440912759 ], [ 140.866857030127903, 36.925031945767728 ], [ 140.861631114684315, 36.921742721249643 ], [ 140.864959364383253, 36.916146053997238 ], [ 140.854012477394008, 36.920223586449424 ], [ 140.841472891960507, 36.908606360095519 ], [ 140.827733061431672, 36.912572532196634 ], [ 140.815616472122542, 36.907651945580881 ], [ 140.79464213982294, 36.884522081329067 ], [ 140.789750660664481, 36.872309946247071 ], [ 140.792053917054659, 36.861761171141211 ], [ 140.789439922414545, 36.859631107989287 ], [ 140.793466912967688, 36.859292197576906 ], [ 140.78616758806379, 36.856225865531314 ], [ 140.78641739274849, 36.862108332833373 ], [ 140.777805616136334, 36.867274197846029 ], [ 140.771693864880035, 36.868523946123275 ], [ 140.771468832021014, 36.865032585485494 ], [ 140.76725630413523, 36.867815640079755 ], [ 140.771543800406107, 36.863066198046681 ], [ 140.76504396920393, 36.862274586003366 ], [ 140.767331555806663, 36.865107612326483 ], [ 140.765368780944527, 36.867432332835961 ], [ 140.764143969068982, 36.86310791939502 ], [ 140.764644034394792, 36.866690667340492 ], [ 140.759856471898729, 36.866723747103322 ], [ 140.760106278382068, 36.872364802193943 ], [ 140.758381439851632, 36.867298748438543 ], [ 140.740846056600276, 36.875556053669015 ], [ 140.734207808043948, 36.871592837639412 ], [ 140.724535446553659, 36.874217134912897 ], [ 140.721305914536401, 36.870889747663796 ], [ 140.705487691403846, 36.8783943868915 ], [ 140.70616442314963, 36.881366333289691 ], [ 140.695083747616877, 36.888771252091658 ], [ 140.688183060699771, 36.888426999706326 ], [ 140.68010325556088, 36.893384748107678 ], [ 140.656080999438586, 36.897150505391551 ], [ 140.654959364083425, 36.901041693819138 ], [ 140.636214112091693, 36.89757194568881 ], [ 140.627989883026771, 36.902856891732199 ], [ 140.615519441968786, 36.903270305580179 ], [ 140.601247911561927, 36.922809837903742 ], [ 140.592669999820714, 36.926743360118053 ], [ 140.594460077870394, 36.938053774662023 ], [ 140.589298884835785, 36.939480666899328 ], [ 140.586113022098402, 36.94528427894636 ], [ 140.582433917191565, 36.965350721358732 ], [ 140.57094927428966, 36.973946694184633 ], [ 140.565895382965664, 36.985639441107367 ], [ 140.599403800445089, 37.005223026721353 ], [ 140.603035109982443, 37.010098667019918 ], [ 140.598475914132223, 37.015711918670149 ], [ 140.61210927392392, 37.012739613442477 ], [ 140.61731418929844, 37.015156640366683 ], [ 140.620922724404295, 37.020375586064517 ], [ 140.620607393316618, 37.034486108147405 ], [ 140.627740531600352, 37.043939251795109 ], [ 140.62499744467641, 37.049145332691012 ], [ 140.633827496641743, 37.055619865064784 ], [ 140.642874746572375, 37.056650559176035 ], [ 140.640032826853485, 37.068459081221647 ], [ 140.657166472155041, 37.074919026591829 ], [ 140.657253138921305, 37.078129278943095 ], [ 140.652152166289511, 37.080031972797372 ], [ 140.655459221665865, 37.08094505357144 ], [ 140.653041673134794, 37.085805278590783 ], [ 140.664881776672701, 37.08995291859236 ], [ 140.653042802683217, 37.114856666801757 ], [ 140.655878171740255, 37.117316972700166 ], [ 140.642801725219556, 37.122670081059425 ], [ 140.642877522779486, 37.133509134838732 ], [ 140.634922917658628, 37.143861748021322 ], [ 140.632448145265812, 37.154858586054957 ], [ 140.6238876911641, 37.142963053702033 ], [ 140.620933190714254, 37.152749054425385 ], [ 140.611699415995304, 37.154254252431883 ], [ 140.613957250326962, 37.160827559144593 ], [ 140.608628611621157, 37.16774422521587 ], [ 140.609682555005975, 37.171769224670015 ], [ 140.601148638099289, 37.179138640036285 ], [ 140.607560169366366, 37.186514748157151 ], [ 140.605081608129808, 37.194448918882529 ], [ 140.607292023907803, 37.204230585772962 ], [ 140.61759408619821, 37.203691972806325 ], [ 140.627863773794161, 37.211996414203213 ], [ 140.647185745725665, 37.217618640188164 ], [ 140.654321218649329, 37.226029171009486 ], [ 140.663175552310008, 37.228383865023432 ], [ 140.66802418776615, 37.225576359661318 ], [ 140.682781478882248, 37.234375775321837 ], [ 140.685496134638925, 37.268213225060322 ], [ 140.693841114775637, 37.277537081271362 ], [ 140.689125888349167, 37.287250972554375 ], [ 140.695160466981974, 37.292638999790086 ], [ 140.690888859033635, 37.305489252427094 ], [ 140.695736005212552, 37.315094748423974 ], [ 140.723216446881565, 37.319540198021798 ], [ 140.71243105115218, 37.345602945719406 ], [ 140.707184578105853, 37.346270721116923 ], [ 140.70172128391016, 37.354839332968879 ], [ 140.706717223820874, 37.365608891637066 ], [ 140.698984720668363, 37.369511667829272 ], [ 140.699919441828797, 37.374502224398213 ], [ 140.715753916610083, 37.388961134848557 ], [ 140.712642827104901, 37.393211413575955 ], [ 140.714997638929958, 37.397253892253389 ], [ 140.726294228196139, 37.400399108332238 ], [ 140.72873461680922, 37.404623531550783 ], [ 140.740595837328101, 37.401051559282109 ], [ 140.742942725226612, 37.393615999678673 ], [ 140.755472892060425, 37.392833442009817 ], [ 140.764155939944771, 37.383460359607966 ], [ 140.770174694106913, 37.38723391940988 ], [ 140.788744916444784, 37.382082721440497 ], [ 140.790203774184874, 37.377669946011224 ], [ 140.795351698622085, 37.381994640939979 ], [ 140.819319079012303, 37.381929225153669 ], [ 140.849834526642212, 37.371210170612926 ], [ 140.854137470567821, 37.375920946294684 ], [ 140.850152996363704, 37.37931402722063 ], [ 140.851637522553688, 37.383451504883112 ], [ 140.859798585936005, 37.387048945952131 ], [ 140.858041582253236, 37.405420864181565 ], [ 140.861987859552187, 37.411244720867217 ], [ 140.850434746766268, 37.423826694046738 ], [ 140.850607198063813, 37.437972504627453 ], [ 140.844092386854186, 37.442040052806249 ], [ 140.842894423338976, 37.449266973292254 ], [ 140.845528999863518, 37.455388612594447 ], [ 140.835905005711538, 37.460591440642531 ], [ 140.834633385022812, 37.467961999946397 ], [ 140.819425279053462, 37.463875973397535 ], [ 140.809022697739351, 37.472154358736702 ], [ 140.799480310767763, 37.47264635984169 ], [ 140.792340661392473, 37.468586134842326 ], [ 140.779869728405288, 37.475662586159501 ], [ 140.771565357155623, 37.472145945578973 ], [ 140.764087004211888, 37.479377081187408 ], [ 140.766240661077745, 37.482173198434396 ], [ 140.747756523644739, 37.484910775212143 ], [ 140.741401778269505, 37.490462468268333 ], [ 140.730571051313063, 37.490290586241599 ], [ 140.702486355161227, 37.502097108195017 ], [ 140.691563995382126, 37.503040532094928 ], [ 140.705456329346134, 37.523331802320854 ], [ 140.695932335309067, 37.525892693792855 ], [ 140.681881995857452, 37.540915305596911 ], [ 140.693142891930961, 37.558503559092003 ], [ 140.698551608070375, 37.561496278930179 ], [ 140.697881167082301, 37.573681586336193 ], [ 140.713102776372125, 37.572620359342181 ], [ 140.726247977861931, 37.593686667106056 ], [ 140.718245965878737, 37.601443667791102 ], [ 140.697181245418165, 37.606336027385794 ], [ 140.67422552498806, 37.622376973918279 ], [ 140.667904423250548, 37.631092278685742 ], [ 140.668731634057735, 37.652845865444363 ], [ 140.66236800338072, 37.663077559381918 ], [ 140.66717483834816, 37.6760336667204 ], [ 140.659591414012652, 37.680542585971637 ], [ 140.655971388268995, 37.687603693955339 ], [ 140.646090635874202, 37.6842128919115 ], [ 140.644895668000686, 37.691653440953587 ], [ 140.654045330927374, 37.700077865401227 ], [ 140.662126328567297, 37.700427305975438 ], [ 140.661603060732773, 37.708657559598748 ], [ 140.668170661247132, 37.711457278630576 ], [ 140.667179856565213, 37.715645613854065 ], [ 140.671661920261499, 37.719048946151986 ], [ 140.669306888102483, 37.722279774991648 ], [ 140.676502890795859, 37.728101973327455 ], [ 140.678107471082967, 37.738369999875658 ], [ 140.685016225818231, 37.74268553161204 ], [ 140.697991166759039, 37.743522748276291 ], [ 140.704656394077347, 37.750108775899321 ], [ 140.728391672937391, 37.751861613023095 ], [ 140.736690894669096, 37.760877026053947 ], [ 140.735663449808385, 37.768298918660207 ], [ 140.722741114710743, 37.761435747861526 ], [ 140.702497612874595, 37.759546747084755 ], [ 140.699970117726821, 37.763860332688239 ], [ 140.68431852098297, 37.770282000214195 ], [ 140.681895837323054, 37.77867163978442 ], [ 140.677982698243, 37.779754413635317 ], [ 140.678370583935362, 37.787271027336089 ], [ 140.693906589017956, 37.797780027226509 ], [ 140.69437333266319, 37.803264972600459 ], [ 140.702785188185999, 37.803204081303363 ], [ 140.723001855151551, 37.792535198140911 ], [ 140.726969831292763, 37.781479171226806 ], [ 140.745150051833434, 37.788462864669498 ], [ 140.775219559834909, 37.781816586066668 ], [ 140.794047640286408, 37.773251504953066 ], [ 140.803235161973248, 37.779842801703978 ], [ 140.794922502571467, 37.780906197862805 ], [ 140.783066524200763, 37.791495053953611 ], [ 140.765016472432308, 37.7982695857728 ], [ 140.777776887293612, 37.806306945609094 ], [ 140.810179974126527, 37.795534640411404 ], [ 140.821616666975615, 37.798886532387598 ], [ 140.830507392602158, 37.794764559037219 ], [ 140.852106524396618, 37.79543805412294 ], [ 140.85795344959206, 37.802975774912113 ], [ 140.853715888177817, 37.807029108406653 ], [ 140.858252776344671, 37.814748504839656 ], [ 140.853656614761007, 37.821013774865889 ], [ 140.85597649781721, 37.828812612911804 ], [ 140.85234197140494, 37.829733748014121 ], [ 140.855090143095708, 37.833775919123411 ], [ 140.850546056755206, 37.849313945881931 ], [ 140.861562335433518, 37.862828802007641 ], [ 140.854579533218953, 37.874518225036127 ], [ 140.861123086761154, 37.879401225386289 ], [ 140.856592995670326, 37.882469559322772 ], [ 140.859937886424404, 37.888663666894786 ], [ 140.856251414271469, 37.890900054194219 ], [ 140.900511388689665, 37.902674973071612 ], [ 140.900507497323247, 37.902525801624506 ] ] ] ] } },
{ "type": "Feature", "properties": { "code": "070030", "name": "会津", "PrefCode": "07", "regioncode": "070030" }, "geometry": { "type": "Polygon", "coordinates": [ [ [ 139.714743747925695, 37.854400774875899 ], [ 139.720856472248443, 37.83968664042618 ], [ 139.741242606561059, 37.820326387053171 ], [ 139.782954475168935, 37.831968801618928 ], [ 139.794743139284492, 37.81781658606667 ], [ 139.803417107613541, 37.815161864728339 ], [ 139.804236497916122, 37.805418559319094 ], [ 139.809758222863707, 37.803261305165165 ], [ 139.8216139440284, 37.811993775292535 ], [ 139.837874694761467, 37.814495414032194 ], [ 139.857717172709386, 37.826538721185102 ], [ 139.876422048738618, 37.817329837901752 ], [ 139.879446809622664, 37.810270107679401 ], [ 139.886619636786918, 37.809157053655156 ], [ 139.898831440018967, 37.810280108140546 ], [ 139.907380467334747, 37.815427306824802 ], [ 139.924826743959102, 37.81351397219214 ], [ 139.930085472966311, 37.822470892417812 ], [ 139.927958248974051, 37.827523360115038 ], [ 139.937031946167394, 37.82829586516209 ], [ 139.940992217816643, 37.82166530580929 ], [ 139.957919027141429, 37.814861386843575 ], [ 139.962130388606624, 37.805802505081601 ], [ 139.959362282543339, 37.797679197936702 ], [ 139.968782022672258, 37.788465864807847 ], [ 139.967361166684555, 37.783542838331357 ], [ 139.978945940103131, 37.77355172113505 ], [ 139.978039779612232, 37.766240919083202 ], [ 139.992568755343882, 37.758699531758054 ], [ 140.037297496882047, 37.767900531584303 ], [ 140.051259611042269, 37.77935961305576 ], [ 140.053517082047733, 37.770839107738709 ], [ 140.064999662804212, 37.767618279360136 ], [ 140.069122724334306, 37.757844171271529 ], [ 140.086730143281557, 37.75804386483253 ], [ 140.101757977448756, 37.737994306292251 ], [ 140.115371167245598, 37.734356000029436 ], [ 140.14069291764406, 37.738078694176465 ], [ 140.146009753647263, 37.752720224558743 ], [ 140.166414253914695, 37.757290973099998 ], [ 140.199598586305797, 37.752811135225784 ], [ 140.20482082981755, 37.747530026589516 ], [ 140.240454616887178, 37.744098468169796 ], [ 140.244251219118496, 37.735142108221794 ], [ 140.232029636658467, 37.730351693975535 ], [ 140.230182918406967, 37.725606774632979 ], [ 140.230135356861297, 37.712050278997253 ], [ 140.236411245182921, 37.704280667119122 ], [ 140.23674955934473, 37.696048026695109 ], [ 140.231860310504999, 37.690493107770749 ], [ 140.230749144157699, 37.679154081295849 ], [ 140.245183773812187, 37.676135559008912 ], [ 140.263209559173902, 37.664516667110547 ], [ 140.277910895371633, 37.661956198319956 ], [ 140.282585667594503, 37.654540081159894 ], [ 140.280681919734889, 37.636535026969966 ], [ 140.285269728415301, 37.627416054307503 ], [ 140.263855668104611, 37.603535721096705 ], [ 140.248683773337575, 37.598976000042398 ], [ 140.238420532081932, 37.590081802133511 ], [ 140.240344915785272, 37.576469560222051 ], [ 140.22826627786651, 37.555044252090624 ], [ 140.217727249612949, 37.554638441111194 ], [ 140.210036082899023, 37.562464837981963 ], [ 140.20313596615199, 37.559898440860422 ], [ 140.192228301295131, 37.55392677520058 ], [ 140.190994616708281, 37.544736224597159 ], [ 140.179138275011496, 37.535235387203386 ], [ 140.17165955874168, 37.535182891077625 ], [ 140.171042580650692, 37.530499559107398 ], [ 140.165499170350472, 37.527299279338308 ], [ 140.178374746097688, 37.513125134717257 ], [ 140.190019338821457, 37.51032094605489 ], [ 140.187128885389825, 37.495003468135621 ], [ 140.192620052273696, 37.4936426400958 ], [ 140.19878255497099, 37.484749278556421 ], [ 140.19282016851605, 37.474456251754646 ], [ 140.201526886556621, 37.465205414198579 ], [ 140.199895939945691, 37.453897330697316 ], [ 140.216103701724478, 37.449556395811044 ], [ 140.203770328138148, 37.441839590324889 ], [ 140.195612159673487, 37.429939110801399 ], [ 140.181250290568528, 37.427635498279699 ], [ 140.184201292655644, 37.421394889462647 ], [ 140.180170475487103, 37.412070979292309 ], [ 140.191323654363259, 37.399925697113304 ], [ 140.198215979384031, 37.378506004348651 ], [ 140.183702670741695, 37.368801892293561 ], [ 140.180941777241287, 37.360318278066131 ], [ 140.173817782364836, 37.355771892159169 ], [ 140.175073306987542, 37.346576891710242 ], [ 140.168039078840479, 37.346170224576269 ], [ 140.166760414661439, 37.338314945978027 ], [ 140.153586939385832, 37.331446053692503 ], [ 140.145553838738692, 37.335630775439995 ], [ 140.134558755282342, 37.330029668234658 ], [ 140.129865939961178, 37.334364666696047 ], [ 140.121372801913367, 37.328267441289427 ], [ 140.115571672894475, 37.328940504700597 ], [ 140.114359974033619, 37.319510774902369 ], [ 140.108745499305428, 37.322663000297268 ], [ 140.107282942653796, 37.31455633330819 ], [ 140.117403839215854, 37.308361053919555 ], [ 140.104615736027426, 37.285973412742862 ], [ 140.115344746962592, 37.271736885748737 ], [ 140.114626328941995, 37.261702441014904 ], [ 140.099290388840473, 37.251702999693748 ], [ 140.10147836563408, 37.242384668018076 ], [ 140.092788858818835, 37.242091891927316 ], [ 140.086251388290975, 37.246546332946934 ], [ 140.089220699675593, 37.232998027437077 ], [ 140.083096667277459, 37.226426081398586 ], [ 140.071888754762313, 37.223974170671511 ], [ 140.071356860630658, 37.209956694246102 ], [ 140.063613501761779, 37.213182279138948 ], [ 140.048651776758106, 37.203170667292511 ], [ 140.039220000103001, 37.206099584728122 ], [ 140.017622866602096, 37.196944134664136 ], [ 139.999528715677798, 37.199679748221854 ], [ 139.993674423236143, 37.196347305883535 ], [ 139.982140999307717, 37.20193619759749 ], [ 139.959902580839525, 37.180293613259721 ], [ 139.96401500608772, 37.160881252268041 ], [ 139.961261192949792, 37.153295747800598 ], [ 139.933795887770088, 37.153736558595369 ], [ 139.916176354954928, 37.147611559425968 ], [ 139.907341362114266, 37.149089026837146 ], [ 139.902431724744361, 37.154271505025974 ], [ 139.894644189377914, 37.1532587209133 ], [ 139.877567716676822, 37.146126775130597 ], [ 139.866289389943404, 37.147227891553996 ], [ 139.856319299795928, 37.137807612731194 ], [ 139.847653475727384, 37.139471225416798 ], [ 139.838978144925477, 37.133152613002721 ], [ 139.83177313911915, 37.133640945773095 ], [ 139.828319728073097, 37.126651251154385 ], [ 139.815051854559556, 37.116615693959147 ], [ 139.816181803247673, 37.111081278678114 ], [ 139.821297638974897, 37.108324054411639 ], [ 139.818244747297285, 37.096874054294233 ], [ 139.822092995795174, 37.085136865573929 ], [ 139.809419078627684, 37.084850721083967 ], [ 139.787951024820018, 37.090702332646572 ], [ 139.777980999423676, 37.088807333391799 ], [ 139.774910999043414, 37.091894278798009 ], [ 139.76309639398346, 37.075807027072699 ], [ 139.751816887339487, 37.070227865123911 ], [ 139.719248106714872, 37.070949775212 ], [ 139.700439883294052, 37.059327305810541 ], [ 139.692063721863292, 37.062548413878233 ], [ 139.673274422876375, 37.057748973136654 ], [ 139.67123741797252, 37.048202613859587 ], [ 139.664650920903341, 37.039840694092788 ], [ 139.655844772918044, 37.041977360067165 ], [ 139.638757108154095, 37.03213210841011 ], [ 139.62555705611328, 37.033223801737108 ], [ 139.623054227570606, 37.028952972601644 ], [ 139.625524773149778, 37.025986306123173 ], [ 139.616686328711125, 37.015175532424905 ], [ 139.602712671752442, 37.015981081261941 ], [ 139.595773449784929, 37.011740838069272 ], [ 139.582052022982566, 37.015081973254496 ], [ 139.576423332670743, 37.002078387107929 ], [ 139.556802970181025, 36.996841224742752 ], [ 139.554449610761026, 36.992472640200219 ], [ 139.547879027195449, 36.993637639965186 ], [ 139.535260362575741, 36.980584386959947 ], [ 139.523597807692681, 36.981492468402735 ], [ 139.504009390021452, 36.969617559302947 ], [ 139.494164916277896, 36.967906198911976 ], [ 139.484207367176282, 36.97547169436325 ], [ 139.461165253373792, 36.970720585886397 ], [ 139.457082698208069, 36.954214250986922 ], [ 139.434448560053056, 36.941853639633791 ], [ 139.430350116564682, 36.925931972882267 ], [ 139.408003256045504, 36.926569414147195 ], [ 139.393289196239493, 36.910795505108524 ], [ 139.383302438057171, 36.911402694079129 ], [ 139.372975187554971, 36.918407413671275 ], [ 139.34939975419536, 36.913040170667387 ], [ 139.350015057748806, 36.918363505171669 ], [ 139.342386718572243, 36.92753319779888 ], [ 139.33315968876866, 36.924559027377256 ], [ 139.304454553035271, 36.925824279067285 ], [ 139.294399831287251, 36.9346642523534 ], [ 139.281710584276084, 36.931147306003425 ], [ 139.266135006325499, 36.941153639728725 ], [ 139.254894916067542, 36.932421135427091 ], [ 139.240665421771837, 36.92940641367511 ], [ 139.229952087818674, 36.940048613053079 ], [ 139.241620195115956, 36.941549198436803 ], [ 139.244114668956854, 36.947866945703026 ], [ 139.24183827531624, 36.949909441867305 ], [ 139.249897497671441, 36.955813892197398 ], [ 139.24855031144773, 36.961340000440714 ], [ 139.251418392444975, 36.963827223947305 ], [ 139.247715615583274, 36.970987468696762 ], [ 139.25269313917704, 36.97354719824466 ], [ 139.247176225602402, 36.980485531682007 ], [ 139.255665447102729, 36.988748586278291 ], [ 139.251029663188433, 37.004618801916251 ], [ 139.243366640757927, 37.015134640251517 ], [ 139.24854061046085, 37.030900720691761 ], [ 139.253201480064263, 37.034308775329748 ], [ 139.252821218824238, 37.039812082161916 ], [ 139.259555422344874, 37.043297640373851 ], [ 139.260330169401868, 37.047597081440188 ], [ 139.246997173280988, 37.070867585270889 ], [ 139.248912776003863, 37.081115612695442 ], [ 139.238787782130544, 37.089911413980644 ], [ 139.240906420295119, 37.093563639950048 ], [ 139.235956445633519, 37.101467224732687 ], [ 139.235147588190671, 37.112365559123305 ], [ 139.243836588687714, 37.128082468231355 ], [ 139.245905576181485, 37.14580550581951 ], [ 139.252982891747138, 37.158434080968107 ], [ 139.250295939605962, 37.163714332550455 ], [ 139.253845694123584, 37.164971838379699 ], [ 139.243216200367442, 37.170379612928855 ], [ 139.244430116956437, 37.181599026873641 ], [ 139.22565172494717, 37.198265666827126 ], [ 139.226553138816371, 37.203245918964058 ], [ 139.22135727511818, 37.204826197770842 ], [ 139.220750894638172, 37.209128972624057 ], [ 139.217592554752628, 37.209388972922795 ], [ 139.208385253376832, 37.195772586036071 ], [ 139.196583800002486, 37.194028413880233 ], [ 139.194399104834929, 37.204665333338539 ], [ 139.16483688821188, 37.236377801994024 ], [ 139.174748392024753, 37.256434775444575 ], [ 139.2123210886474, 37.286239252339669 ], [ 139.217706977295279, 37.305245919263825 ], [ 139.21574756230018, 37.309068413876275 ], [ 139.224285913763993, 37.319985080946765 ], [ 139.217867911874691, 37.334150387030775 ], [ 139.22814905323628, 37.34327566663876 ], [ 139.233621828984269, 37.343606504736442 ], [ 139.238057470575882, 37.372630306243707 ], [ 139.231461414612681, 37.380232252116798 ], [ 139.231501504590824, 37.387877504843004 ], [ 139.222605694197455, 37.39325722594026 ], [ 139.212133995487534, 37.392094442104849 ], [ 139.204588520743755, 37.406154999653552 ], [ 139.197400778323299, 37.411094413576393 ], [ 139.208433061336791, 37.416790532357254 ], [ 139.207531750889643, 37.428908837572862 ], [ 139.223586109911139, 37.449171027321086 ], [ 139.235521413882225, 37.444819332945883 ], [ 139.251450440685403, 37.452520694374584 ], [ 139.258557977069017, 37.447010108429822 ], [ 139.278822606677977, 37.45320310803703 ], [ 139.283967082215099, 37.449909776315167 ], [ 139.304799804567438, 37.458839108038433 ], [ 139.310724552596071, 37.455645504836241 ], [ 139.326471115050026, 37.462386252723434 ], [ 139.335142555384664, 37.457788720573035 ], [ 139.345829611147678, 37.460271198357191 ], [ 139.351640778399315, 37.468074197566239 ], [ 139.362550312047347, 37.469968026803031 ], [ 139.373852308936989, 37.463832775362334 ], [ 139.397512697652928, 37.459839171240787 ], [ 139.406329689663494, 37.466046053682476 ], [ 139.404623307020074, 37.475051279193224 ], [ 139.409941671870683, 37.483576252342232 ], [ 139.407890830897145, 37.492461440842874 ], [ 139.414032243593283, 37.496800891847727 ], [ 139.411245577321552, 37.505162504945702 ], [ 139.41424919604367, 37.510155801748908 ], [ 139.427919779674198, 37.511343333128366 ], [ 139.429212282620824, 37.514660801754644 ], [ 139.439134812121893, 37.513189440740177 ], [ 139.457198754818705, 37.517867559340459 ], [ 139.47611516218501, 37.502554360395493 ], [ 139.485794111209316, 37.510276864885441 ], [ 139.496737223743935, 37.512570252115495 ], [ 139.513664774110111, 37.50858002674687 ], [ 139.523437366841108, 37.514539505693676 ], [ 139.543099974084612, 37.512054559270553 ], [ 139.564749493993986, 37.501673774824894 ], [ 139.585105771714098, 37.512897054055827 ], [ 139.590547276235839, 37.528032585635344 ], [ 139.578707756357971, 37.530016999984639 ], [ 139.570199143675609, 37.539063919864077 ], [ 139.570948611689118, 37.543761134668671 ], [ 139.565737223893848, 37.546110028055409 ], [ 139.57027697730075, 37.550598054256852 ], [ 139.56757202253084, 37.56288333299949 ], [ 139.572384033096682, 37.57034802703987 ], [ 139.564194942342738, 37.58844302692421 ], [ 139.564986666801246, 37.59738389155342 ], [ 139.554131362272642, 37.60255972105432 ], [ 139.548539688955543, 37.609636107620304 ], [ 139.552200337075988, 37.618574467637643 ], [ 139.546039533197927, 37.628890865121377 ], [ 139.555303748169536, 37.641080586399994 ], [ 139.549292606768404, 37.649037802252849 ], [ 139.568493255659291, 37.653133919195056 ], [ 139.588659689193378, 37.667247775064823 ], [ 139.59641997420249, 37.66586444059152 ], [ 139.609411673110344, 37.684271107725522 ], [ 139.617649195953732, 37.68880446785198 ], [ 139.627203384728432, 37.688284441174062 ], [ 139.628207833025158, 37.692406413625122 ], [ 139.621547808284845, 37.700111694299324 ], [ 139.624091996648417, 37.710249468438292 ], [ 139.632750609952723, 37.716428080691401 ], [ 139.631767561923539, 37.71985141391167 ], [ 139.64961260693633, 37.729061999611645 ], [ 139.658865357350464, 37.744954441094649 ], [ 139.657887664783971, 37.755007467620601 ], [ 139.666712192213936, 37.757029693965251 ], [ 139.680305006071194, 37.775394360061739 ], [ 139.696559689078413, 37.785122081119198 ], [ 139.705361244226083, 37.796178440782455 ], [ 139.713539973890761, 37.798992306150069 ], [ 139.721621244924563, 37.809422838393346 ], [ 139.741505383067079, 37.817712774624908 ], [ 139.735978171355555, 37.827919414349537 ], [ 139.720555615749163, 37.839568027042844 ], [ 139.714649559229883, 37.852921613141973 ], [ 139.680829195710885, 37.846950864790642 ], [ 139.69728269813811, 37.848733613365596 ], [ 139.706407833854541, 37.855993585735462 ], [ 139.714022335162667, 37.854592171291699 ], [ 139.714743747925695, 37.854400774875899 ] ] ] } }
]
}
