{
"type": "FeatureCollection",
"name": "12_chiba_area",
"crs": { "type": "name", "properties": { "name": "urn:ogc:def:crs:OGC:1.3:CRS84" } },
"features": [
{ "type": "Feature", "properties": { "code": "120010", "name": "北西部", "PrefCode": "12", "regioncode": "120010" }, "geometry": { "type": "MultiPolygon", "coordinates": [ [ [ [ 140.034239338774569, 35.512251225213902 ], [ 140.03654644606172, 35.510944026445713 ], [ 140.034199637303459, 35.512204413702761 ], [ 140.034239338774569, 35.512251225213902 ] ] ], [ [ [ 140.041826006065435, 35.513614866333057 ], [ 140.045464475105518, 35.511550360161038 ], [ 140.041757108104093, 35.513533667444847 ], [ 140.041826006065435, 35.513614866333057 ] ] ], [ [ [ 140.071012387012161, 35.557612198244385 ], [ 140.077924423373474, 35.561752107673669 ], [ 140.071169273743067, 35.557740386709554 ], [ 140.071012387012161, 35.557612198244385 ] ] ], [ [ [ 140.091670194823678, 35.5878559732746 ], [ 140.102960610244054, 35.587346774434138 ], [ 140.105089804650788, 35.57763797331387 ], [ 140.109463216754079, 35.576620865260793 ], [ 140.111722502591533, 35.570437504587233 ], [ 140.086109856584699, 35.569450000417248 ], [ 140.081593606060096, 35.588288252201153 ], [ 140.09166666678334, 35.58785610907222 ], [ 140.091670194823678, 35.5878559732746 ] ] ], [ [ [ 139.980862336028054, 35.660649278741289 ], [ 139.981625641010623, 35.656185613375385 ], [ 139.980829533256383, 35.660645532165631 ], [ 139.980862336028054, 35.660649278741289 ] ] ], [ [ [ 139.936020052383583, 35.666877892400862 ], [ 139.932196472289434, 35.666321251624538 ], [ 139.935945836731094, 35.666867864960068 ], [ 139.936020052383583, 35.666877892400862 ] ] ], [ [ [ 139.977079754227361, 35.667149440894036 ], [ 139.980786057330761, 35.6610956401517 ], [ 139.977073255726282, 35.667151333067636 ], [ 139.977079754227361, 35.667149440894036 ] ] ], [ [ [ 139.966727055609226, 35.679093918849333 ], [ 139.977664085129504, 35.679503945850456 ], [ 139.978268975432911, 35.675910442013333 ], [ 139.971233021486796, 35.677082666931597 ], [ 139.971679585244715, 35.674410108439815 ], [ 139.978717250600653, 35.673240918733484 ], [ 139.979300389901141, 35.669799667420762 ], [ 139.971444163417459, 35.670703198294007 ], [ 139.970763996261439, 35.667986531653185 ], [ 139.976261441312545, 35.667048466813355 ], [ 139.969021478858281, 35.670941053686704 ], [ 139.958030558363589, 35.669985080646995 ], [ 139.960538443794235, 35.678970666762893 ], [ 139.966670583580594, 35.679102440825034 ], [ 139.966727055609226, 35.679093918849333 ] ] ], [ [ [ 139.9235266930026, 35.970238919090889 ], [ 139.93245586284786, 35.969439198760085 ], [ 139.937220025883562, 35.965120026568002 ], [ 139.931655226107864, 35.950766693827916 ], [ 139.93863933863463, 35.940570559084108 ], [ 139.976287419129108, 35.923363558781261 ], [ 139.994315447400027, 35.909806585605509 ], [ 140.020900532133965, 35.909227612864072 ], [ 140.043726615291121, 35.893365892222221 ], [ 140.061116835373696, 35.888056386593007 ], [ 140.073673358638644, 35.876718027415109 ], [ 140.092823358611213, 35.883864613261323 ], [ 140.124597029729216, 35.87250894573134 ], [ 140.146469663344305, 35.845718134784136 ], [ 140.152193280695428, 35.84301286525158 ], [ 140.186630466722704, 35.851757837754064 ], [ 140.205431803135298, 35.861320332667276 ], [ 140.241484616721777, 35.854583999552005 ], [ 140.278298105673116, 35.874044279120255 ], [ 140.304103217389638, 35.86534677463402 ], [ 140.319406913198577, 35.864644306089929 ], [ 140.34838834044956, 35.883209279085008 ], [ 140.359200195132985, 35.89715761293354 ], [ 140.375885331442987, 35.902367891864742 ], [ 140.375675252510973, 35.894837612965546 ], [ 140.3850332811611, 35.885037332806689 ], [ 140.391375252565922, 35.886201224606907 ], [ 140.401027665294578, 35.872463108185968 ], [ 140.397989830966026, 35.870010918669038 ], [ 140.400551504848181, 35.867277558812361 ], [ 140.39800306089262, 35.858313666142806 ], [ 140.394169415586134, 35.857576440600326 ], [ 140.398430246059092, 35.855349505175582 ], [ 140.392753281039177, 35.855928666774616 ], [ 140.394356031205916, 35.852792837819266 ], [ 140.403084695402413, 35.853460865026932 ], [ 140.418147665182687, 35.866330559207995 ], [ 140.422558496277702, 35.86624053167526 ], [ 140.423065382961113, 35.859972197658863 ], [ 140.427790725861428, 35.863630503944648 ], [ 140.438431310057013, 35.86340599988705 ], [ 140.442211362064768, 35.868212108202272 ], [ 140.44644105081386, 35.864019306046202 ], [ 140.452393358566724, 35.87036789196469 ], [ 140.460380531736178, 35.862770892362846 ], [ 140.46523260709921, 35.850622558784096 ], [ 140.472468470443573, 35.851010026291704 ], [ 140.472046692900676, 35.843512837947173 ], [ 140.467968949107785, 35.846355612921229 ], [ 140.462458339780596, 35.842141468054365 ], [ 140.469499364104422, 35.834686441725978 ], [ 140.455993112692113, 35.826303198134156 ], [ 140.454967756057158, 35.818135972597133 ], [ 140.467933605751341, 35.820528135065445 ], [ 140.444468392402428, 35.803379331690849 ], [ 140.443018470326251, 35.788239333178751 ], [ 140.433082891662139, 35.786052413987761 ], [ 140.436255057724793, 35.780824081166486 ], [ 140.418482477384487, 35.775098838740462 ], [ 140.414043722340011, 35.785320251628377 ], [ 140.407379558919615, 35.786509134688856 ], [ 140.40234810568063, 35.783752198205434 ], [ 140.402944136762585, 35.774850532326241 ], [ 140.393416808938696, 35.767866387423908 ], [ 140.389240699998368, 35.7685483334389 ], [ 140.395256524169326, 35.766171640209052 ], [ 140.392822607077733, 35.7643499725732 ], [ 140.39991511039409, 35.763789972829045 ], [ 140.395118910809174, 35.756244134759072 ], [ 140.389082528136214, 35.757774693647264 ], [ 140.401966938823193, 35.753312747785117 ], [ 140.400531854661381, 35.745321613102021 ], [ 140.403268755149043, 35.742074359943786 ], [ 140.381552089157708, 35.74084774762548 ], [ 140.385199584693169, 35.740540252330845 ], [ 140.388545032127581, 35.729036054570315 ], [ 140.393527496596789, 35.727789945849395 ], [ 140.387024694933757, 35.723269386672882 ], [ 140.379263060941526, 35.728921332553512 ], [ 140.37667758830014, 35.737898586450683 ], [ 140.368047301841557, 35.739409172295495 ], [ 140.365856640571565, 35.725909107319524 ], [ 140.377368029311128, 35.724679108154362 ], [ 140.377684890145588, 35.715764640425846 ], [ 140.386257950943786, 35.713216585876808 ], [ 140.380902580789552, 35.707035468112394 ], [ 140.383109830954027, 35.708553531820087 ], [ 140.382386160892679, 35.703619919423772 ], [ 140.369664501415627, 35.702730197640562 ], [ 140.373399466811975, 35.700082693361651 ], [ 140.369901388238532, 35.697079893022703 ], [ 140.373868366132228, 35.699332134470467 ], [ 140.380275524895637, 35.693346585976201 ], [ 140.37888466939205, 35.690886306158177 ], [ 140.381971633683975, 35.693636864649648 ], [ 140.393186861284676, 35.687136027106021 ], [ 140.394338003396228, 35.691840198166688 ], [ 140.404435228003422, 35.691901612869174 ], [ 140.39980763871165, 35.680448278964946 ], [ 140.390675913662562, 35.676090505172738 ], [ 140.377520998595287, 35.68285019817813 ], [ 140.371349274249724, 35.678639639807557 ], [ 140.373312361176545, 35.68090353197249 ], [ 140.367998560385331, 35.688370441043048 ], [ 140.365783216322484, 35.683561278630179 ], [ 140.360609636925233, 35.686884054155826 ], [ 140.351642672171693, 35.682740972817669 ], [ 140.346902607369543, 35.676657918927845 ], [ 140.349280336618335, 35.671537386041564 ], [ 140.338825252883225, 35.664525197579849 ], [ 140.353754137343572, 35.662957693642682 ], [ 140.354416835168877, 35.65670855925265 ], [ 140.347467172971733, 35.660114639878771 ], [ 140.333331309792129, 35.659909386708875 ], [ 140.330330700201671, 35.655596080794567 ], [ 140.326332943910302, 35.657914972797812 ], [ 140.327453113370552, 35.648921666901458 ], [ 140.320225616419179, 35.649557802350728 ], [ 140.325736108834462, 35.644003919445368 ], [ 140.321206328909057, 35.639690639611388 ], [ 140.329194617237818, 35.631514559349512 ], [ 140.32564147857147, 35.626128748043357 ], [ 140.31651124459836, 35.630895693581465 ], [ 140.307788105836494, 35.624741586055393 ], [ 140.315807497218316, 35.617514639489059 ], [ 140.309133553670677, 35.614319693599043 ], [ 140.309187418564534, 35.609981080762338 ], [ 140.31210824929633, 35.61184636012149 ], [ 140.314810972848136, 35.604126360243356 ], [ 140.32409713397567, 35.608956054178634 ], [ 140.330153774776932, 35.606205467808138 ], [ 140.321212048597204, 35.601419134685386 ], [ 140.311511219067597, 35.601610000501182 ], [ 140.30584557741156, 35.594236720748142 ], [ 140.312523995086394, 35.600359171238836 ], [ 140.323024278747539, 35.600998305927135 ], [ 140.326293605765386, 35.589901946217879 ], [ 140.336320025848522, 35.590433586740687 ], [ 140.338665811178316, 35.586323306375562 ], [ 140.316706082719634, 35.585692000285633 ], [ 140.292493995001905, 35.572674613142908 ], [ 140.287087055922939, 35.572909053809838 ], [ 140.294211970805918, 35.560625440611659 ], [ 140.290984162788959, 35.55577213497611 ], [ 140.291981051384482, 35.548284640423844 ], [ 140.281762994766495, 35.550076613345084 ], [ 140.280857392754569, 35.542126612753009 ], [ 140.292038170924911, 35.531238503654095 ], [ 140.287778884587965, 35.523390747884775 ], [ 140.300873917397439, 35.520336802201712 ], [ 140.292587976853724, 35.515316585991684 ], [ 140.286189105343055, 35.518888559159734 ], [ 140.28227069983302, 35.512782999735691 ], [ 140.27703455370181, 35.51177997326721 ], [ 140.272114837629715, 35.49360280232753 ], [ 140.270254669117776, 35.500214748411963 ], [ 140.260277444648409, 35.50215255899343 ], [ 140.262817613042444, 35.494305612613971 ], [ 140.251199248146804, 35.491851504843112 ], [ 140.253603112593623, 35.49020927893514 ], [ 140.247515006312597, 35.486075973227628 ], [ 140.248490506331905, 35.481753747837217 ], [ 140.236505745943532, 35.480264919290619 ], [ 140.211531607797497, 35.486742721599398 ], [ 140.206183528447127, 35.48458525160811 ], [ 140.207777638826997, 35.480080251602374 ], [ 140.20147152968741, 35.478603305798003 ], [ 140.196908911017545, 35.470851108391969 ], [ 140.186087833786587, 35.473847505558012 ], [ 140.185898340336166, 35.468267532420725 ], [ 140.173976355324612, 35.468862801776936 ], [ 140.174542944401423, 35.460536136333701 ], [ 140.170595422440897, 35.456541414354831 ], [ 140.186330336875585, 35.44838227911896 ], [ 140.186880559190513, 35.443460640296337 ], [ 140.182353864839001, 35.440752866151911 ], [ 140.182548248802732, 35.43545817055815 ], [ 140.173027081334794, 35.431277332982575 ], [ 140.18219394289622, 35.421298505022037 ], [ 140.18085055810684, 35.415435197776219 ], [ 140.190233256059969, 35.407388000256049 ], [ 140.188581244628836, 35.404180224637685 ], [ 140.194444189447836, 35.393276107606312 ], [ 140.201002217578321, 35.390638891571655 ], [ 140.206933774374306, 35.379683107589415 ], [ 140.199791802949449, 35.377813106789517 ], [ 140.197956744408316, 35.369890108341906 ], [ 140.209356136076849, 35.365618198221341 ], [ 140.205848859237562, 35.359699332658124 ], [ 140.213839493897581, 35.340214694052918 ], [ 140.212649415638111, 35.333189171343236 ], [ 140.220754916206488, 35.328121972750921 ], [ 140.231036108829471, 35.304112387176986 ], [ 140.225535032315975, 35.30680097338626 ], [ 140.212908585862579, 35.300985665656015 ], [ 140.199086720076139, 35.30806838704649 ], [ 140.198761634042285, 35.298970053824974 ], [ 140.204231309827151, 35.293803134806865 ], [ 140.202815135710011, 35.287712279298319 ], [ 140.190306161400258, 35.27741138702595 ], [ 140.177980583137469, 35.274736359895144 ], [ 140.174558974816932, 35.251351305818162 ], [ 140.166719804875129, 35.25595630593881 ], [ 140.157426692887611, 35.253299613286572 ], [ 140.158052801795407, 35.250467999798389 ], [ 140.154067457946894, 35.252608288241959 ], [ 140.156344124981501, 35.248587558768861 ], [ 140.151820816577469, 35.24974308957195 ], [ 140.141236939133478, 35.231205134909089 ], [ 140.122252554711736, 35.247619253325922 ], [ 140.118556939151517, 35.262186441251288 ], [ 140.120293359151219, 35.282576413870459 ], [ 140.114320414655481, 35.289388891684041 ], [ 140.12214136163459, 35.31371077493236 ], [ 140.118123917384992, 35.316177135066766 ], [ 140.107701607643094, 35.312570440873174 ], [ 140.101283333259289, 35.318019613014769 ], [ 140.101612244109788, 35.32064905441041 ], [ 140.108937833714094, 35.318946278947692 ], [ 140.108466743645408, 35.324513225405099 ], [ 140.119564034152972, 35.331359694894047 ], [ 140.129614111801857, 35.347100586223121 ], [ 140.124086108687038, 35.351203612656661 ], [ 140.122899493716773, 35.358643613112292 ], [ 140.118138974733938, 35.361898053652283 ], [ 140.120628145272804, 35.364251666681128 ], [ 140.11061377430633, 35.373756640056968 ], [ 140.105588002984064, 35.384425532212617 ], [ 140.102243838882146, 35.385160504953376 ], [ 140.105684358146732, 35.379232747793139 ], [ 140.102465162037674, 35.375453864903989 ], [ 140.089904331919456, 35.380861919142319 ], [ 140.092528612105866, 35.395821332888261 ], [ 140.087510310552489, 35.397752440822558 ], [ 140.092772607170104, 35.406698278702663 ], [ 140.087568859115663, 35.427607973129511 ], [ 140.080706666779292, 35.432318801871247 ], [ 140.060111556103493, 35.425787196721785 ], [ 140.032622554687237, 35.423570027035169 ], [ 140.040912049351618, 35.429021945706268 ], [ 140.043167691136091, 35.437372224648527 ], [ 140.018351971266497, 35.47257597300279 ], [ 140.01786182906028, 35.480510838004818 ], [ 140.009750169035101, 35.486199333232719 ], [ 140.015546718706219, 35.489177135116734 ], [ 140.020127081899318, 35.486743027368846 ], [ 140.01594403379022, 35.489712505128068 ], [ 140.021924889622028, 35.496792999797151 ], [ 140.025936886678096, 35.494544468052823 ], [ 140.029643774340798, 35.497050026937245 ], [ 140.027934033628867, 35.49456305434154 ], [ 140.033041477782035, 35.491674027234637 ], [ 140.036225966355346, 35.495293026851755 ], [ 140.025218610750358, 35.501636170972574 ], [ 140.033891633891812, 35.511865468216854 ], [ 140.042233916961777, 35.507327305710646 ], [ 140.045908586412224, 35.51139866701493 ], [ 140.036919883246128, 35.517539612962821 ], [ 140.050075524965564, 35.530936837764898 ], [ 140.05772172467789, 35.526577251838773 ], [ 140.060677638861989, 35.530064586211722 ], [ 140.053943554051898, 35.535085134271583 ], [ 140.07015111528176, 35.5484597213391 ], [ 140.066349053266208, 35.553390251758742 ], [ 140.096088689941098, 35.535401585914485 ], [ 140.101058832798913, 35.538462054380375 ], [ 140.09054111488058, 35.542343171300388 ], [ 140.094193164582975, 35.545569613247096 ], [ 140.08695905311788, 35.547080864590271 ], [ 140.088255693845213, 35.55196086480214 ], [ 140.098043060638815, 35.555011332806828 ], [ 140.113722022853153, 35.548126027893943 ], [ 140.115069078675106, 35.552840640083502 ], [ 140.091214695401959, 35.561177919325587 ], [ 140.091025187562423, 35.564478801755342 ], [ 140.126894864106703, 35.567673306078291 ], [ 140.112113410905295, 35.570451802009131 ], [ 140.110566057177834, 35.589544505274773 ], [ 140.117992917639071, 35.591695305893722 ], [ 140.118257664559678, 35.595614775301669 ], [ 140.107348417795265, 35.59213594581729 ], [ 140.10887099879767, 35.599887135083293 ], [ 140.106045888307108, 35.60266025216896 ], [ 140.101660117720371, 35.593931641032441 ], [ 140.088973864552258, 35.594540865168824 ], [ 140.099847833610738, 35.604737721168931 ], [ 140.092789688893049, 35.603813306239147 ], [ 140.083005421163307, 35.613894135306168 ], [ 140.077921140848048, 35.610410468368457 ], [ 140.086809557914876, 35.601751667105816 ], [ 140.083913643799633, 35.596779694127633 ], [ 140.055576030409497, 35.622331504595309 ], [ 140.050886004785411, 35.620688468398157 ], [ 140.054666082873496, 35.62187680197286 ], [ 140.046530363285683, 35.626288559369584 ], [ 140.047432943575586, 35.628745359710649 ], [ 140.044410000221433, 35.63002594574084 ], [ 140.043573865441545, 35.626439333408541 ], [ 140.045275058996822, 35.630778440872405 ], [ 140.027224422669065, 35.642988333045196 ], [ 140.029183671289502, 35.644567801562857 ], [ 140.024931608307156, 35.644950251752789 ], [ 140.02680208844572, 35.646446414270656 ], [ 140.013679027365242, 35.657521666891455 ], [ 139.987461194278808, 35.654467532350793 ], [ 139.986498365707121, 35.660108748420043 ], [ 140.002949144087779, 35.659778440922366 ], [ 140.002775136063747, 35.663453801951448 ], [ 139.985868975173162, 35.663835837553904 ], [ 139.984580947252994, 35.671450134715997 ], [ 139.992006732125105, 35.672288432365292 ], [ 139.983819610886371, 35.677134332983144 ], [ 139.9881836061885, 35.689848467832576 ], [ 139.984505305275661, 35.690900586492944 ], [ 139.982967860278563, 35.681610052861686 ], [ 139.967624501669434, 35.68371950535095 ], [ 139.959866693393224, 35.67934841439785 ], [ 139.953551672871527, 35.688974801645827 ], [ 139.958101803555451, 35.677396999771759 ], [ 139.953181634225075, 35.671750305931937 ], [ 139.946743190745678, 35.680982226248773 ], [ 139.936648054364241, 35.67329872085935 ], [ 139.931581530263429, 35.674542558792098 ], [ 139.92983591379641, 35.669456505013727 ], [ 139.945092698269491, 35.672958000111691 ], [ 139.947662335648374, 35.669545081040724 ], [ 139.930352361172595, 35.666482107962963 ], [ 139.918183165121036, 35.65535372069769 ], [ 139.939491529910242, 35.640470305959923 ], [ 139.910180336553367, 35.624163196973996 ], [ 139.904732671675561, 35.628599972610687 ], [ 139.905442022731222, 35.632658747003632 ], [ 139.900085110239729, 35.631678693716822 ], [ 139.897386808654346, 35.629427559334431 ], [ 139.906908003101876, 35.623092053155801 ], [ 139.897585279137388, 35.616617359803342 ], [ 139.892977367011895, 35.625310945943454 ], [ 139.888331971143657, 35.621822080924346 ], [ 139.87258141390123, 35.625531883289852 ], [ 139.874996874206431, 35.637245784065726 ], [ 139.871460610418922, 35.63864172073886 ], [ 139.883146056645273, 35.64475669336673 ], [ 139.886903916982192, 35.653733639695758 ], [ 139.886431920396831, 35.678566134619473 ], [ 139.907153917319533, 35.684383613313173 ], [ 139.918908364929166, 35.698274171116168 ], [ 139.916210921297079, 35.708001386754631 ], [ 139.897654060186824, 35.724998918765152 ], [ 139.89945055759722, 35.744385586125929 ], [ 139.884045083713659, 35.757405306110059 ], [ 139.879389857356045, 35.768013081238735 ], [ 139.881751556189442, 35.772858360425062 ], [ 139.894463580330012, 35.779917774985392 ], [ 139.888281996716842, 35.79458302678529 ], [ 139.891660803603259, 35.818328837605804 ], [ 139.888040558425132, 35.823212414421448 ], [ 139.888451193367928, 35.831157693572777 ], [ 139.890036304232126, 35.844002386600891 ], [ 139.900338691177694, 35.864174865377777 ], [ 139.889919727813208, 35.892560946830258 ], [ 139.866774358349971, 35.926512864976814 ], [ 139.847673800405573, 35.939559801143957 ], [ 139.837773306992631, 35.95390591862332 ], [ 139.83387669205581, 35.968304532228444 ], [ 139.825658340060386, 35.972762054325415 ], [ 139.826645330717497, 35.983431198291214 ], [ 139.8141898049156, 35.997332054230981 ], [ 139.816965667631507, 36.003195919056452 ], [ 139.813421854934745, 36.023425054222912 ], [ 139.817282438533766, 36.032504721116027 ], [ 139.782760778287297, 36.070218306429751 ], [ 139.776067781702864, 36.091310747592956 ], [ 139.777969780381113, 36.098557413593824 ], [ 139.78677566756312, 36.104099891296983 ], [ 139.798434838297226, 36.095496802135756 ], [ 139.812990310754344, 36.063144640312942 ], [ 139.87601674407756, 36.011043585792891 ], [ 139.884163644037017, 35.988828081151098 ], [ 139.898570829979917, 35.977931972582496 ], [ 139.919927497356184, 35.970280865269785 ], [ 139.9235266930026, 35.970238919090889 ] ] ] ] } },
{ "type": "Feature", "properties": { "code": "120020", "name": "北東部", "PrefCode": "12", "regioncode": "120020" }, "geometry": { "type": "MultiPolygon", "coordinates": [ [ [ [ 140.452846056600265, 35.52499905496245 ], [ 140.451363722058204, 35.523237414375217 ], [ 140.452846783252539, 35.52500000014993 ], [ 140.452846056600265, 35.52499905496245 ] ] ], [ [ [ 140.861448494752267, 35.752611198348177 ], [ 140.861498222764794, 35.749890505442522 ], [ 140.861444721197017, 35.752738305828188 ], [ 140.861448494752267, 35.752611198348177 ] ] ], [ [ [ 140.558342139877936, 35.930370333324277 ], [ 140.579691608181292, 35.918045532075723 ], [ 140.588200700202265, 35.906215251832464 ], [ 140.607992917739011, 35.895811945664832 ], [ 140.630686161137533, 35.859124198123311 ], [ 140.683556356340887, 35.849052170721166 ], [ 140.706575746073895, 35.836255414256016 ], [ 140.717226719237715, 35.822767892124546 ], [ 140.726781415230221, 35.799459559211357 ], [ 140.746677639361678, 35.781832251757066 ], [ 140.820006833748494, 35.739677531792722 ], [ 140.846003279827528, 35.739894666805469 ], [ 140.859679637105614, 35.748108532083165 ], [ 140.854654240800642, 35.743415901123001 ], [ 140.860615331332497, 35.745084774842553 ], [ 140.867505422437375, 35.738177666765978 ], [ 140.872081387945741, 35.739961838068439 ], [ 140.860989144433574, 35.749855612646456 ], [ 140.881634719666636, 35.730879404860673 ], [ 140.872376471696839, 35.739860837907372 ], [ 140.867798248890153, 35.738041279181743 ], [ 140.869646549049094, 35.73158625220384 ], [ 140.874133800034883, 35.733136748162451 ], [ 140.867843606197539, 35.730326332594245 ], [ 140.875354279876206, 35.731706585990196 ], [ 140.867732021915344, 35.729858891974345 ], [ 140.871210441308904, 35.718581505032489 ], [ 140.865913580147662, 35.712729054402416 ], [ 140.869135422062186, 35.706665225319966 ], [ 140.862797912193969, 35.702648774821171 ], [ 140.86590914379201, 35.692526801770555 ], [ 140.850967639145324, 35.694896440718196 ], [ 140.856234138294894, 35.695599838261955 ], [ 140.851556523314912, 35.697902198028089 ], [ 140.839938326592574, 35.696855945645439 ], [ 140.846968274866072, 35.699414053715657 ], [ 140.843822164861081, 35.703329333182239 ], [ 140.838037587864505, 35.701034360447409 ], [ 140.835321361891374, 35.705080386950328 ], [ 140.838317859781455, 35.700887720591879 ], [ 140.84103435824909, 35.702599134942147 ], [ 140.836530973425738, 35.705020000172908 ], [ 140.837789299436736, 35.711531721311928 ], [ 140.819293942961167, 35.713414720912681 ], [ 140.738980947213008, 35.692317053789054 ], [ 140.728527198071788, 35.684022252225191 ], [ 140.7307548376657, 35.690412612552052 ], [ 140.737016978051201, 35.691885026672708 ], [ 140.735196355427547, 35.695482558573246 ], [ 140.736332477062206, 35.692644747856889 ], [ 140.731203217154757, 35.692898747878985 ], [ 140.728660169131558, 35.68921325238972 ], [ 140.717395057935619, 35.699941468324141 ], [ 140.693124357802958, 35.699998080646935 ], [ 140.660423139416366, 35.690163000322286 ], [ 140.618203644882328, 35.668910720853148 ], [ 140.554132671485718, 35.624453613243702 ], [ 140.494946640974717, 35.575961837568798 ], [ 140.466056834855067, 35.5412180807499 ], [ 140.467938974703998, 35.532563585441153 ], [ 140.466016497563373, 35.536984720968178 ], [ 140.458610997799383, 35.533705135383741 ], [ 140.461010415098599, 35.530938945775802 ], [ 140.457740803895035, 35.532738170829987 ], [ 140.453318832897935, 35.528393108055525 ], [ 140.430284034180886, 35.498165081053685 ], [ 140.405644448332737, 35.449042973254677 ], [ 140.395200698753342, 35.413340108359364 ], [ 140.391329273826955, 35.368525108347114 ], [ 140.397651179558352, 35.330505505324879 ], [ 140.387537107951289, 35.334785531826867 ], [ 140.383629584237951, 35.330415001151437 ], [ 140.372331244891143, 35.329108081173047 ], [ 140.373456329146393, 35.343329135331373 ], [ 140.344786355106294, 35.346039801695554 ], [ 140.337456641211134, 35.342215414010184 ], [ 140.318071672669589, 35.345712134607368 ], [ 140.306136329128321, 35.33692392000296 ], [ 140.296080505710847, 35.335523694463006 ], [ 140.288847367312201, 35.321108251844407 ], [ 140.27774038930761, 35.31895580186881 ], [ 140.271275057897697, 35.313386440731733 ], [ 140.262626719347736, 35.313582586467248 ], [ 140.256667056039873, 35.31891230615804 ], [ 140.253145641857941, 35.317248413783318 ], [ 140.251264306003009, 35.32442422489811 ], [ 140.246225161761913, 35.327292000125738 ], [ 140.225252048942934, 35.316730918696976 ], [ 140.220754916206488, 35.328121972750921 ], [ 140.212649415638111, 35.333189171343236 ], [ 140.213839493897581, 35.340214694052918 ], [ 140.205848859237562, 35.359699332658124 ], [ 140.209356136076849, 35.365618198221341 ], [ 140.197956744408316, 35.369890108341906 ], [ 140.199791802949449, 35.377813106789517 ], [ 140.206933774374306, 35.379683107589415 ], [ 140.201002217578321, 35.390638891571655 ], [ 140.194444189447836, 35.393276107606312 ], [ 140.188581244628836, 35.404180224637685 ], [ 140.190233256059969, 35.407388000256049 ], [ 140.18085055810684, 35.415435197776219 ], [ 140.18219394289622, 35.421298505022037 ], [ 140.173027081334794, 35.431277332982575 ], [ 140.182548248802732, 35.43545817055815 ], [ 140.182353864839001, 35.440752866151911 ], [ 140.186880559190513, 35.443460640296337 ], [ 140.186330336875585, 35.44838227911896 ], [ 140.170595422440897, 35.456541414354831 ], [ 140.174542944401423, 35.460536136333701 ], [ 140.173976355324612, 35.468862801776936 ], [ 140.185898340336166, 35.468267532420725 ], [ 140.186087833786587, 35.473847505558012 ], [ 140.196908911017545, 35.470851108391969 ], [ 140.20147152968741, 35.478603305798003 ], [ 140.207777638826997, 35.480080251602374 ], [ 140.206183528447127, 35.48458525160811 ], [ 140.211531607797497, 35.486742721599398 ], [ 140.236505745943532, 35.480264919290619 ], [ 140.248490506331905, 35.481753747837217 ], [ 140.247515006312597, 35.486075973227628 ], [ 140.253603112593623, 35.49020927893514 ], [ 140.251199248146804, 35.491851504843112 ], [ 140.262817613042444, 35.494305612613971 ], [ 140.260277444648409, 35.50215255899343 ], [ 140.270254669117776, 35.500214748411963 ], [ 140.272114837629715, 35.49360280232753 ], [ 140.27703455370181, 35.51177997326721 ], [ 140.28227069983302, 35.512782999735691 ], [ 140.286189105343055, 35.518888559159734 ], [ 140.292507976761726, 35.51530991931736 ], [ 140.29985472111855, 35.519105413584043 ], [ 140.287778884587965, 35.523390747884775 ], [ 140.292038170924911, 35.531238503654095 ], [ 140.280777392662571, 35.542453000105922 ], [ 140.281762994766495, 35.550076613345084 ], [ 140.291981051384482, 35.548284640423844 ], [ 140.290984162788959, 35.55577213497611 ], [ 140.294211970805918, 35.560625440611659 ], [ 140.287087055922939, 35.572909053809838 ], [ 140.292493995001905, 35.572674613142908 ], [ 140.316706082719634, 35.585692000285633 ], [ 140.338665811178316, 35.586323306375562 ], [ 140.336320025848522, 35.590433586740687 ], [ 140.326293605765386, 35.589901946217879 ], [ 140.323024278747539, 35.600998305927135 ], [ 140.312523995086394, 35.600359171238836 ], [ 140.30584557741156, 35.594236720748142 ], [ 140.311511219067597, 35.601610000501182 ], [ 140.321212048597204, 35.601419134685386 ], [ 140.330153774776932, 35.606205467808138 ], [ 140.32409713397567, 35.608956054178634 ], [ 140.314810972848136, 35.604126360243356 ], [ 140.31210824929633, 35.61184636012149 ], [ 140.309187418564534, 35.609981080762338 ], [ 140.309133553670677, 35.614319693599043 ], [ 140.315807497218316, 35.617514639489059 ], [ 140.307788105836494, 35.624741586055393 ], [ 140.31651124459836, 35.630895693581465 ], [ 140.32564147857147, 35.626128748043357 ], [ 140.329194617237818, 35.631514559349512 ], [ 140.321206328909057, 35.639690639611388 ], [ 140.325736108834462, 35.644003919445368 ], [ 140.320225616419179, 35.649557802350728 ], [ 140.327453113370552, 35.648921666901458 ], [ 140.326332943910302, 35.657914972797812 ], [ 140.330330700201671, 35.655596080794567 ], [ 140.333331309792129, 35.659909386708875 ], [ 140.347467172971733, 35.660114639878771 ], [ 140.354416835168877, 35.65670855925265 ], [ 140.353754137343572, 35.662957693642682 ], [ 140.338825252883225, 35.664525197579849 ], [ 140.349280336618335, 35.671537386041564 ], [ 140.346902607369543, 35.676657918927845 ], [ 140.353917950652999, 35.684178747751048 ], [ 140.360697134665088, 35.686884054155826 ], [ 140.365899882673489, 35.683590440946148 ], [ 140.367920778021585, 35.68839961325159 ], [ 140.373312361176545, 35.68090353197249 ], [ 140.371349274249724, 35.678639639807557 ], [ 140.377520998595287, 35.68285019817813 ], [ 140.390675913662562, 35.676090505172738 ], [ 140.398570389212182, 35.678839107638737 ], [ 140.401203527720668, 35.68802022525324 ], [ 140.405271854712396, 35.68884744055697 ], [ 140.404435228003422, 35.691901612869174 ], [ 140.394338003396228, 35.691840198166688 ], [ 140.393186861284676, 35.687136027106021 ], [ 140.381971633683975, 35.693636864649648 ], [ 140.37888466939205, 35.690886306158177 ], [ 140.380275524895637, 35.693346585976201 ], [ 140.373868366132228, 35.699332134470467 ], [ 140.369901388238532, 35.697079893022703 ], [ 140.373399466811975, 35.700082693361651 ], [ 140.369664501415627, 35.702730197640562 ], [ 140.382386160892679, 35.703619919423772 ], [ 140.383109830954027, 35.708553531820087 ], [ 140.380902580789552, 35.707035468112394 ], [ 140.386257950943786, 35.713216585876808 ], [ 140.377684890145588, 35.715764640425846 ], [ 140.377368029311128, 35.724679108154362 ], [ 140.365856640571565, 35.725909107319524 ], [ 140.368047301841557, 35.739409172295495 ], [ 140.37667758830014, 35.737898586450683 ], [ 140.379263060941526, 35.728921332553512 ], [ 140.387024694933757, 35.723269386672882 ], [ 140.393527496596789, 35.727789945849395 ], [ 140.388545032127581, 35.729036054570315 ], [ 140.385199584693169, 35.740540252330845 ], [ 140.381552089157708, 35.74084774762548 ], [ 140.403268755149043, 35.742074359943786 ], [ 140.400531854661381, 35.745321613102021 ], [ 140.401966938823193, 35.753312747785117 ], [ 140.389082528136214, 35.757774693647264 ], [ 140.395118910809174, 35.756244134759072 ], [ 140.39991511039409, 35.763789972829045 ], [ 140.392822607077733, 35.7643499725732 ], [ 140.395256524169326, 35.766171640209052 ], [ 140.389240699998368, 35.7685483334389 ], [ 140.393416808938696, 35.767866387423908 ], [ 140.402944136762585, 35.774850532326241 ], [ 140.40234810568063, 35.783752198205434 ], [ 140.407379558919615, 35.786509134688856 ], [ 140.414043722340011, 35.785320251628377 ], [ 140.418482477384487, 35.775098838740462 ], [ 140.436212827360123, 35.780794640060662 ], [ 140.433082891662139, 35.786052413987761 ], [ 140.443018470326251, 35.788239333178751 ], [ 140.444468392402428, 35.803379331690849 ], [ 140.467982502790392, 35.820632585925125 ], [ 140.454967756057158, 35.818135972597133 ], [ 140.455993112692113, 35.826303198134156 ], [ 140.469499364104422, 35.834686441725978 ], [ 140.462458339780596, 35.842141468054365 ], [ 140.467968949107785, 35.846355612921229 ], [ 140.472046692900676, 35.843512837947173 ], [ 140.472468470443573, 35.851010026291704 ], [ 140.46523260709921, 35.850622558784096 ], [ 140.460380531736178, 35.862770892362846 ], [ 140.452393358566724, 35.87036789196469 ], [ 140.44644105081386, 35.864019306046202 ], [ 140.442211362064768, 35.868212108202272 ], [ 140.438431310057013, 35.86340599988705 ], [ 140.427790725861428, 35.863630503944648 ], [ 140.423065382961113, 35.859972197658863 ], [ 140.422558496277702, 35.86624053167526 ], [ 140.418147665182687, 35.866330559207995 ], [ 140.403084695402413, 35.853460865026932 ], [ 140.394356031205916, 35.852792837819266 ], [ 140.392753281039177, 35.855928666774616 ], [ 140.398430246059092, 35.855349505175582 ], [ 140.394169415586134, 35.857576440600326 ], [ 140.39800306089262, 35.858313666142806 ], [ 140.400551504848181, 35.867277558812361 ], [ 140.397989830966026, 35.870010918669038 ], [ 140.401027665294578, 35.872463108185968 ], [ 140.391375252565922, 35.886201224606907 ], [ 140.3850332811611, 35.885037332806689 ], [ 140.375675252510973, 35.894837612965546 ], [ 140.375885331442987, 35.902367891864742 ], [ 140.39831247803852, 35.909299531648116 ], [ 140.424799221906596, 35.907219387165014 ], [ 140.448465771877977, 35.91501866677811 ], [ 140.458438170585168, 35.926540225051383 ], [ 140.483773943213009, 35.909971225391814 ], [ 140.502802606654996, 35.905520279137647 ], [ 140.490778196956285, 35.914956720576242 ], [ 140.487176394175322, 35.928592000420508 ], [ 140.489815330613055, 35.93199280202623 ], [ 140.495529804556895, 35.931222774611399 ], [ 140.499695525428251, 35.94439772117795 ], [ 140.511244643425584, 35.95873541290905 ], [ 140.53493457756872, 35.940038387061975 ], [ 140.558333332817142, 35.930373721070396 ], [ 140.558342139877936, 35.930370333324277 ] ] ] ] } },
{ "type": "Feature", "properties": { "code": "120030", "name": "南部", "PrefCode": "12", "regioncode": "120030" }, "geometry": { "type": "MultiPolygon", "coordinates": [ [ [ [ 139.93068224419028, 34.911149467873713 ], [ 139.928351413686869, 34.910745863830584 ], [ 139.930638249355752, 34.911157414283309 ], [ 139.93068224419028, 34.911149467873713 ] ] ], [ [ [ 140.106150466870645, 35.074078359628629 ], [ 140.108966031057548, 35.072736973132862 ], [ 140.106123256083492, 35.074078359628629 ], [ 140.106150466870645, 35.074078359628629 ] ] ], [ [ [ 140.103630855179858, 35.078254359750929 ], [ 140.106546252207863, 35.075159225118171 ], [ 140.103633891291111, 35.078297359935277 ], [ 140.103630855179858, 35.078254359750929 ] ] ], [ [ [ 139.815629493606366, 35.110857864998536 ], [ 139.813428637621541, 35.108794802238378 ], [ 139.815588391890856, 35.110936747233154 ], [ 139.815629493606366, 35.110857864998536 ] ] ], [ [ [ 139.823038521410695, 35.301469839061895 ], [ 139.819550506250948, 35.30154250518251 ], [ 139.82287727566586, 35.301471720443601 ], [ 139.823038521410695, 35.301469839061895 ] ] ], [ [ [ 139.744283333109365, 35.312294386776557 ], [ 139.739383671019709, 35.311839774086366 ], [ 139.744362503127036, 35.312418639808413 ], [ 139.744283333109365, 35.312294386776557 ] ] ], [ [ [ 139.768302464087469, 35.315733576843172 ], [ 139.770782100913266, 35.314376242669539 ], [ 139.768263190693801, 35.31575146795592 ], [ 139.768302464087469, 35.315733576843172 ] ] ], [ [ [ 139.875001387903808, 35.376895586062517 ], [ 139.882190725721443, 35.376890000373294 ], [ 139.869858833318517, 35.376820559221471 ], [ 139.875000000249884, 35.376895586062517 ], [ 139.875001387903808, 35.376895586062517 ] ] ], [ [ [ 139.869330829654132, 35.376898134741168 ], [ 139.861209753727167, 35.376832666794201 ], [ 139.866668028806544, 35.376903054032766 ], [ 139.869330829654132, 35.376898134741168 ] ] ], [ [ [ 139.891523969056038, 35.377486585437623 ], [ 139.882409339219748, 35.376832557976229 ], [ 139.891487756954461, 35.377554720773787 ], [ 139.891523969056038, 35.377486585437623 ] ] ], [ [ [ 139.893082412323565, 35.378165107733594 ], [ 139.896713838772712, 35.379715802442377 ], [ 139.893182282936095, 35.378210838259633 ], [ 139.893082412323565, 35.378165107733594 ] ] ], [ [ [ 139.908349467953599, 35.387225080373184 ], [ 139.913115356788353, 35.385502332766521 ], [ 139.908345499245456, 35.387234748085234 ], [ 139.908349467953599, 35.387225080373184 ] ] ], [ [ [ 139.917809247698642, 35.389133484922468 ], [ 139.914094864186723, 35.388446017969386 ], [ 139.917799454980923, 35.389137765695409 ], [ 139.917809247698642, 35.389133484922468 ] ] ], [ [ [ 139.873441413990122, 35.465478532408383 ], [ 139.879079221628785, 35.461821198289726 ], [ 139.872768003440683, 35.465936387154613 ], [ 139.873441413990122, 35.465478532408383 ] ] ], [ [ [ 140.004155421835321, 35.480504414147447 ], [ 140.02458474698858, 35.466376919159529 ], [ 140.039788002914065, 35.445545532300514 ], [ 140.043167691136091, 35.437372224648527 ], [ 140.041005667877357, 35.429184999987797 ], [ 140.032622554687237, 35.423570027035169 ], [ 140.060111556103493, 35.425787196721785 ], [ 140.080706666779292, 35.432318801871247 ], [ 140.087714694977308, 35.427461864773306 ], [ 140.092772607170104, 35.406698278702663 ], [ 140.087510310552489, 35.397752440822558 ], [ 140.092528612105866, 35.395821332888261 ], [ 140.089904331919456, 35.380861919142319 ], [ 140.102465162037674, 35.375453864903989 ], [ 140.105684358146732, 35.379232747793139 ], [ 140.102243838882146, 35.385160504953376 ], [ 140.105588002984064, 35.384425532212617 ], [ 140.11061377430633, 35.373756640056968 ], [ 140.120628145272804, 35.364251666681128 ], [ 140.118138974733938, 35.361898053652283 ], [ 140.122899493716773, 35.358643613112292 ], [ 140.124086108687038, 35.351203612656661 ], [ 140.129692165760957, 35.346831694327307 ], [ 140.119564034152972, 35.331359694894047 ], [ 140.108466743645408, 35.324513225405099 ], [ 140.108937833714094, 35.318946278947692 ], [ 140.101612244109788, 35.32064905441041 ], [ 140.101283333259289, 35.318019613014769 ], [ 140.107701607643094, 35.312570440873174 ], [ 140.118123917384992, 35.316177135066766 ], [ 140.12214136163459, 35.31371077493236 ], [ 140.114320414655481, 35.289388891684041 ], [ 140.120293359151219, 35.282576413870459 ], [ 140.118556939151517, 35.262186441251288 ], [ 140.122252554711736, 35.247619253325922 ], [ 140.14013360588126, 35.231302081825675 ], [ 140.142900336881098, 35.236243468861062 ], [ 140.145798663877258, 35.234707918735523 ], [ 140.151820816577469, 35.24974308957195 ], [ 140.156344124981501, 35.248587558768861 ], [ 140.154067457946894, 35.252608288241959 ], [ 140.158052801795407, 35.250467999798389 ], [ 140.157426692887611, 35.253299613286572 ], [ 140.166719804875129, 35.25595630593881 ], [ 140.174558974816932, 35.251351305818162 ], [ 140.177980583137469, 35.274736359895144 ], [ 140.190306161400258, 35.27741138702595 ], [ 140.202815135710011, 35.287712279298319 ], [ 140.204231309827151, 35.293803134806865 ], [ 140.198761634042285, 35.298970053824974 ], [ 140.199086720076139, 35.30806838704649 ], [ 140.212908585862579, 35.300985665656015 ], [ 140.225535032315975, 35.30680097338626 ], [ 140.230961115263312, 35.303968775338774 ], [ 140.225252048942934, 35.316730918696976 ], [ 140.246136004772893, 35.327292000125738 ], [ 140.251264306003009, 35.32442422489811 ], [ 140.253145641857941, 35.317248413783318 ], [ 140.256667056039873, 35.31891230615804 ], [ 140.262626719347736, 35.313582586467248 ], [ 140.271275057897697, 35.313386440731733 ], [ 140.27774038930761, 35.31895580186881 ], [ 140.288847367312201, 35.321108251844407 ], [ 140.296080505710847, 35.335523694463006 ], [ 140.306061335562276, 35.336890027252991 ], [ 140.321033332622278, 35.345945468208868 ], [ 140.337456641211134, 35.342215414010184 ], [ 140.344786355106294, 35.346039801695554 ], [ 140.373534384004643, 35.343306919378904 ], [ 140.373113476106141, 35.328818918558284 ], [ 140.383629584237951, 35.330415001151437 ], [ 140.387537107951289, 35.334785531826867 ], [ 140.393033191428685, 35.330674414192913 ], [ 140.402674358135187, 35.330113215652432 ], [ 140.40085944170994, 35.328086179733475 ], [ 140.403892865763169, 35.330657234443891 ], [ 140.415067561818546, 35.30581456009395 ], [ 140.406223371611418, 35.290966144272204 ], [ 140.400058599924478, 35.269673153393342 ], [ 140.40100032410578, 35.258467071897883 ], [ 140.406141362434028, 35.255821603684126 ], [ 140.402202191577999, 35.255826485204182 ], [ 140.404879222398222, 35.252691532188521 ], [ 140.400940830355125, 35.254504071705583 ], [ 140.406161997378376, 35.251335945397614 ], [ 140.407107912400306, 35.256167134905411 ], [ 140.403651492222707, 35.246239269726573 ], [ 140.405026407242985, 35.237026648860819 ], [ 140.399554267315693, 35.231579910284665 ], [ 140.392233463004004, 35.210640630860496 ], [ 140.394126174383473, 35.20269273018539 ], [ 140.386093372311393, 35.19511339596653 ], [ 140.3843630865872, 35.187493387210111 ], [ 140.374119728442793, 35.179038053963097 ], [ 140.365786861274728, 35.178271613044558 ], [ 140.359395083616278, 35.182403135396441 ], [ 140.349130828824741, 35.180161053589813 ], [ 140.332830584364046, 35.163832270043258 ], [ 140.332755642059283, 35.156323387814155 ], [ 140.32652983068715, 35.149370279414939 ], [ 140.32682700356338, 35.139343531978454 ], [ 140.315279728276892, 35.138655413916297 ], [ 140.310201726128867, 35.134714198001916 ], [ 140.312477003710796, 35.147152721221175 ], [ 140.309913916993764, 35.14825202730924 ], [ 140.310334137810287, 35.144310109024389 ], [ 140.309939519793033, 35.148944820047461 ], [ 140.298093385401444, 35.150965585893118 ], [ 140.295099727570459, 35.145536945273875 ], [ 140.289915383288417, 35.145080945829022 ], [ 140.289643722379992, 35.139753693877935 ], [ 140.293097860078205, 35.138066721302209 ], [ 140.286181114866622, 35.134302386745787 ], [ 140.278633579775942, 35.13449866737966 ], [ 140.275199052694234, 35.130558027031384 ], [ 140.274155939844832, 35.137267278861884 ], [ 140.262666641152578, 35.133812386632371 ], [ 140.262917523225155, 35.137121837802624 ], [ 140.257775057672802, 35.137923279435824 ], [ 140.2567920492138, 35.134470025771122 ], [ 140.2479477169137, 35.133983720971969 ], [ 140.250264253592491, 35.128417892371886 ], [ 140.234348222892208, 35.121849018417493 ], [ 140.236376809242415, 35.116709586278432 ], [ 140.207821776653759, 35.113959532306637 ], [ 140.203382386687849, 35.109466864704075 ], [ 140.193353451200892, 35.120075387169436 ], [ 140.197078858602481, 35.118712559037419 ], [ 140.194269922419039, 35.121374108028704 ], [ 140.198104527302121, 35.122733333476617 ], [ 140.191790584168189, 35.127214801821708 ], [ 140.186103113268132, 35.12519758560012 ], [ 140.182046329074865, 35.11764555929517 ], [ 140.16690089506028, 35.123798666775087 ], [ 140.158100440682801, 35.121881531607471 ], [ 140.160437055625721, 35.119787586128268 ], [ 140.153608170580696, 35.121421864727324 ], [ 140.150092917654092, 35.116649107770172 ], [ 140.135770272480158, 35.121661945942094 ], [ 140.126754694873284, 35.118537586040816 ], [ 140.105328392091678, 35.102383532673969 ], [ 140.108172723792222, 35.098664666940863 ], [ 140.10581834004438, 35.09820083799832 ], [ 140.108996304036282, 35.098779693827851 ], [ 140.105490285348424, 35.097385532416467 ], [ 140.108393748372805, 35.09395813515988 ], [ 140.105642918286094, 35.096710558845245 ], [ 140.107977885670948, 35.093259054361909 ], [ 140.104812049036923, 35.091100837933368 ], [ 140.110188340119862, 35.092877026853387 ], [ 140.09983527907491, 35.089446612371319 ], [ 140.101654085967311, 35.086993027106587 ], [ 140.098216109086252, 35.084108531683455 ], [ 140.102286834569782, 35.076532468298808 ], [ 140.085360311229465, 35.073951414026567 ], [ 140.085699273802561, 35.069696612608652 ], [ 140.078300999191811, 35.067400918617579 ], [ 140.083242477058775, 35.06288891918831 ], [ 140.075866252026003, 35.062681054387212 ], [ 140.073014967666722, 35.055786332673165 ], [ 140.058562865983504, 35.059478838377743 ], [ 140.039407392737075, 35.053043359963169 ], [ 140.018114695037184, 35.035473865426582 ], [ 140.009069390340187, 35.03507477508083 ], [ 139.999815472606087, 35.028962054355361 ], [ 139.984446834953587, 35.01476213516446 ], [ 139.975131530395856, 35.001517803204081 ], [ 139.968151698642032, 34.976433802078361 ], [ 139.96080744540734, 34.967871414434285 ], [ 139.962777663958036, 34.955208612887247 ], [ 139.964991829009819, 34.952218892288101 ], [ 139.964876588983429, 34.956917027099166 ], [ 139.966317665328006, 34.953548305210177 ], [ 139.965011219292364, 34.942899413976818 ], [ 139.953063087391683, 34.931675801996732 ], [ 139.955884500769116, 34.931221918656661 ], [ 139.945940272425673, 34.923919440729662 ], [ 139.941844721157054, 34.925031667377596 ], [ 139.941904721226024, 34.917472225263054 ], [ 139.923725032184507, 34.911720612915985 ], [ 139.928033307291344, 34.90917625188257 ], [ 139.919263917296007, 34.910088414448808 ], [ 139.920193916116432, 34.907123667123585 ], [ 139.901828418147034, 34.903621775424654 ], [ 139.892295668310453, 34.905846800689346 ], [ 139.887169273643167, 34.899405161918764 ], [ 139.887558716062017, 34.903493495228702 ], [ 139.872095136081725, 34.902741585555759 ], [ 139.864733774144383, 34.906869667101489 ], [ 139.836926835405166, 34.902957440833291 ], [ 139.835655187736734, 34.906818000150622 ], [ 139.82430526597534, 34.910464314876265 ], [ 139.822482877982452, 34.91435101928414 ], [ 139.825769428816102, 34.919615225162545 ], [ 139.822677522749586, 34.920643404769351 ], [ 139.827454929201735, 34.927238449894617 ], [ 139.820042516349076, 34.937822098910772 ], [ 139.79351919615408, 34.951250180351622 ], [ 139.758352218380196, 34.959684667313581 ], [ 139.753110596277111, 34.965923883080791 ], [ 139.755682074568199, 34.969644333419296 ], [ 139.752922619982996, 34.974159027217411 ], [ 139.755351698721938, 34.978281711931515 ], [ 139.759666380599015, 34.974557613043487 ], [ 139.773972374825348, 34.977723323772409 ], [ 139.784977288770961, 34.976224630562285 ], [ 139.783919961237302, 34.973118071841611 ], [ 139.796964280377324, 34.973816550093773 ], [ 139.806800868865025, 34.978881342100294 ], [ 139.822701283737274, 34.979975189303616 ], [ 139.827240129728239, 34.988483541182518 ], [ 139.82324094711214, 34.991355197884104 ], [ 139.842118066695434, 34.992047630893524 ], [ 139.845508729344488, 34.989545657606072 ], [ 139.841772943766387, 34.986107838106307 ], [ 139.848203035241909, 34.985006693803939 ], [ 139.856540972787684, 34.992268395570079 ], [ 139.85803453986216, 35.011021360147708 ], [ 139.850919013901489, 35.02429847689325 ], [ 139.845808533636955, 35.022668252437938 ], [ 139.849149066276482, 35.025345413659977 ], [ 139.844838898096782, 35.02554827912985 ], [ 139.844663515009302, 35.022911045108685 ], [ 139.834027134244934, 35.032152053974187 ], [ 139.824769026569356, 35.031191946750994 ], [ 139.810367638555704, 35.037533865095838 ], [ 139.815504332259138, 35.043482197845208 ], [ 139.82324988277594, 35.037573305763487 ], [ 139.822159274031378, 35.040286558577861 ], [ 139.824444890219524, 35.037795801635014 ], [ 139.831082698108048, 35.042602999928533 ], [ 139.83184658944856, 35.0512585321556 ], [ 139.8274743581552, 35.052272694029682 ], [ 139.825034941709305, 35.062212666781193 ], [ 139.819212166008697, 35.065915171148276 ], [ 139.821223021325409, 35.072224026817423 ], [ 139.838369999975612, 35.078547865191865 ], [ 139.842481634719775, 35.086276693714467 ], [ 139.837624747084419, 35.09873477538963 ], [ 139.823528079057724, 35.101009532264129 ], [ 139.827720337123878, 35.10520922592508 ], [ 139.823951166912934, 35.107821749274365 ], [ 139.828141167680769, 35.110282279103956 ], [ 139.824111167096703, 35.113799774939707 ], [ 139.836247055857029, 35.125687531754238 ], [ 139.834951970956809, 35.130619197118278 ], [ 139.839299274841778, 35.131052773766555 ], [ 139.83809233519321, 35.13357805388415 ], [ 139.8359388330108, 35.131568468410137 ], [ 139.836720973394222, 35.138047504588712 ], [ 139.828157638764083, 35.151384586329641 ], [ 139.816599026623862, 35.154762359895017 ], [ 139.819068001986807, 35.164278359858486 ], [ 139.822057393434079, 35.164535333039225 ], [ 139.815657690949706, 35.172358945608892 ], [ 139.818388249418263, 35.173841693839165 ], [ 139.816645525170884, 35.185324720659366 ], [ 139.823394188890802, 35.197214224856623 ], [ 139.84807763917172, 35.212881252168131 ], [ 139.866710440834254, 35.219384278661607 ], [ 139.870691050651544, 35.230665612727876 ], [ 139.864366472135089, 35.254173613121793 ], [ 139.846613139085207, 35.271724747998746 ], [ 139.848945550596795, 35.274604440142866 ], [ 139.846203450229154, 35.277957333064535 ], [ 139.850433747819238, 35.276361135358172 ], [ 139.853210571011118, 35.282200332679281 ], [ 139.85075496766774, 35.28737517112728 ], [ 139.826133969007515, 35.301614027365531 ], [ 139.783905292395389, 35.312837486460865 ], [ 139.806510117148264, 35.314532080790968 ], [ 139.814699493886565, 35.318747667271055 ], [ 139.813771140825565, 35.315182000149264 ], [ 139.819771556012597, 35.316487054034383 ], [ 139.815787885802365, 35.320036614298374 ], [ 139.822068911051474, 35.326913667032159 ], [ 139.820044423811169, 35.333655801673956 ], [ 139.821334085799435, 35.323329026913086 ], [ 139.840271310672506, 35.334410413809621 ], [ 139.836965279623996, 35.337761946057014 ], [ 139.824937419226558, 35.336141972973735 ], [ 139.827817885686954, 35.337752999601321 ], [ 139.821476588773635, 35.34624394600138 ], [ 139.837466666953219, 35.35906508128852 ], [ 139.847059933968808, 35.346861035608356 ], [ 139.854688781262325, 35.350635613442876 ], [ 139.854801166840389, 35.346824667024805 ], [ 139.857567458071799, 35.347284207100529 ], [ 139.855054889871326, 35.350804730054278 ], [ 139.85916481230629, 35.348053837914335 ], [ 139.839165498888747, 35.367304197730618 ], [ 139.845898444257841, 35.375473891906665 ], [ 139.863098301245714, 35.36710750520723 ], [ 139.89789972799008, 35.35837280116391 ], [ 139.887814837584756, 35.37088805364084 ], [ 139.8998428265852, 35.372111720679413 ], [ 139.902347587771033, 35.36817927855094 ], [ 139.907419363912595, 35.370340693868002 ], [ 139.90447839196429, 35.374983837833895 ], [ 139.8991026719508, 35.372694386936473 ], [ 139.897615837201215, 35.375029587245706 ], [ 139.914243112929398, 35.379407001332083 ], [ 139.913107224219061, 35.383032333075789 ], [ 139.917985862857336, 35.38168691941587 ], [ 139.914479221838633, 35.387240694402578 ], [ 139.918592580583208, 35.387494612586352 ], [ 139.91328464337164, 35.391372197868691 ], [ 139.906793747833262, 35.389476414405067 ], [ 139.907949688727172, 35.387456000194334 ], [ 139.903913191440665, 35.400619332915937 ], [ 139.900604941764755, 35.400886864137533 ], [ 139.897487664923915, 35.415944026995305 ], [ 139.904363216689148, 35.414518467553307 ], [ 139.896908300977316, 35.421496801935916 ], [ 139.901926329136813, 35.425320694094808 ], [ 139.901096446443944, 35.428704666687054 ], [ 139.902985887888462, 35.427064838371621 ], [ 139.903532283588106, 35.430820775058748 ], [ 139.90102678226026, 35.429647107627943 ], [ 139.917751582269716, 35.437481467995383 ], [ 139.918438274906521, 35.44127664030475 ], [ 139.918404086279679, 35.437784865079493 ], [ 139.921943773786211, 35.439250586445439 ], [ 139.918713358634704, 35.441831693777715 ], [ 139.924162308643645, 35.440778198255316 ], [ 139.922561698863433, 35.439049721067818 ], [ 139.940586939235914, 35.442563667279501 ], [ 139.939925188396842, 35.444856558983076 ], [ 139.948641673074803, 35.442221414087044 ], [ 139.951092283382195, 35.45613817093988 ], [ 139.962701478790223, 35.458757801631293 ], [ 139.96472817116819, 35.452982693596482 ], [ 139.964528780678734, 35.44992558589712 ], [ 139.957285304573247, 35.448093108410262 ], [ 139.952144915555436, 35.452967720783761 ], [ 139.955143384759481, 35.44380330627763 ], [ 139.974460557908515, 35.448472197833723 ], [ 139.965690077934823, 35.468513999721381 ], [ 139.982026199949246, 35.474791864752831 ], [ 139.992303476024631, 35.457353612779059 ], [ 139.989188171397018, 35.454286775314472 ], [ 139.993368339877065, 35.453239468027107 ], [ 139.998050856162195, 35.457308865211985 ], [ 139.988765965776793, 35.469895666851585 ], [ 139.992528365891417, 35.474276649447859 ], [ 139.999276082625215, 35.465963748128502 ], [ 140.003321777278302, 35.468282224645009 ], [ 139.996688885983417, 35.476169413887419 ], [ 140.005406394989222, 35.478770532034503 ], [ 140.002479196157992, 35.482524332831758 ], [ 140.004167133706346, 35.480512865076719 ], [ 140.004155421835321, 35.480504414147447 ] ] ] ] } }
]
}
