{
"type": "FeatureCollection",
"name": "16_toyama_area",
"crs": { "type": "name", "properties": { "name": "urn:ogc:def:crs:OGC:1.3:CRS84" } },
"features": [
{ "type": "Feature", "properties": { "code": "160010", "name": "東部", "PrefCode": "16", "regioncode": "160010" }, "geometry": { "type": "Polygon", "coordinates": [ [ [ 137.632865330570667, 36.979676360375777 ], [ 137.651536393889501, 36.969020386981299 ], [ 137.666506109369493, 36.950239027209363 ], [ 137.673475863320505, 36.950681774244515 ], [ 137.687728664446354, 36.943144306164868 ], [ 137.711298417687885, 36.944087613152874 ], [ 137.713738079648692, 36.933841558840925 ], [ 137.720456667341409, 36.926689640014899 ], [ 137.716282191569917, 36.921390748184535 ], [ 137.717831854756355, 36.907673864757101 ], [ 137.712571855007127, 36.904080558770829 ], [ 137.713518197207122, 36.891438386772165 ], [ 137.734129493881142, 36.868832080835887 ], [ 137.734438586371766, 36.831399468011114 ], [ 137.730081362065221, 36.826425892441023 ], [ 137.749328221720134, 36.809576081271189 ], [ 137.754293748357895, 36.796589081321088 ], [ 137.749554553200142, 36.780024919114794 ], [ 137.763386744103059, 36.768233468899496 ], [ 137.751772309244757, 36.751108198084921 ], [ 137.759294254126644, 36.740740666948284 ], [ 137.750753450211619, 36.726583999751824 ], [ 137.75002510997092, 36.704745359610683 ], [ 137.756704551973598, 36.695562586344352 ], [ 137.754222049008376, 36.687459801728494 ], [ 137.759738417594008, 36.685932305931203 ], [ 137.758479780417588, 36.675968135121366 ], [ 137.761863865425084, 36.666183387153637 ], [ 137.753454086437046, 36.65776810791192 ], [ 137.756472633005728, 36.65205172111007 ], [ 137.754621698732421, 36.639119224572596 ], [ 137.751808560017139, 36.627104225379753 ], [ 137.746678807281228, 36.624472837851215 ], [ 137.744245421688902, 36.617509225370497 ], [ 137.753059973838731, 36.593520891675837 ], [ 137.747863280965703, 36.586853945753035 ], [ 137.724307691147146, 36.586490613351202 ], [ 137.713205966082569, 36.577080054401051 ], [ 137.6938872496969, 36.569059504692461 ], [ 137.687737755692979, 36.562074505434111 ], [ 137.689537717291842, 36.553794252203033 ], [ 137.684597638770128, 36.537807333341789 ], [ 137.710553280809336, 36.535742053752813 ], [ 137.702751803253136, 36.52469572153035 ], [ 137.70546955897305, 36.517887693562272 ], [ 137.694296160639396, 36.510682441341658 ], [ 137.677257523316143, 36.514354640354441 ], [ 137.666971089444246, 36.506405468037997 ], [ 137.666444915900229, 36.49342441440524 ], [ 137.653409339069754, 36.490028586050471 ], [ 137.650779831124396, 36.48012027932748 ], [ 137.656717613027467, 36.470223108010089 ], [ 137.655410051832519, 36.459172305257709 ], [ 137.645293358701565, 36.454530333108437 ], [ 137.63330433192948, 36.425022306034634 ], [ 137.623328222619421, 36.423950054251634 ], [ 137.61740263282536, 36.418600865137876 ], [ 137.608079026625887, 36.419416359577383 ], [ 137.603805084037504, 36.41067664001497 ], [ 137.605361166584657, 36.402538333077644 ], [ 137.59240747122783, 36.389674972821808 ], [ 137.576743605932734, 36.392980746664193 ], [ 137.559505252565373, 36.387451559142221 ], [ 137.540902502648464, 36.391441774618272 ], [ 137.531199753965552, 36.402447025809636 ], [ 137.520263916946305, 36.406067279081697 ], [ 137.510413671353945, 36.424321387022474 ], [ 137.47410775616811, 36.425409135023642 ], [ 137.46071155569382, 36.412226108048515 ], [ 137.449369299753471, 36.416818890879142 ], [ 137.445309001009605, 36.412964440656481 ], [ 137.436010362688194, 36.420393305706568 ], [ 137.40470691379312, 36.426691053849083 ], [ 137.395221634670747, 36.43639746816865 ], [ 137.396205887791552, 36.450464694190316 ], [ 137.38993594039141, 36.459921640171615 ], [ 137.378017249596496, 36.452719720838502 ], [ 137.361497781897128, 36.450051387361668 ], [ 137.358589922087276, 36.436843612842495 ], [ 137.351206550142251, 36.432902531826414 ], [ 137.338397107840365, 36.433853946202703 ], [ 137.318620660814872, 36.424440918613527 ], [ 137.312895939995656, 36.425341468234251 ], [ 137.305006835197332, 36.43583538739324 ], [ 137.313826031446297, 36.441594559441398 ], [ 137.313375252565947, 36.449087612703238 ], [ 137.317788301389101, 36.451182025829894 ], [ 137.317011699030786, 36.460803170929637 ], [ 137.308518365829968, 36.463775387124485 ], [ 137.298512503349457, 36.45822986521614 ], [ 137.278484474578931, 36.464995748255205 ], [ 137.256378585603329, 36.451141332406621 ], [ 137.247611970915841, 36.461963864740596 ], [ 137.232064358283537, 36.444502467814686 ], [ 137.213869610993811, 36.438792774666865 ], [ 137.213980973143407, 36.430749694243048 ], [ 137.208944304735951, 36.431690838361533 ], [ 137.205629830852104, 36.427604170596055 ], [ 137.204870725703472, 36.436773892001554 ], [ 137.19312574705566, 36.448011666505238 ], [ 137.191675252111281, 36.45521336010853 ], [ 137.177998832779963, 36.454199747720224 ], [ 137.174939364360284, 36.450062252071348 ], [ 137.171244667907217, 36.454726693781936 ], [ 137.160708559752266, 36.45663446790644 ], [ 137.152832698370389, 36.447654748967523 ], [ 137.144191828690055, 36.445521135292211 ], [ 137.143389584861552, 36.438469748080479 ], [ 137.132267613359772, 36.434563108400766 ], [ 137.12200031076577, 36.417150053632099 ], [ 137.111510310852282, 36.415382838147536 ], [ 137.10192577175701, 36.399193107775773 ], [ 137.091944111831367, 36.396540332570339 ], [ 137.094882671797905, 36.383966721287209 ], [ 137.078726005001158, 36.384311441319994 ], [ 137.065861218420537, 36.375225918041735 ], [ 137.048358145112388, 36.370814532065083 ], [ 137.048620972879689, 36.380298694229396 ], [ 137.058386303585053, 36.397773413712116 ], [ 137.056111088955618, 36.411991467732093 ], [ 137.062223112706533, 36.426007278613042 ], [ 137.054683695796029, 36.437612559272225 ], [ 137.064303748219459, 36.452370891803241 ], [ 137.050223670885771, 36.503072837741342 ], [ 137.041324500625251, 36.505913108103528 ], [ 137.031304188737408, 36.49998366741238 ], [ 137.028177274761447, 36.505366467788292 ], [ 137.034594837781583, 36.513950919399463 ], [ 137.032630195027537, 36.533450666615011 ], [ 137.037473554161238, 36.544714278641095 ], [ 137.03966092121459, 36.580222360273751 ], [ 137.045623164677409, 36.584477613151364 ], [ 137.044429830872105, 36.58963761278568 ], [ 137.049355422215058, 36.594382613067182 ], [ 137.049646278253249, 36.600647613296758 ], [ 137.05399600491171, 36.600461504894611 ], [ 137.056123838644339, 36.618633171084014 ], [ 137.053780779159638, 36.622099838137046 ], [ 137.057956939361361, 36.632743415276423 ], [ 137.065370271321058, 36.638395918736705 ], [ 137.058595861809636, 36.644925081327472 ], [ 137.051658910630294, 36.646053135144143 ], [ 137.056919196363879, 36.652243666112327 ], [ 137.064193112722023, 36.656841720768853 ], [ 137.068184228419454, 36.654580333215847 ], [ 137.063640052146752, 36.654664224674264 ], [ 137.066571725105064, 36.651888945618396 ], [ 137.081073384828869, 36.649412558942515 ], [ 137.071657002768575, 36.655449775286968 ], [ 137.076748106240188, 36.654543107578377 ], [ 137.080848690114976, 36.665070864628774 ], [ 137.083618690150502, 36.658449748157409 ], [ 137.087362866403282, 36.659100027244506 ], [ 137.099930999016465, 36.683710000216365 ], [ 137.107735720427172, 36.680749441033925 ], [ 137.111287951677696, 36.685418305610369 ], [ 137.121647950992156, 36.686031359959372 ], [ 137.125332139766556, 36.696772748263754 ], [ 137.124248832617582, 36.704124946109403 ], [ 137.118568833285053, 36.709097440694393 ], [ 137.126715524601877, 36.713772441345156 ], [ 137.124598858650415, 36.717771891959273 ], [ 137.130848300608704, 36.719913559063571 ], [ 137.132193892334271, 36.72530019774598 ], [ 137.145883891428525, 36.724479918013856 ], [ 137.153095578298348, 36.741657414258327 ], [ 137.178018689810756, 36.746834054048406 ], [ 137.180315953118793, 36.758206567678997 ], [ 137.23415457787155, 36.764366531590213 ], [ 137.229116913015218, 36.766939107953533 ], [ 137.299142309370154, 36.75841171203092 ], [ 137.296953165256468, 36.757053757325082 ], [ 137.3010667200532, 36.75566661242425 ], [ 137.299342322190455, 36.759178874205759 ], [ 137.318959727709284, 36.758150720679282 ], [ 137.333727108319408, 36.762772666725255 ], [ 137.347633138958258, 36.781019000026902 ], [ 137.392983475706956, 36.807374720766802 ], [ 137.393788223247952, 36.810768918650751 ], [ 137.390629001127536, 36.807866197567023 ], [ 137.394493605595471, 36.821748666867506 ], [ 137.392343035202998, 36.823638522899557 ], [ 137.391416264948703, 36.820523649047232 ], [ 137.392055693715406, 36.823668955058281 ], [ 137.411204838432582, 36.84777610808095 ], [ 137.412601413624429, 36.853186360262384 ], [ 137.411052942939023, 36.855086197869809 ], [ 137.409085641789034, 36.851187531579399 ], [ 137.408917613357289, 36.860147773900678 ], [ 137.418737301785086, 36.874103224983912 ], [ 137.414807107961678, 36.890617386683118 ], [ 137.418619974432318, 36.893279585884216 ], [ 137.414560077685451, 36.889651468940201 ], [ 137.408916277864023, 36.897250027067173 ], [ 137.428887134034085, 36.925714441268497 ], [ 137.425810000231422, 36.925021099044557 ], [ 137.435527691150128, 36.930949027075997 ], [ 137.497435577390092, 36.956045251786975 ], [ 137.574582892086823, 36.964133026717889 ], [ 137.589963917001228, 36.974277332632823 ], [ 137.585055694264952, 36.972646666610444 ], [ 137.587606938709314, 36.974814531865206 ], [ 137.632718301308614, 36.979691252249552 ], [ 137.632865330570667, 36.979676360375777 ] ] ] } },
{ "type": "Feature", "properties": { "code": "160020", "name": "西部", "PrefCode": "16", "regioncode": "160020" }, "geometry": { "type": "MultiPolygon", "coordinates": [ [ [ [ 137.075319143763522, 36.802415000152166 ], [ 137.064376588808614, 36.81162741507319 ], [ 137.075004525838267, 36.802682640191733 ], [ 137.075319143763522, 36.802415000152166 ] ] ], [ [ [ 137.031358833343575, 36.92835080204793 ], [ 137.028755642259171, 36.932356802424522 ], [ 137.03093752344796, 36.929161225210407 ], [ 137.031358833343575, 36.92835080204793 ] ] ], [ [ [ 136.988006550062323, 36.967052918557386 ], [ 136.996266860827063, 36.967014333145016 ], [ 137.006727133650315, 36.961131054654516 ], [ 137.027238559711805, 36.96242500011374 ], [ 137.03767080426428, 36.967119196793533 ], [ 137.05169666686777, 36.959174324135802 ], [ 137.027578301097833, 36.940401197657195 ], [ 137.032585279287218, 36.923774413858155 ], [ 137.025490532162394, 36.91420310828687 ], [ 137.01814983124973, 36.910997080950551 ], [ 137.009274422876388, 36.895185108106318 ], [ 136.995181478942186, 36.885006252036931 ], [ 136.993377055806491, 36.879378441262133 ], [ 136.984976446306064, 36.877060080758156 ], [ 136.988399845176787, 36.863069702704649 ], [ 136.993251440301833, 36.86321574810836 ], [ 136.988910635817206, 36.862569197610412 ], [ 136.989553256277873, 36.858602413970289 ], [ 136.990730636110015, 36.862714278940871 ], [ 136.992285161930795, 36.85987002728001 ], [ 136.991113748200974, 36.856224692815374 ], [ 136.993081219322903, 36.862330387137717 ], [ 136.99108364519418, 36.853998333856055 ], [ 136.998526589130847, 36.844141414394812 ], [ 137.020546355430042, 36.826834054248252 ], [ 137.044846939135027, 36.814095359813052 ], [ 137.056820155825562, 36.801604153409016 ], [ 137.057908470399639, 36.806501999767534 ], [ 137.059071997974343, 36.801943892096972 ], [ 137.063001829371046, 36.805002721098731 ], [ 137.069297198806794, 36.801705532184599 ], [ 137.064132634213706, 36.797595946096067 ], [ 137.084117471244326, 36.787553721327242 ], [ 137.079196304565812, 36.788272973019332 ], [ 137.08280569402757, 36.784102530707287 ], [ 137.091157562071885, 36.784732135279853 ], [ 137.096484111652444, 36.781047054378121 ], [ 137.09091158220383, 36.786145694168511 ], [ 137.114295421296674, 36.782042774754302 ], [ 137.107850078218576, 36.779322892137827 ], [ 137.113604578288687, 36.774565440742549 ], [ 137.093920116620097, 36.775636197852293 ], [ 137.097356445943319, 36.771423305740996 ], [ 137.092629144319631, 36.772939891862563 ], [ 137.092605188178936, 36.769742748029444 ], [ 137.112101439729713, 36.767891891997294 ], [ 137.109047172988653, 36.763111251583041 ], [ 137.113944720772338, 36.765163505391513 ], [ 137.13315858699923, 36.756887891762858 ], [ 137.134419272831224, 36.760628531881309 ], [ 137.118319105042701, 36.766506170723233 ], [ 137.120637808188349, 36.772325918406466 ], [ 137.117554694793398, 36.77604519872699 ], [ 137.121918807906695, 36.779466720712662 ], [ 137.118930219554045, 36.777948306269366 ], [ 137.118929169145872, 36.784219613444463 ], [ 137.119988911359201, 36.780209945632521 ], [ 137.141117716609415, 36.772762134564914 ], [ 137.136602022765146, 36.77337489213761 ], [ 137.137935667896841, 36.769453973022507 ], [ 137.13936914407077, 36.772126134913265 ], [ 137.139133644901904, 36.769617467971841 ], [ 137.149113281352925, 36.768435278565278 ], [ 137.155574501062461, 36.763227613063918 ], [ 137.180130219733883, 36.757958666859054 ], [ 137.178998145048467, 36.748219613444462 ], [ 137.151199195886193, 36.740615748418122 ], [ 137.145883891428525, 36.724479918013856 ], [ 137.132193892334271, 36.72530019774598 ], [ 137.130848300608704, 36.719913559063571 ], [ 137.124598858650415, 36.717771891959273 ], [ 137.126715524601877, 36.713772441345156 ], [ 137.118568833285053, 36.709097440694393 ], [ 137.124248832617582, 36.704124946109403 ], [ 137.125332139766556, 36.696772748263754 ], [ 137.121647950992156, 36.686031359959372 ], [ 137.111287951677696, 36.685418305610369 ], [ 137.107735720427172, 36.680749441033925 ], [ 137.099930999016465, 36.683710000216365 ], [ 137.087362866403282, 36.659100027244506 ], [ 137.083618690150502, 36.658449748157409 ], [ 137.080848690114976, 36.665070864628774 ], [ 137.076748106240188, 36.654543107578377 ], [ 137.071657002768575, 36.655449775286968 ], [ 137.081073384828869, 36.649412558942515 ], [ 137.066571725105064, 36.651888945618396 ], [ 137.063640052146752, 36.654664224674264 ], [ 137.068184228419454, 36.654580333215847 ], [ 137.063974227628592, 36.656851170844902 ], [ 137.051658910630294, 36.646053135144143 ], [ 137.058595861809636, 36.644925081327472 ], [ 137.065370271321058, 36.638395918736705 ], [ 137.057956939361361, 36.632743415276423 ], [ 137.053780779159638, 36.622099838137046 ], [ 137.056123838644339, 36.618633171084014 ], [ 137.05399600491171, 36.600461504894611 ], [ 137.049646278253249, 36.600647613296758 ], [ 137.049355422215058, 36.594382613067182 ], [ 137.044429830872105, 36.58963761278568 ], [ 137.045623164677409, 36.584477613151364 ], [ 137.03966092121459, 36.580222360273751 ], [ 137.037473554161238, 36.544714278641095 ], [ 137.032630195027537, 36.533450666615011 ], [ 137.034594837781583, 36.513950919399463 ], [ 137.028177274761447, 36.505366467788292 ], [ 137.031304188737408, 36.49998366741238 ], [ 137.041324500625251, 36.505913108103528 ], [ 137.050223670885771, 36.503072837741342 ], [ 137.064303748219459, 36.452370891803241 ], [ 137.054683695796029, 36.437612559272225 ], [ 137.062223112706533, 36.426007278613042 ], [ 137.056111088955618, 36.411991467732093 ], [ 137.058386303585053, 36.397773413712116 ], [ 137.046963450402927, 36.373228414060122 ], [ 137.050665084226353, 36.369745359560739 ], [ 137.058447328881243, 36.371975081085168 ], [ 137.062166471605451, 36.366140919068187 ], [ 137.048904423000749, 36.345494802443227 ], [ 137.058735524724739, 36.342500333423686 ], [ 137.052533280986154, 36.338539774890762 ], [ 137.051514915680855, 36.328132838160002 ], [ 137.037570973221932, 36.317438666960982 ], [ 137.019741244562852, 36.318280918929304 ], [ 137.018201505395268, 36.311452306378897 ], [ 137.021203994568737, 36.309029531887461 ], [ 137.014523411326422, 36.304222026925061 ], [ 137.01080949366326, 36.298028693669323 ], [ 137.012595576924355, 36.293099801814435 ], [ 137.00608778222545, 36.288432585695318 ], [ 136.986216108686563, 36.286274559023752 ], [ 136.986524968252752, 36.282464558692482 ], [ 136.975305771943908, 36.274364026878402 ], [ 136.970722191875666, 36.277749027395771 ], [ 136.967889391282483, 36.275241532270968 ], [ 136.9573741366072, 36.279984586419573 ], [ 136.973288715801687, 36.309852360298237 ], [ 136.961408780390911, 36.322947081043026 ], [ 136.954896886582105, 36.339350440870192 ], [ 136.93964389095288, 36.349208224579968 ], [ 136.932756666886689, 36.34829322555197 ], [ 136.907474227653552, 36.36084155869105 ], [ 136.890090532152385, 36.345558468148852 ], [ 136.874756913201054, 36.342792891878503 ], [ 136.875741115060464, 36.350105667042953 ], [ 136.869578053884197, 36.350716197894258 ], [ 136.876304188687413, 36.35794483788402 ], [ 136.871220921008785, 36.367549000186273 ], [ 136.864134748020319, 36.355200640297369 ], [ 136.865100271860115, 36.349660359637937 ], [ 136.85206413655078, 36.347428665900281 ], [ 136.844063333256258, 36.351111693649784 ], [ 136.837151920125052, 36.347215585930599 ], [ 136.842496589246252, 36.332715865145133 ], [ 136.832518755036631, 36.31541805400002 ], [ 136.832367639255267, 36.306811414315348 ], [ 136.826184552874906, 36.302548333738685 ], [ 136.80939204920378, 36.302540774936858 ], [ 136.804176808712782, 36.306191053874102 ], [ 136.792287082383041, 36.299211026967384 ], [ 136.788357638594221, 36.312333505287086 ], [ 136.790420168955734, 36.322075720717976 ], [ 136.783650751581035, 36.329591559203152 ], [ 136.786931051227043, 36.333429333297147 ], [ 136.784658611905456, 36.34378713466856 ], [ 136.78752194628089, 36.348534919251165 ], [ 136.793336667653193, 36.348487972841724 ], [ 136.80819002614885, 36.358688586209325 ], [ 136.800134527886257, 36.370299693576044 ], [ 136.795142995552851, 36.401263892114969 ], [ 136.778856693281796, 36.414371386830112 ], [ 136.769799195576525, 36.414997467858882 ], [ 136.768651750577874, 36.428766946337532 ], [ 136.774098170793991, 36.432752774920687 ], [ 136.778176472166479, 36.430882505223508 ], [ 136.796725135956308, 36.444688080690412 ], [ 136.790098754853716, 36.447401694132907 ], [ 136.78820238683079, 36.452685305582463 ], [ 136.798362697980224, 36.461648639772932 ], [ 136.794882722759553, 36.463881694184863 ], [ 136.798292724429757, 36.4684528015556 ], [ 136.795550532331276, 36.474885584702008 ], [ 136.802817782914417, 36.48500700017297 ], [ 136.802516135011729, 36.490347278803938 ], [ 136.793950052053333, 36.496981135071394 ], [ 136.797090609643988, 36.501994225053522 ], [ 136.795106199791348, 36.510807802338263 ], [ 136.81285538336931, 36.538099252378629 ], [ 136.8172340340235, 36.552385919274798 ], [ 136.802444059745653, 36.568771720738368 ], [ 136.791008249131437, 36.569621973075641 ], [ 136.795318560303372, 36.584841135310171 ], [ 136.794165772432507, 36.589883892127943 ], [ 136.78831250341932, 36.593023586369441 ], [ 136.790906719269742, 36.603899107657753 ], [ 136.783148755410821, 36.616831838018982 ], [ 136.784819947582605, 36.62850372067021 ], [ 136.799903358952861, 36.63640453194364 ], [ 136.800568716073485, 36.646571972918252 ], [ 136.807303720890104, 36.647705865133616 ], [ 136.810305772093784, 36.657954136274441 ], [ 136.823835861835619, 36.670171864240217 ], [ 136.82057569441281, 36.683929864671597 ], [ 136.810025694430351, 36.686586250655012 ], [ 136.815581608004891, 36.700507026578066 ], [ 136.789215357103103, 36.719026440817629 ], [ 136.79306092112472, 36.720646441779934 ], [ 136.796101478600463, 36.729577278968293 ], [ 136.819861440253362, 36.730649802346534 ], [ 136.821960856308579, 36.740300080984014 ], [ 136.839314227569616, 36.74520230614155 ], [ 136.849164772636186, 36.759234251759381 ], [ 136.852665615725641, 36.770328667134322 ], [ 136.843155032378945, 36.782541504586845 ], [ 136.850870920556645, 36.78696977533491 ], [ 136.854053450406468, 36.794973360232461 ], [ 136.84799124460028, 36.809845000146709 ], [ 136.860018053690283, 36.829076774573537 ], [ 136.856441699025254, 36.839791468301655 ], [ 136.861794228221129, 36.841075864759375 ], [ 136.861918689895674, 36.847747224554837 ], [ 136.867229532816737, 36.850918612703879 ], [ 136.861110920632541, 36.854624720654385 ], [ 136.862388689986119, 36.860326694021751 ], [ 136.871243385174125, 36.862677837512251 ], [ 136.883031673373125, 36.876824279417008 ], [ 136.882072749657709, 36.882137054081852 ], [ 136.885609416341595, 36.885192640128309 ], [ 136.879010505930182, 36.892734891701934 ], [ 136.879103528205292, 36.906498252092717 ], [ 136.895581478702297, 36.924719693958764 ], [ 136.915612244109866, 36.930807775058838 ], [ 136.930953606223966, 36.950602559260744 ], [ 136.95378691273595, 36.956056774800345 ], [ 136.973746887109201, 36.944311802447771 ], [ 136.98241574638962, 36.952740999597495 ], [ 136.987477392567712, 36.967296802105807 ], [ 136.988006550062323, 36.967052918557386 ] ] ] ] } }
]
}
