{
"type": "FeatureCollection",
"name": "18_fukui_area",
"crs": { "type": "name", "properties": { "name": "urn:ogc:def:crs:OGC:1.3:CRS84" } },
"features": [
{ "type": "Feature", "properties": { "code": "180010", "name": "嶺北", "PrefCode": "18", "regioncode": "180010" }, "geometry": { "type": "MultiPolygon", "coordinates": [ [ [ [ 135.993572788953088, 35.936026684983574 ], [ 135.99416731456995, 35.931692667682512 ], [ 135.99347972800706, 35.935986324309454 ], [ 135.993572788953088, 35.936026684983574 ] ] ], [ [ [ 136.058431309457433, 36.131465081248564 ], [ 136.058273606142052, 36.134385134966067 ], [ 136.05845594008963, 36.13146894563539 ], [ 136.058431309457433, 36.131465081248564 ] ] ], [ [ [ 136.120636329003446, 36.253543440877138 ], [ 136.120976886973835, 36.250518333754144 ], [ 136.116923359225666, 36.250017693761606 ], [ 136.120619248179878, 36.253544198106283 ], [ 136.120636329003446, 36.253543440877138 ] ] ], [ [ [ 136.243372632640899, 36.295235774411537 ], [ 136.2585944226945, 36.289320864965987 ], [ 136.256267444886703, 36.279656694500886 ], [ 136.2642205049724, 36.278326973111348 ], [ 136.261469078635173, 36.272931973431866 ], [ 136.2631335016099, 36.26903172073736 ], [ 136.268378248857175, 36.269893387270031 ], [ 136.266812387082041, 36.265101440579087 ], [ 136.282836834652244, 36.265917559148079 ], [ 136.285471529887218, 36.261674503775396 ], [ 136.301205135808459, 36.258217865062477 ], [ 136.30842036330921, 36.246817864552838 ], [ 136.315297587813461, 36.24588480174225 ], [ 136.316970895190707, 36.234757305705159 ], [ 136.332283916969232, 36.229780107665874 ], [ 136.32791719762065, 36.208801467613682 ], [ 136.336094669133786, 36.194288387399183 ], [ 136.335666615222181, 36.184870332599814 ], [ 136.344118248658333, 36.172979748316777 ], [ 136.358044383641413, 36.165100251875174 ], [ 136.368895525208359, 36.169834694115877 ], [ 136.390094162815444, 36.167403802343642 ], [ 136.409306161150425, 36.172226801725571 ], [ 136.414285305322664, 36.156623720708183 ], [ 136.424348663260275, 36.154480360180514 ], [ 136.427786419807489, 36.147305918733196 ], [ 136.438253645289592, 36.142072838390845 ], [ 136.440605304990868, 36.137255054177444 ], [ 136.448639493817609, 36.140738918966008 ], [ 136.456639780001865, 36.136265864677966 ], [ 136.464195330749931, 36.137616667075577 ], [ 136.488045746214311, 36.159140747747358 ], [ 136.496884643011981, 36.149696278960164 ], [ 136.510716549729068, 36.146124359751468 ], [ 136.521527691250071, 36.151377171219508 ], [ 136.531198781098965, 36.147263306156731 ], [ 136.541164642634158, 36.153621945596342 ], [ 136.559797134030532, 36.153156999695852 ], [ 136.563162087760247, 36.144599532242694 ], [ 136.576412048577254, 36.142200387437981 ], [ 136.587398975182623, 36.132614359964805 ], [ 136.601718105805958, 36.129516360091998 ], [ 136.605776978224981, 36.12049361308982 ], [ 136.612274747281845, 36.116819747633315 ], [ 136.614890311238923, 36.108159225068221 ], [ 136.651344746762675, 36.0922323602353 ], [ 136.657229753750244, 36.083512081317565 ], [ 136.655251672426857, 36.076381559161689 ], [ 136.662290532082466, 36.067629053937765 ], [ 136.692261362871704, 36.071740640118492 ], [ 136.715080829716612, 36.082026973266238 ], [ 136.737546354880465, 36.080219720863454 ], [ 136.745298611641715, 36.085145251951872 ], [ 136.755170830369593, 36.085852441936709 ], [ 136.764969882953778, 36.069392414028755 ], [ 136.74463929976389, 36.060099413557168 ], [ 136.732792580812998, 36.048881945745279 ], [ 136.735477030140942, 36.047804972521533 ], [ 136.735726109072743, 36.032314694367699 ], [ 136.726745058237952, 35.995937775008372 ], [ 136.752250829712125, 35.988605197671802 ], [ 136.753607082001281, 35.968373531813086 ], [ 136.748845939788339, 35.963601864834231 ], [ 136.75286535715054, 35.95645991859044 ], [ 136.793244162488122, 35.945981504642759 ], [ 136.783922387308394, 35.925739054114104 ], [ 136.81370258070956, 35.9109226937274 ], [ 136.823768586251276, 35.892766387059169 ], [ 136.81899824936977, 35.881655586036516 ], [ 136.826085446686079, 35.874479774921724 ], [ 136.832345356752853, 35.859266774841842 ], [ 136.831073112833906, 35.851813720726682 ], [ 136.825116134901805, 35.845406505306016 ], [ 136.801959754139375, 35.843674504574778 ], [ 136.797089688738197, 35.828095332933344 ], [ 136.798528559945112, 35.817742306062598 ], [ 136.78931683480414, 35.79943591873274 ], [ 136.776021283755313, 35.798833106762515 ], [ 136.774385472711515, 35.806673359488002 ], [ 136.76390963712015, 35.810607198263654 ], [ 136.755011582018938, 35.809477720820212 ], [ 136.741096550065777, 35.801068774604289 ], [ 136.723383798923237, 35.808194251563521 ], [ 136.720584060106376, 35.800217918821943 ], [ 136.710047911481979, 35.79204325229432 ], [ 136.697120700260143, 35.794062721317573 ], [ 136.68977875468579, 35.789282748200321 ], [ 136.676959300231601, 35.793253053585602 ], [ 136.666135421612466, 35.785136441893314 ], [ 136.657665422221498, 35.78348258595264 ], [ 136.653777912021042, 35.78732008125678 ], [ 136.652510999283209, 35.798725359887499 ], [ 136.645195188007619, 35.806831748086779 ], [ 136.637853773932534, 35.797304558758412 ], [ 136.626627665434512, 35.796838468020951 ], [ 136.627647108127576, 35.790841531411616 ], [ 136.622056809873925, 35.786799864821944 ], [ 136.611451283949691, 35.788796278825259 ], [ 136.59914963664653, 35.798529919220471 ], [ 136.589652140234193, 35.795547413882105 ], [ 136.58523158207197, 35.78963077504028 ], [ 136.585986550339044, 35.784334666611642 ], [ 136.570745446445244, 35.777423838039738 ], [ 136.555817690633944, 35.78097774742514 ], [ 136.544947691183097, 35.778774694396702 ], [ 136.522814967336899, 35.78816553211368 ], [ 136.513306886803434, 35.775330279269042 ], [ 136.513708833395981, 35.762248333393927 ], [ 136.5059307508036, 35.750293334269998 ], [ 136.485714448962767, 35.776454440819862 ], [ 136.472598612136267, 35.772695558853002 ], [ 136.458932243628169, 35.779067197992845 ], [ 136.445804747091415, 35.772908306073532 ], [ 136.430934189061645, 35.774991919241756 ], [ 136.418505330856419, 35.782433305552672 ], [ 136.409207003700317, 35.779931082253711 ], [ 136.400275057647832, 35.789334694840363 ], [ 136.389500610265031, 35.788042198188975 ], [ 136.388798105748037, 35.791895251764515 ], [ 136.376658418251509, 35.7951780263449 ], [ 136.35708869029088, 35.786831612688843 ], [ 136.346527562097322, 35.776046865370574 ], [ 136.327947833925464, 35.77510186495914 ], [ 136.318386160992645, 35.751058467574296 ], [ 136.325198417573006, 35.743648440623076 ], [ 136.327002865889654, 35.731433972699733 ], [ 136.320448975539875, 35.722544224636295 ], [ 136.323953138926299, 35.716746999574411 ], [ 136.311751750742815, 35.711955305592937 ], [ 136.309463450977546, 35.70351583818541 ], [ 136.297797587488731, 35.691841333111086 ], [ 136.291822023267855, 35.690523305606121 ], [ 136.292014501568019, 35.683882720611109 ], [ 136.298907302330235, 35.677683279160078 ], [ 136.288788054225392, 35.671377748284499 ], [ 136.290544422986841, 35.665936107965081 ], [ 136.280742113957444, 35.658630864622751 ], [ 136.269359883152106, 35.668727838319114 ], [ 136.250662334799017, 35.676245134605324 ], [ 136.244649805743961, 35.673788225446287 ], [ 136.234407004279888, 35.682462134420007 ], [ 136.225946978370416, 35.680548865437856 ], [ 136.217203332367944, 35.684576107801206 ], [ 136.212608339902999, 35.681701108319544 ], [ 136.208348611998872, 35.687587802435189 ], [ 136.198298611691598, 35.689716171264365 ], [ 136.191092244311676, 35.702463946154239 ], [ 136.167928053836704, 35.703414559234545 ], [ 136.164571088784783, 35.696263721393677 ], [ 136.156943333268259, 35.700344837644195 ], [ 136.147318339969502, 35.699088197862068 ], [ 136.145303060887613, 35.702580694343624 ], [ 136.149083333229328, 35.704622080744457 ], [ 136.148788080405666, 35.710651774260043 ], [ 136.131993411167059, 35.722691225120002 ], [ 136.130867638930454, 35.740710387874174 ], [ 136.118547951227015, 35.751749280005299 ], [ 136.112766304221623, 35.765415108020875 ], [ 136.096651335390902, 35.767405081079687 ], [ 136.100133838605871, 35.778586468091078 ], [ 136.076741336343616, 35.810536170707792 ], [ 136.07086717338143, 35.824272278942544 ], [ 136.047322191965691, 35.840785305697352 ], [ 136.048726109222571, 35.838401613044084 ], [ 136.040451141307244, 35.849106693918827 ], [ 135.993654227960292, 35.88759207201656 ], [ 135.99543328122104, 35.896721684558145 ], [ 135.991947043121627, 35.895133161666138 ], [ 135.997860440806789, 35.902966918588447 ], [ 135.995017470679841, 35.912947171075132 ], [ 135.997369222111956, 35.934812171244744 ], [ 135.988177418752912, 35.942312505417817 ], [ 135.992041607734109, 35.935671450077393 ], [ 135.985674838423165, 35.944098559001361 ], [ 135.985578443690315, 35.951540225001452 ], [ 135.984848846197337, 35.948572812085672 ], [ 135.981386796263678, 35.955597171072611 ], [ 135.969556251619792, 35.962301332740367 ], [ 135.968523747173208, 35.968110505295613 ], [ 135.958510441004137, 35.976119253201034 ], [ 135.960679857589412, 35.978233838121184 ], [ 135.957694306247276, 35.982510774552679 ], [ 135.962993877965118, 35.986990865136363 ], [ 135.960769883323564, 35.990439107778627 ], [ 135.96529516214207, 35.99196161413721 ], [ 135.963813942759316, 35.997319666969133 ], [ 135.985523333235278, 36.008857440918234 ], [ 136.010575278926012, 36.033253332075674 ], [ 136.011596109273114, 36.044478440527655 ], [ 136.008245888237184, 36.043507667345011 ], [ 136.016308494741338, 36.048990027168088 ], [ 136.02137208795159, 36.071433667329927 ], [ 136.025777497033914, 36.072092721102251 ], [ 136.023568833135187, 36.074327414078937 ], [ 136.030635525009529, 36.086431413778769 ], [ 136.027782113753574, 36.095844801996066 ], [ 136.037081050650045, 36.105087108583234 ], [ 136.048507419282032, 36.109655973044767 ], [ 136.048478638278652, 36.117593224847496 ], [ 136.054330194982526, 36.121062919018527 ], [ 136.05459163419664, 36.129126612802963 ], [ 136.07244367143835, 36.135430802789358 ], [ 136.093252801875337, 36.153043918941762 ], [ 136.0953855252219, 36.157707865125928 ], [ 136.090394188940763, 36.160527864769222 ], [ 136.114257884693643, 36.192610306420534 ], [ 136.112465472903295, 36.205377252158485 ], [ 136.114423696296626, 36.19268680095513 ], [ 136.121055332137985, 36.189608613147016 ], [ 136.128832022579786, 36.191599413582139 ], [ 136.127262309008415, 36.194431838258765 ], [ 136.134253696151177, 36.204745197832665 ], [ 136.128742334990875, 36.203687414342767 ], [ 136.126273722054748, 36.19843074838036 ], [ 136.11855591382448, 36.200514170892347 ], [ 136.132028053951558, 36.213942999669769 ], [ 136.129659001361915, 36.219034134617687 ], [ 136.127369143970895, 36.217800252179927 ], [ 136.134996886896829, 36.222183838313526 ], [ 136.125052217885582, 36.237422505044606 ], [ 136.130961089282891, 36.242105080684951 ], [ 136.122245499430278, 36.249143613886702 ], [ 136.145374422991267, 36.251622972821963 ], [ 136.148616200177571, 36.255538026558725 ], [ 136.14941345007071, 36.252590054287623 ], [ 136.1604387552444, 36.249795332788437 ], [ 136.174909338894963, 36.253645225246999 ], [ 136.226109104551597, 36.281163774788411 ], [ 136.243361750844201, 36.295244468157705 ], [ 136.243372632640899, 36.295235774411537 ] ] ] ] } },
{ "type": "Feature", "properties": { "code": "180020", "name": "嶺南", "PrefCode": "18", "regioncode": "180020" }, "geometry": { "type": "MultiPolygon", "coordinates": [ [ [ [ 135.63202031088872, 35.483638027173242 ], [ 135.635729195945714, 35.481848747721585 ], [ 135.631829779620716, 35.483653586343962 ], [ 135.63202031088872, 35.483638027173242 ] ] ], [ [ [ 135.545298470148396, 35.496331721331899 ], [ 135.54933041506672, 35.49624327930394 ], [ 135.545285913813927, 35.496371838289747 ], [ 135.545298470148396, 35.496331721331899 ] ] ], [ [ [ 135.733333333466589, 35.50220094611683 ], [ 135.736422165650538, 35.506494386906468 ], [ 135.733333695893407, 35.502201414663602 ], [ 135.733333333466589, 35.50220094611683 ] ] ], [ [ [ 135.650267755752338, 35.521685027142325 ], [ 135.647967301649714, 35.519918891743487 ], [ 135.650250051698549, 35.521693080571254 ], [ 135.650267755752338, 35.521685027142325 ] ] ], [ [ [ 135.738347366837615, 35.525287972961621 ], [ 135.735915421959248, 35.524966585839309 ], [ 135.738351803193268, 35.525326586253016 ], [ 135.738347366837615, 35.525287972961621 ] ] ], [ [ [ 135.644949973662392, 35.524944333014616 ], [ 135.648209947730948, 35.52654772080075 ], [ 135.645030855989262, 35.524999892231278 ], [ 135.644949973662392, 35.524944333014616 ] ] ], [ [ [ 135.83487591429207, 35.579881360036779 ], [ 135.837786445987717, 35.577082999880588 ], [ 135.834826030696831, 35.579889774993148 ], [ 135.83487591429207, 35.579881360036779 ] ] ], [ [ [ 135.805029779900451, 35.639372413606054 ], [ 135.807596549341383, 35.639062134909636 ], [ 135.806671556147421, 35.631808278829055 ], [ 135.802739494432217, 35.630126864962904 ], [ 135.805024669053296, 35.639375749191515 ], [ 135.805029779900451, 35.639372413606054 ] ] ], [ [ [ 136.041960441121546, 35.736183919252539 ], [ 136.038636743790789, 35.738723171237439 ], [ 136.041891310235883, 35.73632730626025 ], [ 136.041960441121546, 35.736183919252539 ] ] ], [ [ [ 136.112962139691035, 35.765161504599803 ], [ 136.118547951227015, 35.751749280005299 ], [ 136.132621777373174, 35.737333170989075 ], [ 136.131993411167059, 35.722691225120002 ], [ 136.148788080405666, 35.710651774260043 ], [ 136.149083333229328, 35.704622080744457 ], [ 136.145303060887613, 35.702580694343624 ], [ 136.150348340303708, 35.697715414235006 ], [ 136.150362191661884, 35.69130041428275 ], [ 136.134474889804437, 35.66944630580241 ], [ 136.150162580838469, 35.659381026912911 ], [ 136.151230025745122, 35.648964387396632 ], [ 136.15989299626483, 35.634839945607041 ], [ 136.159865966241455, 35.625227747862311 ], [ 136.166889830601235, 35.618624973064129 ], [ 136.176807755573577, 35.598448027354607 ], [ 136.177417199144543, 35.594850251737796 ], [ 136.166384331571749, 35.582480586010263 ], [ 136.170672891740651, 35.575618918878035 ], [ 136.169924527195235, 35.566066134844277 ], [ 136.166880363438054, 35.565352252104788 ], [ 136.16231649830786, 35.571493108120478 ], [ 136.144889558906129, 35.570554250977978 ], [ 136.138904306288737, 35.575672306231979 ], [ 136.12120238658099, 35.576204278604621 ], [ 136.113838275416128, 35.582898440710494 ], [ 136.112926588591222, 35.573961224630864 ], [ 136.10793905284504, 35.568296774576538 ], [ 136.110440973072514, 35.55972289179806 ], [ 136.105435693702361, 35.555550107651413 ], [ 136.10944785983088, 35.544960360332425 ], [ 136.106454500574841, 35.528988693973076 ], [ 136.082907081996268, 35.540577586286645 ], [ 136.077046809063063, 35.530541440934826 ], [ 136.069436523776631, 35.526266722231526 ], [ 136.048617445039099, 35.534512559307245 ], [ 136.046376860603687, 35.530175585934614 ], [ 136.026532476992315, 35.529496694017269 ], [ 136.028842166233062, 35.523428081440841 ], [ 136.020306615258164, 35.5120255592322 ], [ 136.015138832890898, 35.51164833320405 ], [ 136.011446031309333, 35.497049721167741 ], [ 136.004342969952177, 35.490971108130168 ], [ 135.989506887432981, 35.492681945115748 ], [ 135.981159105008715, 35.486556667156492 ], [ 135.972600584449424, 35.500189694199094 ], [ 135.952370077816909, 35.506221359927849 ], [ 135.947022360893357, 35.520475531620548 ], [ 135.939647081947328, 35.520542747849561 ], [ 135.930025667950304, 35.492337198103257 ], [ 135.924409274068807, 35.48956553162401 ], [ 135.921662309268186, 35.47595080218781 ], [ 135.915943450230088, 35.470904693596765 ], [ 135.914586472188034, 35.451861387393137 ], [ 135.90978230910639, 35.447045559205264 ], [ 135.913172282874598, 35.44509694596735 ], [ 135.91416224399245, 35.432106107710752 ], [ 135.902711192567494, 35.429433053692549 ], [ 135.892981504692784, 35.419847504658662 ], [ 135.89057007784686, 35.403175000226156 ], [ 135.864691088622862, 35.394400027239499 ], [ 135.854338949383077, 35.400778360033314 ], [ 135.853202554354425, 35.411536973052932 ], [ 135.81365775600068, 35.413300864643247 ], [ 135.807529196415317, 35.385361721066602 ], [ 135.790893580374473, 35.386638919350673 ], [ 135.79088605574691, 35.379025027782859 ], [ 135.778958753943357, 35.373366134639468 ], [ 135.777749000316135, 35.365939197735827 ], [ 135.768785304598168, 35.356014467593639 ], [ 135.759639728191019, 35.353089467604889 ], [ 135.740235227273956, 35.358409441342701 ], [ 135.740752995754178, 35.354044999976793 ], [ 135.731479077997164, 35.350552224705439 ], [ 135.718385162145637, 35.355416666645908 ], [ 135.700883695925882, 35.34367777460966 ], [ 135.675192801706544, 35.350271918614226 ], [ 135.66819836586194, 35.357066359624866 ], [ 135.660904162597035, 35.356407197933891 ], [ 135.642056353717862, 35.366906360140433 ], [ 135.636438028991961, 35.363718586343737 ], [ 135.61499522724796, 35.37105997253974 ], [ 135.611145473284978, 35.366800802215323 ], [ 135.606906304782228, 35.371655802173564 ], [ 135.595730194992598, 35.372921640221591 ], [ 135.588102387315416, 35.368257468307547 ], [ 135.579050168630488, 35.37508691902616 ], [ 135.536980117138796, 35.376671359895397 ], [ 135.527809532384026, 35.379975532045194 ], [ 135.526155109870501, 35.386171919398635 ], [ 135.531695940015652, 35.392966640098393 ], [ 135.525148443845637, 35.402460252338813 ], [ 135.530031505349712, 35.408646613150722 ], [ 135.525793476287959, 35.42041910835519 ], [ 135.510796226264915, 35.424560532242822 ], [ 135.502048974880381, 35.420031360259145 ], [ 135.495276200336434, 35.426149693653485 ], [ 135.500789558891142, 35.433007748209093 ], [ 135.497943450130151, 35.43742358582989 ], [ 135.488210921297082, 35.439138306088012 ], [ 135.486120636058558, 35.44857302712353 ], [ 135.470943696094764, 35.453963307160961 ], [ 135.458381439651816, 35.468179414148722 ], [ 135.470435642091275, 35.489139135162986 ], [ 135.476206783216526, 35.489447467726507 ], [ 135.472575940427419, 35.50117636020093 ], [ 135.476224552920826, 35.50549274809191 ], [ 135.449926199934225, 35.520796079675392 ], [ 135.449442049011395, 35.526047468415982 ], [ 135.460484578000887, 35.548456892971274 ], [ 135.486599635664675, 35.557936332795578 ], [ 135.478549973102872, 35.551157333144488 ], [ 135.47935516221105, 35.543475225301449 ], [ 135.47328810636111, 35.540812613311516 ], [ 135.474742114057335, 35.538060775084773 ], [ 135.468750778425715, 35.530331639893291 ], [ 135.473614864234605, 35.532020224953499 ], [ 135.47478374817149, 35.529444386749105 ], [ 135.481385719875107, 35.535333559396292 ], [ 135.483776835532581, 35.532572171268725 ], [ 135.477952672178162, 35.525930748105566 ], [ 135.47989535708507, 35.522467413940035 ], [ 135.487279780337644, 35.522564919335593 ], [ 135.491013773566806, 35.530609107724217 ], [ 135.494024889936782, 35.527472721189156 ], [ 135.492593994817071, 35.522958171282653 ], [ 135.502039754131374, 35.524105585704262 ], [ 135.502814384276462, 35.53327699963387 ], [ 135.509892335662812, 35.534628387490159 ], [ 135.503904864418018, 35.539924891620501 ], [ 135.494251725037088, 35.538564360356986 ], [ 135.502157133644914, 35.542376332901483 ], [ 135.499039947635538, 35.553752441122299 ], [ 135.503678833311596, 35.549489668113722 ], [ 135.516311335799628, 35.551304640296962 ], [ 135.518585771616131, 35.547049918918674 ], [ 135.514137782332796, 35.535749892443619 ], [ 135.517328781098399, 35.534334361341735 ], [ 135.513099078859454, 35.531611054106918 ], [ 135.51723547283882, 35.52637438726822 ], [ 135.512583799702611, 35.523241053931542 ], [ 135.514344033750262, 35.517227891753862 ], [ 135.508989688823135, 35.513527080810206 ], [ 135.510579558899622, 35.508893386920306 ], [ 135.507278494806769, 35.5057940272726 ], [ 135.514124915732395, 35.501119171412711 ], [ 135.51442791081945, 35.496007306192269 ], [ 135.536061893141891, 35.488870693827494 ], [ 135.544355005778925, 35.494313279334449 ], [ 135.550789856466736, 35.492939305904315 ], [ 135.548766057207786, 35.494510532135394 ], [ 135.551922244116327, 35.497275639858969 ], [ 135.556994423154151, 35.490304748265544 ], [ 135.573773190580368, 35.49275744140283 ], [ 135.575045278916605, 35.496425278703725 ], [ 135.57777549923992, 35.494740108369342 ], [ 135.5738728273692, 35.497156027328856 ], [ 135.577060143410904, 35.499815864910317 ], [ 135.587185279377195, 35.499843224984886 ], [ 135.603454448663911, 35.515366413828986 ], [ 135.619077664602628, 35.519464440931245 ], [ 135.619823306900116, 35.526883972817132 ], [ 135.631922309067363, 35.537805667097928 ], [ 135.636840919872611, 35.537001945683301 ], [ 135.661396743764726, 35.547565170196492 ], [ 135.663352503015631, 35.543047387227205 ], [ 135.657158365766009, 35.54326872117457 ], [ 135.666252944317989, 35.538704838057868 ], [ 135.659422865872671, 35.535114171581824 ], [ 135.666723501988145, 35.532921558782959 ], [ 135.669496887071773, 35.524605559299175 ], [ 135.664454423432971, 35.52404783843707 ], [ 135.655844746737785, 35.531235413583545 ], [ 135.636369221862196, 35.520090000353264 ], [ 135.630953384890859, 35.52217874775107 ], [ 135.63367627843752, 35.517799080862972 ], [ 135.641767860198684, 35.519373171434779 ], [ 135.637234279738323, 35.513082053993628 ], [ 135.642247756428901, 35.507977666636066 ], [ 135.633462023053994, 35.501013081988219 ], [ 135.626890777587391, 35.488691279079319 ], [ 135.592204215851893, 35.494580225097366 ], [ 135.58101247674449, 35.490053332895059 ], [ 135.592336978269032, 35.490444413878663 ], [ 135.603966304101732, 35.483344721381854 ], [ 135.620782607431465, 35.486150946109319 ], [ 135.626100609855371, 35.481465775025526 ], [ 135.629244085745995, 35.483596278845255 ], [ 135.633644941560874, 35.479826559148421 ], [ 135.647309274003874, 35.478235668341483 ], [ 135.654327612929023, 35.480423027300901 ], [ 135.662433915692759, 35.493714775116814 ], [ 135.665998858860348, 35.489847279328558 ], [ 135.671981555604361, 35.491251026613611 ], [ 135.672725356989645, 35.488052639917441 ], [ 135.68157050587422, 35.487255945805316 ], [ 135.691956108887325, 35.487775693693379 ], [ 135.700921051065734, 35.494562135234389 ], [ 135.70184827457831, 35.489744837554269 ], [ 135.707742308960405, 35.489808468186311 ], [ 135.714061024796479, 35.483213054339046 ], [ 135.71963138777835, 35.485040385905165 ], [ 135.720929754304734, 35.492219387814544 ], [ 135.738582100683516, 35.495312305618484 ], [ 135.740969273713063, 35.499368423414069 ], [ 135.73403875538429, 35.5008073872512 ], [ 135.741408832651587, 35.504090026933227 ], [ 135.736881557338052, 35.505504585867982 ], [ 135.743812776238656, 35.50632808067644 ], [ 135.748397664820459, 35.517869414142183 ], [ 135.749191529665381, 35.513807305962473 ], [ 135.750801335913025, 35.531628466780376 ], [ 135.755386835134345, 35.533713585413693 ], [ 135.762523747872706, 35.530512774145279 ], [ 135.764768145433663, 35.535489134915679 ], [ 135.758669248187289, 35.538777198409036 ], [ 135.750652113204524, 35.537696305939846 ], [ 135.7481418283827, 35.533094639605963 ], [ 135.74579516171741, 35.536830468351468 ], [ 135.73868194611498, 35.535916892050977 ], [ 135.735427807747215, 35.526328720594051 ], [ 135.730909663250372, 35.524815891839978 ], [ 135.733179999957088, 35.524132170563291 ], [ 135.717938171209653, 35.519754359875833 ], [ 135.716782114303214, 35.540743774705504 ], [ 135.702627094664763, 35.544354136334391 ], [ 135.694020415409909, 35.542598505017054 ], [ 135.688620973079537, 35.546241279111769 ], [ 135.707517419093733, 35.56421656034604 ], [ 135.712231024941957, 35.564359054326928 ], [ 135.714691335336965, 35.56988183777662 ], [ 135.735896355432487, 35.571350721158922 ], [ 135.741551089211498, 35.570224892265003 ], [ 135.744726329156833, 35.564391838212828 ], [ 135.74987914410724, 35.56660766701026 ], [ 135.752774383730866, 35.558071838144883 ], [ 135.750022996064445, 35.555146559366278 ], [ 135.754383554157812, 35.552736837634995 ], [ 135.752566886752447, 35.549983802410623 ], [ 135.757061024746577, 35.54326630559558 ], [ 135.770017172554503, 35.543879639633701 ], [ 135.771252725033264, 35.547500197775946 ], [ 135.764170220379469, 35.550929918880684 ], [ 135.76593330707658, 35.557306278561953 ], [ 135.774538858581536, 35.549709081109256 ], [ 135.779662750435705, 35.550302693914261 ], [ 135.786868586316245, 35.541505467203592 ], [ 135.793333022001434, 35.541547414281808 ], [ 135.786011607949376, 35.534529918920668 ], [ 135.795460803573292, 35.530846026922632 ], [ 135.798438585672216, 35.524958802206982 ], [ 135.804749973832259, 35.533056865382093 ], [ 135.807086913430339, 35.527619638935221 ], [ 135.81516917012118, 35.529361613147955 ], [ 135.812679999582429, 35.537659359991494 ], [ 135.822090830127763, 35.533517694186287 ], [ 135.833388780967539, 35.535602694109116 ], [ 135.831056134732876, 35.542263531836568 ], [ 135.826605305390558, 35.541437973084044 ], [ 135.829191413852755, 35.545196586153565 ], [ 135.825558079941516, 35.546527413709214 ], [ 135.826041219126978, 35.551902360305746 ], [ 135.821612801789456, 35.551053531595244 ], [ 135.818753917259528, 35.556821587146601 ], [ 135.811952802380006, 35.558660467806419 ], [ 135.812258663606485, 35.563939359613812 ], [ 135.804421413717364, 35.564499333277638 ], [ 135.801369494206824, 35.571360171234971 ], [ 135.80765588840859, 35.569790999954762 ], [ 135.811230635985112, 35.577415721158673 ], [ 135.815446278223249, 35.571440360184511 ], [ 135.822339947730484, 35.573089000057337 ], [ 135.82793866363852, 35.564013107618848 ], [ 135.839780804140901, 35.563194134601702 ], [ 135.842488754552392, 35.570951837657219 ], [ 135.849311672595718, 35.571538108397021 ], [ 135.848136200225554, 35.577518694432229 ], [ 135.857472087566862, 35.581947333003086 ], [ 135.854231751094517, 35.587155440970889 ], [ 135.85751202286167, 35.589522468287328 ], [ 135.852126004711408, 35.592685440580681 ], [ 135.85562732803885, 35.60032764010856 ], [ 135.853184449203013, 35.603166333059903 ], [ 135.84451569424391, 35.601618667267758 ], [ 135.843035109782591, 35.607536279175974 ], [ 135.831835006080723, 35.603120801283978 ], [ 135.826568690392833, 35.609695641340807 ], [ 135.838530311224986, 35.61591538678573 ], [ 135.838856498928294, 35.620872531742009 ], [ 135.823834163216134, 35.624088892288626 ], [ 135.823568222895233, 35.631347000363803 ], [ 135.833078638068741, 35.630946224688557 ], [ 135.822557419089662, 35.637507252058072 ], [ 135.814689830571297, 35.632189720878955 ], [ 135.814635720162414, 35.642244558639504 ], [ 135.822824163404448, 35.644162054435299 ], [ 135.827694720734826, 35.638848197886091 ], [ 135.846211115051005, 35.635454305771646 ], [ 135.843686913220495, 35.626380414324728 ], [ 135.848602477122654, 35.622836251791625 ], [ 135.859246939194918, 35.623740973367262 ], [ 135.856807172912795, 35.61493069389644 ], [ 135.867616887209692, 35.608140693738051 ], [ 135.876867716671882, 35.610422918582856 ], [ 135.879396744264454, 35.616051305823134 ], [ 135.885111802767597, 35.617845667343715 ], [ 135.893597055559781, 35.611728198197852 ], [ 135.895621970877301, 35.622031891858398 ], [ 135.906931361992861, 35.625290748069631 ], [ 135.910557392509759, 35.617038279393114 ], [ 135.907941894203077, 35.618680748118095 ], [ 135.90786807964821, 35.614777801954062 ], [ 135.91267613499565, 35.61309736025504 ], [ 135.912275253200391, 35.610071441044227 ], [ 135.926221282985921, 35.610173666981211 ], [ 135.938814863715038, 35.614323135304517 ], [ 135.951333916726981, 35.627897864694773 ], [ 135.947830246169019, 35.631691667336611 ], [ 135.949922437970145, 35.633875197882105 ], [ 135.954865331370002, 35.634200306399066 ], [ 135.954577056386142, 35.629088891739002 ], [ 135.96234678337737, 35.622452839327138 ], [ 135.974263644951293, 35.624712749294019 ], [ 135.983019170098714, 35.633190305688117 ], [ 135.986060052229732, 35.642544135403568 ], [ 135.974622192060565, 35.654652054348901 ], [ 135.967954969146604, 35.656284277997088 ], [ 135.967720998825143, 35.653337892130082 ], [ 135.963134968104328, 35.657062613348955 ], [ 135.968913670729421, 35.669232027036458 ], [ 135.965310078297534, 35.674367027316521 ], [ 135.972297056064349, 35.676693693958839 ], [ 135.977200168852733, 35.685407278323282 ], [ 135.975996886746998, 35.696032252086809 ], [ 135.969133697062489, 35.704039864148456 ], [ 135.97060182861162, 35.709165658068741 ], [ 135.972724110829063, 35.707713252064991 ], [ 135.970673580121684, 35.712088918768643 ], [ 135.960576304253095, 35.705199467981117 ], [ 135.965885227121589, 35.706704747825881 ], [ 135.966235188403289, 35.701072532171679 ], [ 135.955827665314587, 35.702924468289609 ], [ 135.959616304049291, 35.706994747709473 ], [ 135.959583839422748, 35.716222252355124 ], [ 135.954238559661917, 35.721964197889463 ], [ 135.967924448854319, 35.735589441299737 ], [ 135.981100272259823, 35.733104720606434 ], [ 135.984843359433512, 35.739011386866082 ], [ 135.980935252959625, 35.737720439746568 ], [ 135.993639442206586, 35.748887774850971 ], [ 136.00115516198116, 35.749881090439999 ], [ 136.005371685554906, 35.756085756952189 ], [ 136.009587755870257, 35.754189549907835 ], [ 136.018395473172632, 35.764203613306165 ], [ 136.031783800082394, 35.751779748136926 ], [ 136.03772296963939, 35.739129749338531 ], [ 136.022024241225836, 35.748803449919308 ], [ 136.038352412334007, 35.726748360048816 ], [ 136.035898833364513, 35.718739197555976 ], [ 136.040683358849947, 35.712340026571042 ], [ 136.037690467241305, 35.709817558633461 ], [ 136.044346524172852, 35.705456198344905 ], [ 136.040677366667182, 35.699289531786519 ], [ 136.044296782670472, 35.697836468378341 ], [ 136.044215083759127, 35.691180081395714 ], [ 136.038132217827638, 35.694674062657896 ], [ 136.032938612327143, 35.692728505316325 ], [ 136.025542891791133, 35.680328973103656 ], [ 136.041918559693841, 35.670562640553499 ], [ 136.045844188558476, 35.657682802019735 ], [ 136.072212581645431, 35.66068161296613 ], [ 136.06785778191113, 35.664284584865754 ], [ 136.057960219388633, 35.664237721193956 ], [ 136.06205903969294, 35.663955629948418 ], [ 136.063289791590705, 35.668207261256157 ], [ 136.070062865608861, 35.665343180443472 ], [ 136.074293528323778, 35.667396919032626 ], [ 136.07429472082481, 35.678059586081076 ], [ 136.063377782159023, 35.679505748091856 ], [ 136.077278417764887, 35.679683413658665 ], [ 136.08611299601796, 35.684710333415183 ], [ 136.081342502654479, 35.689252198430268 ], [ 136.081609363881057, 35.699612359622733 ], [ 136.078480219586481, 35.703402612640502 ], [ 136.092366834761719, 35.710971531810799 ], [ 136.09095630389038, 35.716935946236958 ], [ 136.098656588830522, 35.725767332796238 ], [ 136.096481050560101, 35.735638720550583 ], [ 136.085686913420432, 35.73922646782728 ], [ 136.099925498962648, 35.746676504716959 ], [ 136.101410220305524, 35.75693091912666 ], [ 136.098310220340409, 35.765238413721875 ], [ 136.112766304221623, 35.765415108020875 ], [ 136.112962139691035, 35.765161504599803 ] ] ] ] } }
]
}
