{
"type": "FeatureCollection",
"name": "19_yamanashi_area",
"crs": { "type": "name", "properties": { "name": "urn:ogc:def:crs:OGC:1.3:CRS84" } },
"features": [
{ "type": "Feature", "properties": { "code": "190010", "name": "中・西部", "PrefCode": "19", "regioncode": "190010" }, "geometry": { "type": "Polygon", "coordinates": [ [ [ 138.375389026582411, 35.971321747800459 ], [ 138.424193190763162, 35.958974801645809 ], [ 138.450562892363678, 35.945411467565236 ], [ 138.454333410658478, 35.938306198372402 ], [ 138.444335252669816, 35.917881505627008 ], [ 138.454918859417944, 35.899726773671716 ], [ 138.459444137337186, 35.903708972591062 ], [ 138.471602243848565, 35.896196747581882 ], [ 138.482575616771328, 35.898828693589394 ], [ 138.490132308759144, 35.89637477467619 ], [ 138.495549558565358, 35.903638945980617 ], [ 138.494701505070452, 35.911341440555077 ], [ 138.502757911648359, 35.912195053658877 ], [ 138.510571854707337, 35.922338945885713 ], [ 138.529057690959689, 35.914535891817991 ], [ 138.540158833263604, 35.913673945596145 ], [ 138.55539910528455, 35.919136999672844 ], [ 138.556213838897634, 35.916315332686509 ], [ 138.564415226981168, 35.917333946204678 ], [ 138.576510194789762, 35.911422000025311 ], [ 138.580981855128584, 35.917050053617118 ], [ 138.591017418619003, 35.919768667290214 ], [ 138.602699027438234, 35.909762803011006 ], [ 138.612255940259502, 35.90915336033936 ], [ 138.60498841808112, 35.893751134807076 ], [ 138.606749223198108, 35.878481694174923 ], [ 138.610873645402421, 35.873610305870955 ], [ 138.621870803594788, 35.870438360142259 ], [ 138.62824080506914, 35.87335697314586 ], [ 138.634234112014724, 35.870053080685182 ], [ 138.64248824893366, 35.874764747595066 ], [ 138.657461245140439, 35.875876135175531 ], [ 138.676176472366365, 35.86980141440381 ], [ 138.685845577411555, 35.893865613107607 ], [ 138.708060195321877, 35.909752837623387 ], [ 138.72901128374383, 35.909220613440596 ], [ 138.734402970320843, 35.904011721263998 ], [ 138.738862166056151, 35.905887278974774 ], [ 138.74910697840437, 35.901607532161904 ], [ 138.780205836929895, 35.899507504567737 ], [ 138.79062005187393, 35.891878613207496 ], [ 138.792003645351997, 35.875451135361686 ], [ 138.808404889973758, 35.870019532375579 ], [ 138.813604863573687, 35.862367774852999 ], [ 138.827830776769019, 35.865795000339062 ], [ 138.834445668133185, 35.86227874826568 ], [ 138.845545862551603, 35.867378774810675 ], [ 138.856441750786189, 35.864766945737983 ], [ 138.857782282926109, 35.858410559100093 ], [ 138.862661479143981, 35.858761107639054 ], [ 138.864325642214681, 35.855467505221213 ], [ 138.862347834285174, 35.847580000316839 ], [ 138.865310895381526, 35.841086666716365 ], [ 138.860006135474805, 35.835024441125086 ], [ 138.861078365674075, 35.831539999871154 ], [ 138.85204552468133, 35.828144721002104 ], [ 138.851225253043026, 35.823901108049768 ], [ 138.859930532168391, 35.816451386822109 ], [ 138.855096615016805, 35.808378612582942 ], [ 138.863428585560882, 35.805769720696105 ], [ 138.865614422867338, 35.795242774834264 ], [ 138.869898884825716, 35.794583053764995 ], [ 138.867966886562613, 35.782914441048661 ], [ 138.846153190917107, 35.77590253227612 ], [ 138.816306693199408, 35.775611134846031 ], [ 138.818856939396255, 35.766083639748217 ], [ 138.828075031737399, 35.755066414083785 ], [ 138.845461997173516, 35.748901973347472 ], [ 138.854220583613142, 35.733284224387489 ], [ 138.859959468754596, 35.730295892341587 ], [ 138.855089390762828, 35.714647838027361 ], [ 138.859924280081486, 35.688741747733502 ], [ 138.847000025830539, 35.672712333207642 ], [ 138.850881581619774, 35.649656802419543 ], [ 138.845367950570562, 35.64113125190579 ], [ 138.831524553215672, 35.635049892338714 ], [ 138.829877587880446, 35.628923504616125 ], [ 138.822602580644684, 35.630524612620832 ], [ 138.814785304698148, 35.622121558762956 ], [ 138.803536939778041, 35.623298774918567 ], [ 138.79353191996222, 35.617414332705323 ], [ 138.785710532315306, 35.617763505281573 ], [ 138.775249882676007, 35.605066559174418 ], [ 138.766988755326906, 35.605342946020187 ], [ 138.774128170878498, 35.59305741366876 ], [ 138.772590337374254, 35.586696026800269 ], [ 138.78494620030699, 35.585529359692259 ], [ 138.788708949358579, 35.580333251378477 ], [ 138.78676808018281, 35.574789946299006 ], [ 138.793253890954361, 35.569900505004341 ], [ 138.79163189439646, 35.56076772055394 ], [ 138.768831608292203, 35.560814666963381 ], [ 138.759011829032715, 35.553655198328784 ], [ 138.696028469638236, 35.534632748302727 ], [ 138.677182775065035, 35.519877225253822 ], [ 138.636600777803665, 35.513303720690203 ], [ 138.620667496307988, 35.502168747689609 ], [ 138.602410803715657, 35.504890892101059 ], [ 138.595095330585082, 35.496951694165432 ], [ 138.59588894901583, 35.48340805433827 ], [ 138.581844747437231, 35.478681413716345 ], [ 138.583468248560848, 35.446787504140048 ], [ 138.577421556060017, 35.440893333060899 ], [ 138.558919830585751, 35.434168918660703 ], [ 138.553034811907082, 35.423086135117103 ], [ 138.531740052061764, 35.409262531840398 ], [ 138.535847717198408, 35.389880279251543 ], [ 138.528171051153208, 35.379046946059759 ], [ 138.530712139553657, 35.376023333610021 ], [ 138.529448716185357, 35.34968750497444 ], [ 138.53489564092115, 35.340892504985163 ], [ 138.535086200068122, 35.330564721184999 ], [ 138.512093191047938, 35.313555251573632 ], [ 138.512752334752463, 35.303299972915454 ], [ 138.521724527265178, 35.283814972782807 ], [ 138.520321440981775, 35.270884134595178 ], [ 138.514242827044882, 35.262230802109855 ], [ 138.520708948958941, 35.255353865388656 ], [ 138.532275031767313, 35.223390838416492 ], [ 138.527380026367155, 35.216803613795776 ], [ 138.53319253001132, 35.200861667332106 ], [ 138.528482802039775, 35.197539441292236 ], [ 138.515356977342663, 35.198196946432006 ], [ 138.513725576574188, 35.190565000074741 ], [ 138.491492243772086, 35.168384440389673 ], [ 138.477898663692486, 35.178083586388425 ], [ 138.431105356626972, 35.180330252039539 ], [ 138.418363190808691, 35.199334972830798 ], [ 138.407574331789988, 35.202930224949966 ], [ 138.398697107685393, 35.200269945801438 ], [ 138.39072939044911, 35.219376612840449 ], [ 138.386152282801618, 35.246243531613743 ], [ 138.36703185523595, 35.27018819782711 ], [ 138.369339104616074, 35.276940973247349 ], [ 138.366764501180796, 35.290320386976305 ], [ 138.372478690039543, 35.299410945558748 ], [ 138.367508248606896, 35.309676748083518 ], [ 138.359134384044637, 35.313523108005086 ], [ 138.358493061305808, 35.317571170573103 ], [ 138.348436354754085, 35.315653946372606 ], [ 138.335637833819078, 35.326495585702787 ], [ 138.32584394334333, 35.327611972614477 ], [ 138.308980752060165, 35.318493973018519 ], [ 138.295900946571464, 35.31631841406363 ], [ 138.28526719812271, 35.30427486499309 ], [ 138.25470016807833, 35.31996683769944 ], [ 138.248737419196573, 35.331602386840757 ], [ 138.257139753596789, 35.338974305919521 ], [ 138.251145719999045, 35.363786773840616 ], [ 138.232017081623098, 35.371224838055866 ], [ 138.237007782083538, 35.384526197825835 ], [ 138.246040635666873, 35.391244531909649 ], [ 138.24649985738256, 35.399891721126096 ], [ 138.258117173668666, 35.40742450463722 ], [ 138.259257560787887, 35.432079467993105 ], [ 138.255476744356315, 35.44438919840286 ], [ 138.248305383086972, 35.447184749076939 ], [ 138.24400403365928, 35.458608360387586 ], [ 138.255205161688878, 35.468908080843335 ], [ 138.26017744493322, 35.505733946264684 ], [ 138.268985771975849, 35.514327278681037 ], [ 138.263800531969082, 35.526703666840831 ], [ 138.257348300983381, 35.53084866643286 ], [ 138.259558053961086, 35.552897837864975 ], [ 138.245668365802544, 35.561505918263549 ], [ 138.245713086389856, 35.56998980228758 ], [ 138.240474475216956, 35.576155359981954 ], [ 138.238695305044303, 35.583767026627015 ], [ 138.243293644785922, 35.597455082286274 ], [ 138.240758663681504, 35.605003972655254 ], [ 138.235138664417946, 35.607379802535888 ], [ 138.236883671144597, 35.621109531879426 ], [ 138.228267587679056, 35.627095108252718 ], [ 138.23231535706816, 35.64009733282569 ], [ 138.228782048452786, 35.645897054405566 ], [ 138.217985383318819, 35.644890972940118 ], [ 138.208114060315665, 35.6556643339419 ], [ 138.205573217430128, 35.664178775130438 ], [ 138.193340752273912, 35.672153251671261 ], [ 138.193604384035211, 35.696928802422349 ], [ 138.180102192162508, 35.714093531891024 ], [ 138.22200333298747, 35.750427666903363 ], [ 138.236900272629555, 35.757986838321983 ], [ 138.205933645021787, 35.782697108185062 ], [ 138.192802527814479, 35.783627946972217 ], [ 138.185174188637916, 35.791079892223308 ], [ 138.19038199623219, 35.803128197808121 ], [ 138.205692866832351, 35.815734306093418 ], [ 138.204700078246105, 35.828139027394229 ], [ 138.226821556070036, 35.857451252273506 ], [ 138.232774112035713, 35.876375945993175 ], [ 138.238909974116041, 35.883042613126122 ], [ 138.249981115036462, 35.885601775201792 ], [ 138.283640777799747, 35.859315721343535 ], [ 138.296115550892068, 35.870074026794953 ], [ 138.307288664140628, 35.887103467650945 ], [ 138.326466524210787, 35.90329402719766 ], [ 138.333126278255236, 35.917216224948902 ], [ 138.342225226612982, 35.926016504857841 ], [ 138.34504666697012, 35.941333134716444 ], [ 138.359915331027764, 35.950713134703449 ], [ 138.361902866024479, 35.962595640376549 ], [ 138.370460415315961, 35.97138063990468 ], [ 138.375186251944001, 35.971324801898163 ], [ 138.375389026582411, 35.971321747800459 ] ] ] } },
{ "type": "Feature", "properties": { "code": "190020", "name": "東部・富士五湖", "PrefCode": "19", "regioncode": "190020" }, "geometry": { "type": "Polygon", "coordinates": [ [ [ 138.871846226422235, 35.854936945683562 ], [ 138.892222672338562, 35.839778585713191 ], [ 138.910946083395061, 35.852727467898376 ], [ 138.926630026054909, 35.848918278755605 ], [ 138.945749532714785, 35.854085748158809 ], [ 138.950195887929908, 35.839345721328016 ], [ 138.962681166902371, 35.829396532324154 ], [ 138.969765615890537, 35.831225414321466 ], [ 138.970221387806873, 35.804872360071386 ], [ 138.976719974347361, 35.789244838178774 ], [ 138.986425226742881, 35.782252891657663 ], [ 138.984396886806962, 35.767764864756771 ], [ 138.992572672091228, 35.755380972653825 ], [ 139.005155422284929, 35.75045153221248 ], [ 139.024848366359038, 35.719701053960534 ], [ 139.072205810949526, 35.695360305633642 ], [ 139.10585919644484, 35.690979802376035 ], [ 139.128719169654005, 35.6753793060102 ], [ 139.130358884654811, 35.668240413864055 ], [ 139.117168223334943, 35.654536531935435 ], [ 139.127553475612444, 35.641080998689176 ], [ 139.123490610203589, 35.623951557718271 ], [ 139.134413670554522, 35.616509639908031 ], [ 139.127796977848334, 35.612899081327612 ], [ 139.133104746886602, 35.606701026631129 ], [ 139.129333279807042, 35.594596332654703 ], [ 139.121437664816426, 35.586987972816758 ], [ 139.127771000031657, 35.581000224580748 ], [ 139.129178975029731, 35.563874945672239 ], [ 139.111960779066749, 35.549793558925671 ], [ 139.11398435799174, 35.538729946230092 ], [ 139.110125966040528, 35.532288838059458 ], [ 139.085789974227964, 35.512086305738478 ], [ 139.060081244653816, 35.507499360407223 ], [ 139.04623980422366, 35.509810000231369 ], [ 139.04370089488043, 35.498941946913362 ], [ 139.030620272807369, 35.488701999897444 ], [ 139.027549442352893, 35.480967802422185 ], [ 139.014593022050349, 35.479831170871876 ], [ 139.007873022422132, 35.474497801732241 ], [ 138.98882158185063, 35.473640585944338 ], [ 138.978769338634152, 35.46374169422387 ], [ 138.973463476158599, 35.466545026731637 ], [ 138.958727302023476, 35.462086107987545 ], [ 138.937369663379286, 35.448867504731595 ], [ 138.927403747884682, 35.437644721027084 ], [ 138.930169780111328, 35.42087055902914 ], [ 138.918066303816886, 35.411339170766155 ], [ 138.916402917760479, 35.400613613227733 ], [ 138.887941554958843, 35.386353053650566 ], [ 138.878911244658298, 35.385842774724324 ], [ 138.874262477231582, 35.379173522939766 ], [ 138.862832632719915, 35.390148901350756 ], [ 138.85634119309168, 35.387999198804039 ], [ 138.851207301675686, 35.390541414954384 ], [ 138.832686667056123, 35.383238359662641 ], [ 138.821748831743207, 35.374087802809925 ], [ 138.799104642765087, 35.37664364009197 ], [ 138.73078141393114, 35.362798613165523 ], [ 138.718978392139206, 35.365553054030272 ], [ 138.680535615826102, 35.357678332988712 ], [ 138.671182970517748, 35.39282999980469 ], [ 138.663599389700153, 35.39822666682727 ], [ 138.638954942116925, 35.398282774630388 ], [ 138.609136031103048, 35.393176387180574 ], [ 138.597344864174261, 35.432704171260525 ], [ 138.588363191008511, 35.436910558575448 ], [ 138.581888249443182, 35.445728332996225 ], [ 138.581844747437231, 35.478681413716345 ], [ 138.59588894901583, 35.48340805433827 ], [ 138.594546161376343, 35.495551694355242 ], [ 138.602410803715657, 35.504890892101059 ], [ 138.620667496307988, 35.502168747689609 ], [ 138.636600777803665, 35.513303720690203 ], [ 138.676754722052806, 35.519720837646616 ], [ 138.696028469638236, 35.534632748302727 ], [ 138.759011829032715, 35.553655198328784 ], [ 138.768831608292203, 35.560814666963381 ], [ 138.79163189439646, 35.56076772055394 ], [ 138.793253890954361, 35.569900505004341 ], [ 138.78676808018281, 35.574789946299006 ], [ 138.788708949358579, 35.580333251378477 ], [ 138.78494620030699, 35.585529359692259 ], [ 138.772590337374254, 35.586696026800269 ], [ 138.774128170878498, 35.59305741366876 ], [ 138.766988755326906, 35.605342946020187 ], [ 138.775249882676007, 35.605066559174418 ], [ 138.785710532315306, 35.617763505281573 ], [ 138.79353191996222, 35.617414332705323 ], [ 138.803536939778041, 35.623298774918567 ], [ 138.814785304698148, 35.622121558762956 ], [ 138.822602580644684, 35.630524612620832 ], [ 138.829877587880446, 35.628923504616125 ], [ 138.831524553215672, 35.635049892338714 ], [ 138.845367950570562, 35.64113125190579 ], [ 138.850881581619774, 35.649656802419543 ], [ 138.847000025830539, 35.672712333207642 ], [ 138.859924280081486, 35.688741747733502 ], [ 138.855089390762828, 35.714647838027361 ], [ 138.859959468754596, 35.730295892341587 ], [ 138.854220583613142, 35.733284224387489 ], [ 138.845461997173516, 35.748901973347472 ], [ 138.828075031737399, 35.755066414083785 ], [ 138.818856939396255, 35.766083639748217 ], [ 138.816306693199408, 35.775611134846031 ], [ 138.846153190917107, 35.77590253227612 ], [ 138.867966886562613, 35.782914441048661 ], [ 138.869898884825716, 35.794583053764995 ], [ 138.865614422867338, 35.795242774834264 ], [ 138.863428585560882, 35.805769720696105 ], [ 138.855096615016805, 35.808378612582942 ], [ 138.859930532168391, 35.816451386822109 ], [ 138.851229416004799, 35.824063612845521 ], [ 138.85204552468133, 35.828144721002104 ], [ 138.861078365674075, 35.831539999871154 ], [ 138.860006135474805, 35.835024441125086 ], [ 138.865361166584648, 35.841216946105249 ], [ 138.862661479143981, 35.858761107639054 ], [ 138.87177094687172, 35.854946107976559 ], [ 138.871846226422235, 35.854936945683562 ] ] ] } }
]
}
