{
"type": "FeatureCollection",
"name": "22_shizuoka_area",
"crs": { "type": "name", "properties": { "name": "urn:ogc:def:crs:OGC:1.3:CRS84" } },
"features": [
{ "type": "Feature", "properties": { "code": "220010", "name": "中部", "PrefCode": "22", "regioncode": "220010" }, "geometry": { "type": "MultiPolygon", "coordinates": [ [ [ [ 138.21141797705809, 34.629062801706993 ], [ 138.214819702267505, 34.625334585722612 ], [ 138.209106082679682, 34.621744955265513 ], [ 138.208647638877551, 34.62640702726253 ], [ 138.205956782779367, 34.62517772057538 ], [ 138.210562943924742, 34.629998558886427 ], [ 138.21141797705809, 34.629062801706993 ] ] ], [ [ [ 138.202914811569372, 34.629680667428886 ], [ 138.203830726107185, 34.632874467582667 ], [ 138.202851167447534, 34.62993816221649 ], [ 138.202914811569372, 34.629680667428886 ] ] ], [ [ [ 138.326728690077061, 34.854033441090507 ], [ 138.329868897831489, 34.852251567555868 ], [ 138.326545187910142, 34.854685963986128 ], [ 138.326728690077061, 34.854033441090507 ] ] ], [ [ [ 138.33750422833748, 34.868643414262237 ], [ 138.330482126648917, 34.863429054207529 ], [ 138.329823839098935, 34.85437446760767 ], [ 138.3302635797005, 34.863429765571254 ], [ 138.33720655004231, 34.869227720882691 ], [ 138.33750422833748, 34.868643414262237 ] ] ], [ [ [ 138.373935771618676, 34.919374721266422 ], [ 138.371309222442733, 34.91912605422408 ], [ 138.373899222271348, 34.919564774994399 ], [ 138.373935771618676, 34.919374721266422 ] ] ], [ [ [ 138.508050195260353, 34.995992972897454 ], [ 138.506974773367119, 34.9924250268935 ], [ 138.508307755698411, 34.996118639663564 ], [ 138.508050195260353, 34.995992972897454 ] ] ], [ [ [ 138.52363795093072, 35.021316919440324 ], [ 138.524636135449327, 35.023868946294897 ], [ 138.523434578243268, 35.021383387433445 ], [ 138.52363795093072, 35.021316919440324 ] ] ], [ [ [ 138.522338301071841, 35.036760955353884 ], [ 138.519518508272654, 35.027750783571832 ], [ 138.522675383162436, 35.038043260887832 ], [ 138.527046718731185, 35.040649999797722 ], [ 138.522806550182167, 35.037968802418334 ], [ 138.522338301071841, 35.036760955353884 ] ] ], [ [ [ 138.229030389041327, 35.645627613023976 ], [ 138.23231535706816, 35.640030387292597 ], [ 138.228276743676815, 35.627024279446971 ], [ 138.236883671144597, 35.621109531879426 ], [ 138.235138664417946, 35.607379802535888 ], [ 138.240758663681504, 35.605003972655254 ], [ 138.243310584416008, 35.597365080833868 ], [ 138.238695305044303, 35.583767026627015 ], [ 138.240474475216956, 35.576155359981954 ], [ 138.245713086389856, 35.56998980228758 ], [ 138.245668365802544, 35.561505918263549 ], [ 138.259558053961086, 35.552897837864975 ], [ 138.257348300983381, 35.53084866643286 ], [ 138.263800531969082, 35.526703666840831 ], [ 138.268997445176069, 35.514233947039088 ], [ 138.26017744493322, 35.505733946264684 ], [ 138.255205161688878, 35.468908080843335 ], [ 138.24400403365928, 35.458608360387586 ], [ 138.248305383086972, 35.447184749076939 ], [ 138.255476744356315, 35.44438919840286 ], [ 138.259257560787887, 35.432079467993105 ], [ 138.258117173668666, 35.40742450463722 ], [ 138.24649985738256, 35.399891721126096 ], [ 138.246040635666873, 35.391244531909649 ], [ 138.237007782083538, 35.384526197825835 ], [ 138.232017081623098, 35.371224838055866 ], [ 138.251145719999045, 35.363786773840616 ], [ 138.257139753596789, 35.338974305919521 ], [ 138.248737419196573, 35.331602386840757 ], [ 138.254803501980064, 35.319817386563216 ], [ 138.28526719812271, 35.30427486499309 ], [ 138.295900946571464, 35.31631841406363 ], [ 138.308980752060165, 35.318493973018519 ], [ 138.32584394334333, 35.327611972614477 ], [ 138.335637833819078, 35.326495585702787 ], [ 138.348436354754085, 35.315653946372606 ], [ 138.358493061305808, 35.317571170573103 ], [ 138.359134384044637, 35.313523108005086 ], [ 138.367508248606896, 35.309676748083518 ], [ 138.372478690039543, 35.299410945558748 ], [ 138.366764501180796, 35.290320386976305 ], [ 138.369339104616074, 35.276940973247349 ], [ 138.36703185523595, 35.27018819782711 ], [ 138.386152282801618, 35.246243531613743 ], [ 138.39072939044911, 35.219376612840449 ], [ 138.398697107685393, 35.200269945801438 ], [ 138.407574331789988, 35.202930224949966 ], [ 138.418363190808691, 35.199334972830798 ], [ 138.431105356626972, 35.180330252039539 ], [ 138.477898663692486, 35.178083586388425 ], [ 138.491492243772086, 35.168384440389673 ], [ 138.513725576574188, 35.190565000074741 ], [ 138.515356977342663, 35.198196946432006 ], [ 138.522421413717325, 35.199157775810761 ], [ 138.518345304892023, 35.184333333216784 ], [ 138.52590919595275, 35.175817505273699 ], [ 138.525701698974331, 35.166075000261117 ], [ 138.536128612345692, 35.160815558990919 ], [ 138.538581945800274, 35.15168250474386 ], [ 138.554263060991502, 35.154764440926272 ], [ 138.558476938759782, 35.159314441208551 ], [ 138.563854720918698, 35.151158612779795 ], [ 138.568780271792207, 35.152268054227363 ], [ 138.58074527857184, 35.143600838008297 ], [ 138.59978944182933, 35.143524999978808 ], [ 138.605323332805597, 35.132192224691494 ], [ 138.611239441946736, 35.129012224634494 ], [ 138.629930829943874, 35.133675278691214 ], [ 138.638537288864882, 35.116491459313465 ], [ 138.578190558247684, 35.111610837670071 ], [ 138.556128716267267, 35.101034485752962 ], [ 138.555284527159301, 35.097207125808268 ], [ 138.558889169999247, 35.098993729776851 ], [ 138.551531945842726, 35.092557504924969 ], [ 138.540034643184299, 35.063927864579341 ], [ 138.534347717273363, 35.055969306038719 ], [ 138.51906248994203, 35.047661422936358 ], [ 138.523690920999229, 35.042669440942007 ], [ 138.515813696245118, 35.038028440959806 ], [ 138.511093799639184, 35.043213413867988 ], [ 138.51125791242282, 35.035412721420016 ], [ 138.508436160900146, 35.044424639685417 ], [ 138.504504863608645, 35.0420579729971 ], [ 138.508454331702069, 35.033471279376101 ], [ 138.505733280866252, 35.031244801706293 ], [ 138.501104474791759, 35.036390171169501 ], [ 138.502477638832033, 35.031306107590865 ], [ 138.500284721162984, 35.029730026819323 ], [ 138.497492244371642, 35.034511838150877 ], [ 138.492989921647677, 35.029964838006947 ], [ 138.498173333332716, 35.032437747903771 ], [ 138.497220584362594, 35.01734630558758 ], [ 138.490885032318488, 35.022338972865384 ], [ 138.495694306247287, 35.016780586155164 ], [ 138.496916304144179, 35.010925585947064 ], [ 138.493439364135384, 35.010875053940651 ], [ 138.497549195738884, 35.010205053620382 ], [ 138.497476641134199, 34.996218225191001 ], [ 138.508155641669646, 34.989867441329409 ], [ 138.495975135743947, 34.992540360449311 ], [ 138.503735032246027, 34.985677080832659 ], [ 138.508435421657396, 34.986813135018224 ], [ 138.511532411591588, 34.992759305797392 ], [ 138.509906004758363, 34.997257441277952 ], [ 138.504775331116662, 34.993849197782311 ], [ 138.50957411175591, 34.997634829184051 ], [ 138.501095136231584, 35.002263000337223 ], [ 138.506770829610218, 35.003490081202358 ], [ 138.502596004901761, 35.006966774796865 ], [ 138.504052724054077, 35.015412891791584 ], [ 138.512165719572408, 35.015117468096719 ], [ 138.503458274879563, 35.012615558661139 ], [ 138.514367523442502, 35.01274338739745 ], [ 138.512762218301759, 35.01509577465032 ], [ 138.517719248144886, 35.007952251894949 ], [ 138.515788910929587, 35.020911999689076 ], [ 138.533382724033572, 35.0138022248928 ], [ 138.52665158180514, 34.994940918988277 ], [ 138.507473385388494, 34.977562441353655 ], [ 138.462570466753732, 34.956972640275183 ], [ 138.41465447482426, 34.942761919327154 ], [ 138.395724332112309, 34.92872519830928 ], [ 138.371942023205861, 34.920619945953774 ], [ 138.367222477335531, 34.92443753206652 ], [ 138.371239274073332, 34.919623495328096 ], [ 138.355789882696968, 34.91370133285028 ], [ 138.348471413924699, 34.895438468210784 ], [ 138.339537664731552, 34.888808586047446 ], [ 138.338293890650561, 34.880013613037875 ], [ 138.331287522601201, 34.873940135129203 ], [ 138.334832140191224, 34.871894639725895 ], [ 138.333820440660816, 34.867869721210695 ], [ 138.33100108942881, 34.872102413695472 ], [ 138.33035131036479, 34.86893041400748 ], [ 138.326494669393583, 34.869561414327848 ], [ 138.328651439712189, 34.873561251650472 ], [ 138.324396445839398, 34.872590865176335 ], [ 138.324980532125892, 34.867594559241581 ], [ 138.329351362275588, 34.868085386731252 ], [ 138.325359390423614, 34.85249382872729 ], [ 138.329239636799912, 34.848579278610885 ], [ 138.323958054220839, 34.848702108015914 ], [ 138.326390195151475, 34.844731531934713 ], [ 138.329747197974825, 34.846369162307042 ], [ 138.331658715977028, 34.853951494865669 ], [ 138.337926354817455, 34.838450054326586 ], [ 138.337651582254807, 34.82836925223927 ], [ 138.3037435276417, 34.785578865372372 ], [ 138.301870336946536, 34.778810305950913 ], [ 138.295335330561102, 34.779250613125328 ], [ 138.294306614958373, 34.784237441105063 ], [ 138.288695837343084, 34.781236801836997 ], [ 138.294850130129475, 34.776254730371534 ], [ 138.305766808891235, 34.777495775010038 ], [ 138.267539273618695, 34.749052162127612 ], [ 138.271771440000066, 34.756967305896524 ], [ 138.265164746855703, 34.7541981080563 ], [ 138.267767133946109, 34.754347613151879 ], [ 138.266775331016788, 34.750075468308296 ], [ 138.262895252813678, 34.750744919142733 ], [ 138.239799921629128, 34.736708865421861 ], [ 138.21598968877322, 34.713821774955022 ], [ 138.213962776061294, 34.69910135964011 ], [ 138.217147055991859, 34.702502000267145 ], [ 138.207327392745015, 34.688663107616378 ], [ 138.210084578340684, 34.686513441042507 ], [ 138.207489339061794, 34.685097721083025 ], [ 138.211114721167519, 34.686399053573496 ], [ 138.201876523582769, 34.677758027411073 ], [ 138.194800271915028, 34.662221532198032 ], [ 138.194186393787163, 34.639094892015692 ], [ 138.197351025329567, 34.632790225388646 ], [ 138.203024890386473, 34.631657531969552 ], [ 138.198955279162874, 34.63114064032834 ], [ 138.206880584371561, 34.620348234383584 ], [ 138.197096393983429, 34.618751945845702 ], [ 138.185208885381826, 34.625373612702106 ], [ 138.169800000369833, 34.623417494621719 ], [ 138.168517223591039, 34.643801386924508 ], [ 138.18262360609458, 34.658212225014211 ], [ 138.183466939048117, 34.666633053972305 ], [ 138.17038805356583, 34.673602494959255 ], [ 138.173391945681828, 34.6817277752167 ], [ 138.163335006205671, 34.690861108253614 ], [ 138.14547555135573, 34.697781666590686 ], [ 138.145574721396315, 34.71497694602931 ], [ 138.139998611746591, 34.725910828821725 ], [ 138.141901673423604, 34.741197774757552 ], [ 138.131916667120549, 34.750798332577062 ], [ 138.134161388437406, 34.76284610756187 ], [ 138.140052217635798, 34.7659713865703 ], [ 138.142743332738632, 34.776831667047873 ], [ 138.133615837201205, 34.806820279232568 ], [ 138.128919170083691, 34.807360000163953 ], [ 138.130013061353793, 34.800590000028535 ], [ 138.122555278603272, 34.79294249539987 ], [ 138.108500271670209, 34.812276108155913 ], [ 138.100732503402355, 34.810383612613691 ], [ 138.102158053851213, 34.818814999612584 ], [ 138.097849442397887, 34.820264721140006 ], [ 138.096389727603878, 34.825616946365017 ], [ 138.098962217632334, 34.831694161856149 ], [ 138.093449441838288, 34.839394161711255 ], [ 138.070431387598546, 34.843591386733181 ], [ 138.070136393779649, 34.857228612710344 ], [ 138.047596393958429, 34.85943082936933 ], [ 138.045434448940682, 34.881335828685621 ], [ 138.056474163052258, 34.89478861270436 ], [ 138.057788053675836, 34.906728333246008 ], [ 138.046933061211917, 34.912067774608147 ], [ 138.041534448955758, 34.919477494890543 ], [ 138.044113333163864, 34.923532494828805 ], [ 138.036710272361233, 34.931613333288738 ], [ 138.030020272317756, 34.931296108228878 ], [ 138.025656667321414, 34.936872225073159 ], [ 138.020923333045403, 34.935307494645201 ], [ 138.012062217597304, 34.940442774614382 ], [ 138.016335006355575, 34.947906386770399 ], [ 138.012250272132405, 34.962601387244263 ], [ 138.01406778220246, 34.969527224601791 ], [ 138.009948053559924, 34.973980000077006 ], [ 138.011489728068568, 34.981110828901706 ], [ 138.035834448700939, 34.998876667024604 ], [ 138.025723605659891, 35.017375558735125 ], [ 138.013463605960737, 35.02306389208502 ], [ 138.023099728369857, 35.024766946337536 ], [ 138.047344448887316, 35.039009171436192 ], [ 138.047294163295078, 35.048977505207745 ], [ 138.038369999975544, 35.06728999983369 ], [ 138.045171388249059, 35.072640000135948 ], [ 138.044537781693293, 35.087694721334401 ], [ 138.049791114768141, 35.098154171278054 ], [ 138.058702218132908, 35.105136108344766 ], [ 138.028596938697774, 35.129205559089314 ], [ 138.011306394074836, 35.127805559279182 ], [ 138.006369170001221, 35.142928612765331 ], [ 137.999322218245879, 35.146172774953641 ], [ 138.00059360601017, 35.166428891580154 ], [ 138.004632502687969, 35.168171945878669 ], [ 138.015948611739077, 35.189719720988364 ], [ 138.028588054295369, 35.196270837828934 ], [ 138.027472776247691, 35.201618332620001 ], [ 138.036363891280644, 35.210949720653161 ], [ 138.03290749718326, 35.220714170922292 ], [ 138.036065551084334, 35.22824777461517 ], [ 138.012326394347724, 35.241741108165684 ], [ 138.015835836754491, 35.252396666972629 ], [ 138.013096393883529, 35.258860838257135 ], [ 138.003318053585417, 35.258609440873045 ], [ 138.000441946138949, 35.261703892021046 ], [ 138.014332217957531, 35.273691387247766 ], [ 138.012291919736413, 35.288953225011369 ], [ 138.027710752149574, 35.311563386341277 ], [ 138.026182750033968, 35.320406720393862 ], [ 138.039206667154076, 35.326140865208799 ], [ 138.038391725797624, 35.333698918770153 ], [ 138.051033385182677, 35.335644468017847 ], [ 138.06133593940217, 35.347198892015285 ], [ 138.070631192675478, 35.347333360446271 ], [ 138.0844316339128, 35.337945891589698 ], [ 138.095989104813384, 35.339642027357741 ], [ 138.096798884960663, 35.34721394576701 ], [ 138.093774188827865, 35.349970332764713 ], [ 138.09690005239554, 35.354225332932799 ], [ 138.118118418430299, 35.366195359728124 ], [ 138.124018144621687, 35.368047305738628 ], [ 138.129471996835264, 35.365277865081453 ], [ 138.141637562323695, 35.370073722024699 ], [ 138.153130025730206, 35.397235891823016 ], [ 138.144502607209574, 35.406039224930339 ], [ 138.134778755035541, 35.407823080570779 ], [ 138.13980302179209, 35.422654748318052 ], [ 138.120353061044966, 35.430099999915114 ], [ 138.123962554828154, 35.435660838177171 ], [ 138.119785135575626, 35.453393892414283 ], [ 138.122607393416502, 35.45660694615367 ], [ 138.13157461717492, 35.453340279330462 ], [ 138.141019104847828, 35.458994720829764 ], [ 138.156913060789179, 35.459980838245144 ], [ 138.160316134082336, 35.468981107592072 ], [ 138.156133359367118, 35.474268333416887 ], [ 138.158399195866309, 35.486817531703764 ], [ 138.164661971173132, 35.493717251849773 ], [ 138.139519442168535, 35.501178080604006 ], [ 138.146339196396866, 35.518505332854886 ], [ 138.138293605965259, 35.522153973227319 ], [ 138.159435887556242, 35.544958999658149 ], [ 138.154213942619435, 35.553480387210129 ], [ 138.14139335861671, 35.555076252167339 ], [ 138.146201440044479, 35.557093748078046 ], [ 138.151810363257709, 35.570959865005818 ], [ 138.157147029312, 35.573026532248718 ], [ 138.162050363333719, 35.581294891945731 ], [ 138.170855914169124, 35.582417918552153 ], [ 138.184323968676267, 35.573088170882443 ], [ 138.189490635884226, 35.576780946383622 ], [ 138.195363696277582, 35.594679865283581 ], [ 138.206073410459567, 35.608179000360622 ], [ 138.202377054757335, 35.618309026840166 ], [ 138.203371529572451, 35.632115694084064 ], [ 138.210541219002153, 35.634590972795195 ], [ 138.218670661321994, 35.64454930610566 ], [ 138.229032607668728, 35.645752332803966 ], [ 138.229030389041327, 35.645627613023976 ] ] ] ] } },
{ "type": "Feature", "properties": { "code": "220020", "name": "伊豆", "PrefCode": "22", "regioncode": "220020" }, "geometry": { "type": "MultiPolygon", "coordinates": [ [ [ [ 138.940970271860579, 34.576537775298164 ], [ 138.943339999841214, 34.57360972121171 ], [ 138.940919442178597, 34.576544441073167 ], [ 138.940970271860579, 34.576537775298164 ] ] ], [ [ [ 138.823020725825927, 34.607552981584888 ], [ 138.825058573394472, 34.603626739382548 ], [ 138.823002516353085, 34.607579802066255 ], [ 138.823020725825927, 34.607552981584888 ] ] ], [ [ [ 138.811940220265001, 34.615515152702187 ], [ 138.813130830023852, 34.61343391014691 ], [ 138.811918729166109, 34.615541179981506 ], [ 138.811940220265001, 34.615515152702187 ] ] ], [ [ [ 138.947147899356082, 34.662165981974567 ], [ 138.948865421901814, 34.660340783600361 ], [ 138.947035136062709, 34.662095991336969 ], [ 138.947147899356082, 34.662165981974567 ] ] ], [ [ [ 138.947394112148572, 34.665305775141462 ], [ 138.948033721678939, 34.662873666586506 ], [ 138.944710597216385, 34.663764721165023 ], [ 138.947324370623278, 34.665323341598992 ], [ 138.947394112148572, 34.665305775141462 ] ] ], [ [ [ 138.766889947713025, 34.674593522672978 ], [ 138.76587259414498, 34.671931035688772 ], [ 138.766885396244106, 34.674600117401553 ], [ 138.766889947713025, 34.674593522672978 ] ] ], [ [ [ 138.7594633327667, 34.783931945902623 ], [ 138.756841945699307, 34.781477775179212 ], [ 138.759362775971454, 34.783949161624548 ], [ 138.7594633327667, 34.783931945902623 ] ] ], [ [ [ 138.755789442129071, 34.806430279234064 ], [ 138.754840830040393, 34.804035828890449 ], [ 138.755761946256825, 34.806503612651682 ], [ 138.755789442129071, 34.806430279234064 ] ] ], [ [ [ 139.169659364188419, 35.043110999972725 ], [ 139.176288339835082, 35.038996946052293 ], [ 139.167668612316675, 35.0366369460383 ], [ 139.164015279281784, 35.043103053563129 ], [ 139.16919710816012, 35.043177108236989 ], [ 139.169659364188419, 35.043110999972725 ] ] ], [ [ [ 139.019393645400442, 35.181905053975129 ], [ 139.029124189429808, 35.170298640170188 ], [ 139.026278560007654, 35.16025697298096 ], [ 139.031225771951881, 35.156986135102102 ], [ 139.029384616906555, 35.149983081054415 ], [ 139.048227496601726, 35.149702774963146 ], [ 139.08984369622965, 35.14019472140933 ], [ 139.111596666952664, 35.14136693733434 ], [ 139.109242802113727, 35.130292225206063 ], [ 139.097165032040607, 35.117113891792712 ], [ 139.087962503366953, 35.112694721284413 ], [ 139.086870829824989, 35.10709417075941 ], [ 139.076796667432291, 35.097728053606829 ], [ 139.074755693820293, 35.091796081324162 ], [ 139.078313891173252, 35.088928333076183 ], [ 139.07734472058246, 35.092108333133126 ], [ 139.08151286602606, 35.094248694421765 ], [ 139.082039727551432, 35.085851666920917 ], [ 139.074221115212367, 35.078663892124951 ], [ 139.079667496757679, 35.069319999918093 ], [ 139.069374811698253, 35.053727747637481 ], [ 139.074102776122231, 35.046783054194634 ], [ 139.086132243608176, 35.044750359741386 ], [ 139.088966225910667, 35.049664748229588 ], [ 139.093580920722957, 35.049955476564037 ], [ 139.100481388205594, 35.044914720737836 ], [ 139.097447497404119, 35.016647505378103 ], [ 139.10004972801255, 35.009019999873146 ], [ 139.086275266390544, 35.007891143861229 ], [ 139.082932503432403, 35.00096361308033 ], [ 139.095790661110186, 34.986344251885782 ], [ 139.093767496772671, 34.977887774701117 ], [ 139.105689442214043, 34.969753054260082 ], [ 139.108965837003893, 34.971572774863716 ], [ 139.104020557702597, 34.973809440953005 ], [ 139.128514162898341, 34.96890861334191 ], [ 139.130956394222267, 34.9621030540128 ], [ 139.128425836882911, 34.958818333299519 ], [ 139.132878884852744, 34.952041108010803 ], [ 139.146756666886745, 34.955156667146525 ], [ 139.146870000350305, 34.945268891945886 ], [ 139.143289728238415, 34.940716666740855 ], [ 139.148720557807565, 34.936108332833328 ], [ 139.14566360569097, 34.933032225157092 ], [ 139.148078054258917, 34.930367224567817 ], [ 139.140374163037222, 34.921275000440971 ], [ 139.140439442126649, 34.909472775448307 ], [ 139.131799169596093, 34.89844361308235 ], [ 139.140763061366215, 34.890883054009805 ], [ 139.135085278862562, 34.887919161939806 ], [ 139.130146938730263, 34.877620559341381 ], [ 139.116557223936752, 34.871171666639157 ], [ 139.102496393893489, 34.869642224708969 ], [ 139.098048053874663, 34.857594161941051 ], [ 139.086998885190496, 34.858311107771442 ], [ 139.08281276319849, 34.853706738974893 ], [ 139.07684756186552, 34.841446018019383 ], [ 139.078333632191402, 34.819523188744199 ], [ 139.061976692670328, 34.800780044763314 ], [ 139.058292450836007, 34.78482081063197 ], [ 139.041549909001219, 34.773872820174574 ], [ 139.043480803796115, 34.771068054147406 ], [ 139.047141620989123, 34.773714936994793 ], [ 139.048270285445369, 34.768161350865682 ], [ 139.027694358208123, 34.767214378241022 ], [ 139.020611581958974, 34.754032810865567 ], [ 139.006341192791865, 34.752669792976633 ], [ 138.996754149984099, 34.742979125786064 ], [ 139.001134760261039, 34.736105180209961 ], [ 138.998330764952925, 34.729654180396153 ], [ 138.992670973386794, 34.728064784262415 ], [ 138.991184838309664, 34.722172703207718 ], [ 138.98853311261314, 34.723295189321561 ], [ 138.992828987867597, 34.717782766061873 ], [ 138.979123125631759, 34.70887782934841 ], [ 138.973356355211649, 34.69095686536707 ], [ 138.97743184170622, 34.68189702672646 ], [ 138.981423916980248, 34.681259278792709 ], [ 138.97273928718846, 34.674277631307689 ], [ 138.978843528206312, 34.671707126083049 ], [ 138.97803920874253, 34.667660873850309 ], [ 138.985778378569421, 34.669094153072763 ], [ 138.987433670727341, 34.665911793194766 ], [ 138.984201855331435, 34.663671703386456 ], [ 138.987465733356998, 34.658196612783513 ], [ 138.981187575146578, 34.66164081117455 ], [ 138.976930973285903, 34.652983982125136 ], [ 138.967362672349509, 34.6568951975554 ], [ 138.965544175723153, 34.652638720700452 ], [ 138.958042192193489, 34.652771341923938 ], [ 138.958224357967765, 34.664719143773539 ], [ 138.954908729354429, 34.665536342428311 ], [ 138.959760596973979, 34.666433810971625 ], [ 138.964131971213533, 34.672872341685263 ], [ 138.958227678264848, 34.676835009128411 ], [ 138.948248859297451, 34.673809766207796 ], [ 138.949582100633506, 34.669444413828671 ], [ 138.95454155594814, 34.669209305864854 ], [ 138.945790350244579, 34.665031640198094 ], [ 138.940774915729889, 34.668333009161074 ], [ 138.936151218703799, 34.666862053740829 ], [ 138.941588002684284, 34.662117288182344 ], [ 138.930606459420574, 34.660476054226592 ], [ 138.918333281056107, 34.652653323891855 ], [ 138.916359649578226, 34.641478739352408 ], [ 138.904811777141845, 34.62923098212417 ], [ 138.891188431301089, 34.634878026699596 ], [ 138.888013903618798, 34.630986476744567 ], [ 138.891310597006509, 34.628353054050251 ], [ 138.889678820321365, 34.624248783854341 ], [ 138.88623732799033, 34.627197793043763 ], [ 138.885918885248429, 34.622889972993903 ], [ 138.878005914241612, 34.624591856329175 ], [ 138.872210778304861, 34.617597720858157 ], [ 138.865657146959848, 34.619829062960946 ], [ 138.858974228178113, 34.615211287970624 ], [ 138.859883437370854, 34.612380170908239 ], [ 138.849035654771683, 34.613400027289458 ], [ 138.847813580432444, 34.604241495248857 ], [ 138.842358274914545, 34.608773748309886 ], [ 138.846353955570635, 34.602053045411765 ], [ 138.84341671940615, 34.600859973309184 ], [ 138.839232917665072, 34.605871811435009 ], [ 138.838304098755202, 34.603433504752502 ], [ 138.835931153899651, 34.606760206718207 ], [ 138.836444085825974, 34.604254531821255 ], [ 138.825698157743886, 34.605809703355192 ], [ 138.824586432917613, 34.615413828785222 ], [ 138.820915849986591, 34.611900558863738 ], [ 138.814009857069323, 34.616077630977941 ], [ 138.810083501552413, 34.62797680198787 ], [ 138.79468588774364, 34.622215919429209 ], [ 138.793649390307223, 34.634709937113939 ], [ 138.78750616098057, 34.640141288289897 ], [ 138.781338131949269, 34.637532332551132 ], [ 138.773811764201582, 34.644039882634502 ], [ 138.773250258992334, 34.65569547676489 ], [ 138.779381620865138, 34.654885900763759 ], [ 138.784092243662144, 34.662403341840786 ], [ 138.791054747278849, 34.6599753602747 ], [ 138.789695927425214, 34.669497377601942 ], [ 138.77779481208097, 34.667085377887929 ], [ 138.777380104108602, 34.675576828807664 ], [ 138.769680946918243, 34.681645269613568 ], [ 138.766317703699087, 34.680556332708647 ], [ 138.766798832899894, 34.68541247660454 ], [ 138.75678525333683, 34.691674820236813 ], [ 138.742565512188662, 34.687268215955442 ], [ 138.739105863444934, 34.690147378398819 ], [ 138.743481996896662, 34.693466026935653 ], [ 138.743592322128052, 34.700235928145617 ], [ 138.739493035075611, 34.704973305773478 ], [ 138.743155278593349, 34.717649161879365 ], [ 138.739295837133227, 34.726622775320891 ], [ 138.74746944156152, 34.728082494611499 ], [ 138.749716394096367, 34.736364999744978 ], [ 138.756348885193006, 34.733281666915445 ], [ 138.75548277600933, 34.739382774695343 ], [ 138.761615005728004, 34.739278892207153 ], [ 138.754871114710227, 34.74675833333049 ], [ 138.758905836735039, 34.746103332802591 ], [ 138.771906030638888, 34.75599910837218 ], [ 138.775750271757715, 34.754470829265415 ], [ 138.776938611627656, 34.759929440691167 ], [ 138.77291575885522, 34.759608837777705 ], [ 138.775939169856883, 34.764389441319736 ], [ 138.773504162786935, 34.768904440887297 ], [ 138.763353060695295, 34.770154162184895 ], [ 138.77095111520191, 34.77409277456195 ], [ 138.765339727846253, 34.776048333264043 ], [ 138.767763333311223, 34.782120559316411 ], [ 138.756138340412122, 34.792041107611055 ], [ 138.757748885003139, 34.79703305363256 ], [ 138.752499999975043, 34.800543053619094 ], [ 138.757351114862104, 34.803923053905862 ], [ 138.756718054194948, 34.801460559057602 ], [ 138.761853890844463, 34.801813333418636 ], [ 138.759916135121557, 34.805011694034476 ], [ 138.766026666897233, 34.808509161968288 ], [ 138.763235550780109, 34.812999720660628 ], [ 138.753754163024269, 34.813502775332893 ], [ 138.752758054140941, 34.824250558716358 ], [ 138.760595837328083, 34.829531386764131 ], [ 138.765736393619704, 34.828499440796634 ], [ 138.761583333404133, 34.825788892243622 ], [ 138.765878612408073, 34.821758054390727 ], [ 138.769147496959476, 34.822995559297681 ], [ 138.75980300940148, 34.842864667070785 ], [ 138.765489169989223, 34.843351387356677 ], [ 138.770950220376449, 34.849321667161234 ], [ 138.769875551215819, 34.84659138658327 ], [ 138.772400271955007, 34.8471480543393 ], [ 138.775885006387966, 34.853558892229159 ], [ 138.774088612399623, 34.857220559281416 ], [ 138.76735459144129, 34.857655440845974 ], [ 138.765998832879859, 34.862209026725282 ], [ 138.758606718625174, 34.861521639811883 ], [ 138.752861440203333, 34.868216197619461 ], [ 138.75833702993009, 34.870936748432257 ], [ 138.756625005839396, 34.885513197576074 ], [ 138.767048301238219, 34.896389441019949 ], [ 138.778087833686641, 34.897852333118749 ], [ 138.78170752308381, 34.905843775369988 ], [ 138.789318910939073, 34.906526054134133 ], [ 138.785499364304314, 34.919886693616093 ], [ 138.777849611370584, 34.92743619822204 ], [ 138.776024967878016, 34.939182864897361 ], [ 138.789989170264107, 34.940032225107132 ], [ 138.799998885440232, 34.947585279337204 ], [ 138.811851946410229, 34.94515555938159 ], [ 138.816067496917526, 34.948756387297465 ], [ 138.837513332974027, 34.943433053692502 ], [ 138.837025005599571, 34.97344027914562 ], [ 138.875941114890566, 34.988945279201346 ], [ 138.890044448692379, 35.003790279397947 ], [ 138.895793605890276, 35.002354721293386 ], [ 138.907788884749266, 35.007900279174578 ], [ 138.902681672621156, 35.013551946265352 ], [ 138.911891672862453, 35.024804440872288 ], [ 138.902784162958824, 35.031757775001381 ], [ 138.911727223732441, 35.037311387210821 ], [ 138.906231946047569, 35.059387225340231 ], [ 138.91308416310369, 35.06243750538664 ], [ 138.916335551344673, 35.069473053738477 ], [ 138.921981388130575, 35.070525279418177 ], [ 138.922334449375398, 35.078741946083994 ], [ 138.925378612233203, 35.077426666907229 ], [ 138.924800830194272, 35.079979720787549 ], [ 138.935458884619948, 35.085086387027218 ], [ 138.933888340074873, 35.091115279246765 ], [ 138.945416109066286, 35.089834441406424 ], [ 138.953756393842582, 35.109655278967978 ], [ 138.978691945676815, 35.137183053754995 ], [ 138.99029472082475, 35.143067225272262 ], [ 138.990763605755888, 35.150878613357349 ], [ 138.997258339600762, 35.151718332834832 ], [ 139.00332600519107, 35.160432531436243 ], [ 138.999625421775818, 35.161257775426066 ], [ 139.003503191419213, 35.169081972555034 ], [ 139.013829441875259, 35.182367837905474 ], [ 139.019171141435095, 35.182057278620562 ], [ 139.019393645400442, 35.181905053975129 ] ] ] ] } },
{ "type": "Feature", "properties": { "code": "220030", "name": "東部", "PrefCode": "22", "regioncode": "220030" }, "geometry": { "type": "MultiPolygon", "coordinates": [ [ [ [ 138.886523086671218, 35.036053027025616 ], [ 138.890495252753794, 35.031034080658344 ], [ 138.886306135120094, 35.032351081137563 ], [ 138.886488003218801, 35.036053667342912 ], [ 138.886523086671218, 35.036053027025616 ] ] ], [ [ [ 138.58529946789622, 35.440807224773664 ], [ 138.597344864174261, 35.432704171260525 ], [ 138.609136031103048, 35.393176387180574 ], [ 138.659103553786053, 35.398309999806713 ], [ 138.671182970517748, 35.39282999980469 ], [ 138.680535615826102, 35.357678332988712 ], [ 138.718978392139206, 35.365553054030272 ], [ 138.73078141393114, 35.362798613165523 ], [ 138.799104642765087, 35.37664364009197 ], [ 138.821748831743207, 35.374087802809925 ], [ 138.832686667056123, 35.383238359662641 ], [ 138.851207301675686, 35.390541414954384 ], [ 138.85634119309168, 35.387999198804039 ], [ 138.862832632719915, 35.390148901350756 ], [ 138.874262477231582, 35.379173522939766 ], [ 138.878911244658298, 35.385842774724324 ], [ 138.887941554958843, 35.386353053650566 ], [ 138.915362607198631, 35.400558892179163 ], [ 138.943255550803087, 35.39918802680603 ], [ 138.97182046694104, 35.405176053831894 ], [ 138.984070830404562, 35.401771892359022 ], [ 138.995279533423741, 35.403333000317787 ], [ 139.001419559365218, 35.399748801765838 ], [ 138.998617496700149, 35.384040467693467 ], [ 139.005915862926827, 35.375384612609821 ], [ 139.006839106039934, 35.361385720674548 ], [ 139.013353306609929, 35.358669892201817 ], [ 139.008622387013588, 35.347093774757923 ], [ 139.010590143220611, 35.338411279057311 ], [ 139.018975161174808, 35.329060169791035 ], [ 139.009632866163884, 35.313648531954243 ], [ 139.004612244359691, 35.289898026672631 ], [ 138.996191893840887, 35.287814414403726 ], [ 138.975471113701019, 35.263752802150179 ], [ 138.974395253837997, 35.248143945686593 ], [ 138.978739688885639, 35.239393385696246 ], [ 138.976074110931563, 35.235552838093042 ], [ 138.983572477387952, 35.222751467206479 ], [ 138.982163839589589, 35.217825359652693 ], [ 138.988352749979526, 35.211346468264935 ], [ 138.98767769097276, 35.200881197908984 ], [ 139.013829441875259, 35.182367837905474 ], [ 139.013046355405095, 35.178651171014792 ], [ 139.003308755294938, 35.168792801846394 ], [ 138.999625421775818, 35.161257775426066 ], [ 139.003517418693946, 35.160849467928642 ], [ 138.997258339600762, 35.151718332834832 ], [ 138.99067277602785, 35.150755837911618 ], [ 138.99029472082475, 35.143067225272262 ], [ 138.978691945676815, 35.137183053754995 ], [ 138.953756393842582, 35.109655278967978 ], [ 138.945416109066286, 35.089834441406424 ], [ 138.933888340074873, 35.091115279246765 ], [ 138.935458884619948, 35.085086387027218 ], [ 138.924800830194272, 35.079979720787549 ], [ 138.925378612233203, 35.077426666907229 ], [ 138.922334449375398, 35.078741946083994 ], [ 138.921981388130575, 35.070525279418177 ], [ 138.916335551344673, 35.069473053738477 ], [ 138.91308416310369, 35.06243750538664 ], [ 138.906231946047569, 35.059387225340231 ], [ 138.911727223732441, 35.037311387210821 ], [ 138.902784162958824, 35.031757775001381 ], [ 138.911891672862453, 35.024804440872288 ], [ 138.902681672621156, 35.013551946265352 ], [ 138.907788884749266, 35.007900279174578 ], [ 138.895793605890276, 35.002354721293386 ], [ 138.890044448692379, 35.003790279397947 ], [ 138.875941114890566, 34.988945279201346 ], [ 138.837025005599571, 34.97344027914562 ], [ 138.837513332974027, 34.943433053692502 ], [ 138.816067496917526, 34.948756387297465 ], [ 138.811851946410229, 34.94515555938159 ], [ 138.799998885440232, 34.947585279337204 ], [ 138.789989170264107, 34.940032225107132 ], [ 138.776024967878016, 34.939182864897361 ], [ 138.765964163115655, 34.951970279205057 ], [ 138.762045550761627, 34.969776108380756 ], [ 138.767065006145231, 34.977724440730412 ], [ 138.764398340011439, 34.972359161845873 ], [ 138.777199663233887, 34.971020919379953 ], [ 138.775558054260841, 34.979258613094544 ], [ 138.768829441825346, 34.98253499979046 ], [ 138.779901672724122, 35.001320559396333 ], [ 138.778215550907021, 35.013138613356375 ], [ 138.787899364364193, 35.030509945877327 ], [ 138.787635253264398, 35.023617225154851 ], [ 138.810911608084325, 35.019185054047057 ], [ 138.813802555243797, 35.022817252114521 ], [ 138.828979804574374, 35.023616946365053 ], [ 138.834437198318142, 35.018894278947869 ], [ 138.842882218139948, 35.018676775213066 ], [ 138.844973644618108, 35.014188332625508 ], [ 138.857508559872258, 35.020551108047243 ], [ 138.870747470719266, 35.021171359670575 ], [ 138.877689831320708, 35.027886693616097 ], [ 138.878897444561517, 35.019304359908347 ], [ 138.883625058249891, 35.025474360253554 ], [ 138.886066524250737, 35.018236468038594 ], [ 138.891548884973076, 35.017052468296811 ], [ 138.897534967664683, 35.02110936040873 ], [ 138.898503800110348, 35.025071107845406 ], [ 138.893605798169119, 35.026186116995746 ], [ 138.892113839082526, 35.032063864655697 ], [ 138.899048222697388, 35.038540747857269 ], [ 138.897422386933727, 35.043847197590139 ], [ 138.907097276418199, 35.04895074767893 ], [ 138.898719364007547, 35.050871197747654 ], [ 138.896369299703451, 35.048317386638132 ], [ 138.89679141359295, 35.051306802367094 ], [ 138.891751114622252, 35.051681720734848 ], [ 138.891948612038846, 35.04788086471018 ], [ 138.886036808851713, 35.046180801602759 ], [ 138.874248170816486, 35.068749360294817 ], [ 138.867687030132402, 35.073761774886066 ], [ 138.863190506236947, 35.071542586221426 ], [ 138.854663281185594, 35.080427504925467 ], [ 138.851676328699682, 35.078720080867072 ], [ 138.857201193180572, 35.083802441129819 ], [ 138.853911244708229, 35.081361252120132 ], [ 138.851531803150237, 35.084834801684792 ], [ 138.850920660759925, 35.079972027087422 ], [ 138.851112775734123, 35.086524748318539 ], [ 138.839168470448612, 35.099947000353836 ], [ 138.813923645359978, 35.113835279274781 ], [ 138.776857690629981, 35.126004801780255 ], [ 138.738462633244012, 35.134176441189879 ], [ 138.699813916678977, 35.135352505313904 ], [ 138.695584085836913, 35.139994224753707 ], [ 138.700599442110615, 35.142936748032525 ], [ 138.695111777186867, 35.14133083764807 ], [ 138.694947081642567, 35.144851721229998 ], [ 138.684925720245815, 35.14412789198866 ], [ 138.697956860720637, 35.134399559392193 ], [ 138.680940584140671, 35.132175053935669 ], [ 138.638537288864882, 35.116491459313465 ], [ 138.629930829943874, 35.133675278691214 ], [ 138.611324721059077, 35.12898472066837 ], [ 138.605323332805597, 35.132192224691494 ], [ 138.599641388239547, 35.143605838238898 ], [ 138.58074527857184, 35.143600838008297 ], [ 138.568780271792207, 35.152268054227363 ], [ 138.563854720918698, 35.151158612779795 ], [ 138.558476938759782, 35.159314441208551 ], [ 138.554263060991502, 35.154764440926272 ], [ 138.538581945800274, 35.15168250474386 ], [ 138.536128612345692, 35.160815558990919 ], [ 138.525701698974331, 35.166075000261117 ], [ 138.52590919595275, 35.175817505273699 ], [ 138.518452801755416, 35.184091108018265 ], [ 138.518521413732287, 35.189927504850516 ], [ 138.522421413717325, 35.199157775810761 ], [ 138.528482802039775, 35.197539441292236 ], [ 138.533136420409505, 35.200688054110458 ], [ 138.527380026367155, 35.216803613795776 ], [ 138.532275031767313, 35.223390838416492 ], [ 138.520708948958941, 35.255353865388656 ], [ 138.514242827044882, 35.262230802109855 ], [ 138.520321440981775, 35.270884134595178 ], [ 138.521724527265178, 35.283814972782807 ], [ 138.512752334752463, 35.303299972915454 ], [ 138.512093191047938, 35.313555251573632 ], [ 138.535086200068122, 35.330564721184999 ], [ 138.53489564092115, 35.340892504985163 ], [ 138.529448716185357, 35.34968750497444 ], [ 138.530712139553657, 35.376023333610021 ], [ 138.528171051153208, 35.379046946059759 ], [ 138.535847717198408, 35.389880279251543 ], [ 138.531740052061764, 35.409262531840398 ], [ 138.553034811907082, 35.423086135117103 ], [ 138.558919830585751, 35.434168918660703 ], [ 138.577421556060017, 35.440893333060899 ], [ 138.581888249443182, 35.445728332996225 ], [ 138.585297950739914, 35.440924440610502 ], [ 138.58529946789622, 35.440807224773664 ] ] ] ] } },
{ "type": "Feature", "properties": { "code": "220040", "name": "西部", "PrefCode": "22", "regioncode": "220040" }, "geometry": { "type": "MultiPolygon", "coordinates": [ [ [ [ 138.226050220141587, 34.621534081332811 ], [ 138.223226419963339, 34.61416813465172 ], [ 138.22589394315105, 34.6214308292694 ], [ 138.226050220141587, 34.621534081332811 ] ] ], [ [ [ 138.218761698793401, 34.626639467837208 ], [ 138.223106160820748, 34.622769918896665 ], [ 138.219080169414383, 34.618268829143176 ], [ 138.209106082679682, 34.621744955265513 ], [ 138.218573773760681, 34.626520467745422 ], [ 138.218761698793401, 34.626639467837208 ] ] ], [ [ [ 138.221846718751181, 34.632998108176196 ], [ 138.228187755760359, 34.63147630598678 ], [ 138.221776614798955, 34.632954586385097 ], [ 138.221846718751181, 34.632998108176196 ] ] ], [ [ [ 138.228312477339045, 34.619710332665761 ], [ 138.233720947064171, 34.634613054049282 ], [ 138.227943891097766, 34.620551224859184 ], [ 138.228312477339045, 34.619710332665761 ] ] ], [ [ [ 138.008947108122584, 35.303670640187931 ], [ 138.018774890448867, 35.301072026652776 ], [ 138.01819538351026, 35.294362612944269 ], [ 138.012235252554888, 35.288677946130349 ], [ 138.014332217957531, 35.273691387247766 ], [ 138.000493890980351, 35.261216386626984 ], [ 138.013096393883529, 35.258860838257135 ], [ 138.015835836754491, 35.252396666972629 ], [ 138.012326394347724, 35.241741108165684 ], [ 138.036065551084334, 35.22824777461517 ], [ 138.03290749718326, 35.220714170922292 ], [ 138.036363891280644, 35.210949720653161 ], [ 138.027472776247691, 35.201618332620001 ], [ 138.028588054295369, 35.196270837828934 ], [ 138.015948611739077, 35.189719720988364 ], [ 138.004632502687969, 35.168171945878669 ], [ 138.00059360601017, 35.166428891580154 ], [ 137.999322218245879, 35.146172774953641 ], [ 138.006369170001221, 35.142928612765331 ], [ 138.011306394074836, 35.127805559279182 ], [ 138.028596938697774, 35.129205559089314 ], [ 138.058702218132908, 35.105136108344766 ], [ 138.049791114768141, 35.098154171278054 ], [ 138.044537781693293, 35.087694721334401 ], [ 138.045171388249059, 35.072640000135948 ], [ 138.038369999975544, 35.06728999983369 ], [ 138.047294163295078, 35.048977505207745 ], [ 138.047344448887316, 35.039009171436192 ], [ 138.023099728369857, 35.024766946337536 ], [ 138.013463605960737, 35.02306389208502 ], [ 138.025723605659891, 35.017375558735125 ], [ 138.035834448700939, 34.998876667024604 ], [ 138.011489728068568, 34.981110828901706 ], [ 138.009948053559924, 34.973980000077006 ], [ 138.01406778220246, 34.969527224601791 ], [ 138.012250272132405, 34.962601387244263 ], [ 138.016335006355575, 34.947906386770399 ], [ 138.012062217597304, 34.940442774614382 ], [ 138.020923333045403, 34.935307494645201 ], [ 138.025656667321414, 34.936872225073159 ], [ 138.030020272317756, 34.931296108228878 ], [ 138.036710272361233, 34.931613333288738 ], [ 138.044113333163864, 34.923532494828805 ], [ 138.041534448955758, 34.919477494890543 ], [ 138.046933061211917, 34.912067774608147 ], [ 138.057788053675836, 34.906728333246008 ], [ 138.056474163052258, 34.89478861270436 ], [ 138.045434448940682, 34.881335828685621 ], [ 138.047596393958429, 34.85943082936933 ], [ 138.070136393779649, 34.857228612710344 ], [ 138.070431387598546, 34.843591386733181 ], [ 138.093449441838288, 34.839394161711255 ], [ 138.098962217632334, 34.831694161856149 ], [ 138.096389727603878, 34.825616946365017 ], [ 138.097849442397887, 34.820264721140006 ], [ 138.102158053851213, 34.818814999612584 ], [ 138.100732503402355, 34.810383612613691 ], [ 138.108500271670209, 34.812276108155913 ], [ 138.122555278603272, 34.79294249539987 ], [ 138.130013061353793, 34.800590000028535 ], [ 138.128919170083691, 34.807360000163953 ], [ 138.133615837201205, 34.806820279232568 ], [ 138.142743332738632, 34.776831667047873 ], [ 138.140052217635798, 34.7659713865703 ], [ 138.134161388437406, 34.76284610756187 ], [ 138.131916667120549, 34.750798332577062 ], [ 138.141901673423604, 34.741197774757552 ], [ 138.139998611746591, 34.725910828821725 ], [ 138.145574721396315, 34.71497694602931 ], [ 138.14547555135573, 34.697781666590686 ], [ 138.163335006205671, 34.690861108253614 ], [ 138.173391945681828, 34.6817277752167 ], [ 138.17038805356583, 34.673602494959255 ], [ 138.183466939048117, 34.666633053972305 ], [ 138.18262360609458, 34.658212225014211 ], [ 138.168517223591039, 34.643801386924508 ], [ 138.169800000369833, 34.623417494621719 ], [ 138.185208885381826, 34.625373612702106 ], [ 138.195950000292328, 34.618799721430037 ], [ 138.209112386927131, 34.620969864667586 ], [ 138.216611336144297, 34.612750413700667 ], [ 138.219414449217538, 34.614499414316583 ], [ 138.216720362754586, 34.616561036362782 ], [ 138.22013836569306, 34.614392865338516 ], [ 138.220311608394127, 34.610210586149663 ], [ 138.217277588090269, 34.609775135314294 ], [ 138.220375253415227, 34.607659892090396 ], [ 138.225069494161858, 34.607193440724757 ], [ 138.222195525303277, 34.61454197293375 ], [ 138.228051634375447, 34.607230613302193 ], [ 138.231356912691467, 34.608444802385748 ], [ 138.232919079152225, 34.599204945551833 ], [ 138.226358391726421, 34.594988802391356 ], [ 138.191788689696295, 34.600792972917418 ], [ 138.08568593995426, 34.640550387190672 ], [ 138.027506912713875, 34.65588372105691 ], [ 137.973570661157169, 34.665049495337996 ], [ 137.924894746595328, 34.668091387407628 ], [ 137.911548444105506, 34.666346279057564 ], [ 137.907326887026329, 34.66163449523583 ], [ 137.910678443555412, 34.667033531971981 ], [ 137.905031479019613, 34.666651559322077 ], [ 137.906213475971185, 34.664509667387279 ], [ 137.899551479017646, 34.667178467612246 ], [ 137.907501335718166, 34.659998107726551 ], [ 137.899620466911074, 34.666038495080556 ], [ 137.800201025357069, 34.646246657956965 ], [ 137.777283943399311, 34.647580431691608 ], [ 137.743605720427695, 34.659053081234788 ], [ 137.672383384885393, 34.670725468405692 ], [ 137.598683125725756, 34.675055089820603 ], [ 137.598727795051786, 34.67790634180426 ], [ 137.582083281118571, 34.679895613391921 ], [ 137.485175136123644, 34.673551495305333 ], [ 137.484679728386823, 34.684031946217374 ], [ 137.489272775618133, 34.68880333260779 ], [ 137.491789999608841, 34.702459721339096 ], [ 137.487762502737382, 34.716422494702442 ], [ 137.481858885179463, 34.721265828655135 ], [ 137.47823083028868, 34.735463891645338 ], [ 137.480550557762058, 34.740682775289883 ], [ 137.474106938684372, 34.749940559209506 ], [ 137.479052775565151, 34.771407225363191 ], [ 137.476717497014988, 34.774785559206236 ], [ 137.481951115151901, 34.782239721286146 ], [ 137.492942218208896, 34.78686610818437 ], [ 137.494281672960938, 34.802232775422283 ], [ 137.486853333114937, 34.811406945773967 ], [ 137.5012574973357, 34.8226577748365 ], [ 137.499991672777583, 34.831336387264514 ], [ 137.518338884831678, 34.83598777531563 ], [ 137.52979306140071, 34.843585828922926 ], [ 137.542273606341951, 34.842049161839384 ], [ 137.551589442398949, 34.851864440891291 ], [ 137.587251673226206, 34.849575829061337 ], [ 137.595265005875376, 34.859188332575513 ], [ 137.597450558096853, 34.872447224559835 ], [ 137.616252775844941, 34.875340829215929 ], [ 137.641251673226179, 34.893083332629772 ], [ 137.640525836698089, 34.904973333252769 ], [ 137.646383060929566, 34.908416108017036 ], [ 137.646951115002025, 34.918761945707274 ], [ 137.653140271806137, 34.926592224951264 ], [ 137.650998340301271, 34.933356386687933 ], [ 137.658133332986949, 34.94299722514188 ], [ 137.66858333285461, 34.948227225306255 ], [ 137.675821115352278, 34.94545972088946 ], [ 137.682976108960361, 34.955034999665543 ], [ 137.68950972769187, 34.956736667163511 ], [ 137.694631673413028, 34.970257775376069 ], [ 137.70712138784188, 34.971947224684698 ], [ 137.699836938623889, 34.984431667287652 ], [ 137.708131672738546, 34.994456946131208 ], [ 137.701904721026153, 34.998582774875217 ], [ 137.701029442354979, 35.003488332920256 ], [ 137.704919441878815, 35.014756107908113 ], [ 137.716520000197875, 35.027468891975843 ], [ 137.717137497197768, 35.035044720637416 ], [ 137.728752503125634, 35.040336945793456 ], [ 137.741080558121325, 35.057110559205 ], [ 137.775532217837622, 35.077614721442274 ], [ 137.773361388417356, 35.09049527943364 ], [ 137.778268340411614, 35.099623053760979 ], [ 137.792644449381896, 35.095365837663337 ], [ 137.795033061326762, 35.10290333272269 ], [ 137.801093061095912, 35.105833054152185 ], [ 137.798976109160208, 35.125442505167541 ], [ 137.792078339643695, 35.128777505177766 ], [ 137.793136938818748, 35.135217505383594 ], [ 137.797295551448656, 35.136384999867914 ], [ 137.800987496875564, 35.130860279278522 ], [ 137.805861673077857, 35.131124440740393 ], [ 137.814942217709245, 35.140575559114836 ], [ 137.812188053835712, 35.144608333208055 ], [ 137.814650830171786, 35.152383054134702 ], [ 137.821860829913476, 35.148007505242219 ], [ 137.829002776157267, 35.151960837722527 ], [ 137.821290829708119, 35.158440278596061 ], [ 137.825471946073549, 35.168200279019686 ], [ 137.817529728214481, 35.174985838325824 ], [ 137.810441946338869, 35.174813892447219 ], [ 137.803199728384811, 35.183118054154932 ], [ 137.807400194563343, 35.187825251434276 ], [ 137.816376303623542, 35.187994693600274 ], [ 137.821972606650547, 35.203732135129997 ], [ 137.83106316523299, 35.205300468242058 ], [ 137.827786252433611, 35.211324360231117 ], [ 137.836981777187361, 35.21161102722715 ], [ 137.837292359854587, 35.2162140812149 ], [ 137.847337082040781, 35.221884359775459 ], [ 137.864804228332559, 35.222705467783157 ], [ 137.87254613479638, 35.218880197862916 ], [ 137.884891724773297, 35.236249640008907 ], [ 137.882465382671285, 35.248096305899821 ], [ 137.895425939855272, 35.257988504865637 ], [ 137.9184075229889, 35.254253532274731 ], [ 137.924902528429016, 35.260508774860114 ], [ 137.929252554561799, 35.275470170711856 ], [ 137.944021439737753, 35.27620517133164 ], [ 137.951890336769679, 35.28308153158747 ], [ 137.966556719017376, 35.282676802492517 ], [ 137.973658715577358, 35.293240667323005 ], [ 137.982357613113436, 35.29239344120441 ], [ 137.992093216728676, 35.301703973059944 ], [ 138.008705446799013, 35.30372674709173 ], [ 138.008947108122584, 35.303670640187931 ] ] ] ] } }
]
}
