{
"type": "FeatureCollection",
"name": "25_shiga_area",
"crs": { "type": "name", "properties": { "name": "urn:ogc:def:crs:OGC:1.3:CRS84" } },
"features": [
{ "type": "Feature", "properties": { "code": "250010", "name": "南部", "PrefCode": "25", "regioncode": "250010" }, "geometry": { "type": "Polygon", "coordinates": [ [ [ 136.121975836815523, 35.212695278664228 ], [ 136.133636394304176, 35.212567504786591 ], [ 136.141297781767321, 35.20664222525852 ], [ 136.1657188854183, 35.204969441286721 ], [ 136.177878611608662, 35.195059171343757 ], [ 136.191973061008071, 35.189983612653634 ], [ 136.195986109371461, 35.184584441019183 ], [ 136.196842218093934, 35.169663332996492 ], [ 136.20451841829049, 35.161542865011256 ], [ 136.204261672638154, 35.148049170832621 ], [ 136.210035837284181, 35.149263612625646 ], [ 136.21434583729058, 35.144767774912907 ], [ 136.216465006055273, 35.148053332895074 ], [ 136.226984448873282, 35.143511108151188 ], [ 136.232209441612554, 35.151749170587777 ], [ 136.228793061050965, 35.158261107564101 ], [ 136.233247224180104, 35.159656108043009 ], [ 136.246834721245477, 35.151002774658366 ], [ 136.248014720802757, 35.156091387007962 ], [ 136.25346250259247, 35.153202775387854 ], [ 136.258761945707306, 35.159202775088033 ], [ 136.281701388408464, 35.152452505179042 ], [ 136.303555279252805, 35.15771722457032 ], [ 136.321468054007596, 35.146224441005188 ], [ 136.31893027241415, 35.138618054279846 ], [ 136.325167497082361, 35.136925558967448 ], [ 136.333636938893733, 35.143441387310247 ], [ 136.340713332654218, 35.136056946071278 ], [ 136.354723606409379, 35.131103892130966 ], [ 136.359240558405077, 35.136491386967975 ], [ 136.364834162566581, 35.135076945844446 ], [ 136.379385278707673, 35.140344999921865 ], [ 136.391181945890139, 35.150932224642531 ], [ 136.390584448913273, 35.155047775034859 ], [ 136.380390000398279, 35.162181666950403 ], [ 136.374483890818965, 35.177224170858835 ], [ 136.376460558408098, 35.186021107987813 ], [ 136.38757194578875, 35.190771945768745 ], [ 136.388781673335643, 35.196646945999817 ], [ 136.403582503329972, 35.187488333020212 ], [ 136.419568054322326, 35.182645278756638 ], [ 136.424460830303133, 35.184510279325991 ], [ 136.454607781623849, 35.162063891735272 ], [ 136.454998340101383, 35.152414721062598 ], [ 136.444299169571082, 35.149244440878306 ], [ 136.442947781714793, 35.139057224711223 ], [ 136.435584720958218, 35.130778054263828 ], [ 136.448054721348399, 35.123718892413024 ], [ 136.439965836654096, 35.116632224797399 ], [ 136.441910830120833, 35.10143972116623 ], [ 136.438071946263335, 35.091671946103475 ], [ 136.442108885117023, 35.08597389198161 ], [ 136.435266666723351, 35.082487224905549 ], [ 136.441556393812562, 35.066304171100683 ], [ 136.417768885026135, 35.049468053907617 ], [ 136.417938612277226, 35.030659171283787 ], [ 136.424468884631438, 35.02940361338608 ], [ 136.421418611779586, 35.021436945658593 ], [ 136.417096938572968, 35.019517775325141 ], [ 136.421364449210046, 35.000056386892766 ], [ 136.413467496927524, 34.995376386910777 ], [ 136.416368885215888, 34.992265559108318 ], [ 136.415800830244166, 34.980529161791424 ], [ 136.403146109105705, 34.969152495091635 ], [ 136.395112776433507, 34.951635558734097 ], [ 136.385670830244635, 34.952648612643429 ], [ 136.372689728048613, 34.942257494987473 ], [ 136.375389441569496, 34.939010829086556 ], [ 136.371691387947294, 34.927595828784547 ], [ 136.375239727831286, 34.924509440957991 ], [ 136.367812218059498, 34.921900828760272 ], [ 136.366034163046265, 34.904898891870403 ], [ 136.346214162753427, 34.894733333176816 ], [ 136.313226109197672, 34.886972225287991 ], [ 136.312917782030127, 34.880627494763132 ], [ 136.292931673358112, 34.870309440728136 ], [ 136.277115279446662, 34.874213612668143 ], [ 136.268046938615385, 34.864546387206076 ], [ 136.250675006246638, 34.857728053906612 ], [ 136.19807444937635, 34.869862224961764 ], [ 136.190086938961144, 34.873318612763796 ], [ 136.188456939336334, 34.877775278706224 ], [ 136.178742503064086, 34.879815558940948 ], [ 136.1785461091157, 34.887117494576785 ], [ 136.165827224047234, 34.887917775185201 ], [ 136.147933333256788, 34.881865559048379 ], [ 136.136819169669025, 34.888388613443794 ], [ 136.131215836641559, 34.883105000195656 ], [ 136.115027496621792, 34.893145000041784 ], [ 136.115262217877103, 34.89862666738685 ], [ 136.110847782299402, 34.90185582888347 ], [ 136.101663061101476, 34.896086667166003 ], [ 136.098040271741183, 34.889255558996922 ], [ 136.087475005766919, 34.890621945746261 ], [ 136.085346109035754, 34.886861945922135 ], [ 136.089600271935069, 34.8825000001749 ], [ 136.08562083033712, 34.877246387410878 ], [ 136.10316666730796, 34.869693891659836 ], [ 136.123988339690186, 34.872486945815922 ], [ 136.125851946310377, 34.869951667035878 ], [ 136.122726108822917, 34.866488612559465 ], [ 136.126410558400607, 34.861851946410241 ], [ 136.107074449126571, 34.852563892209901 ], [ 136.104472502703857, 34.840581387321208 ], [ 136.086052503120641, 34.837597774917413 ], [ 136.095186938726329, 34.819104162227347 ], [ 136.090615550767097, 34.812226667027119 ], [ 136.062548885122965, 34.79976000042376 ], [ 136.057333891046255, 34.803740828776256 ], [ 136.051554449178525, 34.799091108068239 ], [ 136.046713332954027, 34.801447494606236 ], [ 136.038778611843554, 34.79403833280287 ], [ 136.021831115413761, 34.791626666737329 ], [ 136.015861672877918, 34.797813053629568 ], [ 136.01124722358054, 34.795861108403471 ], [ 136.010159169809867, 34.799724162440214 ], [ 136.016695551258749, 34.811070000380255 ], [ 136.028534721300389, 34.815919161939803 ], [ 136.027857781811235, 34.821664720950139 ], [ 136.016273333047934, 34.828911386951006 ], [ 136.012166108579095, 34.825173612971923 ], [ 136.005499999925064, 34.826407775098801 ], [ 136.002327781701865, 34.832761945807192 ], [ 136.003993333325752, 34.844341387145334 ], [ 135.969866667013093, 34.837778613292414 ], [ 135.972054448653921, 34.846048892142733 ], [ 135.962732775996869, 34.85043361322073 ], [ 135.96139917043547, 34.854659720869449 ], [ 135.946350558331687, 34.851630829399312 ], [ 135.940926938627399, 34.863890559301922 ], [ 135.943749170387946, 34.874961666947399 ], [ 135.939658884649816, 34.881382775095062 ], [ 135.941006938719283, 34.893683333319245 ], [ 135.923225837302653, 34.883617495051396 ], [ 135.912655551312696, 34.883516386971735 ], [ 135.90742250334597, 34.87401861266892 ], [ 135.897891387577488, 34.871267494799099 ], [ 135.88500194608298, 34.875546387256009 ], [ 135.88860111474969, 34.879879999862169 ], [ 135.886931387573554, 34.883205828586199 ], [ 135.866637224228612, 34.892140279250555 ], [ 135.862933605601484, 34.903387225040433 ], [ 135.871178340108372, 34.909948613038125 ], [ 135.868654449443397, 34.919524999778957 ], [ 135.879924449353894, 34.93452499992884 ], [ 135.876028339836125, 34.943229720575175 ], [ 135.878747781784796, 34.947045278716701 ], [ 135.874203890597187, 34.955018053740218 ], [ 135.863878339813596, 34.957601666583685 ], [ 135.852437781678304, 34.970788891594111 ], [ 135.856695279263818, 34.982457495317192 ], [ 135.849117782359826, 34.984812495100641 ], [ 135.849267223603533, 34.991733891605861 ], [ 135.826904721175993, 34.991203892345823 ], [ 135.832357496901068, 35.000835278925024 ], [ 135.836558884884653, 35.001226386888277 ], [ 135.832681672820968, 35.009425279353195 ], [ 135.824279441842805, 35.008717225119881 ], [ 135.820239170101672, 35.015194441070662 ], [ 135.835464162641074, 35.012328612875251 ], [ 135.834517781770273, 35.022080558970686 ], [ 135.82737444877182, 35.022132775407329 ], [ 135.827739442221514, 35.030378613382368 ], [ 135.814757497360688, 35.045199721290146 ], [ 135.83485250314061, 35.055553892098487 ], [ 135.831891945756752, 35.07145555882704 ], [ 135.839850272272315, 35.08586000003902 ], [ 135.835046109190671, 35.091326946381514 ], [ 135.842938340032447, 35.102515000067228 ], [ 135.85017232199516, 35.123444907656392 ], [ 135.873028884075779, 35.119138615554732 ], [ 135.879628884465546, 35.12163861572958 ], [ 135.89882888404577, 35.119238615669644 ], [ 135.898328884370585, 35.128038615889466 ], [ 135.894928884060846, 35.128038615889466 ], [ 135.890828884745247, 35.136438615649638 ], [ 135.892628884115766, 35.142938615924436 ], [ 135.910481786505329, 35.148625452802435 ], [ 135.916520255605406, 35.138507331548169 ], [ 135.940254553305067, 35.137524440900279 ], [ 135.95931133584952, 35.147213251890093 ], [ 135.972563891210712, 35.18097977479681 ], [ 135.995847249950657, 35.190206864854986 ], [ 136.010823410871808, 35.224862441348648 ], [ 136.026869363930018, 35.239293801967449 ], [ 136.078912750323184, 35.260874720691845 ], [ 136.083699754340273, 35.258851387281766 ], [ 136.085233191058933, 35.251843108172977 ], [ 136.112116667250461, 35.216438053773231 ], [ 136.121349170328017, 35.212804720761312 ], [ 136.121975836815523, 35.212695278664228 ] ] ] } },
{ "type": "Feature", "properties": { "code": "250020", "name": "北部", "PrefCode": "25", "regioncode": "250020" }, "geometry": { "type": "Polygon", "coordinates": [ [ [ 136.176024162784984, 35.702951748324551 ], [ 136.191252528681275, 35.70240477615954 ], [ 136.198298611691598, 35.689716171264365 ], [ 136.208348611998872, 35.687587802435189 ], [ 136.212608339902999, 35.681701108319544 ], [ 136.217203332367944, 35.684576107801206 ], [ 136.225946978370416, 35.680548865437856 ], [ 136.234231997109077, 35.682517413947551 ], [ 136.244649805743961, 35.673788225446287 ], [ 136.250662334799017, 35.676245134605324 ], [ 136.269359883152106, 35.668727838319114 ], [ 136.280576860833548, 35.661193918964216 ], [ 136.276225939875303, 35.653080333490664 ], [ 136.283103139198602, 35.643736441283806 ], [ 136.279164188676418, 35.636685640430017 ], [ 136.287344746662825, 35.62809953226764 ], [ 136.288559415984309, 35.620588170607618 ], [ 136.298398054027075, 35.617476467764845 ], [ 136.315764811696795, 35.623424504637228 ], [ 136.321710636236958, 35.618678945876695 ], [ 136.32318089468265, 35.615133667284965 ], [ 136.314981673965121, 35.60592953242201 ], [ 136.320309999706751, 35.601553414258717 ], [ 136.324449390227187, 35.584180080746194 ], [ 136.32267041520754, 35.569467612740198 ], [ 136.316231192915325, 35.556923748332395 ], [ 136.317806446310556, 35.547138467965965 ], [ 136.32244319070071, 35.544356080668649 ], [ 136.329564111694481, 35.550917667416456 ], [ 136.33732014380962, 35.550254531621363 ], [ 136.34092788481405, 35.537283413698617 ], [ 136.345976809182503, 35.536128107726029 ], [ 136.356662140045842, 35.539914467578683 ], [ 136.362640271831197, 35.558746387236056 ], [ 136.372800583879894, 35.559723333365184 ], [ 136.384252775645109, 35.533091333698167 ], [ 136.400404500667264, 35.53008183790655 ], [ 136.399056978097178, 35.521342666930593 ], [ 136.405677807684697, 35.513455413836311 ], [ 136.400071114790194, 35.513639334187985 ], [ 136.394094941728213, 35.506323252216362 ], [ 136.386718715796178, 35.488809720692132 ], [ 136.398005356761814, 35.480928613564743 ], [ 136.401619467664318, 35.470016999784775 ], [ 136.420538611667666, 35.465962000745776 ], [ 136.426222698418883, 35.448400973326329 ], [ 136.423119027421194, 35.439734359653016 ], [ 136.415729001392378, 35.43342241391332 ], [ 136.418886744128031, 35.427775505135514 ], [ 136.411839493797629, 35.422406080376334 ], [ 136.411808078679996, 35.418598054056986 ], [ 136.420306109039757, 35.412908054263369 ], [ 136.427965226613992, 35.400784505100887 ], [ 136.444351284384311, 35.389184559220098 ], [ 136.436483995340154, 35.378822918642811 ], [ 136.411973994604182, 35.370064865501206 ], [ 136.413528417902285, 35.359972919015036 ], [ 136.409727030378235, 35.356967667124195 ], [ 136.410559494125437, 35.352543505378549 ], [ 136.421423112886373, 35.35391683669269 ], [ 136.422325058254842, 35.348389613290067 ], [ 136.411427249967687, 35.329014081334833 ], [ 136.412264162661018, 35.315562693963216 ], [ 136.406847781599936, 35.305264387241721 ], [ 136.39103163410266, 35.289969386977702 ], [ 136.395960803848084, 35.280229386576991 ], [ 136.39354136224415, 35.261912999685251 ], [ 136.396962190852491, 35.257731332934725 ], [ 136.377266641442361, 35.24326746721988 ], [ 136.385685525166878, 35.235114693788148 ], [ 136.392049689141913, 35.234180532006008 ], [ 136.392471919943205, 35.229819694223579 ], [ 136.408388832878359, 35.223621919216271 ], [ 136.416799389780067, 35.2143888648543 ], [ 136.418002476733022, 35.203777747844867 ], [ 136.409433890961395, 35.187661108073712 ], [ 136.403318885058525, 35.187589999578847 ], [ 136.389084720583469, 35.196795837757747 ], [ 136.38757194578875, 35.190771945768745 ], [ 136.376460558408098, 35.186021107987813 ], [ 136.375919441728911, 35.169512774794782 ], [ 136.391181945890139, 35.150932224642531 ], [ 136.379385278707673, 35.140344999921865 ], [ 136.364834162566581, 35.135076945844446 ], [ 136.359240558405077, 35.136491386967975 ], [ 136.354723606409379, 35.131103892130966 ], [ 136.340713332654218, 35.136056946071278 ], [ 136.333636938893733, 35.143441387310247 ], [ 136.325167497082361, 35.136925558967448 ], [ 136.31893027241415, 35.138618054279846 ], [ 136.321468054007596, 35.146224441005188 ], [ 136.303555279252805, 35.15771722457032 ], [ 136.281701388408464, 35.152452505179042 ], [ 136.258761945707306, 35.159202775088033 ], [ 136.25346250259247, 35.153202775387854 ], [ 136.248014720802757, 35.156091387007962 ], [ 136.246834721245477, 35.151002774658366 ], [ 136.233247224180104, 35.159656108043009 ], [ 136.228793061050965, 35.158261107564101 ], [ 136.232209441612554, 35.151749170587777 ], [ 136.226984448873282, 35.143511108151188 ], [ 136.216465006055273, 35.148053332895074 ], [ 136.21434583729058, 35.144767774912907 ], [ 136.210035837284181, 35.149263612625646 ], [ 136.204261672638154, 35.148049170832621 ], [ 136.20451841829049, 35.161542865011256 ], [ 136.196842218093934, 35.169663332996492 ], [ 136.195986109371461, 35.184584441019183 ], [ 136.191973061008071, 35.189983612653634 ], [ 136.177878611608662, 35.195059171343757 ], [ 136.1657188854183, 35.204969441286721 ], [ 136.141297781767321, 35.20664222525852 ], [ 136.133636394304176, 35.212567504786591 ], [ 136.112116667250461, 35.216438053773231 ], [ 136.085233191058933, 35.251843108172977 ], [ 136.083699754340273, 35.258851387281766 ], [ 136.078912750323184, 35.260874720691845 ], [ 136.026869363930018, 35.239293801967449 ], [ 136.016299416085303, 35.231278945866734 ], [ 135.995847249950657, 35.190206864854986 ], [ 135.972563891210712, 35.18097977479681 ], [ 135.95931133584952, 35.147213251890093 ], [ 135.940254553305067, 35.137524440900279 ], [ 135.916520255605406, 35.138507331548169 ], [ 135.910481786505329, 35.148625452802435 ], [ 135.892628884115766, 35.142938615924436 ], [ 135.890828884745247, 35.136438615649638 ], [ 135.894928884060846, 35.128038615889466 ], [ 135.898328884370585, 35.128038615889466 ], [ 135.89882888404577, 35.119238615669644 ], [ 135.879628884465546, 35.12163861572958 ], [ 135.873028884075779, 35.119138615554732 ], [ 135.85017232199516, 35.123444907656392 ], [ 135.852294162645535, 35.134266946262585 ], [ 135.848767782407322, 35.142184721447791 ], [ 135.85686055756878, 35.156971945598855 ], [ 135.845390558327722, 35.165357774741551 ], [ 135.840213060584347, 35.181914441098627 ], [ 135.841908054213377, 35.189839721126305 ], [ 135.82930805412343, 35.220346386876315 ], [ 135.83805639368768, 35.226105000445443 ], [ 135.834526108593082, 35.241119171212858 ], [ 135.839923605689933, 35.243851108342028 ], [ 135.846089169679544, 35.257112225249045 ], [ 135.844673061212916, 35.261985279097416 ], [ 135.854933332907081, 35.271421666576714 ], [ 135.860755279432624, 35.282959999904108 ], [ 135.857084449188051, 35.289040559074579 ], [ 135.849203060572904, 35.279693891559873 ], [ 135.840081673230657, 35.275554170988244 ], [ 135.829623333050449, 35.27673527940965 ], [ 135.820094720994689, 35.290794720899726 ], [ 135.821366938833194, 35.297057224611251 ], [ 135.810158885124565, 35.309183891723251 ], [ 135.809289999733778, 35.316432774552936 ], [ 135.79113639372963, 35.323527504590743 ], [ 135.780818521357787, 35.340561972656985 ], [ 135.76407275005738, 35.344557531904627 ], [ 135.769943942558939, 35.359811134576262 ], [ 135.777749000316135, 35.365939197735827 ], [ 135.778958753943357, 35.373366134639468 ], [ 135.79088605574691, 35.379025027782859 ], [ 135.790893580374473, 35.386638919350673 ], [ 135.807529196415317, 35.385361721066602 ], [ 135.81365775600068, 35.413300864643247 ], [ 135.853202554354425, 35.411536973052932 ], [ 135.854338949383077, 35.400778360033314 ], [ 135.864691088622862, 35.394400027239499 ], [ 135.89057007784686, 35.403175000226156 ], [ 135.892981504692784, 35.419847504658662 ], [ 135.902711192567494, 35.429433053692549 ], [ 135.91416224399245, 35.432106107710752 ], [ 135.913172282874598, 35.44509694596735 ], [ 135.90978230910639, 35.447045559205264 ], [ 135.914586472188034, 35.451861387393137 ], [ 135.915943450230088, 35.470904693596765 ], [ 135.921662309268186, 35.47595080218781 ], [ 135.924409274068807, 35.48956553162401 ], [ 135.930025667950304, 35.492337198103257 ], [ 135.939647081947328, 35.520542747849561 ], [ 135.947022360893357, 35.520475531620548 ], [ 135.952370077816909, 35.506221359927849 ], [ 135.972600584449424, 35.500189694199094 ], [ 135.981159105008715, 35.486556667156492 ], [ 135.989506887432981, 35.492681945115748 ], [ 136.004342969952177, 35.490971108130168 ], [ 136.011446031309333, 35.497049721167741 ], [ 136.015138832890898, 35.51164833320405 ], [ 136.020306615258164, 35.5120255592322 ], [ 136.028842166233062, 35.523428081440841 ], [ 136.026532476992315, 35.529496694017269 ], [ 136.046376860603687, 35.530175585934614 ], [ 136.048617445039099, 35.534512559307245 ], [ 136.069436523776631, 35.526266722231526 ], [ 136.077046809063063, 35.530541440934826 ], [ 136.082907081996268, 35.540577586286645 ], [ 136.106454500574841, 35.528988693973076 ], [ 136.10944785983088, 35.544960360332425 ], [ 136.105435693702361, 35.555550107651413 ], [ 136.110440973072514, 35.55972289179806 ], [ 136.10793905284504, 35.568296774576538 ], [ 136.112926588591222, 35.573961224630864 ], [ 136.113838275416128, 35.582898440710494 ], [ 136.12120238658099, 35.576204278604621 ], [ 136.138904306288737, 35.575672306231979 ], [ 136.144889558906129, 35.570554250977978 ], [ 136.16231649830786, 35.571493108120478 ], [ 136.169526200373866, 35.565676694224123 ], [ 136.170672891740651, 35.575618918878035 ], [ 136.166384331571749, 35.582480586010263 ], [ 136.177417199144543, 35.594850251737796 ], [ 136.176807755573577, 35.598448027354607 ], [ 136.166889830601235, 35.618624973064129 ], [ 136.159865966241455, 35.625227747862311 ], [ 136.15989299626483, 35.634839945607041 ], [ 136.151230025745122, 35.648964387396632 ], [ 136.150162580838469, 35.659381026912911 ], [ 136.134474888905061, 35.66957713467707 ], [ 136.14890494280894, 35.688420413671224 ], [ 136.150552503495305, 35.697940973197433 ], [ 136.156753891079234, 35.700368720939764 ], [ 136.164833306811715, 35.696311225382772 ], [ 136.16775333265025, 35.703343171050562 ], [ 136.175776394165268, 35.703177306387659 ], [ 136.176024162784984, 35.702951748324551 ] ] ] } }
]
}
