{
"type": "FeatureCollection",
"name": "29_nara_area",
"crs": { "type": "name", "properties": { "name": "urn:ogc:def:crs:OGC:1.3:CRS84" } },
"features": [
{ "type": "Feature", "properties": { "code": "290010", "name": "北部", "PrefCode": "29", "regioncode": "290010" }, "geometry": { "type": "Polygon", "coordinates": [ [ [ 135.712533061351792, 34.780741666594679 ], [ 135.720717497214764, 34.774460829303905 ], [ 135.729162502647455, 34.777455279437675 ], [ 135.733201672719133, 34.754879161943848 ], [ 135.736636108969265, 34.755302775003088 ], [ 135.736395006124667, 34.749966667427827 ], [ 135.74716722408823, 34.746465279349195 ], [ 135.756956394022382, 34.73611582908228 ], [ 135.755513606267982, 34.727531945842657 ], [ 135.777726666552439, 34.723108892061759 ], [ 135.791396108943331, 34.724882495430847 ], [ 135.796273061352736, 34.720543612797542 ], [ 135.799155278793137, 34.723110278816364 ], [ 135.812085278812674, 34.71758944060025 ], [ 135.810284449367941, 34.714489721223686 ], [ 135.819968054182368, 34.711661107873908 ], [ 135.83181555104693, 34.713415278692196 ], [ 135.849015551026923, 34.705972225038181 ], [ 135.863740558280256, 34.706353333439665 ], [ 135.87613749684806, 34.713877495150314 ], [ 135.885158884974658, 34.713620279152622 ], [ 135.890171115204907, 34.708315558816025 ], [ 135.89738639396694, 34.730871946083482 ], [ 135.903020830047353, 34.732915829002366 ], [ 135.916156109317058, 34.753686386617517 ], [ 135.920971114625331, 34.752996387173596 ], [ 135.924417224075682, 34.757672494889789 ], [ 135.929008612057828, 34.75668222530453 ], [ 135.92313194628241, 34.744794161821176 ], [ 135.92556917018112, 34.740339441112383 ], [ 135.942895836973321, 34.737491945596844 ], [ 135.95477500616164, 34.748297774822504 ], [ 135.958649442018213, 34.740261666842514 ], [ 135.965988612284718, 34.743186945621119 ], [ 135.976109169802385, 34.741140828786286 ], [ 135.983798885010629, 34.734232494933735 ], [ 135.986255006363535, 34.715195000149208 ], [ 135.992149727827723, 34.712153054120222 ], [ 136.009322502631449, 34.716614161814164 ], [ 136.013866108733964, 34.707798892005314 ], [ 136.028764721115067, 34.706313613082841 ], [ 136.028893890740505, 34.713246108121439 ], [ 136.039474162802435, 34.720155558931936 ], [ 136.043003891216699, 34.736109999676785 ], [ 136.055476394420111, 34.738555559391614 ], [ 136.068084448838363, 34.723825559102295 ], [ 136.067295005959863, 34.717589999978543 ], [ 136.071079169667996, 34.714753612888956 ], [ 136.053706393735183, 34.704488332870312 ], [ 136.059662502922265, 34.699819161625044 ], [ 136.074932776326591, 34.697864441091156 ], [ 136.086459441849797, 34.675256386872832 ], [ 136.077780830321103, 34.658760558752817 ], [ 136.070425837382572, 34.657683054029746 ], [ 136.064408884562454, 34.651926107803661 ], [ 136.040107224368967, 34.662828892039784 ], [ 136.050474448836781, 34.652296386569049 ], [ 136.064846393946027, 34.651564440946231 ], [ 136.073565278914543, 34.634813054279107 ], [ 136.0688583397407, 34.62230361322122 ], [ 136.062466938898183, 34.619957774831505 ], [ 136.046568339757187, 34.600557495332168 ], [ 136.052141388114592, 34.593058332975716 ], [ 136.0506522178257, 34.586913612573198 ], [ 136.046467223583591, 34.585364161626785 ], [ 136.052178885347303, 34.57856833296222 ], [ 136.058715836966371, 34.577655279167857 ], [ 136.060177496993902, 34.569638612731865 ], [ 136.064673606301994, 34.567201387034459 ], [ 136.071355278623287, 34.567727225131364 ], [ 136.091800000169883, 34.556844440918269 ], [ 136.106996394268208, 34.556308053773705 ], [ 136.097767781657808, 34.540759162305562 ], [ 136.102240829650668, 34.537171945628813 ], [ 136.101962217882146, 34.527889999623824 ], [ 136.089849441698448, 34.526049721417564 ], [ 136.088508340287717, 34.521049721067811 ], [ 136.09336306055684, 34.516365279334252 ], [ 136.08611138803019, 34.509967225307264 ], [ 136.087685551447066, 34.505256386672954 ], [ 136.080029999684825, 34.493683891698311 ], [ 136.068638885376345, 34.488502775083077 ], [ 136.072692775551218, 34.47713305384741 ], [ 136.037630272019555, 34.479633054022258 ], [ 136.049979999777179, 34.470359162345517 ], [ 136.042015279081966, 34.463054721198489 ], [ 136.030373605557543, 34.455831945687805 ], [ 136.013136394329194, 34.45365333263527 ], [ 136.007144448957206, 34.443566945757993 ], [ 135.992333333416695, 34.44426694566306 ], [ 135.97550833993796, 34.43659277523642 ], [ 135.979511387840375, 34.42893027890932 ], [ 135.958285837121707, 34.414578332923782 ], [ 135.959588339630272, 34.405745000231605 ], [ 135.938838339617746, 34.397082494661447 ], [ 135.937402217638351, 34.389440278945756 ], [ 135.941868884941186, 34.386102494634486 ], [ 135.941402217738187, 34.381592224601548 ], [ 135.932739442371485, 34.369314721397302 ], [ 135.921841946149016, 34.376419999583391 ], [ 135.925119441708944, 34.364950279132131 ], [ 135.912253605619412, 34.363292494952759 ], [ 135.880433060937094, 34.333191386573276 ], [ 135.876429170369988, 34.334379999837154 ], [ 135.875531946442266, 34.341925828913929 ], [ 135.867950829767096, 34.345788613154014 ], [ 135.858997782022129, 34.341345278761651 ], [ 135.852517781770302, 34.329977224869083 ], [ 135.836137496748165, 34.331773612562245 ], [ 135.821620830037318, 34.322987774865965 ], [ 135.814986667101039, 34.311934999900359 ], [ 135.823789727713802, 34.304430278834332 ], [ 135.82003749713283, 34.295841387270286 ], [ 135.821518612194268, 34.277081107607103 ], [ 135.840193333055936, 34.272602775197981 ], [ 135.8450461089908, 34.265205559089338 ], [ 135.82043194607752, 34.251921108372528 ], [ 135.816500830449058, 34.240385829142724 ], [ 135.790337223783922, 34.231524720889183 ], [ 135.78610639379508, 34.238741666994372 ], [ 135.77335583730212, 34.241311108321042 ], [ 135.748249545580165, 34.232066301618602 ], [ 135.740709827396699, 34.233882245968914 ], [ 135.730101166435702, 34.228252930628287 ], [ 135.716214721232518, 34.265582494636476 ], [ 135.692469441911271, 34.278271945793733 ], [ 135.689212776448585, 34.271554162094958 ], [ 135.680593333115894, 34.270735829395051 ], [ 135.672684448628502, 34.281571386610267 ], [ 135.675414721112588, 34.290359999614338 ], [ 135.667248611634136, 34.300615000382038 ], [ 135.668125278858611, 34.325748054129463 ], [ 135.660094720594998, 34.326940828556417 ], [ 135.663525278968564, 34.355443892022038 ], [ 135.651400557989405, 34.379510829161461 ], [ 135.651128611995887, 34.383206387165103 ], [ 135.663615278622274, 34.397120829162986 ], [ 135.676227496901561, 34.400241107940815 ], [ 135.680093060946092, 34.409198612725845 ], [ 135.677305006121173, 34.413828053721772 ], [ 135.669421945666272, 34.413675278691187 ], [ 135.664285278942543, 34.423226666977143 ], [ 135.678979169653076, 34.432761108438456 ], [ 135.686978053794178, 34.451460828654376 ], [ 135.681918340259244, 34.461041387350178 ], [ 135.681211946174471, 34.480234999945367 ], [ 135.684726109122721, 34.485416107567346 ], [ 135.680489727618919, 34.488956386827851 ], [ 135.678301388398381, 34.499499721035363 ], [ 135.673019727578435, 34.502788054325322 ], [ 135.677526108942857, 34.509743053998818 ], [ 135.677143605692891, 34.525161666977397 ], [ 135.669988884579425, 34.530648892132717 ], [ 135.662286666996124, 34.530041107810916 ], [ 135.659496666937684, 34.54389082919846 ], [ 135.653650829921958, 34.541403891676339 ], [ 135.650284720563491, 34.544111946409259 ], [ 135.655773060878118, 34.549199162111677 ], [ 135.656922775765565, 34.562279721232187 ], [ 135.672993890955354, 34.570629721384591 ], [ 135.671544720712404, 34.579911108011288 ], [ 135.681744449147118, 34.58486166723219 ], [ 135.677079727747355, 34.589200828655351 ], [ 135.675693891360083, 34.601738892436003 ], [ 135.653216939410299, 34.6032608286244 ], [ 135.650121388391426, 34.607832775062548 ], [ 135.659097496552249, 34.614817775220217 ], [ 135.664321387621953, 34.651294999564641 ], [ 135.678704720846213, 34.677759441145326 ], [ 135.673098054032039, 34.690146107656801 ], [ 135.673018612419128, 34.70163610782015 ], [ 135.704135550914998, 34.723781108311528 ], [ 135.696793332846141, 34.743694999624608 ], [ 135.697978884817758, 34.749661387163314 ], [ 135.706657782330808, 34.7485488916181 ], [ 135.710100557994451, 34.753555278953002 ], [ 135.710042218074022, 34.771514440738883 ], [ 135.706593333315709, 34.772451108032271 ], [ 135.712453606249028, 34.780812775089544 ], [ 135.712533061351792, 34.780741666594679 ] ] ] } },
{ "type": "Feature", "properties": { "code": "290020", "name": "南部", "PrefCode": "29", "regioncode": "290020" }, "geometry": { "type": "Polygon", "coordinates": [ [ [ 136.139602776447077, 34.559258892184175 ], [ 136.150355837052302, 34.555204440832313 ], [ 136.150964162765945, 34.559052225280027 ], [ 136.155575550771118, 34.559666946072753 ], [ 136.161765006150176, 34.548537774598685 ], [ 136.159773890952351, 34.546711667009902 ], [ 136.171000271945104, 34.537449999817682 ], [ 136.167141945644289, 34.524072495349458 ], [ 136.171824720934183, 34.518150558601462 ], [ 136.182116666750858, 34.516751108277049 ], [ 136.189784720888269, 34.523957224746198 ], [ 136.216406938629348, 34.528355000382987 ], [ 136.219479170227601, 34.510533333246769 ], [ 136.214667224412892, 34.501311945789723 ], [ 136.229863605920741, 34.492871107815404 ], [ 136.215559727799246, 34.481153053970331 ], [ 136.206247782209402, 34.44867749527026 ], [ 136.188521945931143, 34.450604999621078 ], [ 136.177509727691813, 34.445434720735818 ], [ 136.158427223637545, 34.449078332998738 ], [ 136.151436666568998, 34.441853332565302 ], [ 136.129669441591545, 34.445504721265934 ], [ 136.118293890950326, 34.442883053610103 ], [ 136.111255278608269, 34.435704162317279 ], [ 136.095898054251847, 34.435221667046335 ], [ 136.088653891064268, 34.42863333266223 ], [ 136.090265005825472, 34.41604249486528 ], [ 136.077998340351201, 34.407852494896758 ], [ 136.074988885029029, 34.398366667187986 ], [ 136.069096667277449, 34.394101386869579 ], [ 136.069593060671309, 34.388901666878496 ], [ 136.08202722397732, 34.383591666622181 ], [ 136.089360557643658, 34.374344440743414 ], [ 136.090544162583114, 34.362823333030462 ], [ 136.095359442184531, 34.360209440913025 ], [ 136.102104720856232, 34.336361666757568 ], [ 136.109230830038882, 34.32910694642851 ], [ 136.121554448678921, 34.32618555901638 ], [ 136.129505279345267, 34.316174440897782 ], [ 136.111646108681043, 34.305013892077511 ], [ 136.100360000113938, 34.305540559349367 ], [ 136.094903606416324, 34.301451108182164 ], [ 136.097829441875319, 34.288821945776249 ], [ 136.111986666651433, 34.280736107985035 ], [ 136.120548054249412, 34.270171666689123 ], [ 136.118063606050669, 34.26059638701372 ], [ 136.131849442297948, 34.251896386908754 ], [ 136.130305836944899, 34.242873054447955 ], [ 136.12259999959042, 34.239780559325425 ], [ 136.115782217575315, 34.229624721403809 ], [ 136.109687781865659, 34.228102775322895 ], [ 136.109650272042472, 34.224221386807585 ], [ 136.117298339646709, 34.223110000126439 ], [ 136.118245005602603, 34.21428027911162 ], [ 136.097576109150168, 34.202471667133807 ], [ 136.092652502610918, 34.190183053705027 ], [ 136.109007781983564, 34.184995559097842 ], [ 136.104504720916225, 34.173414999902377 ], [ 136.114692217671745, 34.160816386567035 ], [ 136.105685837431565, 34.152516946300068 ], [ 136.106521387652037, 34.144580279056697 ], [ 136.101949169618592, 34.14132944120081 ], [ 136.108404449305908, 34.126784441348946 ], [ 136.099404448856262, 34.118852494646944 ], [ 136.104060829943364, 34.115104161727743 ], [ 136.103975836815493, 34.106584999997779 ], [ 136.107865837238705, 34.103195829324136 ], [ 136.102263890965901, 34.096139720671601 ], [ 136.118648612343691, 34.082316945670584 ], [ 136.097750000262408, 34.086743891717276 ], [ 136.093287781905701, 34.082756386797882 ], [ 136.096830557684143, 34.078603892255899 ], [ 136.093373061018042, 34.065999441421127 ], [ 136.097135837049336, 34.057661108173647 ], [ 136.092032217712699, 34.048335278850118 ], [ 136.101353332790154, 34.039192494837835 ], [ 136.104139442381438, 34.025867224792648 ], [ 136.096520830272198, 34.02242889178001 ], [ 136.085855279097927, 34.028768891870925 ], [ 136.07845722392176, 34.028519161829934 ], [ 136.072843891332582, 34.033830558733371 ], [ 136.062653333284743, 34.032246946139708 ], [ 136.054751673051328, 34.035646666760329 ], [ 136.052521946130923, 34.03212555924722 ], [ 136.044101387868864, 34.035833332742186 ], [ 136.043459170304573, 34.040682774890229 ], [ 136.039741388254583, 34.036349441073924 ], [ 136.03750194595807, 34.0409241619206 ], [ 136.031727782211419, 34.031867225392205 ], [ 136.019630829599123, 34.036793054156192 ], [ 136.002489170438935, 34.006991386743152 ], [ 135.990683061274353, 34.003534721050585 ], [ 135.985022218400673, 33.991838892151179 ], [ 135.97460306078267, 33.985966667227956 ], [ 135.947261388102675, 33.980666108054493 ], [ 135.941404448956177, 33.975690278783418 ], [ 135.938542775628662, 33.981026666947173 ], [ 135.921911945779698, 33.978401946093015 ], [ 135.915674448616983, 33.972591946161458 ], [ 135.915021946405773, 33.966068891765985 ], [ 135.90666749730724, 33.963079162173642 ], [ 135.904681672820971, 33.955532494928775 ], [ 135.897257224341502, 33.954212774899702 ], [ 135.892449169893325, 33.945824441145078 ], [ 135.899210558120785, 33.925257224741188 ], [ 135.909731387693455, 33.922696945707514 ], [ 135.909083606023614, 33.918474440742898 ], [ 135.894351673091251, 33.920592224551569 ], [ 135.897849999877621, 33.912292224906309 ], [ 135.892853605809364, 33.906224999983806 ], [ 135.88216972825046, 33.907826667366862 ], [ 135.880428054411254, 33.9177855591563 ], [ 135.865757781696288, 33.921938613076577 ], [ 135.868947497129398, 33.914296667157487 ], [ 135.858812217709783, 33.901477225293775 ], [ 135.859734449085636, 33.889127775426573 ], [ 135.871621945996026, 33.888651107762485 ], [ 135.882688054310279, 33.878870829425296 ], [ 135.873309441977199, 33.870447494955954 ], [ 135.873111115385768, 33.859041387150342 ], [ 135.862185837306583, 33.862721386882527 ], [ 135.862122218365698, 33.876548892317601 ], [ 135.85792111456783, 33.873152775280403 ], [ 135.853425006159227, 33.876741946183927 ], [ 135.855289441954255, 33.887816667305401 ], [ 135.851328340230793, 33.894316108201906 ], [ 135.836056394087336, 33.895515278607263 ], [ 135.808602775597706, 33.906468054357276 ], [ 135.803361673302675, 33.902981107592097 ], [ 135.801680000431702, 33.895707495204817 ], [ 135.777653333134936, 33.888184440559542 ], [ 135.766058339820574, 33.890792225380949 ], [ 135.756115006302593, 33.885165000064774 ], [ 135.751808611678143, 33.889557494882524 ], [ 135.742243890942859, 33.89005333339469 ], [ 135.724109999876646, 33.903287774611158 ], [ 135.685957781926163, 33.903954999623579 ], [ 135.678710558345642, 33.898169161777446 ], [ 135.670956939111534, 33.900407495209777 ], [ 135.660604449136031, 33.897565559303189 ], [ 135.662204449176102, 33.889083053939828 ], [ 135.647988054405232, 33.876897775312159 ], [ 135.638070830004835, 33.877721666721584 ], [ 135.617859999639336, 33.87210722526828 ], [ 135.626567497392102, 33.88336110842846 ], [ 135.622872218178372, 33.897958613399339 ], [ 135.606203061022484, 33.899118891723504 ], [ 135.599973605597484, 33.908336108124956 ], [ 135.610529999759706, 33.91332833293626 ], [ 135.614135836899436, 33.925352775010595 ], [ 135.609459442299453, 33.932075828736572 ], [ 135.61122111526231, 33.936867225042477 ], [ 135.617126393868034, 33.937314162018993 ], [ 135.616931672658666, 33.953816387016673 ], [ 135.62837027207047, 33.949471945673793 ], [ 135.637231115023951, 33.950648613242947 ], [ 135.635615278822115, 33.958869441071897 ], [ 135.640320271863175, 33.967419721143244 ], [ 135.638676108815389, 33.985149440694158 ], [ 135.624211115350704, 34.000208612637437 ], [ 135.625358340015396, 34.00706416168174 ], [ 135.622193060961081, 34.009668333027207 ], [ 135.61209500627956, 34.0101288920348 ], [ 135.608468339941965, 34.013618891998306 ], [ 135.593848885217994, 34.01298082930191 ], [ 135.591545836571186, 34.019563053692025 ], [ 135.599660271904099, 34.03201944104444 ], [ 135.594408053988559, 34.044267774738046 ], [ 135.587662502822354, 34.046907224688709 ], [ 135.580489727818758, 34.057910278836346 ], [ 135.567062218346791, 34.057346108036484 ], [ 135.563393060841122, 34.063385278607768 ], [ 135.55250111523435, 34.065344720582459 ], [ 135.539844448862254, 34.075181667000379 ], [ 135.543195551233794, 34.081881108126709 ], [ 135.549793061400692, 34.084984720668388 ], [ 135.547286938641378, 34.100329162061257 ], [ 135.558407497308167, 34.103389440770115 ], [ 135.557343333128415, 34.108128054066469 ], [ 135.565211388394914, 34.112551386637222 ], [ 135.578435551259759, 34.115813892297354 ], [ 135.59032083044201, 34.14866722471271 ], [ 135.621918339659715, 34.158421667326138 ], [ 135.620603061382212, 34.168520829073032 ], [ 135.62856888464637, 34.17688777515076 ], [ 135.63775055804183, 34.179372225148143 ], [ 135.644903333022512, 34.188456667441301 ], [ 135.634131115058949, 34.198274441212561 ], [ 135.634443606087643, 34.204458891864419 ], [ 135.648078054059056, 34.218986387311986 ], [ 135.655289442353933, 34.216276107656313 ], [ 135.667817224185569, 34.224193613044861 ], [ 135.67769360587522, 34.223436107790178 ], [ 135.708033605666401, 34.208197225221795 ], [ 135.727475550756139, 34.220726667201973 ], [ 135.729182217585389, 34.227754720603912 ], [ 135.740709827396699, 34.233882245968914 ], [ 135.748249545580165, 34.232066301618602 ], [ 135.778930829993897, 34.241238613071573 ], [ 135.78610639379508, 34.238741666994372 ], [ 135.790337223783922, 34.231524720889183 ], [ 135.816500830449058, 34.240385829142724 ], [ 135.820213060984088, 34.251727774817027 ], [ 135.845103606246539, 34.266131946232406 ], [ 135.836258053566439, 34.274469721000855 ], [ 135.821518612194268, 34.277081107607103 ], [ 135.82003749713283, 34.295841387270286 ], [ 135.823789727713802, 34.304430278834332 ], [ 135.814986667101039, 34.311934999900359 ], [ 135.821620830037318, 34.322987774865965 ], [ 135.836137496748165, 34.331773612562245 ], [ 135.852517781770302, 34.329977224869083 ], [ 135.858997782022129, 34.341345278761651 ], [ 135.867950829767096, 34.345788613154014 ], [ 135.875531946442266, 34.341925828913929 ], [ 135.876429170369988, 34.334379999837154 ], [ 135.880371673214199, 34.333155559381623 ], [ 135.912253605619412, 34.363292494952759 ], [ 135.925119441708944, 34.364950279132131 ], [ 135.921841946149016, 34.376419999583391 ], [ 135.932739442371485, 34.369314721397302 ], [ 135.941402217738187, 34.381592224601548 ], [ 135.941868884941186, 34.386102494634486 ], [ 135.937402217638351, 34.389440278945756 ], [ 135.938838339617746, 34.397082494661447 ], [ 135.959588339630272, 34.405745000231605 ], [ 135.958285837121707, 34.414578332923782 ], [ 135.979511387840375, 34.42893027890932 ], [ 135.97550833993796, 34.43659277523642 ], [ 135.992333333416695, 34.44426694566306 ], [ 136.007144448957206, 34.443566945757993 ], [ 136.013136394329194, 34.45365333263527 ], [ 136.030373605557543, 34.455831945687805 ], [ 136.042015279081966, 34.463054721198489 ], [ 136.049979999777179, 34.470359162345517 ], [ 136.037630272019555, 34.479633054022258 ], [ 136.072692775551218, 34.47713305384741 ], [ 136.068638885376345, 34.488502775083077 ], [ 136.080029999684825, 34.493683891698311 ], [ 136.087685551447066, 34.505256386672954 ], [ 136.08611138803019, 34.509967225307264 ], [ 136.09336306055684, 34.516365279334252 ], [ 136.088508340287717, 34.521049721067811 ], [ 136.089849441698448, 34.526049721417564 ], [ 136.101962217882146, 34.527889999623824 ], [ 136.102240829650668, 34.537171945628813 ], [ 136.097767781657808, 34.540759162305562 ], [ 136.106996394268208, 34.556308053773705 ], [ 136.110587496915514, 34.556451108032263 ], [ 136.114278053789235, 34.545893333410675 ], [ 136.123568885096006, 34.54799694570255 ], [ 136.139483606383351, 34.559390278638489 ], [ 136.139602776447077, 34.559258892184175 ] ] ] } }
]
}
