{
"type": "FeatureCollection",
"name": "30_wakayama_area",
"crs": { "type": "name", "properties": { "name": "urn:ogc:def:crs:OGC:1.3:CRS84" } },
"features": [
{ "type": "Feature", "properties": { "code": "300010", "name": "北部", "PrefCode": "30", "regioncode": "300010" }, "geometry": { "type": "MultiPolygon", "coordinates": [ [ [ [ 135.314153164736808, 33.752722559098856 ], [ 135.316090778366743, 33.750182414087192 ], [ 135.314150052183209, 33.75273416215191 ], [ 135.314153164736808, 33.752722559098856 ] ] ], [ [ [ 135.143268585976557, 33.863321197815083 ], [ 135.146302581099349, 33.860522585848685 ], [ 135.155374227838365, 33.86227891863723 ], [ 135.156073216905497, 33.859492891783589 ], [ 135.147636939393351, 33.856804586162752 ], [ 135.143113060819132, 33.863204802159942 ], [ 135.143268585976557, 33.863321197815083 ] ] ], [ [ [ 135.154470609730879, 33.868232586164993 ], [ 135.151283086845069, 33.867156612987344 ], [ 135.154445136433992, 33.868284279196189 ], [ 135.154470609730879, 33.868232586164993 ] ] ], [ [ [ 135.064565965746738, 33.937419026566886 ], [ 135.064213060984002, 33.934981225303375 ], [ 135.064481050859854, 33.93743025190463 ], [ 135.064565965746738, 33.937419026566886 ] ] ], [ [ [ 135.073956109187179, 33.950778333253538 ], [ 135.076334889743407, 33.948664775359134 ], [ 135.073374449271455, 33.947136667123516 ], [ 135.073942503343915, 33.950778333253538 ], [ 135.073956109187179, 33.950778333253538 ] ] ], [ [ [ 135.087123995176285, 33.991698891990325 ], [ 135.089518145146371, 33.986907054117296 ], [ 135.081590441445769, 33.989356972846053 ], [ 135.087088521418195, 33.991708720680947 ], [ 135.087123995176285, 33.991698891990325 ] ] ], [ [ [ 135.089908105574636, 34.003423440739255 ], [ 135.093137029650279, 34.002430224974944 ], [ 135.089844553183639, 34.003443081033424 ], [ 135.089908105574636, 34.003423440739255 ] ] ], [ [ [ 135.093716913404933, 34.007851919230745 ], [ 135.102426497584815, 34.0040600807082 ], [ 135.093098144763644, 34.002952224765409 ], [ 135.093642166253062, 34.007858108365042 ], [ 135.093716913404933, 34.007851919230745 ] ] ], [ [ [ 135.121343890608159, 34.019642774994111 ], [ 135.128741114810623, 34.017618053930107 ], [ 135.122480829726555, 34.015442225178617 ], [ 135.118711115425754, 34.018447495055909 ], [ 135.121276393790595, 34.019636945588616 ], [ 135.121343890608159, 34.019642774994111 ] ] ], [ [ [ 135.131970531714728, 34.032029586296403 ], [ 135.128404643359659, 34.031633774878856 ], [ 135.131851672816538, 34.032016919345381 ], [ 135.131970531714728, 34.032029586296403 ] ] ], [ [ [ 135.077318053785234, 34.115163053831907 ], [ 135.083508885127003, 34.112643333323206 ], [ 135.078538340272303, 34.110032774992646 ], [ 135.074879999812197, 34.113102775372852 ], [ 135.07724527884659, 34.115243892091996 ], [ 135.077318053785234, 34.115163053831907 ] ] ], [ [ [ 135.102859144334161, 34.1181276401785 ], [ 135.101588171157232, 34.114305918983007 ], [ 135.105458222818811, 34.109789359990998 ], [ 135.098367833808538, 34.10872397273323 ], [ 135.097839753701692, 34.115375224587012 ], [ 135.10281055756127, 34.118130973066002 ], [ 135.102859144334161, 34.1181276401785 ] ] ], [ [ [ 135.183811854833266, 34.152616612766508 ], [ 135.176899339133229, 34.152124081061515 ], [ 135.177624227775937, 34.155096162358063 ], [ 135.184543799556764, 34.154665666787139 ], [ 135.183811854833266, 34.152616612766508 ] ] ], [ [ [ 135.177454332351658, 34.159059026752743 ], [ 135.182214332425588, 34.155851531722874 ], [ 135.17881072583441, 34.155333468264985 ], [ 135.177450077659046, 34.159566134669433 ], [ 135.177454332351658, 34.159059026752743 ] ] ], [ [ [ 135.174830830078804, 34.156869828679703 ], [ 135.177318755056604, 34.153245999703188 ], [ 135.173947639172297, 34.15434853165948 ], [ 135.172461530175497, 34.150487305944466 ], [ 135.175472309299721, 34.159903305792966 ], [ 135.174999999750298, 34.157354135185244 ], [ 135.174830830078804, 34.156869828679703 ] ] ], [ [ [ 135.134974772767578, 34.191228027251725 ], [ 135.137529532661915, 34.190293693699061 ], [ 135.134953839248396, 34.191238161711851 ], [ 135.134974772767578, 34.191228027251725 ] ] ], [ [ [ 135.136575083972957, 34.202954828802376 ], [ 135.131644111986247, 34.213357748261501 ], [ 135.134657664619567, 34.208333333116855 ], [ 135.136575083972957, 34.202954828802376 ] ] ], [ [ [ 135.020758054440762, 34.293088972578062 ], [ 135.023697807807594, 34.292704495316229 ], [ 135.020227276367791, 34.285953720887562 ], [ 135.010963138737907, 34.275835801980747 ], [ 134.999046939065011, 34.27972555868763 ], [ 135.003653554368157, 34.284693080920988 ], [ 135.012740117262638, 34.283829586066588 ], [ 135.020791608146283, 34.293116197754387 ], [ 135.020758054440762, 34.293088972578062 ] ] ], [ [ [ 135.027092917604136, 34.293653414073844 ], [ 135.026528637986303, 34.291024747893857 ], [ 135.023702606590064, 34.292625559122314 ], [ 135.027046446036707, 34.293681278668146 ], [ 135.027092917604136, 34.293653414073844 ] ] ], [ [ [ 135.055277223565099, 34.299192414098684 ], [ 135.06022902744769, 34.29741805439977 ], [ 135.047346005314012, 34.292456134942711 ], [ 135.032440660608017, 34.295195828724559 ], [ 135.03716727604899, 34.298567387075309 ], [ 135.055291504799129, 34.299216134616984 ], [ 135.055277223565099, 34.299192414098684 ] ] ], [ [ [ 135.62066416312075, 34.384345278711692 ], [ 135.651128611995887, 34.383206387165103 ], [ 135.655838339967431, 34.366224999783981 ], [ 135.663525278968564, 34.355443892022038 ], [ 135.658954448589043, 34.332876667024607 ], [ 135.660094720594998, 34.326940828556417 ], [ 135.667682503045171, 34.326017224815132 ], [ 135.668935005945855, 34.322904162197403 ], [ 135.669068611926946, 34.315177775334121 ], [ 135.665685551247293, 34.312248613282918 ], [ 135.668976938634842, 34.306701945638338 ], [ 135.667248611634136, 34.300615000382038 ], [ 135.675522503061075, 34.290118332894792 ], [ 135.672684448628502, 34.281571386610267 ], [ 135.680805836620152, 34.270616108047022 ], [ 135.689212776448585, 34.271554162094958 ], [ 135.692469441911271, 34.278271945793733 ], [ 135.716214721232518, 34.265582494636476 ], [ 135.730180830181212, 34.22829500001427 ], [ 135.727475550756139, 34.220726667201973 ], [ 135.708033605666401, 34.208197225221795 ], [ 135.683263606430387, 34.221931387323707 ], [ 135.672380830311113, 34.22432361274457 ], [ 135.66244138815955, 34.218356387037659 ], [ 135.655289442353933, 34.216276107656313 ], [ 135.648078054059056, 34.218986387311986 ], [ 135.643515278907103, 34.215622775370832 ], [ 135.634482502665378, 34.204594999759479 ], [ 135.634084163253647, 34.198669161752491 ], [ 135.645106393645165, 34.190674440573048 ], [ 135.641790829783076, 34.182919440879573 ], [ 135.62856888464637, 34.17688777515076 ], [ 135.620603061382212, 34.168520829073032 ], [ 135.621918339659715, 34.158421667326138 ], [ 135.58864805366477, 34.147128053916617 ], [ 135.578271673199197, 34.115647225439147 ], [ 135.565211388394914, 34.112551386637222 ], [ 135.557343333128415, 34.108128054066469 ], [ 135.558407497308167, 34.103389440770115 ], [ 135.547286938641378, 34.100329162061257 ], [ 135.549793061400692, 34.084984720668388 ], [ 135.539681673370637, 34.075810829106501 ], [ 135.548224448599512, 34.06814389192715 ], [ 135.537834162816466, 34.059589440800096 ], [ 135.535596109073254, 34.051018053640291 ], [ 135.505810830005885, 34.04451194606952 ], [ 135.508327782401352, 34.023994721179463 ], [ 135.528491672652649, 34.022398613405358 ], [ 135.538137496948025, 34.011762774932151 ], [ 135.529589727783787, 33.998998892285101 ], [ 135.536963333091421, 33.994064440821319 ], [ 135.542700272099978, 33.976323054365537 ], [ 135.547742776208224, 33.973067225272302 ], [ 135.541954449038712, 33.961986946340573 ], [ 135.52331221798454, 33.952068891865906 ], [ 135.516068339882054, 33.952888891908913 ], [ 135.486006939268918, 33.940303333132363 ], [ 135.476219999653381, 33.942249440859086 ], [ 135.468246393656159, 33.936097224607295 ], [ 135.462670558299692, 33.937664161971554 ], [ 135.455878340413165, 33.946257224591307 ], [ 135.440573605887266, 33.947313332644228 ], [ 135.432324449413841, 33.939919999808183 ], [ 135.433688884634421, 33.945518332604991 ], [ 135.424689441764372, 33.946124440590495 ], [ 135.41554277627813, 33.931114440878787 ], [ 135.397713332704257, 33.929581107582123 ], [ 135.393235550680174, 33.916824720784291 ], [ 135.398090271848673, 33.906435278565311 ], [ 135.391981115136446, 33.902036946248131 ], [ 135.393148053839695, 33.895543054168684 ], [ 135.401710829990861, 33.894436945608618 ], [ 135.400883890779028, 33.887893332711201 ], [ 135.406968054432241, 33.881419440654724 ], [ 135.428963605585977, 33.879976667289441 ], [ 135.42858583726661, 33.864261108063715 ], [ 135.440426108977817, 33.865568054122434 ], [ 135.444484163013726, 33.862661667402108 ], [ 135.44415583672253, 33.857618612908709 ], [ 135.465009442232031, 33.853128892384518 ], [ 135.460646108830929, 33.838023613099324 ], [ 135.444945006207149, 33.841537224763158 ], [ 135.424718339679657, 33.838529999759714 ], [ 135.415203605961665, 33.833585829322601 ], [ 135.390981114886586, 33.837711387370689 ], [ 135.374741115110396, 33.829087774781044 ], [ 135.364771673374094, 33.814394721339397 ], [ 135.356024720564506, 33.808965828909948 ], [ 135.347788612354634, 33.809951666636152 ], [ 135.345609441722445, 33.807089162335046 ], [ 135.349680272426667, 33.803174161658262 ], [ 135.350203333417198, 33.795013612688138 ], [ 135.349180000256865, 33.777397224802144 ], [ 135.344863332676709, 33.772396666872737 ], [ 135.346419999783279, 33.766326666642385 ], [ 135.33997834032823, 33.753701386609748 ], [ 135.3364263941628, 33.75300416201253 ], [ 135.335989830866083, 33.743936775361931 ], [ 135.33049411161403, 33.744203918975757 ], [ 135.334598079637772, 33.742263333086385 ], [ 135.329219999803172, 33.741174387188266 ], [ 135.328834526991841, 33.747526440892557 ], [ 135.323269442131163, 33.751263613225206 ], [ 135.324670505839208, 33.759733946264646 ], [ 135.316602049245262, 33.767948828675571 ], [ 135.307963501614381, 33.76919263962867 ], [ 135.296162503296955, 33.763742495319946 ], [ 135.297907562184264, 33.767690000193397 ], [ 135.29501038901833, 33.771357531724789 ], [ 135.27056586342394, 33.782664973110059 ], [ 135.234698053872194, 33.781583612993415 ], [ 135.233496666637961, 33.789182494876286 ], [ 135.237409999971533, 33.793415828577679 ], [ 135.234966666978153, 33.79891277540429 ], [ 135.220613333338747, 33.804735278610281 ], [ 135.220895006399473, 33.808141666804545 ], [ 135.214492891933446, 33.810147027263554 ], [ 135.218380649447454, 33.811527703340914 ], [ 135.217015837411054, 33.814176667219442 ], [ 135.207858053606401, 33.808895278894056 ], [ 135.186091530100043, 33.819505386864137 ], [ 135.181923890974872, 33.825522694017195 ], [ 135.184816641275006, 33.827096639798128 ], [ 135.174567587724027, 33.83212997262018 ], [ 135.174588469981927, 33.839925531737947 ], [ 135.162698586270835, 33.845315333336032 ], [ 135.167236978104143, 33.847340054400036 ], [ 135.165539416011256, 33.852616134926734 ], [ 135.158135278720238, 33.85904653217176 ], [ 135.158925331338992, 33.86387886471789 ], [ 135.153512892006461, 33.865122612718437 ], [ 135.158963411332479, 33.867304946266302 ], [ 135.158028664091603, 33.869885972659574 ], [ 135.141922437570543, 33.88481763962244 ], [ 135.112563332831655, 33.893444162418234 ], [ 135.089358885104502, 33.88675638729751 ], [ 135.081792776315638, 33.887038332852853 ], [ 135.080067497117398, 33.890955559351653 ], [ 135.068437496793081, 33.88226389236479 ], [ 135.057662502622406, 33.879834161617339 ], [ 135.056405836760064, 33.888182775015082 ], [ 135.064346938560448, 33.891769720995853 ], [ 135.064961946236849, 33.895620829337872 ], [ 135.057891945756751, 33.900984720568431 ], [ 135.05893917030653, 33.904880000012042 ], [ 135.071206939248896, 33.906193612745085 ], [ 135.076160271979006, 33.903036108329786 ], [ 135.083999727905166, 33.910363892279861 ], [ 135.078381115396269, 33.913775829291126 ], [ 135.082478611898523, 33.919654162409699 ], [ 135.075219441723902, 33.917620279052699 ], [ 135.075315551371659, 33.922806386905279 ], [ 135.079708340267757, 33.924016108156934 ], [ 135.077322633133122, 33.927525802373907 ], [ 135.07176555133924, 33.923866108434197 ], [ 135.064773605717392, 33.926329440551285 ], [ 135.067907224139162, 33.931469441061893 ], [ 135.085038339647667, 33.935212225164094 ], [ 135.086562309203259, 33.939478775325256 ], [ 135.081042775903484, 33.941161387088414 ], [ 135.090182775614721, 33.94272222525052 ], [ 135.088507782008605, 33.949121387242258 ], [ 135.100569921864462, 33.949577494605762 ], [ 135.105476445781392, 33.956245224737359 ], [ 135.114471529637399, 33.956642973294606 ], [ 135.111397562347634, 33.957294279407506 ], [ 135.118100894840495, 33.960218720917283 ], [ 135.108055187896639, 33.959068774904097 ], [ 135.110790583818471, 33.96287864033701 ], [ 135.101968521430194, 33.962564224759205 ], [ 135.1020163159003, 33.96682323410505 ], [ 135.101710700188733, 33.961740559079601 ], [ 135.095698975127675, 33.95748755900371 ], [ 135.079549364411719, 33.955792161579041 ], [ 135.071790336654772, 33.959080386950347 ], [ 135.083825940214979, 33.96147953175506 ], [ 135.085701556381764, 33.968713973271292 ], [ 135.06768111479164, 33.976873864837046 ], [ 135.088169339243677, 33.97926825222811 ], [ 135.089708637743456, 33.98680622482749 ], [ 135.09439703019882, 33.988416693875365 ], [ 135.09123105057256, 33.990128720663961 ], [ 135.093073553701629, 33.993194441170601 ], [ 135.10731783375104, 33.992842333207136 ], [ 135.105474112040724, 33.989783945772558 ], [ 135.109494383758829, 33.989040441163468 ], [ 135.107378300568143, 33.99006364032482 ], [ 135.112576328934551, 33.990708386782671 ], [ 135.112298859304929, 33.995482945981223 ], [ 135.118467328104771, 33.998926639852584 ], [ 135.133373799661172, 33.999032946013699 ], [ 135.143451025144714, 34.007543666706908 ], [ 135.144550169354943, 34.004984135009863 ], [ 135.150934720960663, 34.006759440795634 ], [ 135.146239728380806, 34.013521667191242 ], [ 135.136978053994085, 34.016952775050584 ], [ 135.151739728405801, 34.018584720808292 ], [ 135.152260272193871, 34.025898333241514 ], [ 135.17152360563, 34.027693053591577 ], [ 135.167677612631792, 34.03729572122063 ], [ 135.167580752050185, 34.034947225334236 ], [ 135.158464890142682, 34.037973495280653 ], [ 135.162620751746317, 34.040390640016085 ], [ 135.16092022009218, 34.046145305561481 ], [ 135.146105357076635, 34.045369640296713 ], [ 135.147455005644019, 34.054285431827282 ], [ 135.137758339975449, 34.057697305885995 ], [ 135.135989922097338, 34.064650972764241 ], [ 135.123530467157366, 34.064687828780336 ], [ 135.104424642783101, 34.071296864658621 ], [ 135.088318444140896, 34.066987360178587 ], [ 135.078544837874006, 34.073822919092493 ], [ 135.082165279104402, 34.075909440668227 ], [ 135.088760752306939, 34.072727748087175 ], [ 135.088045187835178, 34.077200829354865 ], [ 135.090835837204168, 34.078061054274315 ], [ 135.089712698182552, 34.075384386780058 ], [ 135.096343306998051, 34.08086035961793 ], [ 135.086640415323018, 34.077451802258906 ], [ 135.096094266737055, 34.081595541001491 ], [ 135.096448028553709, 34.093195774665332 ], [ 135.099245642272649, 34.095566251781122 ], [ 135.101126523969924, 34.090729494570553 ], [ 135.105329001032601, 34.099190251628841 ], [ 135.110919804705304, 34.096966532179749 ], [ 135.107891802664653, 34.09827358615712 ], [ 135.115631699143705, 34.119894972574969 ], [ 135.122874864083769, 34.114907197609114 ], [ 135.13671900068141, 34.112944440733429 ], [ 135.137680557611702, 34.10972474819863 ], [ 135.139538171149752, 34.113653558864712 ], [ 135.142046251733177, 34.109528305686808 ], [ 135.146044188788323, 34.110825918581327 ], [ 135.141874188942779, 34.117520053707551 ], [ 135.132970855720487, 34.118165278604749 ], [ 135.132502672260557, 34.134340108109541 ], [ 135.127374773027441, 34.127985162185553 ], [ 135.121402892429614, 34.130037441175034 ], [ 135.125852308936942, 34.136659000112843 ], [ 135.154641193136626, 34.139118135093895 ], [ 135.158612476984331, 34.135885000392534 ], [ 135.168668884961107, 34.136702919404286 ], [ 135.166779389557291, 34.134327053550749 ], [ 135.17013236071989, 34.133239468326849 ], [ 135.184456523949507, 34.144563198233072 ], [ 135.197779221933615, 34.14287872127602 ], [ 135.202322361287997, 34.14992974785963 ], [ 135.209595914320062, 34.149472694409383 ], [ 135.20117810618467, 34.151547153378488 ], [ 135.182793086631705, 34.147097414014524 ], [ 135.186653773652779, 34.15575753188466 ], [ 135.193596109073269, 34.158655000028261 ], [ 135.18267085617515, 34.158217198365037 ], [ 135.181994617257828, 34.171929972790053 ], [ 135.177651219128506, 34.179644000270457 ], [ 135.179974773217282, 34.186912973055314 ], [ 135.173640830060322, 34.188259224883382 ], [ 135.172175278666259, 34.183682585782776 ], [ 135.180436200070631, 34.169241468419102 ], [ 135.165718832558127, 34.187166667307906 ], [ 135.150039000699394, 34.182070891858245 ], [ 135.146601556216865, 34.189436468018641 ], [ 135.143728494774223, 34.187226107998526 ], [ 135.146113333163839, 34.186425305783303 ], [ 135.140221050661012, 34.187925278728699 ], [ 135.136518197356963, 34.20270108059043 ], [ 135.144743942678929, 34.198531224636383 ], [ 135.142727081689486, 34.195113774780907 ], [ 135.150343916738393, 34.194806613134745 ], [ 135.150119533189923, 34.200266945862893 ], [ 135.145336031132956, 34.198898693919659 ], [ 135.141346615154248, 34.209020774888927 ], [ 135.144464162691065, 34.212124721079078 ], [ 135.134787717379368, 34.214338108217191 ], [ 135.144849688562317, 34.214790864706686 ], [ 135.143790388815432, 34.219063134556052 ], [ 135.140298443618349, 34.220947386912428 ], [ 135.1338404147034, 34.215591639942261 ], [ 135.133519468248892, 34.219106631166142 ], [ 135.127600026220307, 34.216933261161103 ], [ 135.140430245559401, 34.221401414143997 ], [ 135.139528715677784, 34.225409000025365 ], [ 135.110389830626218, 34.226975387004586 ], [ 135.100390699571221, 34.235612748429674 ], [ 135.118119857045826, 34.235146054247082 ], [ 135.128247860050806, 34.227327252151042 ], [ 135.132735472564036, 34.229882494981211 ], [ 135.127954812364806, 34.229390332897594 ], [ 135.131468145238728, 34.231383000325252 ], [ 135.123216004814822, 34.241775720573116 ], [ 135.120492970074565, 34.240425640331068 ], [ 135.116286809388839, 34.246414359834887 ], [ 135.114263722392934, 34.244291775445106 ], [ 135.118718029413571, 34.2377323057014 ], [ 135.094447730378533, 34.254496918697896 ], [ 135.099774863619132, 34.256323081145354 ], [ 135.095203358748108, 34.254858694373297 ], [ 135.096140415447849, 34.257538747815033 ], [ 135.089521440262274, 34.260832135294834 ], [ 135.061438638082791, 34.263434197730078 ], [ 135.067123839093938, 34.280569495086183 ], [ 135.067176083409549, 34.274830892331863 ], [ 135.074186641400388, 34.278260359827811 ], [ 135.070862361308969, 34.276500829050065 ], [ 135.074132943780342, 34.28236749526377 ], [ 135.067873411428877, 34.285392359569812 ], [ 135.071840311081587, 34.288210467938768 ], [ 135.067962892173796, 34.291061081403825 ], [ 135.074525888159314, 34.305633468309964 ], [ 135.087321310030461, 34.307422027404698 ], [ 135.092826693397228, 34.312011802003099 ], [ 135.097576939424243, 34.307829162186124 ], [ 135.103612217729733, 34.311101108029789 ], [ 135.106412775828971, 34.305800829444763 ], [ 135.096764162736008, 34.296641945769238 ], [ 135.101387223941288, 34.285812494950733 ], [ 135.108639728340904, 34.283986667051067 ], [ 135.107356938971634, 34.27846389169531 ], [ 135.111409728376316, 34.271833612930948 ], [ 135.125674163132203, 34.277451945750727 ], [ 135.131201945913176, 34.272491108178144 ], [ 135.136615550767146, 34.273506387010229 ], [ 135.139643605867832, 34.281892774631899 ], [ 135.143379727792308, 34.280411945554874 ], [ 135.146764721115005, 34.28380777480902 ], [ 135.154802502733332, 34.28103805356335 ], [ 135.153789170034202, 34.274278332678989 ], [ 135.166853332715164, 34.27992777484701 ], [ 135.184321673306613, 34.278828892339561 ], [ 135.19179527872916, 34.286595558937961 ], [ 135.20507972764733, 34.288260829074034 ], [ 135.2080430612383, 34.308202495049159 ], [ 135.225005551165282, 34.300861386743634 ], [ 135.235523332935486, 34.303635558734072 ], [ 135.248959441724878, 34.314372775083541 ], [ 135.27228250283531, 34.311983612753579 ], [ 135.282812217709761, 34.317910000246343 ], [ 135.293373060818112, 34.299292774841717 ], [ 135.302536666833817, 34.30466389212495 ], [ 135.303967497202279, 34.313714721357371 ], [ 135.324198611776524, 34.319131945982576 ], [ 135.330506938644362, 34.316746387236037 ], [ 135.327903061377242, 34.323747495150826 ], [ 135.339135550565288, 34.329429721204747 ], [ 135.338238054142948, 34.335278053839147 ], [ 135.345900000084953, 34.330525278918515 ], [ 135.358977223620059, 34.333039721306136 ], [ 135.362534721300449, 34.328939161712981 ], [ 135.386779727802264, 34.329124720629409 ], [ 135.391130000349335, 34.333005558759567 ], [ 135.397046108591098, 34.330391108163155 ], [ 135.405573332743188, 34.33387722485412 ], [ 135.408974449111611, 34.341842774724341 ], [ 135.42491583709625, 34.339982494696415 ], [ 135.435450830091781, 34.348673333407646 ], [ 135.465705005781501, 34.347334721320408 ], [ 135.477477497388691, 34.353285558681648 ], [ 135.485376108920377, 34.36283249532346 ], [ 135.489922776315098, 34.355345559250225 ], [ 135.501745005827388, 34.350202224952795 ], [ 135.504895278794152, 34.341217225194839 ], [ 135.502350558031935, 34.338091108018261 ], [ 135.507820830067317, 34.336496666687879 ], [ 135.539704721196017, 34.357505279345219 ], [ 135.554671673059374, 34.359531108374028 ], [ 135.566878885252436, 34.371758054390739 ], [ 135.582388339650265, 34.376897224827133 ], [ 135.593335837279142, 34.374879162343518 ], [ 135.597677497018935, 34.380397225251784 ], [ 135.613702503068112, 34.376630829449255 ], [ 135.620212502904792, 34.384445000036749 ], [ 135.62066416312075, 34.384345278711692 ] ] ] ] } },
{ "type": "Feature", "properties": { "code": "300020", "name": "南部", "PrefCode": "30", "regioncode": "300020" }, "geometry": { "type": "MultiPolygon", "coordinates": [ [ [ [ 135.818982996168415, 33.448700613442611 ], [ 135.820137107841333, 33.446138864916747 ], [ 135.818924694918792, 33.448785864675983 ], [ 135.818982996168415, 33.448700613442611 ] ] ], [ [ [ 135.818688105771571, 33.452631640038192 ], [ 135.820085525426748, 33.449271864604896 ], [ 135.816066667442783, 33.445671972883304 ], [ 135.812321115227405, 33.449852251979905 ], [ 135.818651283929626, 33.452663306066768 ], [ 135.818688105771571, 33.452631640038192 ] ] ], [ [ [ 135.803539052885071, 33.475777279298029 ], [ 135.804877612811651, 33.478078531998676 ], [ 135.803397004068529, 33.476111891850394 ], [ 135.803539052885071, 33.475777279298029 ] ] ], [ [ [ 135.811743165015173, 33.481361586268235 ], [ 135.814139144206251, 33.476247306368123 ], [ 135.832985356788868, 33.477363359631397 ], [ 135.850582438029164, 33.470976081281151 ], [ 135.848861829010275, 33.47279633338411 ], [ 135.862964188846263, 33.471689494574548 ], [ 135.853420803627273, 33.466197801587327 ], [ 135.853575447448975, 33.459891467617183 ], [ 135.840495330794965, 33.460348973426449 ], [ 135.83950817106529, 33.453532721158183 ], [ 135.838106446355482, 33.45565908090191 ], [ 135.836503358942878, 33.452840000365768 ], [ 135.829165641980808, 33.456164359597551 ], [ 135.831764162885861, 33.448883612888494 ], [ 135.821731633707941, 33.452134108102655 ], [ 135.82322869015195, 33.461673919415887 ], [ 135.814063942896723, 33.460737333061502 ], [ 135.815111698945771, 33.464104278789478 ], [ 135.809376135000662, 33.463104053709174 ], [ 135.80811557687241, 33.465822332834421 ], [ 135.801558197153099, 33.464474613312802 ], [ 135.801519922006833, 33.461585161725907 ], [ 135.79760152998665, 33.463577026958262 ], [ 135.800372632591007, 33.472357108094116 ], [ 135.811712283195334, 33.48136705414629 ], [ 135.811743165015173, 33.481361586268235 ] ] ], [ [ [ 135.69295756244162, 33.483374161988024 ], [ 135.68901185531297, 33.481153332959991 ], [ 135.692937664941383, 33.483393973153397 ], [ 135.69295756244162, 33.483374161988024 ] ] ], [ [ [ 135.591090532302246, 33.502399586072102 ], [ 135.592847172658935, 33.497703802088836 ], [ 135.589241555853164, 33.499999999700265 ], [ 135.591011855113038, 33.502453081344697 ], [ 135.591090532302246, 33.502399586072102 ] ] ], [ [ [ 135.825315914098269, 33.505543161787557 ], [ 135.827082476675059, 33.50348436001525 ], [ 135.82531379979207, 33.505553468018206 ], [ 135.825315914098269, 33.505543161787557 ] ] ], [ [ [ 135.951805888131275, 33.615748440638072 ], [ 135.953105668391913, 33.613126162342553 ], [ 135.951801673008845, 33.61575577460934 ], [ 135.951805888131275, 33.615748440638072 ] ] ], [ [ [ 135.946126860965933, 33.622079162423461 ], [ 135.949264189091082, 33.619395440647111 ], [ 135.945809299559642, 33.621900747721384 ], [ 135.946126860965933, 33.622079162423461 ] ] ], [ [ [ 135.988033411212996, 33.675000000249838 ], [ 135.986696640937339, 33.670542864861375 ], [ 135.988040558125363, 33.675011305627322 ], [ 135.988033411212996, 33.675000000249838 ] ] ], [ [ [ 135.359428560080005, 33.686040081284773 ], [ 135.361708833396051, 33.684963667439376 ], [ 135.359409585284197, 33.686028586150371 ], [ 135.359428560080005, 33.686040081284773 ] ] ], [ [ [ 135.366634863608169, 33.688552135073053 ], [ 135.363761581831568, 33.686888865029175 ], [ 135.366611555878649, 33.688570251915621 ], [ 135.366634863608169, 33.688552135073053 ] ] ], [ [ [ 135.36432722392226, 33.697363667299442 ], [ 135.363472386841295, 33.694635946192022 ], [ 135.364284448568469, 33.697342972999877 ], [ 135.36432722392226, 33.697363667299442 ] ] ], [ [ [ 135.374601025017341, 33.704505413893799 ], [ 135.377316056690688, 33.702421440996773 ], [ 135.374467562028485, 33.704508801639918 ], [ 135.374601025017341, 33.704505413893799 ] ] ], [ [ [ 135.875000000149953, 33.918170333194382 ], [ 135.881955278613304, 33.915226945667087 ], [ 135.880100272209802, 33.904189441189828 ], [ 135.888057782141004, 33.896040828921173 ], [ 135.885336939048557, 33.883863333026454 ], [ 135.892907496783664, 33.881956666866756 ], [ 135.892341673029819, 33.893940000031023 ], [ 135.901659170134621, 33.883090828878721 ], [ 135.897633060917087, 33.869745828607165 ], [ 135.878603332677699, 33.871949720703071 ], [ 135.874832218132383, 33.861596387163615 ], [ 135.873309441977199, 33.870447494955954 ], [ 135.882688054310279, 33.878870829425296 ], [ 135.871441114815639, 33.88873055926797 ], [ 135.861094448849826, 33.887141946443705 ], [ 135.858383891303561, 33.896796666832756 ], [ 135.868947497129398, 33.914296667157487 ], [ 135.865757781696288, 33.921938613076577 ], [ 135.874585006193115, 33.918176107741203 ], [ 135.875000000149953, 33.918170333194382 ] ] ], [ [ [ 136.006808053948589, 34.006991667331647 ], [ 136.003651946180412, 34.001563891860201 ], [ 135.995292218061422, 34.001001386604742 ], [ 136.013162503446893, 33.974907224688707 ], [ 136.012839441786923, 33.967988332795358 ], [ 136.003410829845961, 33.962491108078211 ], [ 135.999527782081486, 33.955743332888574 ], [ 135.987151115131951, 33.968212774799781 ], [ 135.977169441716455, 33.9666113871059 ], [ 135.974937782153006, 33.961608892036793 ], [ 135.977460557658674, 33.947391386603272 ], [ 135.968378340288268, 33.928569999805688 ], [ 135.94419389143502, 33.939552494552061 ], [ 135.929096393983514, 33.94142222465598 ], [ 135.931368053592905, 33.933406107705764 ], [ 135.921602218367752, 33.934194440820818 ], [ 135.917367223618498, 33.923535559018887 ], [ 135.923685836931895, 33.919817224785163 ], [ 135.932126109232627, 33.922896386559046 ], [ 135.933248053954571, 33.917185278777652 ], [ 135.922031114944048, 33.914163892149929 ], [ 135.917863061231401, 33.919559999794217 ], [ 135.909083606023614, 33.918474440742898 ], [ 135.909731387693455, 33.922696945707514 ], [ 135.899210558120785, 33.925257224741188 ], [ 135.898006393780065, 33.934019440844565 ], [ 135.893009442132097, 33.938941945714248 ], [ 135.893626109057777, 33.949783891713309 ], [ 135.904681672820971, 33.955532494928775 ], [ 135.90666749730724, 33.963079162173642 ], [ 135.915021946405773, 33.966068891765985 ], [ 135.915674448616983, 33.972591946161458 ], [ 135.921911945779698, 33.978401946093015 ], [ 135.938542775628662, 33.981026666947173 ], [ 135.941404448956177, 33.975690278783418 ], [ 135.947261388102675, 33.980666108054493 ], [ 135.97460306078267, 33.985966667227956 ], [ 135.985022218400673, 33.991838892151179 ], [ 135.990852775934968, 34.003666945673046 ], [ 136.001059441739926, 34.005984720718345 ], [ 136.003606938709368, 34.009881386916504 ], [ 136.006954720783824, 34.00739833266698 ], [ 136.006808053948589, 34.006991667331647 ] ] ], [ [ [ 135.557323333105387, 34.063889441244783 ], [ 135.563393060841122, 34.063385278607768 ], [ 135.567062218346791, 34.057346108036484 ], [ 135.580489727818758, 34.057910278836346 ], [ 135.587662502822354, 34.046907224688709 ], [ 135.594408053988559, 34.044267774738046 ], [ 135.599660271904099, 34.03201944104444 ], [ 135.591545836571186, 34.019563053692025 ], [ 135.593848885217994, 34.01298082930191 ], [ 135.608468339941965, 34.013618891998306 ], [ 135.61209500627956, 34.0101288920348 ], [ 135.622193060961081, 34.009668333027207 ], [ 135.625358340015396, 34.00706416168174 ], [ 135.624211115350704, 34.000208612637437 ], [ 135.638676108815389, 33.985149440694158 ], [ 135.640320271863175, 33.967419721143244 ], [ 135.635615278822115, 33.958869441071897 ], [ 135.637231115023951, 33.950648613242947 ], [ 135.62837027207047, 33.949471945673793 ], [ 135.616931672658666, 33.953816387016673 ], [ 135.617126393868034, 33.937314162018993 ], [ 135.61122111526231, 33.936867225042477 ], [ 135.609459442299453, 33.932075828736572 ], [ 135.614135836899436, 33.925352775010595 ], [ 135.610529999759706, 33.91332833293626 ], [ 135.599973605597484, 33.908336108124956 ], [ 135.606203061022484, 33.899118891723504 ], [ 135.622872218178372, 33.897958613399339 ], [ 135.626567497392102, 33.88336110842846 ], [ 135.617859999639336, 33.87210722526828 ], [ 135.638070830004835, 33.877721666721584 ], [ 135.647988054405232, 33.876897775312159 ], [ 135.662204449176102, 33.889083053939828 ], [ 135.660604449136031, 33.897565559303189 ], [ 135.670956939111534, 33.900407495209777 ], [ 135.678710558345642, 33.898169161777446 ], [ 135.686882502625508, 33.904072495149592 ], [ 135.724109999876646, 33.903287774611158 ], [ 135.742243890942859, 33.89005333339469 ], [ 135.751808611678143, 33.889557494882524 ], [ 135.756115006302593, 33.885165000064774 ], [ 135.766058339820574, 33.890792225380949 ], [ 135.777653333134936, 33.888184440559542 ], [ 135.801680000431702, 33.895707495204817 ], [ 135.803361673302675, 33.902981107592097 ], [ 135.808602775597706, 33.906468054357276 ], [ 135.836056394087336, 33.895515278607263 ], [ 135.847047497144331, 33.896600279179609 ], [ 135.855289441954255, 33.887816667305401 ], [ 135.852210829666092, 33.881465828585192 ], [ 135.858893332960974, 33.868480828727343 ], [ 135.853184163218657, 33.859446108151417 ], [ 135.860587497415167, 33.848958333160624 ], [ 135.855731387693481, 33.83668944096496 ], [ 135.858929727624854, 33.830188332725413 ], [ 135.855856109272054, 33.820336387414386 ], [ 135.858026393703199, 33.816203613206255 ], [ 135.88251027183162, 33.801566386979232 ], [ 135.892401114619815, 33.800345559100322 ], [ 135.906912503209469, 33.767100278754924 ], [ 135.916905006261118, 33.766618054179901 ], [ 135.920756109207105, 33.758431666788056 ], [ 135.92837111503502, 33.754020279012707 ], [ 135.938426666857254, 33.757091387357718 ], [ 135.940137496648163, 33.737783613023396 ], [ 135.945064162680978, 33.732493891579907 ], [ 135.975226666877234, 33.722900558913693 ], [ 135.976763890641109, 33.72620305382793 ], [ 135.972271946093542, 33.7343680544422 ], [ 135.980892217701694, 33.736794721199487 ], [ 136.011889960952999, 33.723300730244546 ], [ 135.99242603103653, 33.701058666824053 ], [ 135.993175278716194, 33.695666386694427 ], [ 135.986756938681879, 33.689362026736205 ], [ 135.991510726239085, 33.685426586267965 ], [ 135.990128053666808, 33.679775000116194 ], [ 135.985800441337346, 33.68066569406659 ], [ 135.990863864575772, 33.681839026949604 ], [ 135.988980051987824, 33.68538589194543 ], [ 135.971791608296144, 33.672593080806109 ], [ 135.976005810719698, 33.669224802282827 ], [ 135.973081166862471, 33.669987666597592 ], [ 135.977002503262952, 33.659148495007116 ], [ 135.985798003275249, 33.661042612926281 ], [ 135.987040855551072, 33.665246721359154 ], [ 135.989071192881283, 33.660908586062476 ], [ 135.985991854840336, 33.66093205387125 ], [ 135.986149780288201, 33.655177026798412 ], [ 135.979013969219409, 33.648637135295587 ], [ 135.979119144033348, 33.655162224856838 ], [ 135.97529224364223, 33.65751399967138 ], [ 135.968281802563183, 33.655113063417218 ], [ 135.977507638966472, 33.653416081387093 ], [ 135.971185226916759, 33.651315026767122 ], [ 135.960491362386506, 33.654386585672455 ], [ 135.956821310055489, 33.648987801645774 ], [ 135.948582633381875, 33.649479360284317 ], [ 135.936962165871364, 33.642374000259963 ], [ 135.941019247740201, 33.633978495311339 ], [ 135.952529468260423, 33.632774802215408 ], [ 135.953741673439595, 33.621907441375356 ], [ 135.951675084437625, 33.617557414343253 ], [ 135.950582749894011, 33.630275134789713 ], [ 135.944910660998289, 33.627929080562694 ], [ 135.941393476327903, 33.621070468427433 ], [ 135.946023332810569, 33.617319585930204 ], [ 135.940128003404652, 33.614839494946807 ], [ 135.936098806814584, 33.618446081221748 ], [ 135.938290610223589, 33.613826864618147 ], [ 135.925863021861005, 33.609677360321996 ], [ 135.926125694045595, 33.604798198278274 ], [ 135.929378105715045, 33.604749865114229 ], [ 135.927051894129704, 33.602837359656462 ], [ 135.932742476683984, 33.599672360291265 ], [ 135.930281698641579, 33.596141360235663 ], [ 135.934218029438625, 33.593108892161695 ], [ 135.936194162830361, 33.598782413677498 ], [ 135.945066809385821, 33.60488066700924 ], [ 135.948671167140674, 33.603383999971697 ], [ 135.945249389747573, 33.599027801791692 ], [ 135.950550026262817, 33.59134391868696 ], [ 135.94282036316929, 33.593748972936794 ], [ 135.945463411307401, 33.590779972717598 ], [ 135.950455473341435, 33.589664360122185 ], [ 135.961990777752249, 33.595229026798222 ], [ 135.957574384350437, 33.584092333394494 ], [ 135.959638418378404, 33.582019774692924 ], [ 135.954057950614015, 33.578019720633677 ], [ 135.940134915593944, 33.578387973226427 ], [ 135.939191607706562, 33.573610359930228 ], [ 135.923539441691901, 33.576417865292285 ], [ 135.921236446105127, 33.569308279353663 ], [ 135.914026615436001, 33.570638026823531 ], [ 135.905723450177106, 33.562677107562536 ], [ 135.899751751242434, 33.56304386458271 ], [ 135.890971698884869, 33.556860252099 ], [ 135.91412511008582, 33.563465161887734 ], [ 135.92402861173116, 33.559192305680426 ], [ 135.91612360601971, 33.558158775107415 ], [ 135.916331556256409, 33.552736748102518 ], [ 135.896952218370302, 33.545165801860321 ], [ 135.893527328423488, 33.539228721428401 ], [ 135.887357613163431, 33.539548252350016 ], [ 135.878359415854447, 33.52858761292805 ], [ 135.871473280867235, 33.535253360054583 ], [ 135.872298755083534, 33.532016864586694 ], [ 135.852625278633809, 33.522212559062382 ], [ 135.854970245580489, 33.517330135177644 ], [ 135.847289467834685, 33.520861612773274 ], [ 135.841701219135985, 33.516892829040899 ], [ 135.843226861430594, 33.512181413941164 ], [ 135.835935459553866, 33.510839342161944 ], [ 135.835907523013816, 33.513959297183874 ], [ 135.824428301225225, 33.514356161707553 ], [ 135.812169339343654, 33.502294720624889 ], [ 135.799011309924026, 33.49965877533225 ], [ 135.794540310586967, 33.48489377522759 ], [ 135.790375837075317, 33.484504748295535 ], [ 135.783501854626934, 33.474239026709768 ], [ 135.785643942613888, 33.47526180229039 ], [ 135.787118470141309, 33.46760291943923 ], [ 135.782289105358018, 33.470084864824685 ], [ 135.784174474672341, 33.465710333065488 ], [ 135.781057055738643, 33.463927494558277 ], [ 135.785964616573892, 33.46236386490051 ], [ 135.786134967954467, 33.464852467967091 ], [ 135.789552580587156, 33.458258081145573 ], [ 135.79470574627328, 33.462343694006336 ], [ 135.797497107905315, 33.460770494662654 ], [ 135.789281699390926, 33.457845775262342 ], [ 135.798011608249226, 33.445261441362504 ], [ 135.790835110052399, 33.448374747696505 ], [ 135.79279219220598, 33.444357720732285 ], [ 135.788469441611483, 33.444966918788339 ], [ 135.7877366928941, 33.437814107834868 ], [ 135.778435031951176, 33.446099748004997 ], [ 135.77057291760616, 33.447067414029959 ], [ 135.762568974778446, 33.433029558967007 ], [ 135.75324939034715, 33.436854468259128 ], [ 135.755961413788327, 33.444082467931594 ], [ 135.750792191606365, 33.451072224603536 ], [ 135.776517172829358, 33.463412441131311 ], [ 135.771580271612265, 33.474179639978445 ], [ 135.77477800270276, 33.478425108232216 ], [ 135.769590506296936, 33.478646972779643 ], [ 135.766041505411181, 33.472317946216322 ], [ 135.763943112784546, 33.474183613183243 ], [ 135.767639804833152, 33.480885585901092 ], [ 135.75930686122274, 33.484370386883882 ], [ 135.751926030761751, 33.480335279049939 ], [ 135.746502776182183, 33.48237427865007 ], [ 135.738722476760927, 33.476548054049488 ], [ 135.736474942364794, 33.48599163970249 ], [ 135.725404889623974, 33.477225999880034 ], [ 135.712947470749214, 33.485720973444245 ], [ 135.708822437905269, 33.477939720741574 ], [ 135.706261362072269, 33.482186225014345 ], [ 135.710107716597918, 33.487744973251949 ], [ 135.70840069993244, 33.485414197607213 ], [ 135.703790660910386, 33.487866495042738 ], [ 135.700870830224744, 33.493568386571837 ], [ 135.696839170391513, 33.486516279003126 ], [ 135.682150699894919, 33.490128000406969 ], [ 135.675261920001617, 33.487783639603322 ], [ 135.669860947025199, 33.491749108434647 ], [ 135.66342050615151, 33.490487495401624 ], [ 135.66347600511358, 33.494106360120497 ], [ 135.6546028918101, 33.500460775444481 ], [ 135.640048106435074, 33.502475612959245 ], [ 135.629571025282644, 33.50911702712915 ], [ 135.62711566835344, 33.502633945800028 ], [ 135.612035694191945, 33.508431919097859 ], [ 135.610352087778665, 33.505926414172734 ], [ 135.606454357682537, 33.509693252441707 ], [ 135.600068002936041, 33.503151558697539 ], [ 135.590774059974933, 33.507295387372267 ], [ 135.589949610985855, 33.502480559230492 ], [ 135.5844871342739, 33.508092026625775 ], [ 135.578271505026009, 33.507414414443701 ], [ 135.574309558839104, 33.516088918768617 ], [ 135.559758690011563, 33.514139414302576 ], [ 135.546673190915044, 33.516196135043629 ], [ 135.543534384304508, 33.52095091904971 ], [ 135.534016420221633, 33.517825694000635 ], [ 135.525890972690263, 33.522886612627133 ], [ 135.517637003944628, 33.522039721056331 ], [ 135.510301855446301, 33.525832225077181 ], [ 135.514489053027432, 33.531027026675986 ], [ 135.510376161031104, 33.534816640275778 ], [ 135.501206809246924, 33.535220225433136 ], [ 135.499974863948864, 33.540699414246603 ], [ 135.487013891278139, 33.542817198055275 ], [ 135.49368654969453, 33.544807666640565 ], [ 135.487932607204129, 33.550613440657798 ], [ 135.488575668332487, 33.546410162299196 ], [ 135.485956978331956, 33.548591342016891 ], [ 135.480431166864946, 33.544569640376665 ], [ 135.480184721148021, 33.550179161639051 ], [ 135.476794448804867, 33.551318892253107 ], [ 135.467230142657058, 33.546184892019198 ], [ 135.462791971272509, 33.548599694020709 ], [ 135.458665862839325, 33.54605910834124 ], [ 135.458747173243523, 33.553223999887734 ], [ 135.446232865954016, 33.548956829194367 ], [ 135.449134720990628, 33.556470360019148 ], [ 135.444981633795464, 33.556301161569422 ], [ 135.442920506376367, 33.563946667005155 ], [ 135.428355278972958, 33.570701305820648 ], [ 135.424786589229825, 33.569117414437187 ], [ 135.426033021706644, 33.571620494790068 ], [ 135.423315965659299, 33.5698431979053 ], [ 135.422511608424088, 33.572578612712846 ], [ 135.419598806839531, 33.569125639636638 ], [ 135.418097950759829, 33.580507532296849 ], [ 135.412988780807609, 33.575307946304747 ], [ 135.40875834022529, 33.575813027149536 ], [ 135.4046223608334, 33.578760467921313 ], [ 135.406360947299959, 33.581329332782559 ], [ 135.40274642001134, 33.581150918979802 ], [ 135.403750505881249, 33.58895405398647 ], [ 135.400256226044007, 33.583642333327077 ], [ 135.391137717431775, 33.591022197916175 ], [ 135.394232438376434, 33.592647387067302 ], [ 135.388808197240564, 33.596053694322563 ], [ 135.393184668837421, 33.597852865417451 ], [ 135.386044552713997, 33.599976558671301 ], [ 135.389645576682028, 33.603724747699005 ], [ 135.387499467826274, 33.607401440624017 ], [ 135.393050116769587, 33.608046027002615 ], [ 135.392659416199194, 33.614230278904301 ], [ 135.397803281096571, 33.616408945916191 ], [ 135.390681582189359, 33.616848891563166 ], [ 135.38976683497151, 33.621724135260706 ], [ 135.397263139282472, 33.624797494608742 ], [ 135.396093501713835, 33.629835027264733 ], [ 135.399547107912781, 33.63125833300569 ], [ 135.393359882852337, 33.627228107591122 ], [ 135.390485887913428, 33.633037891685433 ], [ 135.39301766473352, 33.634267918729506 ], [ 135.391915279366685, 33.642471720593505 ], [ 135.38286985685852, 33.645736134614992 ], [ 135.383245083693737, 33.649853332565272 ], [ 135.378093449553148, 33.65011135975152 ], [ 135.377282438234033, 33.653242666915617 ], [ 135.353026939341817, 33.654834440856803 ], [ 135.33036496806892, 33.667732612969758 ], [ 135.332063773924119, 33.673826251880087 ], [ 135.344357859727552, 33.681294287801165 ], [ 135.340328664036633, 33.684060613206782 ], [ 135.345031283766843, 33.688385613005664 ], [ 135.333315006082785, 33.692862225011709 ], [ 135.335675837070312, 33.695259440770599 ], [ 135.356245914217652, 33.695383198276033 ], [ 135.35506700373935, 33.687547891821794 ], [ 135.359540803565324, 33.688317973195979 ], [ 135.353344305595328, 33.683143495376044 ], [ 135.3561724378078, 33.682043558863199 ], [ 135.358566394423633, 33.686089532306141 ], [ 135.360496719048456, 33.679562973252644 ], [ 135.365117549035745, 33.679689441314736 ], [ 135.363019052986942, 33.682550666779889 ], [ 135.367208417934194, 33.683336774972247 ], [ 135.366432166311483, 33.686079558824645 ], [ 135.377818612239253, 33.682749225396492 ], [ 135.372521439912589, 33.689680413720168 ], [ 135.382953501902648, 33.691211225317829 ], [ 135.377041997290462, 33.694932351047214 ], [ 135.380140272355789, 33.695331667122787 ], [ 135.38242010410454, 33.703082793436238 ], [ 135.385784695407438, 33.701423748407308 ], [ 135.382615837051276, 33.696528612605448 ], [ 135.388148911443182, 33.694601864584456 ], [ 135.385788716276352, 33.698447585987367 ], [ 135.395958002659768, 33.703485972999317 ], [ 135.39253306055241, 33.709720279367446 ], [ 135.397186277824517, 33.71136558635277 ], [ 135.394236783001247, 33.715091559428004 ], [ 135.400131284131476, 33.720475081060215 ], [ 135.39597466889586, 33.723279494553083 ], [ 135.392465965731844, 33.720171081430294 ], [ 135.393692437755817, 33.715108721190575 ], [ 135.387002749777139, 33.714660305728557 ], [ 135.37825197125153, 33.720002440560222 ], [ 135.373096445744409, 33.729531252265531 ], [ 135.363394812220918, 33.728063693584659 ], [ 135.368284254414903, 33.731465801905301 ], [ 135.364269779726669, 33.729579748206845 ], [ 135.363177782428806, 33.732685467860108 ], [ 135.357382218414728, 33.728263333186305 ], [ 135.362506952034323, 33.726289090169416 ], [ 135.353353061394728, 33.726569441226786 ], [ 135.348037977270906, 33.73433366706513 ], [ 135.351451297439439, 33.729325505367854 ], [ 135.356686808649329, 33.741001693973033 ], [ 135.348960973070461, 33.747235892422566 ], [ 135.346076977670464, 33.744381613320854 ], [ 135.336265551314227, 33.745538333027696 ], [ 135.3364263941628, 33.75300416201253 ], [ 135.33997834032823, 33.753701386609748 ], [ 135.346419999783279, 33.766326666642385 ], [ 135.34524138787981, 33.774784440649455 ], [ 135.349180000256865, 33.777397224802144 ], [ 135.349780557626673, 33.802635829280121 ], [ 135.346809999781726, 33.809188612564469 ], [ 135.356024720564506, 33.808965828909948 ], [ 135.364771673374094, 33.814394721339397 ], [ 135.374741115110396, 33.829087774781044 ], [ 135.390981114886586, 33.837711387370689 ], [ 135.415203605961665, 33.833585829322601 ], [ 135.424718339679657, 33.838529999759714 ], [ 135.444945006207149, 33.841537224763158 ], [ 135.460440272001051, 33.837934162032013 ], [ 135.465009442232031, 33.853128892384518 ], [ 135.44415583672253, 33.857618612908709 ], [ 135.444484163013726, 33.862661667402108 ], [ 135.440426108977817, 33.865568054122434 ], [ 135.42858583726661, 33.864261108063715 ], [ 135.428963605585977, 33.879976667289441 ], [ 135.406968054432241, 33.881419440654724 ], [ 135.400883890779028, 33.887893332711201 ], [ 135.401710829990861, 33.894436945608618 ], [ 135.39321111520087, 33.89545889201429 ], [ 135.391981115136446, 33.902036946248131 ], [ 135.398090271848673, 33.906435278565311 ], [ 135.393235550680174, 33.916824720784291 ], [ 135.397713332704257, 33.929581107582123 ], [ 135.41554277627813, 33.931114440878787 ], [ 135.424689441764372, 33.946124440590495 ], [ 135.433688884634421, 33.945518332604991 ], [ 135.432324449413841, 33.939919999808183 ], [ 135.440573605887266, 33.947313332644228 ], [ 135.455878340413165, 33.946257224591307 ], [ 135.462670558299692, 33.937664161971554 ], [ 135.468246393656159, 33.936097224607295 ], [ 135.476219999653381, 33.942249440859086 ], [ 135.486006939268918, 33.940303333132363 ], [ 135.516068339882054, 33.952888891908913 ], [ 135.52331221798454, 33.952068891865906 ], [ 135.541954449038712, 33.961986946340573 ], [ 135.547742776208224, 33.973067225272302 ], [ 135.542700272099978, 33.976323054365537 ], [ 135.536963333091421, 33.994064440821319 ], [ 135.529589727783787, 33.998998892285101 ], [ 135.538137496948025, 34.011762774932151 ], [ 135.528491672652649, 34.022398613405358 ], [ 135.508327782401352, 34.023994721179463 ], [ 135.508257224291583, 34.036349720763042 ], [ 135.504663061251335, 34.039511945719767 ], [ 135.509168054062457, 34.046617775190214 ], [ 135.532408053788686, 34.048698891840445 ], [ 135.537834162816466, 34.059589440800096 ], [ 135.548224448599512, 34.06814389192715 ], [ 135.556897782007127, 34.064006945763992 ], [ 135.557323333105387, 34.063889441244783 ] ] ] ] } }
]
}
