{
"type": "FeatureCollection",
"name": "32_shimane_area",
"crs": { "type": "name", "properties": { "name": "urn:ogc:def:crs:OGC:1.3:CRS84" } },
"features": [
{ "type": "Feature", "properties": { "code": "320010", "name": "東部", "PrefCode": "32", "regioncode": "320010" }, "geometry": { "type": "MultiPolygon", "coordinates": [ [ [ [ 132.662628444147458, 35.400219414294611 ], [ 132.660797003578864, 35.402466224736543 ], [ 132.66262961056816, 35.400219801902381 ], [ 132.662628444147458, 35.400219414294611 ] ] ], [ [ [ 132.655249999587909, 35.444127504680637 ], [ 132.65580250258347, 35.440460000128951 ], [ 132.65515666704664, 35.44414194599409 ], [ 132.655249999587909, 35.444127504680637 ] ] ], [ [ [ 132.746488586379201, 35.454364440766369 ], [ 132.744453695781544, 35.451432694063612 ], [ 132.746486783238538, 35.454404305914011 ], [ 132.746488586379201, 35.454364440766369 ] ] ], [ [ [ 132.750320272062936, 35.456568359841981 ], [ 132.754624189055107, 35.455084332775812 ], [ 132.750172671731434, 35.456605559399122 ], [ 132.750320272062936, 35.456568359841981 ] ] ], [ [ [ 133.052914448642923, 35.568281945655315 ], [ 133.051830856408969, 35.564099467716289 ], [ 133.048201660278437, 35.567278613417329 ], [ 133.052816667155525, 35.568310559384884 ], [ 133.052914448642923, 35.568281945655315 ] ] ], [ [ [ 133.046208053958594, 35.571948891728027 ], [ 133.043503061417255, 35.570421386937483 ], [ 133.046256109232104, 35.572134721340376 ], [ 133.046208053958594, 35.571948891728027 ] ] ], [ [ [ 133.212377497123839, 35.577493332651215 ], [ 133.210510000036493, 35.575764171079697 ], [ 133.212318884708793, 35.577535838208405 ], [ 133.212377497123839, 35.577493332651215 ] ] ], [ [ [ 133.254111114936109, 35.578346945755015 ], [ 133.253367223618511, 35.574949720753068 ], [ 133.254059441689947, 35.578392224821357 ], [ 133.254111114936109, 35.578346945755015 ] ] ], [ [ [ 133.240678612428042, 35.582465838028043 ], [ 133.244812776088793, 35.581437775333143 ], [ 133.243055837157272, 35.578519720808515 ], [ 133.23506333280659, 35.579347505383112 ], [ 133.240595837028309, 35.582463053726997 ], [ 133.240678612428042, 35.582465838028043 ] ] ], [ [ [ 133.126370558054873, 35.596203054227601 ], [ 133.128911945929644, 35.595710278806393 ], [ 133.124022502836283, 35.592442774714357 ], [ 133.125684720673348, 35.58802333261076 ], [ 133.119293333320684, 35.589226945667065 ], [ 133.126329170355007, 35.596222774561454 ], [ 133.126370558054873, 35.596203054227601 ] ] ], [ [ [ 133.094947496629743, 35.604454441019698 ], [ 133.098925550573767, 35.603996386623976 ], [ 133.098171945678814, 35.597821108157689 ], [ 133.112081659940714, 35.59763889202128 ], [ 133.115164228346543, 35.589298359931433 ], [ 133.112190271963527, 35.588928892354545 ], [ 133.124944163142686, 35.576241945809215 ], [ 133.128906394414685, 35.580254999568638 ], [ 133.140449727972623, 35.580982505238467 ], [ 133.129936394249285, 35.577165838232872 ], [ 133.140484720593463, 35.567761107788954 ], [ 133.138978053994038, 35.562911108061257 ], [ 133.141805278790684, 35.560722505339413 ], [ 133.148638326797368, 35.562218333309488 ], [ 133.151700271950062, 35.55942555884252 ], [ 133.154601115249307, 35.563475000071264 ], [ 133.15661888455395, 35.560663332646754 ], [ 133.160070829705091, 35.562885838011084 ], [ 133.156218884993564, 35.565473054437973 ], [ 133.161180558036335, 35.572029720994863 ], [ 133.164625551428117, 35.571364999695049 ], [ 133.166271114720189, 35.563222775310862 ], [ 133.17028610921659, 35.566273053558632 ], [ 133.170687497330164, 35.56366805393759 ], [ 133.175581115076511, 35.564614171307028 ], [ 133.174898612381071, 35.568723612604686 ], [ 133.180117782010143, 35.569056108152893 ], [ 133.184465836828963, 35.563684999862915 ], [ 133.192018053790207, 35.562193333055916 ], [ 133.189643332773699, 35.571889999623863 ], [ 133.186746109245632, 35.572445000036794 ], [ 133.189991388391945, 35.573684441184071 ], [ 133.18693888522148, 35.577692224916291 ], [ 133.191806667244009, 35.580272774668856 ], [ 133.196795278579316, 35.577039441217266 ], [ 133.195220557582729, 35.567701667098333 ], [ 133.197625940085118, 35.570432080775959 ], [ 133.211681660180489, 35.567153333359727 ], [ 133.216300558424109, 35.570415559330627 ], [ 133.213589999978581, 35.575510558665428 ], [ 133.216870000150493, 35.575705278975477 ], [ 133.217145279031456, 35.581600279229576 ], [ 133.220242502789347, 35.577730278829335 ], [ 133.226298884585958, 35.580772775243418 ], [ 133.227456667291449, 35.577770000085479 ], [ 133.234953060635348, 35.579150278662496 ], [ 133.225802502883312, 35.575695279413651 ], [ 133.224551387636438, 35.570601387144336 ], [ 133.236131659948228, 35.573221386557805 ], [ 133.236769442056129, 35.569925838007066 ], [ 133.244559169969762, 35.570333891895643 ], [ 133.251603061332276, 35.575741107965825 ], [ 133.254011388215076, 35.572946667055078 ], [ 133.250069999630796, 35.570573613381612 ], [ 133.256093605635442, 35.569710837984815 ], [ 133.259078885382337, 35.575265279369205 ], [ 133.265527224102129, 35.572317225259781 ], [ 133.266247781609877, 35.577600558818801 ], [ 133.270130000199401, 35.578975559274681 ], [ 133.274942776088324, 35.57684027915559 ], [ 133.273531114769185, 35.573676386855823 ], [ 133.280456938636917, 35.571510000086505 ], [ 133.280189441589528, 35.577373053723477 ], [ 133.29035555066821, 35.573829170879605 ], [ 133.294014162723442, 35.577933891635837 ], [ 133.298169727550999, 35.570958053771221 ], [ 133.30029778161736, 35.57450861318199 ], [ 133.304712775674147, 35.571023892238884 ], [ 133.307559727999092, 35.576173612622199 ], [ 133.315624448809331, 35.569401386664708 ], [ 133.326390000098513, 35.568629720685124 ], [ 133.308922476990801, 35.557958224992149 ], [ 133.308676938689814, 35.56261638673692 ], [ 133.308232140301129, 35.558200639947643 ], [ 133.265021115332274, 35.555647774924921 ], [ 133.244621153943172, 35.549111963646283 ], [ 133.221927781941645, 35.547633053722507 ], [ 133.201021114632795, 35.535242504837754 ], [ 133.198124448684439, 35.528731945622837 ], [ 133.2224997282799, 35.480223613429075 ], [ 133.272021660271434, 35.446012505272961 ], [ 133.308690000443221, 35.43087666702462 ], [ 133.320572503418362, 35.410277504902979 ], [ 133.321230272059438, 35.395747504843541 ], [ 133.313566666868269, 35.387345558950415 ], [ 133.324505279195364, 35.374033332672241 ], [ 133.31850306086767, 35.373339171165867 ], [ 133.315973606097145, 35.365489999863655 ], [ 133.307664993644607, 35.365821945926143 ], [ 133.296046394025893, 35.349370279015204 ], [ 133.295574448701927, 35.328868053917631 ], [ 133.298559169969735, 35.325103613241197 ], [ 133.29252472083931, 35.32064333292351 ], [ 133.306950830316623, 35.303370000425218 ], [ 133.29950111538426, 35.291881666705592 ], [ 133.307412502684883, 35.28170055873386 ], [ 133.310551388435897, 35.267918053575386 ], [ 133.291728327100714, 35.260741945684288 ], [ 133.282037223738939, 35.262380837805495 ], [ 133.275661114968557, 35.257856387262507 ], [ 133.253282502985144, 35.260027505365144 ], [ 133.243356939171463, 35.250412505332918 ], [ 133.232229999814649, 35.246576386890808 ], [ 133.222616108646548, 35.249053332945039 ], [ 133.212022503235971, 35.241696946057289 ], [ 133.181623891029858, 35.234439999906101 ], [ 133.152572776212764, 35.218987504969448 ], [ 133.152742502564479, 35.203811946364283 ], [ 133.168819441763844, 35.209353891668798 ], [ 133.182028612030877, 35.20135972087445 ], [ 133.18465832682034, 35.195371666868994 ], [ 133.182084163153718, 35.188146107956584 ], [ 133.189355836602658, 35.184582225089684 ], [ 133.19490527865571, 35.169890278713467 ], [ 133.183912217774719, 35.156727505370156 ], [ 133.157455279237865, 35.148905838034068 ], [ 133.148450558246736, 35.139982774585405 ], [ 133.145141660159538, 35.131274721051568 ], [ 133.146624721353874, 35.123621666706583 ], [ 133.14022277596041, 35.118059721379097 ], [ 133.145531115168865, 35.105046945959828 ], [ 133.136649999697738, 35.09057277491371 ], [ 133.142224720794275, 35.081313332644243 ], [ 133.140813606263009, 35.075638332642995 ], [ 133.126572218433239, 35.076880837780493 ], [ 133.119514448732843, 35.084857225380688 ], [ 133.102192218296295, 35.082309440628251 ], [ 133.096423061075484, 35.085424441284999 ], [ 133.085958054220896, 35.078040559424323 ], [ 133.060803890687112, 35.081455278938051 ], [ 133.051238612372117, 35.069570559134036 ], [ 133.033105837364587, 35.068244441327977 ], [ 133.02531165960545, 35.077305837594395 ], [ 133.016414162983324, 35.078409440643213 ], [ 133.014544720662343, 35.087709170741675 ], [ 133.003533333396717, 35.090302224667994 ], [ 133.000111946309289, 35.097191107983292 ], [ 132.990849170253114, 35.101320278608 ], [ 132.98246472067035, 35.097636945988313 ], [ 132.979838612162325, 35.086707504947469 ], [ 132.974669169646518, 35.08296194643674 ], [ 132.950240830050348, 35.075384721128046 ], [ 132.934169728350298, 35.083940559009648 ], [ 132.926143060553841, 35.080546945685057 ], [ 132.923560272388727, 35.08426805432731 ], [ 132.909477782174008, 35.086216946355023 ], [ 132.897354993838007, 35.104060558747847 ], [ 132.883506938894129, 35.104903054432441 ], [ 132.861297781667304, 35.095758891759488 ], [ 132.858367328189729, 35.088943251929607 ], [ 132.828198053897154, 35.062210837560144 ], [ 132.83712082956265, 35.052492224836385 ], [ 132.836735836989305, 35.04696638728899 ], [ 132.827434449440375, 35.047085278562804 ], [ 132.813719170403488, 35.040551667025852 ], [ 132.808834448750872, 35.028560278634018 ], [ 132.788586108562072, 35.015754721403312 ], [ 132.787754448808869, 35.004788332615533 ], [ 132.765703061447198, 34.996835559413569 ], [ 132.763427223587541, 34.992871945883621 ], [ 132.768703332892528, 34.983948612638414 ], [ 132.755944162693027, 34.977275000041288 ], [ 132.745130000349263, 34.976826386728419 ], [ 132.752968054232383, 34.966761386628718 ], [ 132.749266109243649, 34.965802774978158 ], [ 132.749721945911119, 34.960258891634567 ], [ 132.742532217787698, 34.956329440651189 ], [ 132.738607497238263, 34.962313053804451 ], [ 132.720393165412361, 34.947993693853959 ], [ 132.707276939179451, 34.95508666661641 ], [ 132.702099442335452, 34.951465279299271 ], [ 132.69828111518143, 34.953648054414259 ], [ 132.68509444864992, 34.950557494632733 ], [ 132.681761660072652, 34.959680278621988 ], [ 132.685234448810775, 34.966429721154782 ], [ 132.669903332672675, 34.964318891803487 ], [ 132.656834721045584, 34.968796386943779 ], [ 132.654571114865121, 34.975144161673768 ], [ 132.657573605837342, 34.980746667324865 ], [ 132.648994162550594, 34.98577805401402 ], [ 132.655739442121671, 34.989614161664292 ], [ 132.665238327087195, 34.986725828833983 ], [ 132.667836938823712, 34.992109999776744 ], [ 132.663301660443381, 34.995073053678539 ], [ 132.664154993857892, 35.008512224659512 ], [ 132.674617496999986, 35.010912775104543 ], [ 132.679340829915418, 35.018079720702588 ], [ 132.687522775555749, 35.020331107794448 ], [ 132.686323332655775, 35.024969170590794 ], [ 132.695278885012613, 35.029164721075063 ], [ 132.700835278825139, 35.024744440803374 ], [ 132.710551946315377, 35.026219170678246 ], [ 132.71226472133992, 35.022637775313115 ], [ 132.717118327348999, 35.022951386897034 ], [ 132.71505472139836, 35.029194440970741 ], [ 132.717900830159238, 35.033565279214315 ], [ 132.711862775646637, 35.040209440813101 ], [ 132.72241499425661, 35.051160279423414 ], [ 132.717423060825695, 35.056882775319878 ], [ 132.703829442075175, 35.057622224885847 ], [ 132.691458611725579, 35.072224999883872 ], [ 132.682401659908692, 35.06921138699596 ], [ 132.67739221757688, 35.076761945607359 ], [ 132.670329999829733, 35.076018333079674 ], [ 132.671965836953859, 35.082568892340589 ], [ 132.669458885019594, 35.084256107733211 ], [ 132.657834162816471, 35.08545389228334 ], [ 132.668467781762729, 35.102279440643713 ], [ 132.663572776362571, 35.10701917089807 ], [ 132.670596394308177, 35.111873053898364 ], [ 132.671905550900533, 35.117639441207302 ], [ 132.667084163103709, 35.12103917082112 ], [ 132.65377389105231, 35.118351946185442 ], [ 132.650227223907336, 35.124859441410138 ], [ 132.628947782214482, 35.136477505032872 ], [ 132.637800558249182, 35.146613054249087 ], [ 132.650746666925215, 35.150818332699941 ], [ 132.660847224419967, 35.170388891634104 ], [ 132.66632639434772, 35.170479170976989 ], [ 132.666394162760412, 35.185798333326488 ], [ 132.660783606378345, 35.192021945856141 ], [ 132.659708885057057, 35.199577504698141 ], [ 132.649000557629734, 35.210872225173091 ], [ 132.640040272140936, 35.208230838082784 ], [ 132.641595836678562, 35.20038250494872 ], [ 132.631158885074569, 35.201936946233161 ], [ 132.626324720609432, 35.208780000096965 ], [ 132.617760830198222, 35.209453612993912 ], [ 132.615055836757506, 35.21333110834405 ], [ 132.609646108880838, 35.212014721202479 ], [ 132.608500271870071, 35.217439170980981 ], [ 132.600429727949631, 35.217208892376561 ], [ 132.579803060962604, 35.234223333440127 ], [ 132.584569441726444, 35.24633499986038 ], [ 132.575876004873749, 35.272562837904673 ], [ 132.582038702724049, 35.274743243306091 ], [ 132.580888728831837, 35.271247431923484 ], [ 132.586177691247485, 35.275563279321943 ], [ 132.615168443568905, 35.280732505101071 ], [ 132.628946809148033, 35.288229865216181 ], [ 132.655967976940701, 35.31892346764397 ], [ 132.671738858861318, 35.356460197680008 ], [ 132.67475486394585, 35.372479359934573 ], [ 132.672595304829542, 35.399330802274733 ], [ 132.668740557830574, 35.402874613172912 ], [ 132.664006614713571, 35.400963559220941 ], [ 132.666467951235063, 35.403638413681904 ], [ 132.644661659707936, 35.416223054250622 ], [ 132.623147496759657, 35.418157225275763 ], [ 132.627881387715888, 35.433876945664565 ], [ 132.641739442221592, 35.431337225132893 ], [ 132.641704448701375, 35.434857224681252 ], [ 132.645865279059421, 35.432970838233643 ], [ 132.64767027236519, 35.435533333196815 ], [ 132.641869727905714, 35.441429999894638 ], [ 132.650463606210565, 35.43785917066424 ], [ 132.650504993910431, 35.441385279307269 ], [ 132.651296393713665, 35.438738053818156 ], [ 132.653277781844167, 35.441548613277917 ], [ 132.65936055784357, 35.440366108209389 ], [ 132.658603333177325, 35.444792774566963 ], [ 132.661121945721334, 35.441278332828858 ], [ 132.66509194623643, 35.444809721391607 ], [ 132.665346939110009, 35.439087224595767 ], [ 132.665635551339733, 35.442804440972225 ], [ 132.668470557969954, 35.440179721017387 ], [ 132.667252502700876, 35.444038053613326 ], [ 132.675261388202557, 35.447788892043775 ], [ 132.678956667416287, 35.447259721059311 ], [ 132.67834444943685, 35.443058333075669 ], [ 132.68370444930099, 35.444196107664311 ], [ 132.686601115249346, 35.440658892394026 ], [ 132.684806108914813, 35.451728613284899 ], [ 132.701373890892455, 35.448628892109753 ], [ 132.70477306112798, 35.446877504693134 ], [ 132.702524720939209, 35.444354721093532 ], [ 132.709836109348998, 35.441262504760857 ], [ 132.723449973637457, 35.447097279216109 ], [ 132.743439221842664, 35.447171359970355 ], [ 132.746788417651373, 35.451936918753859 ], [ 132.753432022569882, 35.447563973398701 ], [ 132.759199248046912, 35.456478414147568 ], [ 132.748802865759671, 35.460171224722274 ], [ 132.747667275624281, 35.456698532211533 ], [ 132.747587224271001, 35.46116722478763 ], [ 132.7267697283404, 35.470618053580381 ], [ 132.745973890882397, 35.471626666637405 ], [ 132.753564162656062, 35.477203612656638 ], [ 132.75834666736489, 35.475326946081736 ], [ 132.800526393878044, 35.483500838293082 ], [ 132.801586939185995, 35.488471386745175 ], [ 132.813118884628921, 35.497169440717187 ], [ 132.825522503360958, 35.497140837779511 ], [ 132.831738611947458, 35.505201946013074 ], [ 132.839225836703008, 35.502415467699734 ], [ 132.856249441858267, 35.510120000137931 ], [ 132.860112218004474, 35.507263333336198 ], [ 132.864947224235038, 35.513189999618817 ], [ 132.876567224098153, 35.510104440967211 ], [ 132.908842217794131, 35.51194110839549 ], [ 132.920531945692801, 35.520013333148881 ], [ 132.925333605961214, 35.515934720610915 ], [ 132.939788611555286, 35.514487224905565 ], [ 132.954465836928875, 35.518937774558708 ], [ 132.97100250326298, 35.515813054029252 ], [ 132.974938611927428, 35.520583333354182 ], [ 132.971680000331844, 35.524492224936296 ], [ 132.975599441860822, 35.523547774909957 ], [ 132.97443916983184, 35.527616666675897 ], [ 132.971147497359198, 35.525189441439636 ], [ 132.968579727872225, 35.528953332630238 ], [ 132.966339442011758, 35.525349721312637 ], [ 132.969654449193513, 35.532152505333897 ], [ 132.968145278881593, 35.54357000035526 ], [ 132.980241946408796, 35.540647225289263 ], [ 132.977851388330919, 35.545795279228798 ], [ 132.989444993991356, 35.542993613164754 ], [ 132.98975277616978, 35.547278054438721 ], [ 132.991291115092963, 35.544252504849283 ], [ 132.999562348123959, 35.543828486195707 ], [ 132.998197497416641, 35.539430558573486 ], [ 133.001708326578068, 35.542381387091382 ], [ 133.007824994428006, 35.537704999686014 ], [ 133.014301388398394, 35.539335278999999 ], [ 133.013636393704701, 35.541846946079772 ], [ 133.028186667180989, 35.538429170669758 ], [ 133.031198054246829, 35.542988333245034 ], [ 133.025781945680365, 35.551683333119399 ], [ 133.028698611651635, 35.555651386602278 ], [ 133.031424162694975, 35.553220000202884 ], [ 133.033866394018901, 35.555616107997025 ], [ 133.031598612286189, 35.557709171241299 ], [ 133.040451659916243, 35.559804999900905 ], [ 133.039988054005562, 35.554897225026991 ], [ 133.048070829605194, 35.553936107865127 ], [ 133.050170000145499, 35.556221386807579 ], [ 133.046524448944183, 35.559690838161714 ], [ 133.053044163257596, 35.560218892188175 ], [ 133.052990246202967, 35.564545721208106 ], [ 133.059965279174321, 35.564654441149571 ], [ 133.060437782077997, 35.572072224753413 ], [ 133.047700272049951, 35.578039170771149 ], [ 133.054295279403732, 35.57757638684086 ], [ 133.059685278852612, 35.582202225152628 ], [ 133.066841387620002, 35.575892505235004 ], [ 133.068856939196394, 35.584166946147718 ], [ 133.093203891046755, 35.578309721016865 ], [ 133.09820631596881, 35.580102810896051 ], [ 133.092573605687448, 35.584288612729324 ], [ 133.094113060669315, 35.586549440904037 ], [ 133.090116939345307, 35.586652774805771 ], [ 133.098229728019646, 35.588753332999943 ], [ 133.093465278999474, 35.590999171274802 ], [ 133.093086108637067, 35.598374171430919 ], [ 133.090309727911631, 35.596040278735927 ], [ 133.08391027184166, 35.600899440756621 ], [ 133.094913060689237, 35.604465838127965 ], [ 133.094947496629743, 35.604454441019698 ] ] ] ] } },
{ "type": "Feature", "properties": { "code": "320020", "name": "西部", "PrefCode": "32", "regioncode": "320020" }, "geometry": { "type": "MultiPolygon", "coordinates": [ [ [ [ 131.915029585147295, 34.781365585653305 ], [ 131.911435083962033, 34.77809544115172 ], [ 131.915005031856822, 34.781375387364278 ], [ 131.915029585147295, 34.781365585653305 ] ] ], [ [ [ 131.83351888488869, 34.837395279068915 ], [ 131.842151659771389, 34.834223333340219 ], [ 131.829648885387769, 34.836529161791418 ], [ 131.833474449386358, 34.837437495044412 ], [ 131.83351888488869, 34.837395279068915 ] ] ], [ [ [ 132.041942334970827, 34.881629468125482 ], [ 132.045466523561231, 34.889321748200189 ], [ 132.042724811700737, 34.883333332667235 ], [ 132.041942334970827, 34.881629468125482 ] ] ], [ [ [ 132.059321309930624, 34.89272577477476 ], [ 132.058492918313618, 34.895043639752203 ], [ 132.059250271582869, 34.892783414123301 ], [ 132.059321309930624, 34.89272577477476 ] ] ], [ [ [ 132.052019753808622, 34.899822801681012 ], [ 132.053493060956043, 34.89786119773612 ], [ 132.04892983074717, 34.896286000098883 ], [ 132.052003307007112, 34.899847387347108 ], [ 132.052019753808622, 34.899822801681012 ] ] ], [ [ [ 132.061516135061652, 34.904747134872423 ], [ 132.063151362445524, 34.898020000023052 ], [ 132.060484332086276, 34.897541612855207 ], [ 132.056089000806764, 34.903834667436001 ], [ 132.061493306670855, 34.904757774751545 ], [ 132.061516135061652, 34.904747134872423 ] ] ], [ [ [ 132.050787003617415, 34.906076585566041 ], [ 132.051107082226167, 34.902553891648836 ], [ 132.044536394339161, 34.901724134861013 ], [ 132.050786550359021, 34.906080467939319 ], [ 132.050787003617415, 34.906076585566041 ] ] ], [ [ [ 132.337716938985636, 35.10258564001532 ], [ 132.338374747196895, 35.099822413673508 ], [ 132.337711114976059, 35.102591107893375 ], [ 132.337716938985636, 35.10258564001532 ] ] ], [ [ [ 132.401328494614404, 35.170583225235703 ], [ 132.399598716107903, 35.168615225312465 ], [ 132.40137111528486, 35.170599467891179 ], [ 132.401328494614404, 35.170583225235703 ] ] ], [ [ [ 132.574676938789707, 35.272272224683491 ], [ 132.584554720723872, 35.246468613036143 ], [ 132.579965551369128, 35.236668892255636 ], [ 132.581672775778088, 35.23165638683281 ], [ 132.600429727949631, 35.217208892376561 ], [ 132.608500271870071, 35.217439170980981 ], [ 132.609646108880838, 35.212014721202479 ], [ 132.615055836757506, 35.21333110834405 ], [ 132.617760830198222, 35.209453612993912 ], [ 132.626324720609432, 35.208780000096965 ], [ 132.631158885074569, 35.201936946233161 ], [ 132.641595836678562, 35.20038250494872 ], [ 132.640040272140936, 35.208230838082784 ], [ 132.649000557629734, 35.210872225173091 ], [ 132.659708885057057, 35.199577504698141 ], [ 132.660783606378345, 35.192021945856141 ], [ 132.666394162760412, 35.185798333326488 ], [ 132.666230558093844, 35.170349441073881 ], [ 132.660847224419967, 35.170388891634104 ], [ 132.650746666925215, 35.150818332699941 ], [ 132.637800558249182, 35.146613054249087 ], [ 132.628947782214482, 35.136477505032872 ], [ 132.650227223907336, 35.124859441410138 ], [ 132.65377389105231, 35.118351946185442 ], [ 132.667084163103709, 35.12103917082112 ], [ 132.671905550900533, 35.117639441207302 ], [ 132.670596394308177, 35.111873053898364 ], [ 132.663572776362571, 35.10701917089807 ], [ 132.668459169854827, 35.102421946315815 ], [ 132.666681945815185, 35.097389720559192 ], [ 132.657741115360295, 35.085581387371178 ], [ 132.669458885019594, 35.084256107733211 ], [ 132.671965836953859, 35.082568892340589 ], [ 132.670329999829733, 35.076018333079674 ], [ 132.67739221757688, 35.076761945607359 ], [ 132.682401659908692, 35.06921138699596 ], [ 132.691458611725579, 35.072224999883872 ], [ 132.703829442075175, 35.057622224885847 ], [ 132.717423060825695, 35.056882775319878 ], [ 132.72241499425661, 35.051160279423414 ], [ 132.711862775646637, 35.040209440813101 ], [ 132.717900830159238, 35.033565279214315 ], [ 132.71505472139836, 35.029194440970741 ], [ 132.717118327348999, 35.022951386897034 ], [ 132.71226472133992, 35.022637775313115 ], [ 132.710551946315377, 35.026219170678246 ], [ 132.700835278825139, 35.024744440803374 ], [ 132.695746108895833, 35.029198333236536 ], [ 132.686323332655775, 35.024969170590794 ], [ 132.687522775555749, 35.020331107794448 ], [ 132.679340829915418, 35.018079720702588 ], [ 132.674617496999986, 35.010912775104543 ], [ 132.664051659956158, 35.008360559392372 ], [ 132.663301660443381, 34.995073053678539 ], [ 132.667836938823712, 34.992109999776744 ], [ 132.665238327087195, 34.986725828833983 ], [ 132.655739442121671, 34.989614161664292 ], [ 132.649065279139336, 34.986042774854241 ], [ 132.657573605837342, 34.980746667324865 ], [ 132.654571114865121, 34.975144161673768 ], [ 132.657161114693736, 34.968595829134244 ], [ 132.669903332672675, 34.964318891803487 ], [ 132.685325837017785, 34.966349999852639 ], [ 132.681761660072652, 34.959680278621988 ], [ 132.685031114794128, 34.949144162373273 ], [ 132.675827497041382, 34.932658612604939 ], [ 132.651264993884411, 34.920407775198726 ], [ 132.641857223731904, 34.904365828620143 ], [ 132.634029170309987, 34.904804161782693 ], [ 132.633361115223352, 34.901525278568784 ], [ 132.636587782000561, 34.898546107916616 ], [ 132.655691115252807, 34.899488333020201 ], [ 132.663588611625187, 34.889731667282661 ], [ 132.675154162934291, 34.894488892048798 ], [ 132.680210829566249, 34.884663054056773 ], [ 132.700780557776625, 34.881895000154202 ], [ 132.710597782062109, 34.849860279228551 ], [ 132.698049727712828, 34.842756108107949 ], [ 132.692958054071028, 34.84415694608623 ], [ 132.69147082991492, 34.850625828918908 ], [ 132.680380557716603, 34.851731666783053 ], [ 132.672560271739258, 34.845397774887431 ], [ 132.667531387863278, 34.832276667134522 ], [ 132.659464449324901, 34.832428053611864 ], [ 132.652310558285649, 34.840536108254867 ], [ 132.643966938823269, 34.837501667068352 ], [ 132.631180271852145, 34.843132225272029 ], [ 132.614590272123451, 34.843010829386344 ], [ 132.610814448727865, 34.837613891667843 ], [ 132.612249442058214, 34.833022494692443 ], [ 132.604354449398329, 34.830594720869726 ], [ 132.599167782167456, 34.833581945850199 ], [ 132.590002503412848, 34.821076945644563 ], [ 132.585845550931481, 34.823007225303229 ], [ 132.582304448791319, 34.816988892023801 ], [ 132.569260000148915, 34.811631108089216 ], [ 132.567780271842139, 34.806154162184896 ], [ 132.554084721232925, 34.808283891688291 ], [ 132.543648612293737, 34.796552494601997 ], [ 132.538059727774225, 34.794991667231727 ], [ 132.519690557872991, 34.803995559047848 ], [ 132.505575836855428, 34.796034441036682 ], [ 132.495016393991477, 34.801434720635882 ], [ 132.483878327323055, 34.79713555925872 ], [ 132.471518326609498, 34.802340559169522 ], [ 132.454259170124715, 34.800698053572376 ], [ 132.456681660430377, 34.807406108405246 ], [ 132.43535749725072, 34.820672775028584 ], [ 132.429917497294696, 34.814221946085979 ], [ 132.420895836673594, 34.813770559263958 ], [ 132.424820829717532, 34.799164161796682 ], [ 132.414626108708035, 34.797828612800288 ], [ 132.396680829756519, 34.77942333332021 ], [ 132.392846108860908, 34.783744721441792 ], [ 132.381396938817716, 34.785837774793549 ], [ 132.383011388265004, 34.794925279278289 ], [ 132.374314721047654, 34.800985558736613 ], [ 132.35196416341546, 34.798069161662511 ], [ 132.334483333039429, 34.790003054097724 ], [ 132.323314163318059, 34.793488613208979 ], [ 132.318310271601831, 34.801609162133161 ], [ 132.305789169934314, 34.793274440563039 ], [ 132.306694163105249, 34.789695279113914 ], [ 132.297867782172489, 34.776559721054355 ], [ 132.280213890758546, 34.783506667298923 ], [ 132.279329727684853, 34.789882775169986 ], [ 132.274543333408133, 34.791955829398034 ], [ 132.278103333002491, 34.798982495146106 ], [ 132.269779170372431, 34.798296666757835 ], [ 132.259568053822704, 34.806845278586763 ], [ 132.241987496725642, 34.806351387106872 ], [ 132.238306666919243, 34.801609162133161 ], [ 132.243618327324043, 34.798839162097693 ], [ 132.242657223652031, 34.782998892085232 ], [ 132.23280360560193, 34.776088333309986 ], [ 132.234299441665939, 34.77366082928387 ], [ 132.225110272421148, 34.76991582925217 ], [ 132.226904162696997, 34.764911108360991 ], [ 132.222168884986104, 34.760276387445401 ], [ 132.224738612297188, 34.757482225324509 ], [ 132.2223836062185, 34.749539440892534 ], [ 132.209885836562194, 34.744880558790783 ], [ 132.202545551136382, 34.748665558868481 ], [ 132.195686939001121, 34.744446386791367 ], [ 132.196498884715766, 34.738416667195509 ], [ 132.189165837033784, 34.733629720735053 ], [ 132.178019441743913, 34.736766386959232 ], [ 132.173990558117794, 34.731194999649574 ], [ 132.143295279353765, 34.71620722488359 ], [ 132.141504721066099, 34.71004833296422 ], [ 132.130768611782059, 34.70802610841821 ], [ 132.129548612178723, 34.699370559104068 ], [ 132.142221945686288, 34.691593892044523 ], [ 132.158319727573485, 34.692431107809455 ], [ 132.16193444911562, 34.683140828686362 ], [ 132.154787223851372, 34.678845829371596 ], [ 132.137204720621412, 34.648216387276477 ], [ 132.127751388116167, 34.641779720857471 ], [ 132.130805278940556, 34.629165278554808 ], [ 132.116348053819706, 34.612462775436768 ], [ 132.117637497272767, 34.601762774832252 ], [ 132.129684163393449, 34.595478612747854 ], [ 132.124534994294663, 34.589291667376585 ], [ 132.125528326970766, 34.583151386927 ], [ 132.117984721018161, 34.578498053642306 ], [ 132.119028054201408, 34.572425279003483 ], [ 132.113867223593502, 34.562692775351366 ], [ 132.100019999623328, 34.554964440556546 ], [ 132.08395055807182, 34.537529999909623 ], [ 132.0512994418159, 34.528494720854724 ], [ 132.048838885006603, 34.515422494852317 ], [ 132.036463333216375, 34.501154999703544 ], [ 132.052203890896863, 34.498915559205727 ], [ 132.059742776308099, 34.492270278850356 ], [ 132.057223606184493, 34.482198612975651 ], [ 132.068584994302114, 34.467671107635567 ], [ 132.03899333297602, 34.468884721153017 ], [ 132.034815837281144, 34.463405559319142 ], [ 132.025068326641986, 34.46238305443444 ], [ 132.01544055803538, 34.452103891581373 ], [ 132.016233332902061, 34.437469440662198 ], [ 132.009750558241763, 34.431339999741226 ], [ 131.997518326909358, 34.42791110781144 ], [ 131.989852775585177, 34.413424161895591 ], [ 131.997518611994451, 34.407089440825075 ], [ 132.007076666954731, 34.386323892433722 ], [ 132.013512218214373, 34.382089720564181 ], [ 132.013466939147975, 34.371327494967943 ], [ 132.007509999886679, 34.364824440595498 ], [ 131.997842776223251, 34.364882495430891 ], [ 131.989596109073204, 34.352381667180225 ], [ 131.98202416278491, 34.349651667190756 ], [ 131.980673605902211, 34.343363612840506 ], [ 131.974133333086911, 34.341368612571443 ], [ 131.974170557825005, 34.328950558821305 ], [ 131.970216109286071, 34.323453333204839 ], [ 131.960758885414293, 34.320794162021002 ], [ 131.963505550740592, 34.313595278799141 ], [ 131.960979169852862, 34.308017775200199 ], [ 131.955646939254962, 34.307959721264183 ], [ 131.945384162948812, 34.323686108327308 ], [ 131.933048612103789, 34.327880279251531 ], [ 131.929968884656319, 34.333288613178979 ], [ 131.919260558128371, 34.338141387315204 ], [ 131.899537781743334, 34.318155829028342 ], [ 131.887545550686696, 34.327237495114332 ], [ 131.884013061353812, 34.321294721074594 ], [ 131.885771387939258, 34.310970558844247 ], [ 131.881290272128467, 34.308618891948356 ], [ 131.859996938607878, 34.304633612850978 ], [ 131.845186394136817, 34.310975279385673 ], [ 131.841105837264649, 34.308337774668644 ], [ 131.834169727850735, 34.311263333136367 ], [ 131.831436666568948, 34.302615278772123 ], [ 131.823463890646053, 34.305286946035778 ], [ 131.820349728157453, 34.302438613251468 ], [ 131.816273605842298, 34.310466945693065 ], [ 131.797503606306464, 34.317755558772092 ], [ 131.795883891328572, 34.326911386551274 ], [ 131.777168611941988, 34.333197224972025 ], [ 131.774607224044189, 34.337519721058356 ], [ 131.779283606053696, 34.343868892435466 ], [ 131.77901693908052, 34.350210279281043 ], [ 131.765245837325551, 34.364065829174706 ], [ 131.76733832680236, 34.374365829319629 ], [ 131.763456666691923, 34.380935559428565 ], [ 131.772852776234686, 34.387391108013276 ], [ 131.778599728294921, 34.39846027941843 ], [ 131.784778327058234, 34.399860828714338 ], [ 131.787096394383184, 34.413155558682149 ], [ 131.794195279288715, 34.425349441123842 ], [ 131.793819727798223, 34.436213053589597 ], [ 131.770783891263591, 34.437086666716368 ], [ 131.761393890815498, 34.433665829114773 ], [ 131.755375551240718, 34.440361108178649 ], [ 131.737834994189711, 34.428596107924079 ], [ 131.729480271697298, 34.43271277527441 ], [ 131.712869441871362, 34.428494721054562 ], [ 131.702242775583727, 34.435940559009623 ], [ 131.697425279153322, 34.435307775333627 ], [ 131.693896394303238, 34.443837225307732 ], [ 131.699058054085981, 34.452291107948326 ], [ 131.695537223564088, 34.454606387374952 ], [ 131.693896939292358, 34.465544999702047 ], [ 131.698879442432371, 34.470115000007297 ], [ 131.699120271883089, 34.477027495022924 ], [ 131.693421946165927, 34.481576107651279 ], [ 131.682340829965369, 34.478999441171311 ], [ 131.682065551084406, 34.493177774834521 ], [ 131.667955550608212, 34.504135000429983 ], [ 131.669268326971746, 34.510654161660284 ], [ 131.681436109289052, 34.518517775175212 ], [ 131.685806666944131, 34.51702972094489 ], [ 131.706733333376746, 34.532928332676477 ], [ 131.700792502771833, 34.537735828645623 ], [ 131.705596666752854, 34.544931387073916 ], [ 131.700924993593617, 34.551010829286383 ], [ 131.705388612194724, 34.55961249482084 ], [ 131.702830272099391, 34.565066107814687 ], [ 131.713195278839066, 34.562809721391602 ], [ 131.716676666894728, 34.57029527880411 ], [ 131.724419728088037, 34.571991667281679 ], [ 131.727609727706863, 34.576435559253696 ], [ 131.719999442420431, 34.583005278570795 ], [ 131.718413605803335, 34.613403333197311 ], [ 131.706653890864459, 34.612896387158571 ], [ 131.694818612189238, 34.620678612927691 ], [ 131.700488326874847, 34.649181946189913 ], [ 131.69493555103486, 34.648811667424582 ], [ 131.695237781698324, 34.655973333102907 ], [ 131.688762776281123, 34.656813333168827 ], [ 131.689857224231559, 34.663185000187639 ], [ 131.683863061131433, 34.668801108084722 ], [ 131.688412776328619, 34.671848612823283 ], [ 131.690621659661929, 34.681045000026756 ], [ 131.690969170291055, 34.677113612803055 ], [ 131.703235862744918, 34.675327053800572 ], [ 131.700079027425204, 34.674945126116711 ], [ 131.704212775599217, 34.672462224751939 ], [ 131.722758326835333, 34.677259999949115 ], [ 131.725071660129061, 34.673581386971478 ], [ 131.747073606361937, 34.675724162040524 ], [ 131.807342244349115, 34.690881531857258 ], [ 131.849305966297379, 34.711334413852171 ], [ 131.855557859807391, 34.717953414218755 ], [ 131.854351970566995, 34.722807999589577 ], [ 131.861370000125476, 34.722569440927032 ], [ 131.870857223582107, 34.7324474953557 ], [ 131.86884000016596, 34.739868612746307 ], [ 131.874714994101737, 34.742662774867199 ], [ 131.86870693917399, 34.745863891905117 ], [ 131.864773060828156, 34.755505829330616 ], [ 131.874096667027629, 34.760087494742152 ], [ 131.889978054044036, 34.757909441067909 ], [ 131.888704448551493, 34.76314249532993 ], [ 131.894128884840256, 34.762495559022909 ], [ 131.893285836971813, 34.769176946259108 ], [ 131.897120000287828, 34.77561944118429 ], [ 131.910976938734848, 34.77323525210528 ], [ 131.913491776824117, 34.776993386735455 ], [ 131.911988470091842, 34.773579197821789 ], [ 131.914493087386177, 34.774082441351652 ], [ 131.916754474939125, 34.783485197783705 ], [ 131.929794331643166, 34.794656694051241 ], [ 131.922835304805517, 34.788482108062908 ], [ 131.925796108603549, 34.780943279308929 ], [ 131.931903190579874, 34.783444802036058 ], [ 131.935087003762305, 34.78992980161911 ], [ 131.946152387222924, 34.792396026855215 ], [ 131.948371920327872, 34.801218494837713 ], [ 131.953698975327484, 34.805502775132993 ], [ 131.951099441785914, 34.81075055939084 ], [ 131.956151946355249, 34.812935559428581 ], [ 131.954640558315191, 34.816362495332953 ], [ 131.989084721282893, 34.827721585682696 ], [ 131.994234448860766, 34.841665829414524 ], [ 132.008023799658645, 34.847211333336418 ], [ 132.015327366664678, 34.859104864697827 ], [ 132.006938781099961, 34.863190802213808 ], [ 132.008354227665563, 34.868466918713352 ], [ 132.021418444305823, 34.87273061262772 ], [ 132.017285616138338, 34.867547972560942 ], [ 132.02033972819595, 34.869747359952726 ], [ 132.021282309431058, 34.866480792954292 ], [ 132.02204581136516, 34.87189097318992 ], [ 132.030685576678138, 34.874958891639608 ], [ 132.028389585011382, 34.878773586431919 ], [ 132.034155811341634, 34.877955332872375 ], [ 132.035952022767674, 34.882069027064006 ], [ 132.047846252002955, 34.878984197762577 ], [ 132.041342023115931, 34.87348623380268 ], [ 132.056667133581414, 34.872854414199935 ], [ 132.059850284862819, 34.877644207014612 ], [ 132.053761192924753, 34.877985667004964 ], [ 132.053208249261388, 34.883515973283579 ], [ 132.058909974415883, 34.884406107855625 ], [ 132.055784772749121, 34.893422027204849 ], [ 132.057560973360296, 34.888966468327908 ], [ 132.063294527320636, 34.891058802222005 ], [ 132.061067833813581, 34.893869440822073 ], [ 132.065442943836842, 34.8923479462008 ], [ 132.064019104797921, 34.896207865200893 ], [ 132.067168806695122, 34.890803748194458 ], [ 132.07063250328747, 34.892185559216216 ], [ 132.064123995426144, 34.898995359748085 ], [ 132.063465887740563, 34.905072441240236 ], [ 132.069693969001491, 34.908369720985888 ], [ 132.077560389300629, 34.905191251575047 ], [ 132.078287781655831, 34.912006054136157 ], [ 132.082535058446297, 34.911633413751076 ], [ 132.077240661427481, 34.91274202692307 ], [ 132.074586109161714, 34.908486441296304 ], [ 132.070889338872007, 34.91372961293132 ], [ 132.074211413825765, 34.914764414246349 ], [ 132.072879754397263, 34.918318359604655 ], [ 132.085463722273062, 34.925816693685533 ], [ 132.08459063614896, 34.930847828564481 ], [ 132.105764086443514, 34.93505064017495 ], [ 132.108549883070737, 34.940890467920838 ], [ 132.104717496815056, 34.945919748397728 ], [ 132.110049611400541, 34.947552224755441 ], [ 132.11246014342089, 34.953143387257569 ], [ 132.117631440338755, 34.951285946389362 ], [ 132.146080271986989, 34.964583054164677 ], [ 132.151898664391865, 34.977415467849596 ], [ 132.182768807334696, 34.989821864587441 ], [ 132.193407976896651, 35.001684197567727 ], [ 132.224604357904809, 35.02405044117495 ], [ 132.225938482375113, 35.030939432408957 ], [ 132.225654578096396, 35.025085873814078 ], [ 132.230912361016749, 35.026563108300877 ], [ 132.234625187802294, 35.037603972645286 ], [ 132.231322801706028, 35.031625359722625 ], [ 132.252478833031773, 35.038015640009803 ], [ 132.254703773760184, 35.041451332612951 ], [ 132.261078171120744, 35.038158170862971 ], [ 132.269249389647712, 35.039340468188129 ], [ 132.310048585773643, 35.057157775411042 ], [ 132.317754994197685, 35.073607505182281 ], [ 132.32764527940617, 35.077552775240463 ], [ 132.323210000241374, 35.08410527883558 ], [ 132.323957224446417, 35.089476945604588 ], [ 132.332719883016239, 35.097501838139351 ], [ 132.338381051444458, 35.092250999783857 ], [ 132.345094137084857, 35.091948748436039 ], [ 132.33734844357582, 35.098802918819672 ], [ 132.342208054358252, 35.09975802671164 ], [ 132.340078275392216, 35.102492026885557 ], [ 132.346720363154304, 35.102818639968291 ], [ 132.34660922223793, 35.106022440583217 ], [ 132.349085499196462, 35.1033869458509 ], [ 132.348291140623701, 35.107814748052249 ], [ 132.351498275025392, 35.109649865049278 ], [ 132.354419637256569, 35.106138972935298 ], [ 132.359322776125282, 35.11163527944467 ], [ 132.357369999925595, 35.113668053937602 ], [ 132.365091388356973, 35.114355000183139 ], [ 132.364563605925696, 35.121714999647565 ], [ 132.370399169985717, 35.119084720983153 ], [ 132.369067808232785, 35.123271225186954 ], [ 132.375840699688638, 35.123251946420226 ], [ 132.37303024634889, 35.125995721325523 ], [ 132.383323774073006, 35.126389865400029 ], [ 132.3890044487963, 35.131402225132661 ], [ 132.391380466635269, 35.139464251573997 ], [ 132.38143717268747, 35.146456359973058 ], [ 132.3906254471068, 35.146208531998184 ], [ 132.393205940202051, 35.155487081263857 ], [ 132.399448248737713, 35.157424080656824 ], [ 132.398670660722473, 35.154254305891527 ], [ 132.404082217820132, 35.15912455925104 ], [ 132.401484616921607, 35.167930837638096 ], [ 132.404135330880877, 35.166714413739271 ], [ 132.406405226919787, 35.174200278719923 ], [ 132.416569273852929, 35.176776667309412 ], [ 132.413675551385609, 35.180336171377235 ], [ 132.415844059655683, 35.183817586412545 ], [ 132.422045279066424, 35.183205360339173 ], [ 132.417640778299301, 35.190704440857303 ], [ 132.429950636412855, 35.189914972797794 ], [ 132.44999053173774, 35.198714251761373 ], [ 132.465445810975439, 35.209551306347748 ], [ 132.467020168645945, 35.217187838348138 ], [ 132.486079662646375, 35.222707531727281 ], [ 132.486976835312817, 35.230492531904872 ], [ 132.500997004308374, 35.228346693744982 ], [ 132.508215032297926, 35.237835838153444 ], [ 132.527375576821441, 35.24215577476923 ], [ 132.52983586293476, 35.252694892055672 ], [ 132.574635837074311, 35.272291945916606 ], [ 132.574676938789707, 35.272272224683491 ] ] ] ] } },
{ "type": "Feature", "properties": { "code": "320030", "name": "隠岐", "PrefCode": "32", "regioncode": "320030" }, "geometry": { "type": "MultiPolygon", "coordinates": [ [ [ [ 133.029631946057521, 35.994821387197305 ], [ 133.027046666770275, 35.992393613374588 ], [ 133.029597224132658, 35.994843891832204 ], [ 133.029631946057521, 35.994821387197305 ] ] ], [ [ [ 133.038190829942891, 35.997666108304315 ], [ 133.041926666782274, 35.995086386827325 ], [ 133.038086939360824, 35.997609999601877 ], [ 133.038190829942891, 35.997666108304315 ] ] ], [ [ [ 133.077179390416632, 36.000000000099988 ], [ 133.079922503420903, 35.996878613357353 ], [ 133.0777255513932, 35.993059721429063 ], [ 133.07714999967277, 36.000021386877563 ], [ 133.077179390416632, 36.000000000099988 ] ] ], [ [ [ 133.072804162582088, 36.000224441205035 ], [ 133.072644720877179, 35.997616386587026 ], [ 133.072755550628244, 36.000235558624183 ], [ 133.072804162582088, 36.000224441205035 ] ] ], [ [ [ 133.054318884808708, 36.002166946247598 ], [ 133.050146938830267, 35.992974441417402 ], [ 133.047935279289732, 36.001321945951076 ], [ 133.05438138769091, 36.002268333117115 ], [ 133.054318884808708, 36.002166946247598 ] ] ], [ [ [ 133.003826938662314, 36.032925279178357 ], [ 133.022970000365262, 36.029704171110666 ], [ 133.027044994031257, 36.032515000367027 ], [ 133.041041660144515, 36.022994171044218 ], [ 133.040694448989711, 36.027043586192576 ], [ 133.042501115034497, 36.020551667225732 ], [ 133.054998053717213, 36.012902774943143 ], [ 133.073171388149149, 36.010306387230059 ], [ 133.065540271866098, 36.006290279372934 ], [ 133.065783060939566, 35.995853054375004 ], [ 133.061000829624618, 35.993915278867064 ], [ 133.055116108621633, 35.997075000111238 ], [ 133.057808858691942, 36.005113171135974 ], [ 133.04699277629561, 36.004571945638816 ], [ 133.048382165904286, 36.008886748025077 ], [ 133.041733995127856, 36.013084053985949 ], [ 133.038447497354127, 36.000786387082144 ], [ 133.033074449226547, 36.006527197672085 ], [ 133.030040558425071, 35.999941667374117 ], [ 133.023400557989476, 36.00666694602279 ], [ 133.009525278768706, 36.001844720957138 ], [ 133.00561639438115, 36.004204720971131 ], [ 133.009531946342349, 36.010051666850984 ], [ 133.003280272266807, 36.016174171301031 ], [ 133.007764163385445, 36.018708891602103 ], [ 133.002344162553072, 36.020454999998321 ], [ 133.005892775831057, 36.02314750455372 ], [ 132.9997238906451, 36.03122444085534 ], [ 133.003521946180967, 36.032948053609857 ], [ 133.003826938662314, 36.032925279178357 ] ] ], [ [ [ 133.136343332678734, 36.070369720786061 ], [ 133.136395279318776, 36.067265838447724 ], [ 133.136357223607092, 36.070488053580846 ], [ 133.136343332678734, 36.070369720786061 ] ] ], [ [ [ 133.164283605803803, 36.114032774692873 ], [ 133.167378054253845, 36.112387504579715 ], [ 133.165074448926703, 36.106226667426824 ], [ 133.168765836774014, 36.105656107843174 ], [ 133.165706394434665, 36.099606107635793 ], [ 133.156436394124398, 36.104861667432033 ], [ 133.164179441827855, 36.114111666820008 ], [ 133.164283605803803, 36.114032774692873 ] ] ], [ [ [ 133.112556666556998, 36.120120559016641 ], [ 133.114423332670754, 36.118605278710675 ], [ 133.110268053827667, 36.117116387211524 ], [ 133.115263061141377, 36.117754720603898 ], [ 133.114686939250873, 36.11474666732488 ], [ 133.132519169823922, 36.11115333256032 ], [ 133.134071634398424, 36.108598918905045 ], [ 133.126244162837907, 36.105545278991485 ], [ 133.135981660425387, 36.102033612561229 ], [ 133.126524449144085, 36.09805610810298 ], [ 133.127690557773121, 36.090445838104984 ], [ 133.117504448671411, 36.084676667394319 ], [ 133.118938417673917, 36.081514892098653 ], [ 133.132398884600889, 36.082881946144937 ], [ 133.131014163373038, 36.085607224693717 ], [ 133.135364721005089, 36.086333892195398 ], [ 133.145661388262511, 36.08245833308564 ], [ 133.152627782346372, 36.074538612666913 ], [ 133.144794163020265, 36.074662225381473 ], [ 133.137980558356162, 36.082340000290856 ], [ 133.131653060640247, 36.073428333051197 ], [ 133.12823221764279, 36.077005278570823 ], [ 133.123403060602868, 36.07438027892681 ], [ 133.117857782410738, 36.079156532448053 ], [ 133.113048611903992, 36.078646386621472 ], [ 133.117442218283827, 36.074001945833174 ], [ 133.115007782283442, 36.072831107669515 ], [ 133.118261659847803, 36.070679171206848 ], [ 133.117120000187924, 36.064195838067519 ], [ 133.096954448888823, 36.072255000168184 ], [ 133.108345279011473, 36.064206666804296 ], [ 133.107714721157549, 36.060844170921825 ], [ 133.100007497048409, 36.060996107784206 ], [ 133.104304448791368, 36.057830558933176 ], [ 133.096113606158042, 36.057086387027198 ], [ 133.099859727644343, 36.05257027859551 ], [ 133.105004993685611, 36.053313053854424 ], [ 133.103906666959233, 36.050098613360376 ], [ 133.087508053753709, 36.052824999873906 ], [ 133.087524720889178, 36.045500000224877 ], [ 133.075949441613488, 36.044868613196002 ], [ 133.082104720956181, 36.041297505175748 ], [ 133.080482503165058, 36.037979999677304 ], [ 133.068678885122495, 36.034763333361184 ], [ 133.072606666964134, 36.050198332886794 ], [ 133.070029999584904, 36.058184170563095 ], [ 133.078347497339223, 36.0620316672277 ], [ 133.074514449182516, 36.067191108382985 ], [ 133.07985036340358, 36.068680945968936 ], [ 133.076756109207167, 36.075066108214401 ], [ 133.071246938795298, 36.072677505262732 ], [ 133.067486108896901, 36.075792505020161 ], [ 133.075011115070993, 36.080188613313908 ], [ 133.069789441729426, 36.083132224772385 ], [ 133.072786938766285, 36.085149171197372 ], [ 133.06541861157973, 36.093734720880718 ], [ 133.064178949199231, 36.1008562516148 ], [ 133.068974837618725, 36.100443252354239 ], [ 133.074787327773038, 36.106431252400455 ], [ 133.0813316079674, 36.102473080668176 ], [ 133.077143606392383, 36.108650279187088 ], [ 133.082992217816695, 36.114289441204789 ], [ 133.088626393992968, 36.108419999683292 ], [ 133.086470258595568, 36.097305864873817 ], [ 133.091056744373304, 36.096294053827592 ], [ 133.090541660369354, 36.102978333283488 ], [ 133.095732775647093, 36.106022170586755 ], [ 133.091966394233737, 36.108997225041946 ], [ 133.097569169681492, 36.109953332980012 ], [ 133.090402502873303, 36.111022224895805 ], [ 133.093518053915091, 36.117675000201132 ], [ 133.112522218026015, 36.120143053758966 ], [ 133.112556666556998, 36.120120559016641 ] ] ], [ [ [ 133.175012503424341, 36.140084440944236 ], [ 133.179663061401243, 36.136994721129554 ], [ 133.168376394355164, 36.133190559196976 ], [ 133.175000000149907, 36.140093278582015 ], [ 133.175012503424341, 36.140084440944236 ] ] ], [ [ [ 133.069204993915378, 36.14273610818492 ], [ 133.069884448808352, 36.14002999958484 ], [ 133.081603891206669, 36.14213917058629 ], [ 133.080181660155517, 36.137835278775128 ], [ 133.093003890816931, 36.139058053686256 ], [ 133.086058885309399, 36.12958305381494 ], [ 133.087349442123127, 36.125426107628812 ], [ 133.070291025110805, 36.113640306055345 ], [ 133.047779973567003, 36.11317366673137 ], [ 133.041098755403254, 36.10968945030794 ], [ 133.043580271812175, 36.106610613189275 ], [ 133.040010921067164, 36.105013640267316 ], [ 133.046302218372716, 36.09922083807129 ], [ 133.044449235443949, 36.095521332943235 ], [ 133.05012917002523, 36.095988612584449 ], [ 133.057115550642266, 36.082934170675514 ], [ 133.050389727903735, 36.078838891901398 ], [ 133.052771114695247, 36.06902083844102 ], [ 133.047180558336208, 36.066306108040521 ], [ 133.046235279134862, 36.060898053802191 ], [ 133.036560000243867, 36.065319441139366 ], [ 133.022608053818658, 36.063285838370803 ], [ 133.015131659598524, 36.073930838237629 ], [ 133.00751416264859, 36.07419555907785 ], [ 133.01070693937379, 36.078023613299194 ], [ 133.00563389069157, 36.08257055858445 ], [ 133.008284720663369, 36.085332224602553 ], [ 133.005431946127487, 36.090416387106643 ], [ 133.012987561626687, 36.097849837799799 ], [ 133.006344642891008, 36.105689333296141 ], [ 133.008069170256022, 36.098745612919743 ], [ 133.005098884905692, 36.092979170752187 ], [ 132.990084824754945, 36.09254536927341 ], [ 132.991810272126372, 36.083671387224797 ], [ 132.984924449204073, 36.086811387235798 ], [ 132.985750894688067, 36.093352892122311 ], [ 132.976451115126906, 36.08380083833805 ], [ 132.983023891239668, 36.078509170761663 ], [ 132.98072749667665, 36.07643666691871 ], [ 132.985385837386502, 36.069720558656911 ], [ 132.983039728300923, 36.068556945646549 ], [ 132.988068053697816, 36.066190359897234 ], [ 132.993069441701437, 36.051687504974439 ], [ 133.000971115424704, 36.04378500027758 ], [ 132.998386108632076, 36.037989170963499 ], [ 132.985986393857047, 36.049062224741931 ], [ 132.974737781623389, 36.052588053695786 ], [ 132.973164163195634, 36.057353332790115 ], [ 132.954416394001441, 36.05867110758561 ], [ 132.949668612116852, 36.062473053588576 ], [ 132.955284254165008, 36.064993053786452 ], [ 132.946036939253418, 36.064878053879113 ], [ 132.953816109126251, 36.07656555865367 ], [ 132.948058054035982, 36.076272775368352 ], [ 132.945803333157414, 36.079781386801585 ], [ 132.950624994348118, 36.080029170709736 ], [ 132.955834721095584, 36.090432504756336 ], [ 132.968440271801114, 36.092516667410337 ], [ 132.969508612432605, 36.095332774787778 ], [ 132.961696666767807, 36.096954720983661 ], [ 132.977711388170064, 36.114706946068736 ], [ 132.986005551215271, 36.116302224668004 ], [ 132.985062218146936, 36.107898613230475 ], [ 132.994555550698124, 36.1144119459546 ], [ 132.999888884764232, 36.114108612722362 ], [ 133.006305551160267, 36.107803613346107 ], [ 133.006645550651683, 36.112703612681628 ], [ 133.013201659628976, 36.116432504956208 ], [ 133.014512503349465, 36.137616387386402 ], [ 133.023226394382618, 36.134124441289998 ], [ 133.027666394088897, 36.13856277455244 ], [ 133.043755278982985, 36.135144170866852 ], [ 133.044254721078573, 36.127636107920068 ], [ 133.054710558445549, 36.132207225183322 ], [ 133.055336938948585, 36.126688891579136 ], [ 133.069093890770546, 36.142730278779368 ], [ 133.069204993915378, 36.14273610818492 ] ] ], [ [ [ 133.1226516599462, 36.14847166673411 ], [ 133.124893060966087, 36.14690583823392 ], [ 133.122554448628989, 36.148460559207479 ], [ 133.1226516599462, 36.14847166673411 ] ] ], [ [ [ 133.238244993911394, 36.158203333117399 ], [ 133.236523606079572, 36.156206386715439 ], [ 133.238167781717834, 36.158195838167444 ], [ 133.238244993911394, 36.158203333117399 ] ] ], [ [ [ 133.254693060836189, 36.157875837799736 ], [ 133.252291388037179, 36.155901108249623 ], [ 133.253242217854108, 36.160118891773493 ], [ 133.254629170300063, 36.15793055884825 ], [ 133.254693060836189, 36.157875837799736 ] ] ], [ [ [ 133.378322217696223, 36.251461387133361 ], [ 133.375978612323138, 36.250893054271103 ], [ 133.37829944236546, 36.251548892067774 ], [ 133.378322217696223, 36.251461387133361 ] ] ], [ [ [ 133.371109170152181, 36.297502504836757 ], [ 133.372414448867744, 36.299590279168115 ], [ 133.37122027239775, 36.297598332996699 ], [ 133.371109170152181, 36.297502504836757 ] ] ], [ [ [ 133.360324448914298, 36.298927504900462 ], [ 133.362072218358207, 36.300791667301667 ], [ 133.360407781893628, 36.298961108068738 ], [ 133.360324448914298, 36.298927504900462 ] ] ], [ [ [ 133.279049728062546, 36.348887774551201 ], [ 133.284093606334977, 36.346867225442168 ], [ 133.288189727773783, 36.336197505010887 ], [ 133.295665550924468, 36.333781387301258 ], [ 133.297475550756076, 36.327664440661465 ], [ 133.303071946413297, 36.325574999886385 ], [ 133.306462217857188, 36.329550279421937 ], [ 133.309869728405261, 36.328491387067913 ], [ 133.309967911889657, 36.322789332761545 ], [ 133.305691388247055, 36.323810279121119 ], [ 133.30894583688098, 36.319210837710045 ], [ 133.321014163173118, 36.327773333272773 ], [ 133.318100000015079, 36.320027225176375 ], [ 133.325658885449229, 36.315881945895114 ], [ 133.324528612105837, 36.308823332630766 ], [ 133.335011660259966, 36.312986666701363 ], [ 133.343770000285303, 36.310885559021358 ], [ 133.336828885244927, 36.30661527937167 ], [ 133.340828326865903, 36.306407224813654 ], [ 133.339603333327204, 36.303246945989827 ], [ 133.344771388189088, 36.301216107737218 ], [ 133.344705279025447, 36.297309441077914 ], [ 133.363891660172044, 36.297322224940785 ], [ 133.362281114681764, 36.29291750473908 ], [ 133.35938805411547, 36.295364721005114 ], [ 133.356006393680218, 36.291458333135608 ], [ 133.363741387954747, 36.29018694627058 ], [ 133.359733606021109, 36.283853891643844 ], [ 133.362689170368981, 36.279105559374102 ], [ 133.368647782369294, 36.278413612897964 ], [ 133.371394162610613, 36.281886945726001 ], [ 133.373647781819727, 36.277359720774541 ], [ 133.379252218315287, 36.276233891880679 ], [ 133.375810271826595, 36.270301666888486 ], [ 133.385910830220723, 36.268319440589778 ], [ 133.376074993566135, 36.26182972136462 ], [ 133.377813061123902, 36.258587775105809 ], [ 133.372563333431117, 36.250725559137322 ], [ 133.375876938569945, 36.24828722457579 ], [ 133.373117496575219, 36.242955558752101 ], [ 133.376631660422845, 36.24173583793862 ], [ 133.377855083745203, 36.231995973335529 ], [ 133.371589169804452, 36.221706945818937 ], [ 133.370085965594853, 36.205647171080159 ], [ 133.354577834099814, 36.203620467910298 ], [ 133.355796108803474, 36.199570198405979 ], [ 133.352442970366837, 36.197199134932191 ], [ 133.339463022000928, 36.196009721271651 ], [ 133.349444279929685, 36.206591747910863 ], [ 133.345189415559162, 36.20870358630151 ], [ 133.35200697813957, 36.212236108010018 ], [ 133.345252022762679, 36.214310918614046 ], [ 133.344785693704921, 36.217010559289918 ], [ 133.349607418747496, 36.217862837799771 ], [ 133.343566355103235, 36.220411440935322 ], [ 133.345164837986999, 36.224678865237479 ], [ 133.337416420431509, 36.22058302708507 ], [ 133.340276718695691, 36.216159774554001 ], [ 133.335509922444999, 36.211837559056164 ], [ 133.338812944361962, 36.207351414236427 ], [ 133.336219974072606, 36.201039865097755 ], [ 133.316201750610389, 36.205276467834778 ], [ 133.306386056971064, 36.199047748055193 ], [ 133.310125057625328, 36.193425054422789 ], [ 133.309401219390793, 36.199566054329978 ], [ 133.32168455289991, 36.19561030627068 ], [ 133.325024305827128, 36.200723278556495 ], [ 133.335717419423418, 36.197198586345735 ], [ 133.334587912302368, 36.192399467561415 ], [ 133.338951089221496, 36.18772480235782 ], [ 133.33674143966573, 36.181786441291308 ], [ 133.342012283440226, 36.170662946337927 ], [ 133.325557082193654, 36.167114747647531 ], [ 133.311184384351918, 36.172162054135526 ], [ 133.308396680262604, 36.178952378049871 ], [ 133.30888583681201, 36.173000838318103 ], [ 133.303000116662133, 36.171402440869997 ], [ 133.301131115009071, 36.17639861280577 ], [ 133.295934163131164, 36.178765559183262 ], [ 133.294670558099824, 36.175697225246779 ], [ 133.290746394230723, 36.179774999616598 ], [ 133.288584720808331, 36.174469171315252 ], [ 133.291365837363514, 36.17144417121159 ], [ 133.287553060825189, 36.170780000296816 ], [ 133.285073605662433, 36.178501946307847 ], [ 133.281085551257206, 36.175078613087578 ], [ 133.282494993948831, 36.186370837943855 ], [ 133.279904449131095, 36.188153332910019 ], [ 133.276105836914894, 36.180255838336336 ], [ 133.278018327084169, 36.169607775378608 ], [ 133.26815194585572, 36.169271946043523 ], [ 133.260174449391343, 36.163328054146461 ], [ 133.263868858960791, 36.171930801565281 ], [ 133.259506666799325, 36.169505278745646 ], [ 133.258211946124447, 36.172893891839692 ], [ 133.249610856156096, 36.159189053931755 ], [ 133.248213605573483, 36.165991107703519 ], [ 133.253327496966449, 36.171308054323276 ], [ 133.249473644792943, 36.175481306117433 ], [ 133.243090829777998, 36.175590278768425 ], [ 133.248168611592178, 36.17244361298242 ], [ 133.240778885037571, 36.166815559390614 ], [ 133.24309208792954, 36.165960413842072 ], [ 133.230335836929385, 36.169391386803113 ], [ 133.241138326972305, 36.175333053777479 ], [ 133.236924720799266, 36.179867225092437 ], [ 133.238731115248811, 36.183369170750666 ], [ 133.245805837169769, 36.183568332812342 ], [ 133.244861114648756, 36.1901588921192 ], [ 133.224127781771813, 36.188391666742064 ], [ 133.208623890580157, 36.197896945887408 ], [ 133.208268327421479, 36.209592225301037 ], [ 133.194991660336882, 36.211199721190212 ], [ 133.193298871845514, 36.21457726093189 ], [ 133.182253606218978, 36.212193332656227 ], [ 133.185356939071539, 36.214696108138924 ], [ 133.183690829867942, 36.224044999677062 ], [ 133.190743890718068, 36.230837775143243 ], [ 133.18974005216171, 36.243800864818127 ], [ 133.19235944183481, 36.242357505094844 ], [ 133.192735253229444, 36.245049134609928 ], [ 133.188286640716001, 36.249393027366352 ], [ 133.177241115185325, 36.250552505293911 ], [ 133.177077782113997, 36.257503612701612 ], [ 133.184824448689369, 36.26453333344665 ], [ 133.187841659764899, 36.274508054203409 ], [ 133.188105551430112, 36.283108892361554 ], [ 133.179301659843759, 36.288044171201591 ], [ 133.185782502760389, 36.289553891898663 ], [ 133.198091439968039, 36.279436586329439 ], [ 133.204457782101031, 36.279580558795828 ], [ 133.199543605852796, 36.287513612563203 ], [ 133.215957690994742, 36.28970978397939 ], [ 133.191174994230664, 36.29041610791711 ], [ 133.194286938991127, 36.291579999717271 ], [ 133.196038327307065, 36.301780559125575 ], [ 133.201059170344479, 36.298750558791312 ], [ 133.210188612014917, 36.300497224767184 ], [ 133.207070558159785, 36.308728332746398 ], [ 133.21627221808842, 36.314730559168027 ], [ 133.225332502792867, 36.31351389155293 ], [ 133.232097782386859, 36.31809361263015 ], [ 133.225606108934812, 36.322616386836842 ], [ 133.224603605871721, 36.328648612843267 ], [ 133.247469170166141, 36.334371946008559 ], [ 133.256427782016544, 36.327387775025841 ], [ 133.258989442408847, 36.329995558947928 ], [ 133.263402776317093, 36.327889171348204 ], [ 133.280031388437919, 36.340495278734181 ], [ 133.280908327257521, 36.345575837654849 ], [ 133.275931388223057, 36.348510278726451 ], [ 133.278952503255482, 36.3489102791861 ], [ 133.279049728062546, 36.348887774551201 ] ] ], [ [ [ 133.281398053977114, 36.353912505357869 ], [ 133.279912775953903, 36.350256666811788 ], [ 133.281286666646452, 36.3539236128845 ], [ 133.281398053977114, 36.353912505357869 ] ] ], [ [ [ 133.277577781589457, 36.356146108356256 ], [ 133.277716394096387, 36.352591666572209 ], [ 133.277510558165773, 36.356153891988583 ], [ 133.277577781589457, 36.356146108356256 ] ] ], [ [ [ 131.870410441288868, 37.241522891768113 ], [ 131.869945032237524, 37.238034278559155 ], [ 131.870429000597937, 37.241535359968964 ], [ 131.870410441288868, 37.241522891768113 ] ] ], [ [ [ 131.866195472642971, 37.242720667324988 ], [ 131.86299444913459, 37.240728945984131 ], [ 131.866201659978742, 37.242780305866461 ], [ 131.866195472642971, 37.242720667324988 ] ] ] ] } }
]
}
