{
"type": "FeatureCollection",
"name": "45_miyazaki_area",
"crs": { "type": "name", "properties": { "name": "urn:ogc:def:crs:OGC:1.3:CRS84" } },
"features": [
{ "type": "Feature", "properties": { "code": "450010", "name": "南部平野部", "PrefCode": "45", "regioncode": "450010" }, "geometry": { "type": "MultiPolygon", "coordinates": [ [ [ [ 131.216087496840601, 31.427887225115398 ], [ 131.215824993728575, 31.425086387326985 ], [ 131.216028326845844, 31.427904162047469 ], [ 131.216087496840601, 31.427887225115398 ] ] ], [ [ [ 131.219603060932627, 31.430398332816878 ], [ 131.2169486120888, 31.42787610769625 ], [ 131.21949333285113, 31.430488891848938 ], [ 131.219603060932627, 31.430398332816878 ] ] ], [ [ [ 131.167107885720384, 31.454302721093768 ], [ 131.169678327093152, 31.453184441109101 ], [ 131.166666666633432, 31.454773467621465 ], [ 131.167107885720384, 31.454302721093768 ] ] ], [ [ [ 131.378677223675027, 31.456607224843594 ], [ 131.377804162731991, 31.448472775098537 ], [ 131.372797224112674, 31.450536945823444 ], [ 131.378681660030679, 31.456621667056368 ], [ 131.378677223675027, 31.456607224843594 ] ] ], [ [ [ 131.387869441621547, 31.456743613327149 ], [ 131.385316667430288, 31.4517119460495 ], [ 131.387854994012855, 31.456757495262252 ], [ 131.387869441621547, 31.456743613327149 ] ] ], [ [ [ 131.390030558363605, 31.479751945895657 ], [ 131.392219441674001, 31.473166946197637 ], [ 131.386431803385108, 31.477120161766095 ], [ 131.39000194643279, 31.479760279013703 ], [ 131.390030558363605, 31.479751945895657 ] ] ], [ [ [ 131.390047223700435, 31.503767774563187 ], [ 131.388967781837778, 31.501286386757386 ], [ 131.390012217589856, 31.503789441029937 ], [ 131.390047223700435, 31.503767774563187 ] ] ], [ [ [ 131.41063277638159, 31.542260000098963 ], [ 131.414673605702433, 31.540938612726848 ], [ 131.412192502981725, 31.538111946409231 ], [ 131.416653606179011, 31.529747495050913 ], [ 131.413234449410425, 31.525773333372683 ], [ 131.41732805364677, 31.511510279076163 ], [ 131.403546783257525, 31.527640468033212 ], [ 131.410466393709157, 31.54226889169604 ], [ 131.41063277638159, 31.542260000098963 ] ] ], [ [ [ 131.392423060775741, 31.539296667407314 ], [ 131.395497055944475, 31.543723161994365 ], [ 131.393679143877421, 31.541105468442652 ], [ 131.392423060775741, 31.539296667407314 ] ] ], [ [ [ 131.39045505815443, 31.546015198442717 ], [ 131.394348197211571, 31.544013802195252 ], [ 131.389505965827766, 31.545932558840548 ], [ 131.39045505815443, 31.546015198442717 ] ] ], [ [ [ 131.416960272298752, 31.553946387016197 ], [ 131.41876499400928, 31.552478332808846 ], [ 131.416946667354864, 31.553963612630696 ], [ 131.416960272298752, 31.553946387016197 ] ] ], [ [ [ 131.412561115303333, 31.554522775106022 ], [ 131.41315916985991, 31.549237224718183 ], [ 131.412404993895393, 31.554478891787483 ], [ 131.412561115303333, 31.554522775106022 ] ] ], [ [ [ 131.476896108968276, 31.804251387091881 ], [ 131.473051387611463, 31.803439999856153 ], [ 131.477069170006303, 31.804288054250378 ], [ 131.476896108968276, 31.804251387091881 ] ] ], [ [ [ 131.193888611670104, 32.131749999862677 ], [ 131.204640000435688, 32.121668332627507 ], [ 131.217732775946956, 32.124243332663696 ], [ 131.236356393732649, 32.102117494926517 ], [ 131.247645279406129, 32.097687224985521 ], [ 131.266799728324827, 32.0986597212692 ], [ 131.284540272115919, 32.072461945762257 ], [ 131.292548885122983, 32.071592494697938 ], [ 131.312442776413036, 32.060708613311931 ], [ 131.316153890889382, 32.064612775359365 ], [ 131.336541660169587, 32.034352774760805 ], [ 131.348726108722985, 32.027619720573682 ], [ 131.364535550875075, 32.025674720811764 ], [ 131.372938326842359, 32.017861107803924 ], [ 131.386824449189021, 32.018336386914768 ], [ 131.389133061042003, 32.022481945885147 ], [ 131.385029170359985, 32.028441387060411 ], [ 131.386053332695155, 32.033291667376602 ], [ 131.39131944243843, 32.036259720609678 ], [ 131.392420557962396, 32.044404999990832 ], [ 131.398450558146806, 32.047652225270042 ], [ 131.393957496641178, 32.051605000170696 ], [ 131.400750272107416, 32.057857224631277 ], [ 131.402701945738272, 32.065640278675971 ], [ 131.418591387982246, 32.060611386706171 ], [ 131.425694720934644, 32.052272774668893 ], [ 131.443774060024907, 32.056853892393292 ], [ 131.472154448768833, 32.049269720721099 ], [ 131.486769532787775, 32.041374495136893 ], [ 131.507543191265313, 32.046278350765306 ], [ 131.503445810775588, 32.043918829190659 ], [ 131.472449053181322, 31.946245360235253 ], [ 131.4701269128268, 31.934266747612355 ], [ 131.472875161859292, 31.931878107788521 ], [ 131.469142826979919, 31.931020892000618 ], [ 131.472427471250853, 31.926600386898372 ], [ 131.467084890355522, 31.924345972688513 ], [ 131.473084188584494, 31.927794414081006 ], [ 131.475182282636297, 31.919268252028246 ], [ 131.469301633763507, 31.923141080796313 ], [ 131.467102386665829, 31.917347828939228 ], [ 131.459648248867666, 31.91601699958494 ], [ 131.454460336974989, 31.898469414332055 ], [ 131.461178106284592, 31.900965774950578 ], [ 131.463929273617168, 31.91363719829809 ], [ 131.472494552581566, 31.912124694199349 ], [ 131.486361478899198, 31.923071054185868 ], [ 131.46921917042846, 31.912128251917352 ], [ 131.464720168900726, 31.896065693776791 ], [ 131.460882970372836, 31.896116386761889 ], [ 131.466183281333429, 31.894297107725379 ], [ 131.460670245635356, 31.895094747924304 ], [ 131.457471439855112, 31.883028134840629 ], [ 131.458950311108083, 31.879609414243134 ], [ 131.463926524389649, 31.880436721277704 ], [ 131.461907392612147, 31.873286387057192 ], [ 131.458271894032691, 31.874884666694072 ], [ 131.454535031966202, 31.870179161938836 ], [ 131.45104916978346, 31.836696000120355 ], [ 131.454421945816193, 31.81576305372198 ], [ 131.464426108578095, 31.805062775226929 ], [ 131.472038611592666, 31.803196108213854 ], [ 131.470367781847699, 31.79658222498972 ], [ 131.474703709308756, 31.79413201757859 ], [ 131.475120143080176, 31.796834000089063 ], [ 131.480796394038407, 31.786615278872091 ], [ 131.488545005847413, 31.785004711798081 ], [ 131.4764236060646, 31.762541945754265 ], [ 131.477243358793999, 31.752395252139252 ], [ 131.477784500654252, 31.757633413651149 ], [ 131.473606252226773, 31.759360027443336 ], [ 131.470881724612013, 31.758139413603089 ], [ 131.474611607939437, 31.755482360322731 ], [ 131.46838111469674, 31.752558053711255 ], [ 131.474237782247883, 31.738740558629956 ], [ 131.469003450049286, 31.735971892289058 ], [ 131.470635551389591, 31.741366945927837 ], [ 131.463247458003821, 31.733994008816524 ], [ 131.468241387929766, 31.720904441187088 ], [ 131.459816394211316, 31.718127494788121 ], [ 131.462160272078904, 31.714589721038863 ], [ 131.458531388013171, 31.708247495125875 ], [ 131.462977781899212, 31.703640558764846 ], [ 131.456079442212513, 31.69679916235151 ], [ 131.46600944238196, 31.692456667141528 ], [ 131.468783332884527, 31.686365558923455 ], [ 131.450371660124119, 31.680044720687363 ], [ 131.455654993683083, 31.674468891626077 ], [ 131.451837781688369, 31.673809161563611 ], [ 131.452051946240431, 31.669621386617735 ], [ 131.461645278906531, 31.669607775378608 ], [ 131.463358884904665, 31.660553613258685 ], [ 131.457712218044435, 31.658418891618624 ], [ 131.466995836788556, 31.653032225057188 ], [ 131.469292502946701, 31.645310279046214 ], [ 131.458147782194487, 31.646659441080374 ], [ 131.452756666686923, 31.639123892153975 ], [ 131.46217722429958, 31.633222225225552 ], [ 131.456573061197901, 31.62406777520772 ], [ 131.423301025122328, 31.609265694256464 ], [ 131.418083385240152, 31.603405972607618 ], [ 131.4091816339253, 31.589568775178861 ], [ 131.413836978094082, 31.578527387429062 ], [ 131.411081478727283, 31.57789913543678 ], [ 131.412344331925397, 31.570224332786779 ], [ 131.406003670832774, 31.563257559189083 ], [ 131.408195188257423, 31.566724774828572 ], [ 131.40627841821447, 31.571932360290248 ], [ 131.403375162034195, 31.570990054247659 ], [ 131.409815524666783, 31.575912053698346 ], [ 131.406694137024829, 31.581890720580361 ], [ 131.401097327679622, 31.581999559232315 ], [ 131.404707275620353, 31.578638054402745 ], [ 131.399471997334899, 31.578602279371751 ], [ 131.402475668217562, 31.575062467758755 ], [ 131.398837004024585, 31.57342458557622 ], [ 131.402234357629595, 31.571418892368058 ], [ 131.391050557737117, 31.564246108371265 ], [ 131.397634448571011, 31.558814161844168 ], [ 131.388144643160786, 31.557084054185793 ], [ 131.390451777427643, 31.558411467914937 ], [ 131.387087588121744, 31.559992494957726 ], [ 131.383876030854253, 31.5572479727158 ], [ 131.387398301190728, 31.556734973340383 ], [ 131.382059662923211, 31.555454333350838 ], [ 131.381806030723851, 31.545096828755675 ], [ 131.387471193041165, 31.545140224641727 ], [ 131.383649728152477, 31.541937891720352 ], [ 131.389827367339194, 31.542885865290486 ], [ 131.384472528684341, 31.536330494656681 ], [ 131.38707202265573, 31.53420180207155 ], [ 131.380418974855843, 31.53347127917624 ], [ 131.380990804282305, 31.525737775078312 ], [ 131.386961166824449, 31.523321946050999 ], [ 131.381726718613209, 31.517440639773781 ], [ 131.383246938895127, 31.511149864974357 ], [ 131.378216004565047, 31.51977208091688 ], [ 131.373038417788848, 31.51834705387347 ], [ 131.37841858584909, 31.512661027284651 ], [ 131.37314557740649, 31.506883946137236 ], [ 131.385543605952762, 31.502369720885952 ], [ 131.382981659575989, 31.494334720870711 ], [ 131.387214449187582, 31.49397582932113 ], [ 131.38356527911435, 31.490585000297585 ], [ 131.38802583732263, 31.491538612616921 ], [ 131.389620558342131, 31.485106387050166 ], [ 131.384598833069731, 31.479166667108075 ], [ 131.363037497082928, 31.471754161625313 ], [ 131.363326925897013, 31.456148702800419 ], [ 131.372300506063539, 31.449548775255835 ], [ 131.371161115393193, 31.428293892249371 ], [ 131.365655551262762, 31.420657225350737 ], [ 131.343518612294133, 31.412141107825903 ], [ 131.341206939148947, 31.405315829062317 ], [ 131.345626393843077, 31.398660559037637 ], [ 131.332461659977639, 31.396349721362583 ], [ 131.337593139411865, 31.396815559390632 ], [ 131.333072217808649, 31.394050278997213 ], [ 131.334715550782107, 31.381110828901683 ], [ 131.350552503195559, 31.371671387324739 ], [ 131.349061387672918, 31.36616472062542 ], [ 131.342232502628008, 31.361393053646566 ], [ 131.335540272265803, 31.360674161683278 ], [ 131.318476393670721, 31.368639162067723 ], [ 131.314531945592876, 31.385984720918202 ], [ 131.309342503054154, 31.390713892232384 ], [ 131.297240829900488, 31.38515110783743 ], [ 131.292125279258244, 31.389754999993329 ], [ 131.282374449221493, 31.381442495274996 ], [ 131.253863333226263, 31.380737225342727 ], [ 131.242949728347298, 31.389748613008123 ], [ 131.235503606206521, 31.405328054446215 ], [ 131.236836939273417, 31.415425829438504 ], [ 131.245044994031332, 31.420187495056894 ], [ 131.243055279077907, 31.426240559254438 ], [ 131.233458885119489, 31.430349441173803 ], [ 131.227656109441909, 31.424229441335683 ], [ 131.226550830056794, 31.431606667313872 ], [ 131.218891192674505, 31.440145053851211 ], [ 131.205620700335089, 31.444894162235869 ], [ 131.209848469930989, 31.44816125174043 ], [ 131.205212554715672, 31.447971748397549 ], [ 131.205790804402113, 31.453199829408675 ], [ 131.200295914325011, 31.453898027072341 ], [ 131.199851505342735, 31.448568667110351 ], [ 131.199392438310497, 31.454699000158769 ], [ 131.181778326608537, 31.456486945915856 ], [ 131.177926938577457, 31.45422722480663 ], [ 131.178330830403524, 31.450146107656792 ], [ 131.174464448875256, 31.449882224984719 ], [ 131.168232775722117, 31.458703333192318 ], [ 131.166327951373887, 31.455592134869164 ], [ 131.160035279005001, 31.459677774709576 ], [ 131.164505550790636, 31.474433613420558 ], [ 131.163187497205286, 31.484081945925141 ], [ 131.171043060888564, 31.494066107764695 ], [ 131.169996393918495, 31.499858891974327 ], [ 131.20005416306924, 31.515703612731613 ], [ 131.201537781843172, 31.53133666725347 ], [ 131.197239442446403, 31.538706667178985 ], [ 131.19689277628072, 31.549484162364251 ], [ 131.188907782168485, 31.557526667221964 ], [ 131.19966000010902, 31.564098892050254 ], [ 131.205447497204318, 31.579949441313715 ], [ 131.185197224372473, 31.610373613151751 ], [ 131.189402502823327, 31.622236946178191 ], [ 131.193736939208407, 31.619915000077242 ], [ 131.197377497373623, 31.63228500035251 ], [ 131.202507781608915, 31.63696582861013 ], [ 131.197484720843249, 31.644492494932763 ], [ 131.180776938704867, 31.650829162136176 ], [ 131.179980830051363, 31.656325278888573 ], [ 131.169068326841852, 31.668234441366451 ], [ 131.160337223683996, 31.670603054187666 ], [ 131.161436938963675, 31.674755000143193 ], [ 131.183504720966198, 31.698205828835967 ], [ 131.213495550879088, 31.710427494933015 ], [ 131.210795837358091, 31.714916108391719 ], [ 131.232119169564044, 31.716191386623223 ], [ 131.239540000070974, 31.733390559226962 ], [ 131.258490272308336, 31.734823612719595 ], [ 131.268961659852835, 31.755488892098754 ], [ 131.266821115102402, 31.778690279432908 ], [ 131.260855837327085, 31.780406387344954 ], [ 131.25423888471687, 31.776417224974978 ], [ 131.251470558319625, 31.7793516669459 ], [ 131.239870830074778, 31.77903444098672 ], [ 131.237370558304633, 31.784732225311984 ], [ 131.241148885412827, 31.795634720865735 ], [ 131.239265551264225, 31.80775582926816 ], [ 131.221543332958504, 31.827595558887992 ], [ 131.23431610900127, 31.839837494804613 ], [ 131.242177496694126, 31.839862225261527 ], [ 131.244241946208945, 31.846302774953131 ], [ 131.242342218318754, 31.851133612826004 ], [ 131.237181115216345, 31.85122472134384 ], [ 131.238230272409169, 31.860430278934302 ], [ 131.248127224292034, 31.856570278995207 ], [ 131.254363606295442, 31.86029722513689 ], [ 131.24974221782918, 31.866329999729771 ], [ 131.254285837421548, 31.876644720877209 ], [ 131.248864448935251, 31.874998892285078 ], [ 131.246876939119488, 31.87925082936232 ], [ 131.25179639438818, 31.886888053840664 ], [ 131.246488326774966, 31.887478892237141 ], [ 131.238980830401033, 31.8767186127738 ], [ 131.217298053562331, 31.881531946242376 ], [ 131.206639441557058, 31.862924721298896 ], [ 131.195689999593924, 31.869906386770367 ], [ 131.190099999915105, 31.880905278855607 ], [ 131.190893060766257, 31.909856666951669 ], [ 131.200163606065644, 31.918324999898857 ], [ 131.210664449105138, 31.912061667012381 ], [ 131.220401659808772, 31.919431107559603 ], [ 131.214850000027582, 31.93063333276217 ], [ 131.206681115241395, 31.931806946233621 ], [ 131.207579441737948, 31.936747774790035 ], [ 131.198967496952491, 31.939698053822156 ], [ 131.192512503249532, 31.948979721037347 ], [ 131.200165837283635, 31.963610278791407 ], [ 131.206590000428264, 31.965998891635593 ], [ 131.208552776189777, 31.971770000385277 ], [ 131.204344163052724, 31.975228053731769 ], [ 131.209924449154073, 31.978824440795336 ], [ 131.20744583665612, 31.98222110821763 ], [ 131.200735550605259, 31.981038333352444 ], [ 131.19732527913834, 31.988472224713462 ], [ 131.190361946346798, 31.988472224713462 ], [ 131.184803890587091, 31.992960829178969 ], [ 131.179569169881347, 31.991408891607136 ], [ 131.175030000134484, 31.994962495223035 ], [ 131.174455279387644, 31.990027225376195 ], [ 131.167046667070053, 31.993498612970654 ], [ 131.164326939137027, 32.008155000153181 ], [ 131.15034416305275, 32.024495559422576 ], [ 131.157627782196414, 32.027567774833017 ], [ 131.157143332698752, 32.044163612960403 ], [ 131.167061659667979, 32.053022495391929 ], [ 131.166680830056293, 32.064526667072073 ], [ 131.159606109034712, 32.073379720997366 ], [ 131.184909442217077, 32.085494999994296 ], [ 131.17725693915645, 32.096749161944331 ], [ 131.179802218397754, 32.108893613149803 ], [ 131.176205279150395, 32.110884440564519 ], [ 131.170430000244323, 32.129418892368051 ], [ 131.178760000373813, 32.127952224915305 ], [ 131.193693061285785, 32.131851667320632 ], [ 131.193888611670104, 32.131749999862677 ] ] ] ] } },
{ "type": "Feature", "properties": { "code": "450020", "name": "北部平野部", "PrefCode": "45", "regioncode": "450020" }, "geometry": { "type": "MultiPolygon", "coordinates": [ [ [ [ 131.623836524236253, 32.325807720949626 ], [ 131.622889857381097, 32.323700666952277 ], [ 131.623819143938363, 32.325816027088024 ], [ 131.623836524236253, 32.325807720949626 ] ] ], [ [ [ 131.630321945601395, 32.342090559032101 ], [ 131.628211115350723, 32.341151666816017 ], [ 131.63030778217842, 32.342131107664557 ], [ 131.630321945601395, 32.342090559032101 ] ] ], [ [ [ 131.731593890745557, 32.466471945723754 ], [ 131.730313891073251, 32.463321667361129 ], [ 131.731564448740414, 32.466481108016751 ], [ 131.731593890745557, 32.466471945723754 ] ] ], [ [ [ 131.669308690343883, 32.470351531997665 ], [ 131.669978196936313, 32.464028387000496 ], [ 131.66192263302321, 32.46772969436995 ], [ 131.666098249134961, 32.466164053828095 ], [ 131.66930216576236, 32.47035627861942 ], [ 131.669308690343883, 32.470351531997665 ] ] ], [ [ [ 131.67166058386897, 32.471622107674193 ], [ 131.669972606750434, 32.469996108233886 ], [ 131.671659299636985, 32.471629694354988 ], [ 131.67166058386897, 32.471622107674193 ] ] ], [ [ [ 131.675580804210767, 32.471113559043545 ], [ 131.678136056933567, 32.472309305729937 ], [ 131.675873449899882, 32.471250279376932 ], [ 131.675580804210767, 32.471113559043545 ] ] ], [ [ [ 131.704154423088198, 32.475124440940249 ], [ 131.702400895285109, 32.473456251604773 ], [ 131.704148948914963, 32.475126918572471 ], [ 131.704154423088198, 32.475124440940249 ] ] ], [ [ [ 131.818398053627334, 32.67424889207274 ], [ 131.821947496979419, 32.668755000243095 ], [ 131.836560830018357, 32.670543053918834 ], [ 131.836823060635766, 32.665775000415977 ], [ 131.829204994415022, 32.661969162147159 ], [ 131.830135279219803, 32.658358054080963 ], [ 131.823828884995123, 32.65753138736369 ], [ 131.826978053594416, 32.655682224754912 ], [ 131.812739999551354, 32.65759500000928 ], [ 131.815628053591809, 32.661334721020637 ], [ 131.811336471700884, 32.660455198448687 ], [ 131.806718053695249, 32.665360829338852 ], [ 131.814423151807091, 32.666272568324416 ], [ 131.813935837069266, 32.669519441069383 ], [ 131.808513060929045, 32.670033332572302 ], [ 131.818404721200977, 32.674277225213814 ], [ 131.818398053627334, 32.67424889207274 ] ] ], [ [ [ 131.845019169698958, 32.686282775229927 ], [ 131.847450271912635, 32.682013054059269 ], [ 131.844180272201811, 32.680830000404228 ], [ 131.841329442000188, 32.684739161782943 ], [ 131.844952502955721, 32.686260278688962 ], [ 131.845019169698958, 32.686282775229927 ] ] ], [ [ [ 131.855894994058758, 32.697131946382285 ], [ 131.855482217830172, 32.694664721100025 ], [ 131.855881945795204, 32.697143332698715 ], [ 131.855894994058758, 32.697131946382285 ] ] ], [ [ [ 131.865430271889636, 32.715456946081247 ], [ 131.868221114612766, 32.713034721075587 ], [ 131.865376939394309, 32.715479440823572 ], [ 131.865430271889636, 32.715456946081247 ] ] ], [ [ [ 131.76742861244054, 32.838655828603635 ], [ 131.787272218138469, 32.833645000416482 ], [ 131.787799169596042, 32.827931108334042 ], [ 131.793900557964434, 32.821945279251281 ], [ 131.798151659571545, 32.824891108437953 ], [ 131.806660558238264, 32.822150278812387 ], [ 131.824427782216389, 32.829927224661731 ], [ 131.834499727780326, 32.819697775432019 ], [ 131.847970830089821, 32.817771945618858 ], [ 131.855088053970576, 32.82316777537261 ], [ 131.858190557648186, 32.821938612576957 ], [ 131.860078053859183, 32.806070558909198 ], [ 131.844209441712451, 32.77664055881479 ], [ 131.849449442337914, 32.7627338923553 ], [ 131.849805278890585, 32.755958332610987 ], [ 131.84412389100487, 32.747655558557256 ], [ 131.847009169737476, 32.735929999869654 ], [ 131.885701388308462, 32.745831666897971 ], [ 131.8772169386109, 32.739320559096598 ], [ 131.877130557828991, 32.733812494850781 ], [ 131.861653060840126, 32.734609721361608 ], [ 131.858109999976591, 32.731488892198684 ], [ 131.860608054018485, 32.724103891581365 ], [ 131.864917223950783, 32.723010828586894 ], [ 131.865044163257608, 32.716375278896066 ], [ 131.850162632599449, 32.722110251986578 ], [ 131.849946109125653, 32.718718332984736 ], [ 131.853559663347824, 32.718879360194364 ], [ 131.846862776296121, 32.714228613359865 ], [ 131.845990829613129, 32.707660000208875 ], [ 131.848821388196598, 32.703350829377314 ], [ 131.854961659652986, 32.702539720931441 ], [ 131.856320557747608, 32.697718054344762 ], [ 131.85101277611875, 32.693323892183912 ], [ 131.849287782005604, 32.696264440551545 ], [ 131.846211114951075, 32.690794720699841 ], [ 131.838645278656713, 32.691419720743568 ], [ 131.834065278789694, 32.694953161559226 ], [ 131.838571660154003, 32.694129441020948 ], [ 131.837855422090115, 32.697632874157875 ], [ 131.834167859958825, 32.697839819851879 ], [ 131.835132944030192, 32.69552109871978 ], [ 131.833088327264591, 32.699951197789574 ], [ 131.826347536209937, 32.700002936686246 ], [ 131.831663864995448, 32.699881567780153 ], [ 131.828936977559579, 32.704021972735916 ], [ 131.82683330681175, 32.701150306141756 ], [ 131.825614383696916, 32.703631089603164 ], [ 131.829833606136049, 32.705062775226963 ], [ 131.826643268372209, 32.706562811124911 ], [ 131.81950199661992, 32.701333972884584 ], [ 131.822637172667442, 32.705276152872216 ], [ 131.816840960242189, 32.70283940471478 ], [ 131.820556121667778, 32.697269387072595 ], [ 131.814841387819911, 32.696629441195796 ], [ 131.818111660025124, 32.694669440742132 ], [ 131.816146939030091, 32.687199721290142 ], [ 131.809239222112524, 32.68393966718196 ], [ 131.811071946013612, 32.687075279400688 ], [ 131.808034993919932, 32.686669441441609 ], [ 131.792283890789008, 32.677616387286491 ], [ 131.789780830221162, 32.662044162008499 ], [ 131.785271660059152, 32.664039441067416 ], [ 131.786063333256266, 32.673808333088175 ], [ 131.77716555064967, 32.674027774861997 ], [ 131.771996666612949, 32.666273613336614 ], [ 131.77201583656165, 32.657864441390927 ], [ 131.762377497323655, 32.658168054312284 ], [ 131.76288917019906, 32.654147225014469 ], [ 131.771061387872805, 32.652130559178033 ], [ 131.764509727841755, 32.652128053666786 ], [ 131.767362503277013, 32.647338332797858 ], [ 131.763612503014656, 32.644603332577788 ], [ 131.765367522792985, 32.642618973087167 ], [ 131.750598612436079, 32.645330278869324 ], [ 131.756354721393336, 32.642334162291831 ], [ 131.757600557619753, 32.634999440971455 ], [ 131.759221387756952, 32.641142774619425 ], [ 131.761705550870488, 32.637730000339275 ], [ 131.77025416269953, 32.643185558566699 ], [ 131.773605278560808, 32.640116387361445 ], [ 131.773154163334084, 32.634197225021978 ], [ 131.761050271552904, 32.621643891652354 ], [ 131.763271114970053, 32.613479441423124 ], [ 131.752895278594337, 32.610670828995637 ], [ 131.755355278723187, 32.602805558929447 ], [ 131.747560557773568, 32.601406387394888 ], [ 131.742291660132082, 32.591734441391395 ], [ 131.712466419689576, 32.589637081186424 ], [ 131.690250117349137, 32.561400279099644 ], [ 131.682441089085046, 32.541949919053593 ], [ 131.682301893817453, 32.532578558853459 ], [ 131.688035356946216, 32.523574918847487 ], [ 131.685827392720057, 32.521111747709028 ], [ 131.689669390030417, 32.519717278729502 ], [ 131.68344041484329, 32.516309946247077 ], [ 131.686243800411148, 32.513223386649997 ], [ 131.682978949319136, 32.513054306011441 ], [ 131.684536135334497, 32.509167613294778 ], [ 131.692325965770806, 32.5075523328739 ], [ 131.687774423151154, 32.513453306424992 ], [ 131.692609299879337, 32.51512697263172 ], [ 131.697625279383146, 32.510426333208784 ], [ 131.695482671588138, 32.507065162027629 ], [ 131.698964553371525, 32.510879801961323 ], [ 131.700933411248002, 32.505735748206291 ], [ 131.697683605813836, 32.514539306144115 ], [ 131.700446640600035, 32.517860918846395 ], [ 131.711089300430899, 32.516032386685367 ], [ 131.714358638240583, 32.519809559063958 ], [ 131.709974811987991, 32.50261155917616 ], [ 131.725358170643176, 32.500266999622397 ], [ 131.728862995930626, 32.492257667157673 ], [ 131.724207497078396, 32.492607802008536 ], [ 131.720727393254606, 32.486313000044959 ], [ 131.714006160655799, 32.489040161774085 ], [ 131.716739585263667, 32.482368559161728 ], [ 131.709480752334912, 32.482691306058996 ], [ 131.709400219844383, 32.477927000031059 ], [ 131.696257470805676, 32.474701828826369 ], [ 131.699215837440988, 32.472395135227373 ], [ 131.695372308585206, 32.469198801683376 ], [ 131.677829973574489, 32.473006559105443 ], [ 131.678848832607628, 32.483572918655341 ], [ 131.670927004177997, 32.476858829371508 ], [ 131.667973554136324, 32.477386494890879 ], [ 131.670438417798778, 32.480776081051374 ], [ 131.666486835399155, 32.478849054240527 ], [ 131.66793192002217, 32.483566225001312 ], [ 131.660075357192, 32.483570162233264 ], [ 131.65669664113716, 32.479430946181253 ], [ 131.661109222312803, 32.471077972870205 ], [ 131.656576419765997, 32.475529278853173 ], [ 131.657352335042333, 32.470319586279913 ], [ 131.661466109273533, 32.470138972735469 ], [ 131.652670895245706, 32.46671455942942 ], [ 131.65060192034241, 32.46001777490045 ], [ 131.65475352815281, 32.45581886544835 ], [ 131.652549273630143, 32.450534693721181 ], [ 131.656661218640352, 32.447269829139373 ], [ 131.641834993590123, 32.439072918780255 ], [ 131.651047859970845, 32.434753946237663 ], [ 131.664105939637466, 32.449531532354399 ], [ 131.666667664781016, 32.444252359958512 ], [ 131.662236303962345, 32.436527332870185 ], [ 131.676107224169073, 32.443082135132499 ], [ 131.67311247725911, 32.444927359610006 ], [ 131.674570310671356, 32.454130559177997 ], [ 131.67361591414317, 32.44688422502702 ], [ 131.678795837358052, 32.443361026590139 ], [ 131.67909450131026, 32.436228972888841 ], [ 131.682572697671958, 32.436126080554232 ], [ 131.679948754731299, 32.430033440790737 ], [ 131.6540387811649, 32.428850198278099 ], [ 131.670261050806857, 32.428577441096081 ], [ 131.676042140232653, 32.421404252404386 ], [ 131.684189078862914, 32.426813305789494 ], [ 131.689931025296687, 32.422949586254447 ], [ 131.682058300749986, 32.42101297267061 ], [ 131.685939584943981, 32.418103639771232 ], [ 131.669934112169585, 32.416313864793096 ], [ 131.671832360675012, 32.414644532419288 ], [ 131.667143333298213, 32.412753775266594 ], [ 131.669640415173035, 32.411891161747747 ], [ 131.652819196149039, 32.41365038675599 ], [ 131.653077690982741, 32.409866559394231 ], [ 131.643549830760094, 32.40775186475679 ], [ 131.632666693113492, 32.3807134677524 ], [ 131.633169882684001, 32.37594869407701 ], [ 131.637005421962726, 32.376609801900884 ], [ 131.636217173383898, 32.370980359755833 ], [ 131.62906552525385, 32.368325251709052 ], [ 131.622879662666378, 32.358080531990993 ], [ 131.629024162734936, 32.342443053704017 ], [ 131.618118833417498, 32.337814666713541 ], [ 131.614689442363897, 32.340196108363784 ], [ 131.61725939000894, 32.337404946381241 ], [ 131.601834526742095, 32.323059891900527 ], [ 131.591179247624268, 32.304545774667815 ], [ 131.577739857208712, 32.272646586071119 ], [ 131.576782386797731, 32.26065191875108 ], [ 131.571956471813792, 32.254815467959531 ], [ 131.576473799726159, 32.249847720895673 ], [ 131.575366718998907, 32.241105585754212 ], [ 131.552864423254618, 32.188895000104196 ], [ 131.550678638108707, 32.174943495246168 ], [ 131.553714422882422, 32.169913828960091 ], [ 131.550677056201266, 32.174770251645839 ], [ 131.549501244786711, 32.17081058613968 ], [ 131.552224811925612, 32.17078844123364 ], [ 131.548210506309829, 32.168666972902543 ], [ 131.554929299947275, 32.168750494739584 ], [ 131.548656419857934, 32.168334775029905 ], [ 131.545307807709264, 32.163919414049758 ], [ 131.540136303947293, 32.132110494903486 ], [ 131.521805421782801, 32.094273865246748 ], [ 131.508145615627768, 32.04662525165412 ], [ 131.486769532787775, 32.041374495136893 ], [ 131.472154448768833, 32.049269720721099 ], [ 131.443774060024907, 32.056853892393292 ], [ 131.425694720934644, 32.052272774668893 ], [ 131.418591387982246, 32.060611386706171 ], [ 131.402701945738272, 32.065640278675971 ], [ 131.400750272107416, 32.057857224631277 ], [ 131.393957496641178, 32.051605000170696 ], [ 131.398450558146806, 32.047652225270042 ], [ 131.392420557962396, 32.044404999990832 ], [ 131.39131944243843, 32.036259720609678 ], [ 131.386053332695155, 32.033291667376602 ], [ 131.385029170359985, 32.028441387060411 ], [ 131.389133061042003, 32.022481945885147 ], [ 131.386824449189021, 32.018336386914768 ], [ 131.372938326842359, 32.017861107803924 ], [ 131.362788327319549, 32.026455279287745 ], [ 131.344373060868179, 32.029166945698023 ], [ 131.330674720562001, 32.040886666886195 ], [ 131.330028327445461, 32.046663891925107 ], [ 131.320481388105691, 32.054119440759621 ], [ 131.316153890889382, 32.064612775359365 ], [ 131.312442776413036, 32.060708613311931 ], [ 131.292548885122983, 32.071592494697938 ], [ 131.284540272115919, 32.072461945762257 ], [ 131.266799728324827, 32.0986597212692 ], [ 131.247645279406129, 32.097687224985521 ], [ 131.236356393732649, 32.102117494926517 ], [ 131.217732775946956, 32.124243332663696 ], [ 131.204640000435688, 32.121668332627507 ], [ 131.192665550774564, 32.133308891891886 ], [ 131.189130830223689, 32.140488613258924 ], [ 131.190811387935241, 32.146377224729179 ], [ 131.197101660013686, 32.15107694594434 ], [ 131.210844449311935, 32.149908053913634 ], [ 131.214766108569165, 32.165681387386144 ], [ 131.222351388206107, 32.172075559039854 ], [ 131.238913606078086, 32.166136107995044 ], [ 131.245271946043545, 32.169369999925607 ], [ 131.25559389144496, 32.165915278567297 ], [ 131.26645555058326, 32.173556945696532 ], [ 131.268391114658243, 32.179736666813767 ], [ 131.281139727716322, 32.181058612664913 ], [ 131.278256666711854, 32.189473333427657 ], [ 131.267734993575118, 32.200852494846799 ], [ 131.275915550662148, 32.202895000004276 ], [ 131.280388327059654, 32.209989161670535 ], [ 131.276808611628212, 32.213181387111376 ], [ 131.255633890591639, 32.212450559345882 ], [ 131.247985278897545, 32.217877494850541 ], [ 131.230369169801406, 32.251072225203075 ], [ 131.221253890654566, 32.259616108396756 ], [ 131.226398054127003, 32.275204161742749 ], [ 131.203017781745302, 32.291729721449542 ], [ 131.203179728062082, 32.298080559270431 ], [ 131.19531138771049, 32.306590279018224 ], [ 131.175061945852235, 32.309962775361839 ], [ 131.176466667103114, 32.324703613381132 ], [ 131.182992218016466, 32.328665000189631 ], [ 131.190013333148841, 32.34073333277712 ], [ 131.198784448943229, 32.339863054336547 ], [ 131.222339441612007, 32.324181666650645 ], [ 131.249225837002882, 32.328937494769605 ], [ 131.262838053733276, 32.316149441043933 ], [ 131.287927781741814, 32.30909416156635 ], [ 131.305555551447583, 32.31540749495997 ], [ 131.309501945658326, 32.321701667398088 ], [ 131.322983891093713, 32.322060828744327 ], [ 131.341510829960953, 32.329485000232637 ], [ 131.338317781640399, 32.336170000045513 ], [ 131.34181194636426, 32.351049440679219 ], [ 131.344525550813614, 32.359037225387681 ], [ 131.349362218091983, 32.356348891887876 ], [ 131.351088884944147, 32.366968054232359 ], [ 131.378512502949661, 32.354876386935757 ], [ 131.385978054044017, 32.362356387437387 ], [ 131.396851945760773, 32.364943612857473 ], [ 131.396645837335541, 32.37156389206001 ], [ 131.406037497032912, 32.389708054283346 ], [ 131.44615610871756, 32.392720559206509 ], [ 131.452981945960119, 32.399681107697006 ], [ 131.466707497053449, 32.400045828652139 ], [ 131.475967496902513, 32.40529610762934 ], [ 131.477878054428743, 32.412478892087279 ], [ 131.483524721288973, 32.41654694568507 ], [ 131.480093332841079, 32.436011667004891 ], [ 131.482828611851005, 32.439425559142308 ], [ 131.475413061263794, 32.443423891899158 ], [ 131.475934162631575, 32.449672494789866 ], [ 131.490567781677896, 32.454803612696594 ], [ 131.504382218164892, 32.454988053755756 ], [ 131.512148612268675, 32.459589441299727 ], [ 131.509108053893669, 32.467725278698708 ], [ 131.512811659930207, 32.472737495439105 ], [ 131.508715837066347, 32.486523332585762 ], [ 131.529584993652634, 32.493909162377975 ], [ 131.523365278784695, 32.507495829369077 ], [ 131.532665837158675, 32.520434161607341 ], [ 131.52272805425639, 32.534878333068662 ], [ 131.526572775613204, 32.540611666695099 ], [ 131.504860830163238, 32.557124161950583 ], [ 131.485270272105481, 32.565090558982149 ], [ 131.472578612213283, 32.566819440864549 ], [ 131.459912776353576, 32.557528891944855 ], [ 131.444437223698969, 32.559109721136792 ], [ 131.430703605686972, 32.555825828699085 ], [ 131.428778612243264, 32.559891667266697 ], [ 131.440239727981179, 32.568941946113966 ], [ 131.440849442248009, 32.576697224597297 ], [ 131.447634994359532, 32.576888891709018 ], [ 131.446033060777154, 32.593812494950726 ], [ 131.450076938799725, 32.597857775016337 ], [ 131.448596108823381, 32.606399441381143 ], [ 131.452308054273317, 32.614089440775103 ], [ 131.448668612166784, 32.626618891748535 ], [ 131.434965551319237, 32.633643613162292 ], [ 131.440692218271352, 32.64079999982016 ], [ 131.436957224096659, 32.643519162079713 ], [ 131.440510000336303, 32.654770829310394 ], [ 131.434117496924955, 32.661317775095313 ], [ 131.447986938646409, 32.67192444135992 ], [ 131.447139441831837, 32.679161107798961 ], [ 131.451956939161505, 32.68411472111751 ], [ 131.45296722405817, 32.69306194575222 ], [ 131.475688326655018, 32.704636108069963 ], [ 131.480121659686915, 32.710496945777493 ], [ 131.485069441801329, 32.725056666631929 ], [ 131.481331114739191, 32.738235000045279 ], [ 131.490360558093357, 32.748499162206599 ], [ 131.488688612289707, 32.75642610777868 ], [ 131.482065278989467, 32.759893333310742 ], [ 131.483204720921208, 32.764527494848039 ], [ 131.488489442134096, 32.766956667116574 ], [ 131.489738327062241, 32.77364527860675 ], [ 131.508482218379754, 32.774242494995178 ], [ 131.536616939320311, 32.758703053603085 ], [ 131.56836055779354, 32.754080828767258 ], [ 131.592511945769729, 32.775314162218876 ], [ 131.60108805437028, 32.772178333263525 ], [ 131.624512503249434, 32.774630558753358 ], [ 131.668858612035365, 32.766593332916045 ], [ 131.695598884680862, 32.77476222489679 ], [ 131.710781660345447, 32.772238333332496 ], [ 131.71589111538276, 32.788063054066754 ], [ 131.72947861244802, 32.799736945803431 ], [ 131.735728054406195, 32.831101667308133 ], [ 131.767222775610662, 32.838813891647817 ], [ 131.76742861244054, 32.838655828603635 ] ] ] ] } },
{ "type": "Feature", "properties": { "code": "450030", "name": "南部山沿い", "PrefCode": "45", "regioncode": "450030" }, "geometry": { "type": "Polygon", "coordinates": [ [ [ 131.013311388110083, 32.174339999791187 ], [ 131.021368053692754, 32.16907610777622 ], [ 131.037353605584485, 32.170211946124482 ], [ 131.045298612241254, 32.161261108013775 ], [ 131.049465836779063, 32.162943892446719 ], [ 131.058764720615386, 32.154827224996495 ], [ 131.071799169695964, 32.160282495440867 ], [ 131.09721832656453, 32.152196666642908 ], [ 131.102279999722327, 32.158027494873068 ], [ 131.111713060609304, 32.159502775133035 ], [ 131.120442217634263, 32.145259162380512 ], [ 131.130513890703583, 32.146289441004967 ], [ 131.13344444940185, 32.136367225367223 ], [ 131.149614721142484, 32.136511107901356 ], [ 131.150961660052644, 32.131255558896953 ], [ 131.157558054160972, 32.138014721302397 ], [ 131.168302502858296, 32.135398892045259 ], [ 131.16722610879799, 32.129602224563087 ], [ 131.172518326759473, 32.126702775212948 ], [ 131.17601138801524, 32.111354721243458 ], [ 131.179763332611742, 32.109070559258953 ], [ 131.176748885152961, 32.098394162260831 ], [ 131.184909442217077, 32.085494999994296 ], [ 131.159606109034712, 32.073379720997366 ], [ 131.166680830056293, 32.064526667072073 ], [ 131.167061659667979, 32.053022495391929 ], [ 131.157143332698752, 32.044163612960403 ], [ 131.157627782196414, 32.027567774833017 ], [ 131.15034416305275, 32.024495559422576 ], [ 131.164326939137027, 32.008155000153181 ], [ 131.167046667070053, 31.993498612970654 ], [ 131.174455279387644, 31.990027225376195 ], [ 131.175030000134484, 31.994962495223035 ], [ 131.179569169881347, 31.991408891607136 ], [ 131.184803890587091, 31.992960829178969 ], [ 131.190361946346798, 31.988472224713462 ], [ 131.19732527913834, 31.988472224713462 ], [ 131.200735550605259, 31.981038333352444 ], [ 131.20744583665612, 31.98222110821763 ], [ 131.20987610879547, 31.978957224796147 ], [ 131.204344163052724, 31.975228053731769 ], [ 131.208552776189777, 31.971770000385277 ], [ 131.206590000428264, 31.965998891635593 ], [ 131.200165837283635, 31.963610278791407 ], [ 131.192512503249532, 31.948979721037347 ], [ 131.198967496952491, 31.939698053822156 ], [ 131.207579441737948, 31.936747774790035 ], [ 131.206681115241395, 31.931806946233621 ], [ 131.214850000027582, 31.93063333276217 ], [ 131.220401659808772, 31.919431107559603 ], [ 131.210664449105138, 31.912061667012381 ], [ 131.200163606065644, 31.918324999898857 ], [ 131.190893060766257, 31.909856666951669 ], [ 131.19019805389712, 31.880447225359205 ], [ 131.195731114799173, 31.869857225330747 ], [ 131.206639441557058, 31.862924721298896 ], [ 131.217298053562331, 31.881531946242376 ], [ 131.238980830401033, 31.8767186127738 ], [ 131.24308805397061, 31.878686946345567 ], [ 131.244064162830909, 31.885445559265179 ], [ 131.251599170365466, 31.887333891845685 ], [ 131.246876939119488, 31.87925082936232 ], [ 131.248864448935251, 31.874998892285078 ], [ 131.254285837421548, 31.876644720877209 ], [ 131.24974221782918, 31.866329999729771 ], [ 131.254363606295442, 31.86029722513689 ], [ 131.248127224292034, 31.856570278995207 ], [ 131.238230272409169, 31.860430278934302 ], [ 131.237181115216345, 31.85122472134384 ], [ 131.242342218318754, 31.851133612826004 ], [ 131.244241946208945, 31.846302774953131 ], [ 131.242177496694126, 31.839862225261527 ], [ 131.23431610900127, 31.839837494804613 ], [ 131.221543332958504, 31.827595558887992 ], [ 131.239265551264225, 31.80775582926816 ], [ 131.241148885412827, 31.795634720865735 ], [ 131.237370558304633, 31.784732225311984 ], [ 131.239870830074778, 31.77903444098672 ], [ 131.251470558319625, 31.7793516669459 ], [ 131.254441115265308, 31.776423333170328 ], [ 131.264045836945911, 31.780624440565532 ], [ 131.267021387826844, 31.778471945623835 ], [ 131.266286394401618, 31.769630278914292 ], [ 131.26960082961466, 31.768553053880396 ], [ 131.268946667254909, 31.755393054046237 ], [ 131.26348082977654, 31.749487494852076 ], [ 131.259868326861806, 31.735981107642033 ], [ 131.239540000070974, 31.733390559226962 ], [ 131.232119169564044, 31.716191386623223 ], [ 131.210795837358091, 31.714916108391719 ], [ 131.213495550879088, 31.710427494933015 ], [ 131.183504720966198, 31.698205828835967 ], [ 131.161436938963675, 31.674755000143193 ], [ 131.160337223683996, 31.670603054187666 ], [ 131.169068326841852, 31.668234441366451 ], [ 131.179980830051363, 31.656325278888573 ], [ 131.180776938704867, 31.650829162136176 ], [ 131.197484720843249, 31.644492494932763 ], [ 131.202507781608915, 31.63696582861013 ], [ 131.197377497373623, 31.63228500035251 ], [ 131.193736939208407, 31.619915000077242 ], [ 131.179045278816602, 31.626912495415411 ], [ 131.164420000083055, 31.639451945950611 ], [ 131.150321660216491, 31.629986108372236 ], [ 131.128027497271205, 31.626476945654588 ], [ 131.122786939066032, 31.630442224728938 ], [ 131.117848612423586, 31.629328891914895 ], [ 131.079268715578792, 31.660214198326628 ], [ 131.071736394319259, 31.657416386756893 ], [ 131.054364994349044, 31.633368892060787 ], [ 131.052684163243612, 31.639660279298482 ], [ 131.047534720750832, 31.642068332787403 ], [ 131.044658053926128, 31.654384999668025 ], [ 131.025595279198797, 31.666897775412053 ], [ 131.029021660221474, 31.674143053758996 ], [ 131.023512218214364, 31.674976108360738 ], [ 131.026834162766477, 31.681934162131938 ], [ 131.023668612116808, 31.691771387339713 ], [ 131.029192218446155, 31.69691666687072 ], [ 131.013056666831744, 31.713127495337687 ], [ 131.017733890606678, 31.72486777502786 ], [ 131.01679722421261, 31.747323333005454 ], [ 131.00644389067304, 31.749267775187718 ], [ 130.997882503075175, 31.745916946210173 ], [ 130.990618053880098, 31.751187225210344 ], [ 130.978516666710902, 31.751568332712452 ], [ 130.977724994413052, 31.758448613113046 ], [ 130.98372306057081, 31.764260828974102 ], [ 130.98277555105085, 31.767390829423277 ], [ 130.98843666731841, 31.765459162110687 ], [ 130.991689169819438, 31.771178891692557 ], [ 130.990058611715654, 31.777847225269284 ], [ 130.980252503050679, 31.778539161852905 ], [ 130.971404994345107, 31.784590000228377 ], [ 130.966031660232943, 31.781234440816831 ], [ 130.930899169660961, 31.785700829329869 ], [ 130.917293332721215, 31.804117774815495 ], [ 130.901323891284619, 31.800951946275347 ], [ 130.890511114796141, 31.806476666864739 ], [ 130.884307224398981, 31.805433053992317 ], [ 130.881606393920038, 31.813232494583985 ], [ 130.876823060935521, 31.815795279128906 ], [ 130.877723891144683, 31.828303333432132 ], [ 130.882024720764321, 31.831728891575153 ], [ 130.875021660421339, 31.842685279002467 ], [ 130.888391115057971, 31.848551946115492 ], [ 130.887823605974745, 31.861481667345117 ], [ 130.894695550559277, 31.878213892157476 ], [ 130.902890271968545, 31.884752494931774 ], [ 130.911324721158962, 31.883360829139008 ], [ 130.913550000032501, 31.886400559238496 ], [ 130.897021659621942, 31.887776666759805 ], [ 130.882395836798537, 31.921131667092823 ], [ 130.869696109088181, 31.927901107849891 ], [ 130.865625836862932, 31.933946107826671 ], [ 130.841615279121925, 31.942718891863422 ], [ 130.815962502667389, 31.941323892283833 ], [ 130.805290829807973, 31.949826666567446 ], [ 130.800080272086916, 31.949613332988974 ], [ 130.801254449433372, 31.960187225260313 ], [ 130.794564449389895, 31.973201107744956 ], [ 130.781960830428034, 31.983090559281948 ], [ 130.777457781951171, 32.016069721240683 ], [ 130.762010557940926, 32.024403612736592 ], [ 130.758569728410293, 32.033256946351059 ], [ 130.746912386897179, 32.035658360145248 ], [ 130.746275550876021, 32.041861945672281 ], [ 130.737132503362432, 32.047748612808277 ], [ 130.703396667122547, 32.058388332755385 ], [ 130.704527223752393, 32.07873500032008 ], [ 130.715985279097367, 32.085693332881078 ], [ 130.720601660138527, 32.100799441341223 ], [ 130.727675278591278, 32.101871667043838 ], [ 130.735194163080223, 32.108948333298997 ], [ 130.74194360561296, 32.097888612869212 ], [ 130.751623891029794, 32.104068891566158 ], [ 130.759417496820106, 32.096807775258696 ], [ 130.775600271835174, 32.10191333263424 ], [ 130.809252775994878, 32.099210558720358 ], [ 130.820796667132527, 32.094924441110095 ], [ 130.82757499409081, 32.103132774657865 ], [ 130.838283890788944, 32.107220829177948 ], [ 130.857067782152512, 32.099700558833774 ], [ 130.862350558131766, 32.101759440645708 ], [ 130.869092776410525, 32.114895279293762 ], [ 130.876356108647542, 32.116715829072291 ], [ 130.878531115418696, 32.121396946012283 ], [ 130.897237496913021, 32.125918053775194 ], [ 130.900740000150904, 32.13238333302445 ], [ 130.906011945594855, 32.133594441030652 ], [ 130.913803332757652, 32.130242495095104 ], [ 130.915931946202363, 32.125406666884203 ], [ 130.927299727600371, 32.122707775343599 ], [ 130.933085278562771, 32.116082495011199 ], [ 130.94425861214529, 32.119643892151942 ], [ 130.955413605853323, 32.115382225309475 ], [ 130.961658053876135, 32.12016444133593 ], [ 130.974489728318417, 32.120815000112202 ], [ 130.974777496983961, 32.137052495276464 ], [ 130.992635836674594, 32.148041666589677 ], [ 130.995854994112733, 32.155865279159343 ], [ 130.992386939405833, 32.157923053905847 ], [ 130.997724720619431, 32.159592225301026 ], [ 131.002250557917023, 32.169420558911725 ], [ 131.013181660005671, 32.174378053704288 ], [ 131.013311388110083, 32.174339999791187 ] ] ] } },
{ "type": "Feature", "properties": { "code": "450040", "name": "北部山沿い", "PrefCode": "45", "regioncode": "450040" }, "geometry": { "type": "Polygon", "coordinates": [ [ [ 131.477861114798657, 32.833681386986484 ], [ 131.485999728404749, 32.821626667436817 ], [ 131.493163890601181, 32.815934440921751 ], [ 131.502479441573087, 32.8146822249048 ], [ 131.501799441690991, 32.810650828572932 ], [ 131.517481946334783, 32.800287494572274 ], [ 131.509038054262874, 32.785172224718451 ], [ 131.508482218379754, 32.774242494995178 ], [ 131.489738327062241, 32.77364527860675 ], [ 131.488489442134096, 32.766956667116574 ], [ 131.482626938882163, 32.763492494782838 ], [ 131.490360558093357, 32.748499162206599 ], [ 131.481331114739191, 32.738235000045279 ], [ 131.485069441801329, 32.725056666631929 ], [ 131.477730272434201, 32.706083054289593 ], [ 131.45296722405817, 32.69306194575222 ], [ 131.451956939161505, 32.68411472111751 ], [ 131.447139441831837, 32.679161107798961 ], [ 131.447986938646409, 32.67192444135992 ], [ 131.434185278827613, 32.661526666922214 ], [ 131.440510000336303, 32.654770829310394 ], [ 131.436957224096659, 32.643519162079713 ], [ 131.440692218271352, 32.64079999982016 ], [ 131.434965551319237, 32.633643613162292 ], [ 131.448668612166784, 32.626618891748535 ], [ 131.452308054273317, 32.614089440775103 ], [ 131.448596108823381, 32.606399441381143 ], [ 131.450076938799725, 32.597857775016337 ], [ 131.446033060777154, 32.593812494950726 ], [ 131.447634994359532, 32.576888891709018 ], [ 131.440849442248009, 32.576697224597297 ], [ 131.440239727981179, 32.568941946113966 ], [ 131.428778612243264, 32.559891667266697 ], [ 131.430703605686972, 32.555825828699085 ], [ 131.444437223698969, 32.559109721136792 ], [ 131.459912776353576, 32.557528891944855 ], [ 131.475583332604742, 32.567137774788534 ], [ 131.504860830163238, 32.557124161950583 ], [ 131.526724720569518, 32.540447224759646 ], [ 131.52272805425639, 32.534878333068662 ], [ 131.532665837158675, 32.520434161607341 ], [ 131.52336165991278, 32.50737277513349 ], [ 131.529584993652634, 32.493909162377975 ], [ 131.508715837066347, 32.486523332585762 ], [ 131.512811659930207, 32.472737495439105 ], [ 131.509108053893669, 32.467725278698708 ], [ 131.512069169756387, 32.459491107628594 ], [ 131.504382218164892, 32.454988053755756 ], [ 131.490567781677896, 32.454803612696594 ], [ 131.475934162631575, 32.449672494789866 ], [ 131.475413061263794, 32.443423891899158 ], [ 131.482828611851005, 32.439425559142308 ], [ 131.480093332841079, 32.436011667004891 ], [ 131.483524721288973, 32.41654694568507 ], [ 131.477878054428743, 32.412478892087279 ], [ 131.475967496902513, 32.40529610762934 ], [ 131.466707497053449, 32.400045828652139 ], [ 131.452981945960119, 32.399681107697006 ], [ 131.44615610871756, 32.392720559206509 ], [ 131.406037497032912, 32.389708054283346 ], [ 131.396645837335541, 32.37156389206001 ], [ 131.396851945760773, 32.364943612857473 ], [ 131.385978054044017, 32.362356387437387 ], [ 131.378512502949661, 32.354876386935757 ], [ 131.351088884944147, 32.366968054232359 ], [ 131.349362218091983, 32.356348891887876 ], [ 131.344525550813614, 32.359037225387681 ], [ 131.34181194636426, 32.351049440679219 ], [ 131.338317781640399, 32.336170000045513 ], [ 131.341510829960953, 32.329485000232637 ], [ 131.336432218072446, 32.329565279114377 ], [ 131.334496939082555, 32.32579500003925 ], [ 131.309731387893294, 32.321786945611109 ], [ 131.305555551447583, 32.31540749495997 ], [ 131.286274720801771, 32.308846107861655 ], [ 131.262838053733276, 32.316149441043933 ], [ 131.251561388047662, 32.328201666773566 ], [ 131.235019441793838, 32.328519161630084 ], [ 131.223739728305873, 32.323858333395435 ], [ 131.201730271834663, 32.33876944095698 ], [ 131.1899280540365, 32.340666666933203 ], [ 131.182992218016466, 32.328665000189631 ], [ 131.176466667103114, 32.324703613381132 ], [ 131.175061945852235, 32.309962775361839 ], [ 131.19531138771049, 32.306590279018224 ], [ 131.203179728062082, 32.298080559270431 ], [ 131.203017781745302, 32.291729721449542 ], [ 131.226398054127003, 32.275204161742749 ], [ 131.221253890654566, 32.259616108396756 ], [ 131.230369169801406, 32.251072225203075 ], [ 131.250344993826502, 32.21532972088994 ], [ 131.262879169837902, 32.211067224872579 ], [ 131.27913583674956, 32.212522774906176 ], [ 131.277168885435799, 32.203867775077811 ], [ 131.267734993575118, 32.200852494846799 ], [ 131.282054993842962, 32.182172774653907 ], [ 131.268391114658243, 32.179736666813767 ], [ 131.26645555058326, 32.173556945696532 ], [ 131.25559389144496, 32.165915278567297 ], [ 131.245271946043545, 32.169369999925607 ], [ 131.238913606078086, 32.166136107995044 ], [ 131.222351388206107, 32.172075559039854 ], [ 131.214766108569165, 32.165681387386144 ], [ 131.210844449311935, 32.149908053913634 ], [ 131.197101660013686, 32.15107694594434 ], [ 131.190811387935241, 32.146377224729179 ], [ 131.189130830223689, 32.140488613258924 ], [ 131.193430558173759, 32.132100559193532 ], [ 131.177604721380817, 32.127934440821832 ], [ 131.167818611839493, 32.128914720737839 ], [ 131.168302502858296, 32.135398892045259 ], [ 131.159793332596337, 32.138447225059451 ], [ 131.150961660052644, 32.131255558896953 ], [ 131.149614721142484, 32.136511107901356 ], [ 131.13344444940185, 32.136367225367223 ], [ 131.130303060837605, 32.14648610834729 ], [ 131.121431659843324, 32.144599441311243 ], [ 131.114216667065648, 32.151183612733576 ], [ 131.101473606421905, 32.172573892271373 ], [ 131.10443527896507, 32.191648612693371 ], [ 131.10016583658421, 32.195468892275585 ], [ 131.100531660108118, 32.201542774879215 ], [ 131.08421111525081, 32.206213054089233 ], [ 131.077372503138577, 32.22124027941544 ], [ 131.068965550719668, 32.225714440768854 ], [ 131.071564449339917, 32.23689082934834 ], [ 131.057198327340984, 32.245894721164518 ], [ 131.046952503255511, 32.2441972247222 ], [ 131.042702503317969, 32.248163332971501 ], [ 131.043335278900031, 32.261297224587281 ], [ 131.054244449221983, 32.26706444107117 ], [ 131.050506393755086, 32.285825000423472 ], [ 131.058942048936501, 32.286844197601681 ], [ 131.070514162598556, 32.280417775360092 ], [ 131.07859416289034, 32.281223054400471 ], [ 131.090495550729202, 32.293985278697733 ], [ 131.111916108641594, 32.32995638707763 ], [ 131.103584306270818, 32.341510359615484 ], [ 131.09922763864472, 32.341689865195178 ], [ 131.096548003387738, 32.350188775091965 ], [ 131.078031529931195, 32.355112027298276 ], [ 131.074338520606261, 32.360910225426608 ], [ 131.079857223831823, 32.374288053650787 ], [ 131.074083891058763, 32.383027495322722 ], [ 131.069307782328337, 32.384318613313383 ], [ 131.073243605907805, 32.391417224825091 ], [ 131.068120557617704, 32.40748389196807 ], [ 131.043565551209326, 32.408227494603238 ], [ 131.019892217651773, 32.438674162082975 ], [ 131.014245550791543, 32.463058891754486 ], [ 131.016379442357447, 32.473616386686956 ], [ 131.00695888474479, 32.490059162000762 ], [ 131.009406394189796, 32.515406945973837 ], [ 131.025614163163141, 32.521110279116158 ], [ 131.018103890582097, 32.546860828964157 ], [ 131.02394722388533, 32.553335278600287 ], [ 131.038961388357507, 32.554427495332675 ], [ 131.040766666748368, 32.559604440892258 ], [ 131.037723890645111, 32.564728332746427 ], [ 131.041628326985801, 32.579895279443633 ], [ 131.051923605689922, 32.587635559033856 ], [ 131.074776666709909, 32.58478444104918 ], [ 131.091175836595653, 32.578634440726887 ], [ 131.108036393764678, 32.581756667436309 ], [ 131.105935551384619, 32.589075828686589 ], [ 131.113475278561282, 32.591379441208289 ], [ 131.120622217841174, 32.605322495137102 ], [ 131.116206667104052, 32.609488612609425 ], [ 131.115937223923765, 32.620950559320931 ], [ 131.119871114860075, 32.629147775449553 ], [ 131.115548884973123, 32.642105828920933 ], [ 131.123542502684359, 32.644467775067824 ], [ 131.127048053724707, 32.654130279089145 ], [ 131.140190829743005, 32.664647774874936 ], [ 131.143534993844924, 32.676281386876553 ], [ 131.151389169874392, 32.680058332626004 ], [ 131.16293250343233, 32.671713053914345 ], [ 131.175102775972391, 32.671933054167141 ], [ 131.172470272385226, 32.684748892447487 ], [ 131.180407223814427, 32.700127775176725 ], [ 131.179967496702716, 32.712078053759228 ], [ 131.195026939341801, 32.725314999587624 ], [ 131.206606939158974, 32.730273891926629 ], [ 131.212346938560472, 32.72888055879082 ], [ 131.235060557898464, 32.744378332793872 ], [ 131.23416027177916, 32.753385829092792 ], [ 131.246465278949472, 32.769396107844159 ], [ 131.234533060552394, 32.780814162243871 ], [ 131.245370830099773, 32.786551387236784 ], [ 131.246613891018342, 32.798992774796773 ], [ 131.25525722394184, 32.804668333276993 ], [ 131.254976394445066, 32.815580558595968 ], [ 131.262614993986858, 32.817864720580417 ], [ 131.265183606138521, 32.826461107993794 ], [ 131.272640830410069, 32.824153053720522 ], [ 131.27594972759789, 32.828710279156098 ], [ 131.285803060562898, 32.831422495052152 ], [ 131.291552502845775, 32.827799161602059 ], [ 131.322898885375366, 32.828652495016684 ], [ 131.330223891319633, 32.833330000279318 ], [ 131.340270000260375, 32.833440278745911 ], [ 131.349736109433934, 32.82462889220966 ], [ 131.348636109069275, 32.810682224804907 ], [ 131.364385837136751, 32.803370559403845 ], [ 131.389350557582247, 32.811970278805347 ], [ 131.421209169667463, 32.811916108141929 ], [ 131.431271388164078, 32.818369162007286 ], [ 131.436970272360213, 32.828626108008507 ], [ 131.464510557616222, 32.831023053970796 ], [ 131.475255551302666, 32.837242495444855 ], [ 131.477686393612203, 32.833919999608327 ], [ 131.477861114798657, 32.833681386986484 ] ] ] } }
]
}
