{
"type": "FeatureCollection",
"name": "02_aomori_forecast",
"crs": { "type": "name", "properties": { "name": "urn:ogc:def:crs:OGC:1.3:CRS84" } },
"features": [
{ "type": "Feature", "properties": { "code": "020000", "name": "青森県", "PrefCode": "02", "regioncode": "020000" }, "geometry": { "type": "MultiPolygon", "coordinates": [ [ [ [ 141.535003969058039, 40.537531891783431 ], [ 141.546948197001711, 40.537766279390326 ], [ 141.535034474961094, 40.537559170919053 ], [ 141.535003969058039, 40.537531891783431 ] ] ], [ [ [ 141.550316835253852, 40.538870306019874 ], [ 141.555391310260802, 40.538567891894729 ], [ 141.550288754822191, 40.538872081281568 ], [ 141.550316835253852, 40.538870306019874 ] ] ], [ [ [ 141.528879780177817, 40.541126532363648 ], [ 141.533333722073735, 40.536338613736064 ], [ 141.529925109855981, 40.533946918915206 ], [ 141.520750168785298, 40.540507719655579 ], [ 141.5279136447989, 40.540522973056795 ], [ 141.524052750034457, 40.544988505415233 ], [ 141.528308859066669, 40.546255721224611 ], [ 141.531061375382251, 40.544283133859608 ], [ 141.528922632873218, 40.541551000678169 ], [ 141.528879780177817, 40.541126532363648 ] ] ], [ [ [ 141.549578689704845, 40.54944330616371 ], [ 141.550387950943218, 40.546446080722092 ], [ 141.560335005855904, 40.544616667225455 ], [ 141.550148715990531, 40.546389865899641 ], [ 141.549582217745183, 40.549720864826099 ], [ 141.549578689704845, 40.54944330616371 ] ] ], [ [ [ 141.535075331161693, 40.56300699997314 ], [ 141.53563180286551, 40.55604008068525 ], [ 141.545553671364928, 40.549119198592166 ], [ 141.535398339761628, 40.556060251579424 ], [ 141.53507992220068, 40.563299667245872 ], [ 141.535075331161693, 40.56300699997314 ] ] ], [ [ [ 141.480857197002138, 40.585049081150203 ], [ 141.479258884989576, 40.587480107820795 ], [ 141.480835278725181, 40.585091973415899 ], [ 141.480857197002138, 40.585049081150203 ] ] ], [ [ [ 139.919863527679695, 40.645622747591801 ], [ 139.922819079436977, 40.648101917669408 ], [ 139.919740218935999, 40.645714748237083 ], [ 139.919863527679695, 40.645622747591801 ] ] ], [ [ [ 139.993862114445051, 40.735363802197753 ], [ 139.992686550344047, 40.73326658588428 ], [ 139.993832387354814, 40.735422972192453 ], [ 139.993862114445051, 40.735363802197753 ] ] ], [ [ [ 139.995440117067801, 40.744625505362819 ], [ 139.997867639080368, 40.7433952247099 ], [ 139.99539566807573, 40.744631054179877 ], [ 139.995440117067801, 40.744625505362819 ] ] ], [ [ [ 140.100139222047574, 40.752401945793224 ], [ 140.097431581902015, 40.752540667118126 ], [ 140.100005304900947, 40.75241327904962 ], [ 140.100139222047574, 40.752401945793224 ] ] ], [ [ [ 140.030303943272429, 40.760215225152592 ], [ 140.030622826682134, 40.757377972915151 ], [ 140.030237275629815, 40.760226613267662 ], [ 140.030303943272429, 40.760215225152592 ] ] ], [ [ [ 140.770583838873108, 40.834852999666282 ], [ 140.766941387635029, 40.834991360363063 ], [ 140.770520752330867, 40.83486261341892 ], [ 140.770583838873108, 40.834852999666282 ] ] ], [ [ [ 140.757454720858732, 40.837443639812193 ], [ 140.750447976892701, 40.835669918631879 ], [ 140.757624863596675, 40.837570197806428 ], [ 140.757454720858732, 40.837443639812193 ] ] ], [ [ [ 140.726524501404697, 40.845818721157116 ], [ 140.73591036317282, 40.841104558628558 ], [ 140.726447030206373, 40.845716972760158 ], [ 140.726878910733262, 40.84977819780562 ], [ 140.726488222753346, 40.845889467225163 ], [ 140.726524501404697, 40.845818721157116 ] ] ], [ [ [ 140.850528301440022, 40.896920225088365 ], [ 140.850345615857577, 40.894007667220137 ], [ 140.847085524877116, 40.895728224977631 ], [ 140.850387223891289, 40.897086468365899 ], [ 140.850528301440022, 40.896920225088365 ] ] ], [ [ [ 140.852946446221608, 40.909833414080822 ], [ 140.851218390816143, 40.907706747668328 ], [ 140.852932282798633, 40.909880640179438 ], [ 140.852946446221608, 40.909833414080822 ] ] ], [ [ [ 140.855277497958241, 40.935140721367247 ], [ 140.858000000299853, 40.933328775402742 ], [ 140.85332916980542, 40.93137627889223 ], [ 140.85523306065727, 40.935140721367247 ], [ 140.855277497958241, 40.935140721367247 ] ] ], [ [ [ 141.40819778170237, 40.924296386768901 ], [ 141.400966394283728, 40.930433891910639 ], [ 141.400918586323769, 40.940252252039841 ], [ 141.401305278615837, 40.930507225328256 ], [ 141.407417886026678, 40.924995838087511 ], [ 141.40819778170237, 40.924296386768901 ] ] ], [ [ [ 140.982084227605128, 40.944842360286771 ], [ 140.983989026772178, 40.94208905436642 ], [ 140.981417808385231, 40.944637721353786 ], [ 140.982084227605128, 40.944842360286771 ] ] ], [ [ [ 140.872003359167707, 41.017289360215841 ], [ 140.878051970821843, 41.009959053667444 ], [ 140.871392528842193, 41.012555999859558 ], [ 140.871958911074898, 41.017322972377315 ], [ 140.872003359167707, 41.017289360215841 ] ] ], [ [ [ 141.239764359137894, 41.36970618858976 ], [ 141.235403501570431, 41.369670630295388 ], [ 141.24223179036494, 41.370035666912543 ], [ 141.239943709134877, 41.369731757214879 ], [ 141.239764359137894, 41.36970618858976 ] ] ], [ [ [ 141.185952671778409, 41.403199386842289 ], [ 141.185152802160133, 41.408023027440834 ], [ 141.185877755554088, 41.403761107888897 ], [ 141.185952671778409, 41.403199386842289 ] ] ], [ [ [ 141.182208028777609, 41.404381134681671 ], [ 141.177675253210396, 41.410525972895414 ], [ 141.181918832887845, 41.404609666802742 ], [ 141.182208028777609, 41.404381134681671 ] ] ], [ [ [ 141.175868560186018, 41.412843089636908 ], [ 141.179088962285846, 41.411974485733992 ], [ 141.175860467186908, 41.412826098745541 ], [ 141.175868560186018, 41.412843089636908 ] ] ], [ [ [ 141.43159105108623, 41.411769441206786 ], [ 141.4290749161745, 41.410745531581085 ], [ 141.435723605859835, 41.414323081445104 ], [ 141.433333332867051, 41.413003305658094 ], [ 141.43159105108623, 41.411769441206786 ] ] ], [ [ [ 140.904761413808274, 41.535909639618239 ], [ 140.904536394439106, 41.531471801882219 ], [ 140.904415914962556, 41.536068081276994 ], [ 140.904761413808274, 41.535909639618239 ] ] ], [ [ [ 140.918620415299984, 41.546808721345485 ], [ 140.924824642943008, 41.534068640155681 ], [ 140.952584111867282, 41.521979466679113 ], [ 140.963240920732005, 41.514039918907201 ], [ 140.973286667245929, 41.498941387235277 ], [ 141.001416109166144, 41.487131802190959 ], [ 140.998201725329409, 41.490018721287015 ], [ 141.001756693216862, 41.485811639695441 ], [ 141.0663562782197, 41.482386441281278 ], [ 141.09410111517434, 41.467958999907978 ], [ 141.093680700104301, 41.47145466739903 ], [ 141.094606199616464, 41.467345945558975 ], [ 141.112655667724994, 41.462945197662805 ], [ 141.111590856033217, 41.459600666637527 ], [ 141.119803918216348, 41.455783972652284 ], [ 141.121680856386433, 41.4480397756152 ], [ 141.13492000015799, 41.435010837580137 ], [ 141.143551633800939, 41.433069721090817 ], [ 141.159291413567985, 41.41579261233926 ], [ 141.176700194758268, 41.408748801915749 ], [ 141.167725693685838, 41.410904639637465 ], [ 141.177001284181983, 41.4032827477007 ], [ 141.179540414758435, 41.404983279354894 ], [ 141.178247951381877, 41.400656360402763 ], [ 141.184011556188466, 41.403507440615954 ], [ 141.178713527707146, 41.399348252419941 ], [ 141.193164616753734, 41.386712053718384 ], [ 141.21335709465427, 41.37472725196119 ], [ 141.228972399256918, 41.371415198152931 ], [ 141.222260585257914, 41.371227990779175 ], [ 141.23121853520729, 41.366561090322136 ], [ 141.235930934165367, 41.368918675656403 ], [ 141.23373128417154, 41.365906269658694 ], [ 141.238118184306813, 41.364032215614316 ], [ 141.239972178972948, 41.368543640376743 ], [ 141.242798663627468, 41.362069784293169 ], [ 141.271936860697679, 41.354181720010445 ], [ 141.309666057342724, 41.35113983783333 ], [ 141.357087834036406, 41.363726946141696 ], [ 141.40265671863267, 41.383214531825217 ], [ 141.460853359095267, 41.430931775381168 ], [ 141.465048080404699, 41.429587865387703 ], [ 141.463674474797244, 41.424178413602931 ], [ 141.469014474638357, 41.418565081013753 ], [ 141.461122776195225, 41.415450360046123 ], [ 141.463700830329117, 41.402332559100387 ], [ 141.455188781337256, 41.401370639743277 ], [ 141.456030699657163, 41.394561639608014 ], [ 141.452779389657167, 41.396215134920567 ], [ 141.46074477225352, 41.389201198176806 ], [ 141.460397366845086, 41.380957639983137 ], [ 141.452081828713517, 41.371810441198932 ], [ 141.452482476684963, 41.374488026900963 ], [ 141.450049196313444, 41.373233801798563 ], [ 141.441900219819331, 41.355961802095521 ], [ 141.404991673427048, 41.238789360240844 ], [ 141.403620025643704, 41.227119081080787 ], [ 141.407911945679757, 41.225143972916044 ], [ 141.403044331830529, 41.225562946372918 ], [ 141.402368274576247, 41.222582387167506 ], [ 141.408904384429889, 41.224970946052395 ], [ 141.403540467118887, 41.222738999605212 ], [ 141.400081051299594, 41.212589973148795 ], [ 141.402874720591967, 41.210927838049315 ], [ 141.399058053586373, 41.208317358859063 ], [ 141.404994916382293, 41.206650279287032 ], [ 141.398937418527112, 41.205107864636318 ], [ 141.394008365693594, 41.191055748124313 ], [ 141.40036302203589, 41.182724532111536 ], [ 141.393693916840903, 41.187733080517319 ], [ 141.392801336112825, 41.18448944083508 ], [ 141.396956614955911, 41.184121000283994 ], [ 141.390907301830566, 41.178457918997822 ], [ 141.389618690250472, 41.167384081010596 ], [ 141.392707223859361, 41.167477838031857 ], [ 141.389861803079839, 41.166106693868869 ], [ 141.388670026000909, 41.150002106811826 ], [ 141.391627392590181, 41.137379333189756 ], [ 141.394551996877226, 41.137098224903184 ], [ 141.391495253403264, 41.133151252428434 ], [ 141.395874772802586, 41.132294134666608 ], [ 141.394131555726744, 41.105444613278337 ], [ 141.395736446280011, 41.107133585946315 ], [ 141.398466329357689, 41.102396765898106 ], [ 141.392901363207443, 41.10327764015102 ], [ 141.398865836988875, 41.098000000199875 ], [ 141.391530921414983, 41.0743164692297 ], [ 141.385076328809646, 41.000935197801198 ], [ 141.385514721327354, 40.970338053958073 ], [ 141.393091024831051, 40.964954640244514 ], [ 141.389581114776661, 40.969114413899149 ], [ 141.384148560307835, 40.96669455770774 ], [ 141.391195031825305, 40.96516755923551 ], [ 141.386710972533365, 40.960545838020039 ], [ 141.38652105100573, 40.943577748014718 ], [ 141.390062243977468, 40.936982558997954 ], [ 141.393939222217341, 40.936779667447752 ], [ 141.37573688644818, 40.936218973426946 ], [ 141.395875810620282, 40.926236612929415 ], [ 141.38581878121181, 40.930844386559272 ], [ 141.389329274026863, 40.926550693959427 ], [ 141.386938392193088, 40.924226693806929 ], [ 141.400053203792368, 40.926224314700391 ], [ 141.391196030972083, 40.921612720750488 ], [ 141.390666860886995, 40.904694413616369 ], [ 141.397583256262351, 40.847847586297121 ], [ 141.424565472618497, 40.706804108422944 ], [ 141.431999000653377, 40.68615020726628 ], [ 141.438238781194855, 40.686571278841484 ], [ 141.441851089855959, 40.680957919272601 ], [ 141.438100829689574, 40.686430341587027 ], [ 141.433711466311138, 40.686015423173274 ], [ 141.438444358120705, 40.679955332572604 ], [ 141.436104267298106, 40.678248324001004 ], [ 141.444628585740702, 40.681369504798852 ], [ 141.437341854942702, 40.676968468220309 ], [ 141.441862943819842, 40.675361252020195 ], [ 141.438514357751501, 40.670246802148256 ], [ 141.44630802919221, 40.644853865013886 ], [ 141.450184189049196, 40.644463413555741 ], [ 141.447110558105805, 40.643853801811531 ], [ 141.447885693669946, 40.638824468274663 ], [ 141.449737562338669, 40.634898585801125 ], [ 141.453162023308778, 40.635534251804302 ], [ 141.449893411251992, 40.634533080637198 ], [ 141.453419688967529, 40.625885892320127 ], [ 141.456958781122921, 40.626487359803889 ], [ 141.454462529322313, 40.623327080980062 ], [ 141.457794423074233, 40.616978612872742 ], [ 141.461006472270924, 40.617750027042177 ], [ 141.458443450305026, 40.616351531797818 ], [ 141.462405058346803, 40.607730332988524 ], [ 141.465644553053721, 40.607805386809218 ], [ 141.461610388608619, 40.603133505007293 ], [ 141.466058249288835, 40.600760972940577 ], [ 141.471644642686215, 40.587336387164612 ], [ 141.478237004234416, 40.586529667410275 ], [ 141.473837056734851, 40.586788666763596 ], [ 141.477155057759774, 40.586489036040234 ], [ 141.479456394996646, 40.57932741442869 ], [ 141.477116939095481, 40.578428747089049 ], [ 141.482356627656259, 40.568866603810761 ], [ 141.488943891847157, 40.571207909617385 ], [ 141.503622230581527, 40.559413369331594 ], [ 141.521107690667463, 40.555425722319285 ], [ 141.528094059593286, 40.55873544058818 ], [ 141.521043476375439, 40.555264973000135 ], [ 141.50353430566372, 40.559288531740378 ], [ 141.491865538264051, 40.566209739388 ], [ 141.483517173079122, 40.561300306164242 ], [ 141.487429974014162, 40.556843251714724 ], [ 141.500125057625382, 40.55677274756431 ], [ 141.498328884870261, 40.55133474770048 ], [ 141.505957302287698, 40.551314360069739 ], [ 141.500366744130019, 40.548596467652885 ], [ 141.501821193393425, 40.54663680174707 ], [ 141.507550465681561, 40.54910786533577 ], [ 141.512293892149501, 40.546769639707179 ], [ 141.514621970727376, 40.552466441073477 ], [ 141.512368028661626, 40.546722802115653 ], [ 141.503057912292888, 40.541898612930709 ], [ 141.514345473265053, 40.543075106930701 ], [ 141.518058079716639, 40.540339171415667 ], [ 141.515083164656403, 40.538893531911015 ], [ 141.525330219913826, 40.53322483795597 ], [ 141.522454527054833, 40.531033279162557 ], [ 141.534473865476571, 40.531545107620673 ], [ 141.527216860869544, 40.528811945614848 ], [ 141.534562827312698, 40.527181802098539 ], [ 141.537204772881978, 40.531528053776697 ], [ 141.536953916889843, 40.527257505229727 ], [ 141.543660752241976, 40.527618946357336 ], [ 141.54298719780104, 40.530990666586035 ], [ 141.549228910985562, 40.529822693662425 ], [ 141.552438171384551, 40.534521639661989 ], [ 141.552291555810712, 40.529463440585346 ], [ 141.558156836169132, 40.540017467732014 ], [ 141.575983022398646, 40.543103720660213 ], [ 141.581701777115427, 40.539382504998684 ], [ 141.579620752195979, 40.535888864579476 ], [ 141.583468495274929, 40.533923666943735 ], [ 141.581803449969357, 40.530816081197258 ], [ 141.587764916417768, 40.522180387115213 ], [ 141.608577224159603, 40.513984198012395 ], [ 141.612698196564565, 40.505253081364685 ], [ 141.621821504858644, 40.50564141402009 ], [ 141.619090830377559, 40.503940108049619 ], [ 141.621755811181856, 40.498660360087626 ], [ 141.632766693028543, 40.49562691894721 ], [ 141.630202021706054, 40.490725531957764 ], [ 141.63436830105627, 40.483218171381566 ], [ 141.645247717308393, 40.477096107599323 ], [ 141.649177833790077, 40.470209387153545 ], [ 141.660906160590912, 40.465830748190513 ], [ 141.668587367313194, 40.456447224659769 ], [ 141.682666834906627, 40.450293973288296 ], [ 141.676031777144885, 40.448535224920761 ], [ 141.669946589163828, 40.437244306779405 ], [ 141.654955253082562, 40.428588108154713 ], [ 141.646894448819808, 40.428240054335106 ], [ 141.631335913921362, 40.420253892003586 ], [ 141.61613819692036, 40.420196666343145 ], [ 141.612551310294748, 40.415440801351963 ], [ 141.597910530846434, 40.413152468311807 ], [ 141.58692175073827, 40.40696077541952 ], [ 141.581239882614568, 40.398426279349337 ], [ 141.585609468102575, 40.378339972711615 ], [ 141.572438197065253, 40.36948491869407 ], [ 141.57188406000148, 40.365855171279179 ], [ 141.556020805116077, 40.36123017113556 ], [ 141.539030999181364, 40.347972612845865 ], [ 141.518172387146024, 40.351836053591057 ], [ 141.507505615591754, 40.362860892016613 ], [ 141.498949533993823, 40.362122027010003 ], [ 141.496434474671332, 40.367410413859545 ], [ 141.479983865363124, 40.376359440735655 ], [ 141.466421088862262, 40.377459225263067 ], [ 141.454308910727718, 40.37300058620815 ], [ 141.441720311343374, 40.376056469030857 ], [ 141.433953139326036, 40.373716693870392 ], [ 141.427289105407908, 40.361809613323032 ], [ 141.419241608413586, 40.363524613270329 ], [ 141.407126447227824, 40.357124774988449 ], [ 141.401534137190765, 40.366363441119972 ], [ 141.397253606169102, 40.367248694171963 ], [ 141.389119274235213, 40.359223612779545 ], [ 141.389792672194176, 40.35304050481551 ], [ 141.381575031562534, 40.34214008129976 ], [ 141.376645642382528, 40.338925612926744 ], [ 141.373296160589348, 40.343170332944567 ], [ 141.370103450413922, 40.338536693913341 ], [ 141.350996641281995, 40.33107297293941 ], [ 141.350861052295841, 40.334737998959554 ], [ 141.346132723646292, 40.335730506058042 ], [ 141.346883216887022, 40.340148866277218 ], [ 141.334004616719767, 40.345601054744918 ], [ 141.336338080438168, 40.360196693622584 ], [ 141.31600305999325, 40.372621946445747 ], [ 141.310373384923878, 40.366833306312117 ], [ 141.293490143255553, 40.36323133265995 ], [ 141.295887367108321, 40.360721892301569 ], [ 141.291949883380425, 40.357881333256955 ], [ 141.292318301448518, 40.351668251788453 ], [ 141.279533113862158, 40.344750721468699 ], [ 141.262429442065127, 40.349475468118385 ], [ 141.260130363025951, 40.341872387300896 ], [ 141.248377859750462, 40.34100408107355 ], [ 141.232431608232218, 40.328346531567206 ], [ 141.226160506102588, 40.327833748029093 ], [ 141.218485642298674, 40.31522119790003 ], [ 141.197362114270277, 40.307636467748864 ], [ 141.1727826328123, 40.310101774777138 ], [ 141.153969753601359, 40.301293197722941 ], [ 141.138373411204043, 40.300496559368753 ], [ 141.134391284230446, 40.294744892163123 ], [ 141.099849026811171, 40.280957694342192 ], [ 141.110054501014474, 40.261051720660419 ], [ 141.104170921251125, 40.255812532122718 ], [ 141.076405863040236, 40.25263835967263 ], [ 141.059720363404153, 40.238157973411774 ], [ 141.04188177732226, 40.236860197739986 ], [ 141.026839079160254, 40.226569585617938 ], [ 141.02597800258286, 40.221680945619198 ], [ 141.012422244391132, 40.21770705373757 ], [ 140.991046160651877, 40.222806558675813 ], [ 140.979144033570378, 40.219919359890582 ], [ 140.975961217736085, 40.225762999862582 ], [ 140.968588444301304, 40.226396332125091 ], [ 140.967038910617248, 40.238016135036673 ], [ 140.955365032370423, 40.24447508126002 ], [ 140.95424219192364, 40.250549278626352 ], [ 140.945710466664764, 40.258074918822501 ], [ 140.957582166084194, 40.282037585865965 ], [ 140.952392698364406, 40.287418774656771 ], [ 140.944597977414787, 40.288137693599708 ], [ 140.943973722009673, 40.296259414340568 ], [ 140.956895550789113, 40.304718054394755 ], [ 140.957339830269007, 40.324516252423166 ], [ 140.962577613166332, 40.323161775395647 ], [ 140.967416938840756, 40.333662107620228 ], [ 140.968170777559408, 40.338721865221942 ], [ 140.962081283624457, 40.34713389161584 ], [ 140.968354279726327, 40.350866386574523 ], [ 140.971859339736852, 40.343708559202696 ], [ 140.980899053348708, 40.343268252028281 ], [ 140.995432282873594, 40.353365224825325 ], [ 140.991182775764514, 40.361063613095325 ], [ 140.994102607349532, 40.376405080430175 ], [ 140.98440919632742, 40.388426559238383 ], [ 140.98768077794557, 40.397093531741177 ], [ 140.981403748384309, 40.405646359591856 ], [ 140.982737834183808, 40.413510865234286 ], [ 140.978759195680368, 40.415979748866391 ], [ 140.985452477350009, 40.421523107905159 ], [ 140.985153554393037, 40.427217865112425 ], [ 140.972207393556459, 40.430850108146046 ], [ 140.951263838755267, 40.426307639685888 ], [ 140.941954915786823, 40.430201278766049 ], [ 140.93296169892335, 40.421273748384806 ], [ 140.926247249910716, 40.421320441185458 ], [ 140.920029416424541, 40.427305198276315 ], [ 140.911499468225998, 40.423305747662198 ], [ 140.892325914109733, 40.423351586106889 ], [ 140.861322606752992, 40.440629306397398 ], [ 140.878107444602961, 40.498417081782975 ], [ 140.87833938965116, 40.511030134633074 ], [ 140.852587301962444, 40.505217441231991 ], [ 140.845020946759405, 40.507359693794911 ], [ 140.826944695041675, 40.49607997311233 ], [ 140.820025551338176, 40.495330279368943 ], [ 140.81062897504728, 40.487129667400268 ], [ 140.811395135377211, 40.476986803098555 ], [ 140.803648663954732, 40.44864572102324 ], [ 140.793214501148327, 40.449404613032527 ], [ 140.787140025891517, 40.457194973169521 ], [ 140.772412580576201, 40.451227774442316 ], [ 140.769046743712352, 40.453822531684523 ], [ 140.762413969329259, 40.451034747555582 ], [ 140.752059921728119, 40.438755026623255 ], [ 140.733891582130923, 40.439505080994763 ], [ 140.735479104976775, 40.433974225230372 ], [ 140.73120192033241, 40.431107836757292 ], [ 140.735858340090431, 40.427859747229604 ], [ 140.733569780421135, 40.415802774878216 ], [ 140.723016445752478, 40.416610866098665 ], [ 140.715549442253064, 40.427882054013651 ], [ 140.699228053831689, 40.429415999748642 ], [ 140.687522503260993, 40.427022946052148 ], [ 140.6847203632542, 40.41642791881344 ], [ 140.666025383364854, 40.411500467672511 ], [ 140.661480414789366, 40.404448531874323 ], [ 140.652649585809854, 40.403348559388576 ], [ 140.641037911870171, 40.40518413503986 ], [ 140.634052361327463, 40.402335531559572 ], [ 140.63629121906456, 40.409484720943169 ], [ 140.625781414280937, 40.423998667204785 ], [ 140.611237808378178, 40.423860080778184 ], [ 140.589730507257173, 40.436112919175912 ], [ 140.587217495690993, 40.429292918533406 ], [ 140.562082724238394, 40.427046027152471 ], [ 140.553367173056699, 40.420563532181291 ], [ 140.565969780281193, 40.406474612713282 ], [ 140.569369248192288, 40.400735973986059 ], [ 140.567069533332415, 40.398640693912967 ], [ 140.558786472417864, 40.397075720667999 ], [ 140.547703358823014, 40.404010197812454 ], [ 140.54051944211858, 40.402701586209275 ], [ 140.532345772039776, 40.411233837571615 ], [ 140.523606304287568, 40.410559667095015 ], [ 140.524269027293826, 40.419665801935253 ], [ 140.52982267097957, 40.420285774768729 ], [ 140.52965260738199, 40.43053525190038 ], [ 140.508362827082919, 40.428548332939272 ], [ 140.498133580200602, 40.436397505140803 ], [ 140.481211582248761, 40.44183030602386 ], [ 140.48432155569526, 40.44622227923486 ], [ 140.481011803252159, 40.451635613392909 ], [ 140.464382022912105, 40.45644758618721 ], [ 140.440121166758559, 40.449997279750733 ], [ 140.437019415813438, 40.465470387148684 ], [ 140.433460220213078, 40.467701776016213 ], [ 140.435736588672739, 40.479971559439946 ], [ 140.427076835027947, 40.482591584933743 ], [ 140.402237107756378, 40.474907108276454 ], [ 140.394132607234155, 40.485023558590399 ], [ 140.387708170695532, 40.487102442224 ], [ 140.377947912166519, 40.476540197971815 ], [ 140.361301220075347, 40.478391613382314 ], [ 140.347808470184759, 40.467547694270706 ], [ 140.347927392934935, 40.462493505271084 ], [ 140.343090999050446, 40.461037946244289 ], [ 140.34066719843247, 40.443228721228536 ], [ 140.33521608285605, 40.439383441392749 ], [ 140.317611633470165, 40.439683467817815 ], [ 140.310726640622079, 40.436287332794222 ], [ 140.306442723652822, 40.442530694436073 ], [ 140.291041284128028, 40.446583466753623 ], [ 140.266867108230485, 40.440742639861014 ], [ 140.250054305062235, 40.442993748163019 ], [ 140.245381283819256, 40.43809708081568 ], [ 140.220168833424964, 40.431145504861206 ], [ 140.209203217154823, 40.438638586002014 ], [ 140.194051582314728, 40.434779747987022 ], [ 140.185467108220564, 40.443305613263476 ], [ 140.151939364310238, 40.434979892108402 ], [ 140.136729921948358, 40.439616613116243 ], [ 140.111622411645044, 40.435415864550578 ], [ 140.099174306149393, 40.443969224799957 ], [ 140.099501218706337, 40.453073945905942 ], [ 140.093582309076396, 40.458924802038041 ], [ 140.068149170447896, 40.468859865390527 ], [ 140.053619727968112, 40.467790441076033 ], [ 140.048688079691146, 40.460100170986152 ], [ 140.036171673384047, 40.461617695100585 ], [ 140.022722243836597, 40.451268305987583 ], [ 140.020066978408408, 40.446828306281361 ], [ 140.026038975018764, 40.438946918565478 ], [ 140.017368469978919, 40.427043892161919 ], [ 140.019443216731133, 40.419841640079653 ], [ 139.995054501264235, 40.435046747709293 ], [ 139.981208417634434, 40.427377081087457 ], [ 139.969846719250768, 40.427450721173898 ], [ 139.959544476196697, 40.434862721237664 ], [ 139.936309778873238, 40.428203837736987 ], [ 139.940073358898417, 40.43068855932961 ], [ 139.938429416184704, 40.446024387015882 ], [ 139.942200219564597, 40.44956161307806 ], [ 139.947146783097651, 40.478435720632035 ], [ 139.945614695361996, 40.488611197948501 ], [ 139.950009078756011, 40.495797414219339 ], [ 139.948453527708239, 40.51009291875323 ], [ 139.945200336326479, 40.512704306258797 ], [ 139.947509637060193, 40.524050135205641 ], [ 139.940072866069954, 40.553016280277177 ], [ 139.92919450112538, 40.557129640820335 ], [ 139.93206978029616, 40.5574979455738 ], [ 139.929945577126773, 40.559238252443436 ], [ 139.933323358786083, 40.565751559087232 ], [ 139.918430505663423, 40.585794109210838 ], [ 139.910891607661597, 40.586259413940866 ], [ 139.913368029411117, 40.584618504640332 ], [ 139.910132996240804, 40.582922748386181 ], [ 139.910589105403005, 40.586002467739775 ], [ 139.907013553832485, 40.586397467968823 ], [ 139.896659662713319, 40.581845839014306 ], [ 139.869134111949734, 40.583983387223611 ], [ 139.865383800522068, 40.593854532161004 ], [ 139.861270169282989, 40.595807586251169 ], [ 139.865450168690359, 40.597074533163209 ], [ 139.859726834625803, 40.602929278863201 ], [ 139.863118196047935, 40.609104279439009 ], [ 139.860783216971981, 40.615791414242437 ], [ 139.893400635630883, 40.632666196887556 ], [ 139.892424228195637, 40.635667333480683 ], [ 139.902398365292356, 40.645814000116047 ], [ 139.912002827068932, 40.642113135213094 ], [ 139.917428105123008, 40.64502536033217 ], [ 139.928751309825202, 40.642543973425688 ], [ 139.927449780383085, 40.654375946192999 ], [ 139.937214189283509, 40.655787585928408 ], [ 139.935504188667437, 40.663410360100102 ], [ 139.939423890999819, 40.667492333404539 ], [ 139.936469441811369, 40.67168344123786 ], [ 139.942242776383068, 40.667755919300305 ], [ 139.950488611660148, 40.670295081352947 ], [ 139.96434999995256, 40.68301705379406 ], [ 139.967817717413823, 40.698877641290153 ], [ 139.979118832967856, 40.702775134864623 ], [ 139.986827173135566, 40.713092946082668 ], [ 139.984405745828553, 40.720508774560358 ], [ 139.989767976910684, 40.723063531756623 ], [ 139.993995162846545, 40.734887972701813 ], [ 139.999966004727412, 40.737331027804714 ], [ 139.997063191013467, 40.742557170776877 ], [ 139.999716226123041, 40.74767494634176 ], [ 140.004979584840044, 40.743486612916911 ], [ 140.025963994942458, 40.750268252078229 ], [ 140.039855550093648, 40.765655973344565 ], [ 140.043325577013889, 40.763658251727009 ], [ 140.053838884656898, 40.769247135347086 ], [ 140.090396109093263, 40.756587054249223 ], [ 140.092963917251041, 40.753837639695348 ], [ 140.089167496682649, 40.756288440659034 ], [ 140.088800311585146, 40.752565946161553 ], [ 140.098487276266837, 40.745957027195118 ], [ 140.112257562336708, 40.74161089242881 ], [ 140.122747522680129, 40.742580027046642 ], [ 140.142646393516316, 40.750380305806516 ], [ 140.162857419034708, 40.763866225346078 ], [ 140.167586278284148, 40.771294747754439 ], [ 140.183822802180657, 40.775182251659658 ], [ 140.195484060241256, 40.78425694620114 ], [ 140.211599001193008, 40.785675694177996 ], [ 140.205625771612176, 40.783973360282403 ], [ 140.213875109748528, 40.778934720560983 ], [ 140.210068275030949, 40.784478918667219 ], [ 140.217084863875471, 40.779220775118745 ], [ 140.228397133720819, 40.781822946371904 ], [ 140.240484577801112, 40.790770198885639 ], [ 140.235179584969956, 40.798544641022431 ], [ 140.241254812059992, 40.792165197565851 ], [ 140.243407613670456, 40.794793360125539 ], [ 140.238190168941173, 40.79707110814519 ], [ 140.246317755959694, 40.79646674844173 ], [ 140.256231672653598, 40.808444387098859 ], [ 140.284790895183733, 40.863966279220449 ], [ 140.305138781329788, 40.928592414008733 ], [ 140.313982968839014, 40.970553532419615 ], [ 140.30855487680617, 40.975479936749707 ], [ 140.31401306105397, 40.973810107950158 ], [ 140.314758948866483, 40.977653440753727 ], [ 140.309688948885992, 40.975089720913957 ], [ 140.315586445658028, 40.978920721314296 ], [ 140.31934927384998, 41.001988251756472 ], [ 140.323966354563709, 41.067244667407522 ], [ 140.319460169251442, 41.092713359833738 ], [ 140.312295615850076, 41.095615694208959 ], [ 140.29790616094067, 41.1139186398334 ], [ 140.286769105110125, 41.120276720794095 ], [ 140.266722892047937, 41.119893972928537 ], [ 140.275368469679165, 41.118189684806168 ], [ 140.249178779976774, 41.123580052977104 ], [ 140.248672387021088, 41.133764802303858 ], [ 140.257117108267948, 41.140740640168474 ], [ 140.264841024693624, 41.135578108043319 ], [ 140.278025745991499, 41.13992505399807 ], [ 140.284104669295061, 41.135950305961899 ], [ 140.28774328132738, 41.137994197873979 ], [ 140.290585498721839, 41.133811135375652 ], [ 140.296992826557812, 41.136943027099051 ], [ 140.291228067921111, 41.133184621772955 ], [ 140.303364968418578, 41.131305865173601 ], [ 140.296872918150711, 41.135015837510934 ], [ 140.306410531520896, 41.132664441310965 ], [ 140.312498559560936, 41.138012224784404 ], [ 140.310303281171514, 41.145049197662388 ], [ 140.321732166106699, 41.148011387315705 ], [ 140.336092283332277, 41.191914505350212 ], [ 140.33057169782569, 41.199650918754969 ], [ 140.334898612281222, 41.207447027358455 ], [ 140.328711335959497, 41.219620387271107 ], [ 140.329934085689615, 41.229827358845569 ], [ 140.332842672151628, 41.238341279326619 ], [ 140.340643217110824, 41.239438775079464 ], [ 140.343233216939439, 41.249486054038243 ], [ 140.338069882619038, 41.255265585838174 ], [ 140.344314694867307, 41.262954667024303 ], [ 140.361718209627725, 41.250025432327902 ], [ 140.374942502894214, 41.247595748345191 ], [ 140.38535228328135, 41.239351279138248 ], [ 140.393842750342742, 41.23885902712243 ], [ 140.390301439559835, 41.238006386185816 ], [ 140.396997172781312, 41.234934505323224 ], [ 140.402342555064934, 41.222398973134148 ], [ 140.424812087607847, 41.208984639629477 ], [ 140.431993022160327, 41.198578864822821 ], [ 140.436717249901221, 41.198250107756337 ], [ 140.430852502840821, 41.196753559429283 ], [ 140.43659061006872, 41.197266504845402 ], [ 140.446786912985658, 41.189082586092525 ], [ 140.459268949002876, 41.187744359814417 ], [ 140.463858975411426, 41.18229491877554 ], [ 140.482176419905954, 41.183273026828772 ], [ 140.499372775832967, 41.190361359988799 ], [ 140.519445771605092, 41.205352467642342 ], [ 140.520815473255539, 41.215688586359249 ], [ 140.526922113664682, 41.221191359893396 ], [ 140.536869052564839, 41.221188838194394 ], [ 140.538631284006669, 41.217859440960467 ], [ 140.550155694030082, 41.229614667383032 ], [ 140.555002633364893, 41.224364108716713 ], [ 140.563431802635591, 41.226636863700378 ], [ 140.570431192845376, 41.223045297002898 ], [ 140.57878600526999, 41.224155540645711 ], [ 140.575886004635436, 41.223097134824968 ], [ 140.588024306276793, 41.217127668007549 ], [ 140.604155135551082, 41.214374307228525 ], [ 140.617688443966586, 41.196962026776191 ], [ 140.622276082675171, 41.197580225247236 ], [ 140.619046109090732, 41.1968305045242 ], [ 140.632359026947597, 41.191562748122408 ], [ 140.639255576983373, 41.184321387222269 ], [ 140.644388444071524, 41.171896585858804 ], [ 140.63362124522439, 41.132418081029641 ], [ 140.631559274241226, 41.097515360045861 ], [ 140.638694254336428, 41.06209417090929 ], [ 140.644286419582613, 41.049967613514582 ], [ 140.649212088267291, 41.047326748031026 ], [ 140.645536252396141, 41.04890844057212 ], [ 140.645080388748966, 41.046343252139422 ], [ 140.647682996173444, 41.04763130613992 ], [ 140.644954916236429, 41.045104802045046 ], [ 140.647047730368513, 41.024399072059566 ], [ 140.648839455076882, 41.014712585817222 ], [ 140.654410012312269, 41.007889153361816 ], [ 140.649972762732887, 41.006147901304644 ], [ 140.652382865776644, 40.998099324224484 ], [ 140.655757549271584, 40.997812622154868 ], [ 140.652679157317266, 40.997282801859853 ], [ 140.653981997071583, 40.990829882892854 ], [ 140.658974280338839, 40.983204792966887 ], [ 140.655639856793982, 40.986062981421526 ], [ 140.657914318690928, 40.982954694203841 ], [ 140.654227821356926, 40.982527287804146 ], [ 140.66147260687535, 40.944051332802815 ], [ 140.664389467999627, 40.935396279015094 ], [ 140.668845668093127, 40.933045072572099 ], [ 140.664868144749107, 40.934816198308965 ], [ 140.667835292364884, 40.932998747594183 ], [ 140.675965446947885, 40.895052414137638 ], [ 140.679942049386113, 40.891480369023839 ], [ 140.676886394091866, 40.892799161851883 ], [ 140.677491634231615, 40.887608026789053 ], [ 140.683035227094138, 40.874734801869636 ], [ 140.687300207938279, 40.873769784348099 ], [ 140.684356563204915, 40.872621297035266 ], [ 140.687904358099672, 40.865866305685529 ], [ 140.70389491561798, 40.850057639648412 ], [ 140.706793022280181, 40.85172280186589 ], [ 140.703948858752938, 40.850060774685062 ], [ 140.714453191161851, 40.845813972736721 ], [ 140.72049496796842, 40.848471613274398 ], [ 140.716093113006878, 40.845537720789252 ], [ 140.734429585357134, 40.833220505322117 ], [ 140.732941114740697, 40.830213441297303 ], [ 140.741440388862884, 40.835258801652401 ], [ 140.734977562064955, 40.829816504827875 ], [ 140.745408781390211, 40.829970332964535 ], [ 140.742946899879598, 40.837135252390055 ], [ 140.749266497950543, 40.829679531785018 ], [ 140.756647833830584, 40.830409559153907 ], [ 140.759775940307463, 40.836610026731421 ], [ 140.776939051895738, 40.831519613039745 ], [ 140.797584136998353, 40.837034558897813 ], [ 140.819391166868968, 40.852883639568347 ], [ 140.822643386083428, 40.861173001133125 ], [ 140.834718054394784, 40.866155441320586 ], [ 140.834889389633645, 40.872118135343726 ], [ 140.845169196401343, 40.872960640021574 ], [ 140.850194669148777, 40.883826170741258 ], [ 140.859938003336197, 40.888387360388435 ], [ 140.859863774193855, 40.896630135272574 ], [ 140.854912827365183, 40.903314504660727 ], [ 140.865373890692581, 40.904018919337716 ], [ 140.867800660871922, 40.909886332887993 ], [ 140.86498691331542, 40.908025125659094 ], [ 140.868853969335305, 40.909815748697895 ], [ 140.869416083385659, 40.917282864612559 ], [ 140.865098340216264, 40.920312586156967 ], [ 140.865602878769892, 40.925685540755183 ], [ 140.868784903200776, 40.925611081386364 ], [ 140.866819389902957, 40.940552387282878 ], [ 140.871772335025298, 40.943710639934125 ], [ 140.861861335732101, 40.947390467895843 ], [ 140.857002750176889, 40.94379825098855 ], [ 140.837907782418256, 40.953304999626084 ], [ 140.862719363607766, 40.957521080733329 ], [ 140.863455771666622, 40.962712278748711 ], [ 140.859523307055042, 40.962325224929259 ], [ 140.860040272440642, 40.959504801705293 ], [ 140.859187976843714, 40.962748613157999 ], [ 140.8600109986088, 40.971755026673179 ], [ 140.873160660735948, 40.979115586415219 ], [ 140.87116399492254, 40.983371440939322 ], [ 140.863375965828254, 40.984928667424128 ], [ 140.871230116676657, 40.986925054447738 ], [ 140.876161750564393, 40.992542306282473 ], [ 140.880755887774058, 41.004385413556065 ], [ 140.87892586273847, 41.009897945633725 ], [ 140.902911672935375, 41.008044864678823 ], [ 140.91635333323984, 40.995210612779601 ], [ 140.921849078572222, 40.994873305858448 ], [ 140.916785836097574, 40.995013666647424 ], [ 140.920428417737298, 40.993048414153066 ], [ 140.939743943328381, 40.995177252428334 ], [ 140.948709390925728, 40.992354775152819 ], [ 140.950334941604297, 40.985545026781608 ], [ 140.962001089278942, 40.972647504878523 ], [ 140.984480725704998, 40.959610080840605 ], [ 140.984751632981556, 40.95712538712695 ], [ 140.982027197996899, 40.960288586049444 ], [ 140.980286472043076, 40.947163279361916 ], [ 140.977770856040252, 40.948957133664862 ], [ 140.981486718937049, 40.941339946081712 ], [ 140.972814837934493, 40.940752919012027 ], [ 140.971837198428034, 40.934737837681098 ], [ 140.998530830433538, 40.937168413791312 ], [ 141.022678755120523, 40.928748225150514 ], [ 141.023265058235893, 40.924664305713179 ], [ 141.034785005823437, 40.917418747677118 ], [ 141.043339688975493, 40.914830134603108 ], [ 141.054771608223177, 40.917061000964452 ], [ 141.064245135904343, 40.913336054015758 ], [ 141.071909415587129, 40.902199559362202 ], [ 141.082104578163808, 40.896076506325755 ], [ 141.078067418976275, 40.897251108152147 ], [ 141.085751336255271, 40.883693838200145 ], [ 141.102168301925644, 40.872754839164543 ], [ 141.109251284119523, 40.872649721007861 ], [ 141.112274616880086, 40.876845559275182 ], [ 141.113063333106425, 40.870554225097464 ], [ 141.112475083858044, 40.873997332610884 ], [ 141.116987977213398, 40.871059055031424 ], [ 141.125355227262048, 40.874429973064878 ], [ 141.131222917803484, 40.87236269428297 ], [ 141.145025226932717, 40.877586749029319 ], [ 141.179224865135438, 40.905572413636037 ], [ 141.206976251852552, 40.943937838360625 ], [ 141.226237081576073, 40.983948197751204 ], [ 141.239242113832574, 41.031145802237063 ], [ 141.24152691343636, 41.083404224625326 ], [ 141.247237328739743, 41.089333666215794 ], [ 141.246472217918608, 41.10464472117701 ], [ 141.255031478619912, 41.12083672143757 ], [ 141.272480052112769, 41.135052359878557 ], [ 141.279059948158192, 41.158343306198674 ], [ 141.269228197123653, 41.186706134780366 ], [ 141.262673839126478, 41.19961702690432 ], [ 141.257170894721071, 41.201127864559339 ], [ 141.262153554343172, 41.19993172127198 ], [ 141.247662917609659, 41.224181585911538 ], [ 141.225903476264534, 41.249394252143077 ], [ 141.19641204887705, 41.270235054004615 ], [ 141.197984473904398, 41.272332532020812 ], [ 141.187892969884729, 41.276994279362555 ], [ 141.180590830102801, 41.275101197462334 ], [ 141.188655667824833, 41.279133919394894 ], [ 141.175731802980408, 41.275221224579923 ], [ 141.177408339823046, 41.277415386910604 ], [ 141.171111841738139, 41.27961728790757 ], [ 141.159124643287669, 41.277782640356634 ], [ 141.146132283378279, 41.254117558978237 ], [ 141.141118689775794, 41.253508387002512 ], [ 141.143494916257396, 41.251607721119512 ], [ 141.133230336810698, 41.243862667028509 ], [ 141.134183360074076, 41.239914000230954 ], [ 141.144229948353541, 41.240808504608879 ], [ 141.154246615289139, 41.25018738583924 ], [ 141.152364280287316, 41.252545053911149 ], [ 141.157596277845983, 41.253056467781789 ], [ 141.156494837666742, 41.262787170991203 ], [ 141.159386200312952, 41.25672064034535 ], [ 141.154404617179352, 41.242872532341551 ], [ 141.113912283225318, 41.213552612862827 ], [ 141.098810219915777, 41.212905666663232 ], [ 141.074479078146965, 41.20059789227895 ], [ 141.05559208760485, 41.182555080952284 ], [ 141.034435966346791, 41.185066251606258 ], [ 141.010607107631927, 41.197301251951274 ], [ 140.996927588337599, 41.195146720944479 ], [ 140.984242528569894, 41.198668775443707 ], [ 140.985945643077002, 41.195327640258427 ], [ 140.980322503380876, 41.1991367754419 ], [ 140.963969441736367, 41.191281441085664 ], [ 140.945378495421323, 41.173891252479393 ], [ 140.916466109123689, 41.176076305577112 ], [ 140.892005913741968, 41.163490171234457 ], [ 140.876713165380352, 41.166942666770694 ], [ 140.854550661383996, 41.161427945743128 ], [ 140.832750077853916, 41.149724279252155 ], [ 140.826260467446673, 41.141940027310454 ], [ 140.82547450134723, 41.145383972992022 ], [ 140.811313164870739, 41.127576694109223 ], [ 140.798902633050147, 41.128817801700222 ], [ 140.792380843101455, 41.133256152949173 ], [ 140.783051529804311, 41.131309467857704 ], [ 140.777414331905902, 41.135429774764361 ], [ 140.779216523823607, 41.138600332839133 ], [ 140.773628196883806, 41.142170612583755 ], [ 140.769287664893909, 41.140627559414384 ], [ 140.764189052982488, 41.145645892444008 ], [ 140.769082361361939, 41.171943720226579 ], [ 140.764027613883286, 41.194594585771597 ], [ 140.779512049141772, 41.208941865175007 ], [ 140.785592891598753, 41.234714945738233 ], [ 140.779685084099469, 41.252918000065677 ], [ 140.785319532770245, 41.256006891604841 ], [ 140.791576446296062, 41.27110410756859 ], [ 140.789362554638274, 41.274876332776614 ], [ 140.795782803033944, 41.278939946421417 ], [ 140.798575642252104, 41.293936387054657 ], [ 140.802076109425002, 41.292618531320215 ], [ 140.798374695036159, 41.298974080689334 ], [ 140.806254112337456, 41.314154919214218 ], [ 140.798741854952709, 41.321359360246333 ], [ 140.807033500795455, 41.328034080808209 ], [ 140.800957664864427, 41.327930747805794 ], [ 140.814049026641328, 41.335727107320224 ], [ 140.820298444317814, 41.345924892319999 ], [ 140.824141167381072, 41.369057441048142 ], [ 140.827618391575584, 41.37088744090272 ], [ 140.827505550940487, 41.388998026937429 ], [ 140.839008274712228, 41.413414466704353 ], [ 140.83522105061104, 41.415728387255342 ], [ 140.837610751634998, 41.4202522793193 ], [ 140.847422697799288, 41.420693108100522 ], [ 140.854022555196821, 41.433002973408577 ], [ 140.860549804929633, 41.43672889162508 ], [ 140.855559611686772, 41.432061468661914 ], [ 140.861206809147006, 41.435748251080952 ], [ 140.864261699118174, 41.433865386378557 ], [ 140.867274864143724, 41.442692612673966 ], [ 140.865134034308312, 41.445889027156909 ], [ 140.879124552656094, 41.453240973192408 ], [ 140.877540947256989, 41.456783775051235 ], [ 140.884950921148175, 41.467119359570859 ], [ 140.882024527210206, 41.468435198125974 ], [ 140.898570077047452, 41.476738531558055 ], [ 140.903660532107892, 41.494506585610509 ], [ 140.904722724074531, 41.491919585920186 ], [ 140.908695032249966, 41.494504973126084 ], [ 140.905996718973483, 41.501581305732714 ], [ 140.909463606360418, 41.502963026822272 ], [ 140.908573476284914, 41.50777450588879 ], [ 140.900631478759806, 41.511256278854262 ], [ 140.899017834205779, 41.514605134719261 ], [ 140.905345939863309, 41.510761532119091 ], [ 140.906213385439401, 41.51387989174367 ], [ 140.90259147921347, 41.514735891648115 ], [ 140.905237886319469, 41.515743027119072 ], [ 140.897175668322461, 41.52697089199313 ], [ 140.898463942656917, 41.529383612963443 ], [ 140.89744713317873, 41.52595794600245 ], [ 140.900926887166179, 41.52477197314812 ], [ 140.903227470771185, 41.531742693870285 ], [ 140.907792437570947, 41.52948225240408 ], [ 140.907693942921242, 41.544146747874152 ], [ 140.909595887640194, 41.541487531724272 ], [ 140.912408223260968, 41.546368945670338 ], [ 140.917207717062524, 41.545950640409785 ], [ 140.918620415299984, 41.546808721345485 ] ] ], [ [ [ 140.911806278237236, 41.555810359460565 ], [ 140.914186005779584, 41.554614801631828 ], [ 140.910779052811108, 41.552055054097536 ], [ 140.90926878082962, 41.555319531071575 ], [ 140.911800169142566, 41.555848693962105 ], [ 140.911806278237236, 41.555810359460565 ] ] ] ] } }
]
}
