{
"type": "FeatureCollection",
"name": "03_iwate_forecast",
"crs": { "type": "name", "properties": { "name": "urn:ogc:def:crs:OGC:1.3:CRS84" } },
"features": [
{ "type": "Feature", "properties": { "code": "030000", "name": "岩手県", "PrefCode": "03", "regioncode": "030000" }, "geometry": { "type": "MultiPolygon", "coordinates": [ [ [ [ 141.687746694154725, 38.953292467973085 ], [ 141.688752826881569, 38.950479865253612 ], [ 141.687687833526752, 38.9533482250406 ], [ 141.687746694154725, 38.953292467973085 ] ] ], [ [ [ 141.71576664181714, 39.022182919006582 ], [ 141.718250856192071, 39.020891134618239 ], [ 141.714819533394802, 39.022719054340939 ], [ 141.71576664181714, 39.022182919006582 ] ] ], [ [ [ 141.727451893789976, 39.035868747944392 ], [ 141.727449973737407, 39.03835469441367 ], [ 141.727470415327502, 39.035871026826499 ], [ 141.727451893789976, 39.035868747944392 ] ] ], [ [ [ 141.903440337401662, 39.2703313870839 ], [ 141.900533385007748, 39.270131694422219 ], [ 141.903560467041984, 39.271052441017389 ], [ 141.903440337401662, 39.2703313870839 ] ] ], [ [ [ 141.981614449447306, 39.308933838026235 ], [ 141.988168365877414, 39.305502505336392 ], [ 141.984140271856177, 39.302944721022129 ], [ 141.976021336315739, 39.306375414293996 ], [ 141.981603475919769, 39.308949801891913 ], [ 141.981614449447306, 39.308933838026235 ] ] ], [ [ [ 141.969692387094028, 39.381893838230098 ], [ 141.967476743556972, 39.378305359804585 ], [ 141.969689558726259, 39.381901171302047 ], [ 141.969692387094028, 39.381893838230098 ] ] ], [ [ [ 141.999925279428112, 39.406873331838824 ], [ 141.998583332654789, 39.399825135421736 ], [ 141.994231971028739, 39.400351639916323 ], [ 141.999905551000438, 39.406895694380864 ], [ 141.999925279428112, 39.406873331838824 ] ] ], [ [ [ 142.03908252933536, 39.419864973189988 ], [ 142.036787172590039, 39.418374999806474 ], [ 142.039068391992714, 39.419886919345913 ], [ 142.03908252933536, 39.419864973189988 ] ] ], [ [ [ 141.975405279130428, 39.463307864966055 ], [ 141.97475797679931, 39.46100072080668 ], [ 141.975381920139512, 39.463329170804627 ], [ 141.975405279130428, 39.463307864966055 ] ] ], [ [ [ 141.9777503629889, 39.480396413763515 ], [ 141.975294773135374, 39.480347333262898 ], [ 141.977809194838528, 39.480398081106614 ], [ 141.9777503629889, 39.480396413763515 ] ] ], [ [ [ 141.974165421597036, 39.626965775050508 ], [ 141.974309144051858, 39.62458246820637 ], [ 141.974095162062099, 39.626965106854243 ], [ 141.974165421597036, 39.626965775050508 ] ] ], [ [ [ 141.98208147907701, 39.652951440956315 ], [ 141.985032697900806, 39.649784865079539 ], [ 141.979102166331927, 39.652759639845556 ], [ 141.982085356953689, 39.652953198231558 ], [ 141.98208147907701, 39.652951440956315 ] ] ], [ [ [ 141.987512334726489, 39.672068774854154 ], [ 141.987543332558857, 39.668148613867515 ], [ 141.98742194566637, 39.672071586134848 ], [ 141.987512334726489, 39.672068774854154 ] ] ], [ [ [ 141.98679021959299, 39.722275694367852 ], [ 141.989259662603445, 39.722222306114588 ], [ 141.986738248671259, 39.722293053981332 ], [ 141.98679021959299, 39.722275694367852 ] ] ], [ [ [ 141.978098029200737, 39.848578702944849 ], [ 141.981165720121908, 39.845615035705407 ], [ 141.978171037963079, 39.848624260801046 ], [ 141.978098029200737, 39.848578702944849 ] ] ], [ [ [ 141.944616913339928, 39.916197278781453 ], [ 141.948897638615222, 39.912643107693327 ], [ 141.944598300970824, 39.916190505087798 ], [ 141.944616913339928, 39.916197278781453 ] ] ], [ [ [ 141.835896809090514, 40.115450386925886 ], [ 141.83353144012392, 40.11331789200716 ], [ 141.836120000137953, 40.115766504920316 ], [ 141.835896809090514, 40.115450386925886 ] ] ], [ [ [ 141.850428470197812, 40.132918748201746 ], [ 141.853812672117215, 40.131834108257522 ], [ 141.849999999000829, 40.132725640376066 ], [ 141.850428470197812, 40.132918748201746 ] ] ], [ [ [ 141.850293190578327, 40.169446107951558 ], [ 141.85316622594064, 40.169088333359923 ], [ 141.849999999900092, 40.16948044136933 ], [ 141.850293190578327, 40.169446107951558 ] ] ], [ [ [ 141.6829425814351, 40.449468440616101 ], [ 141.693606304287528, 40.435350748238477 ], [ 141.702534967814586, 40.431115251667563 ], [ 141.705368495060043, 40.422089945194841 ], [ 141.714679805728565, 40.420578999621171 ], [ 141.723133217124314, 40.406902117139055 ], [ 141.720603022211776, 40.40846144174219 ], [ 141.720272865800212, 40.404281197719172 ], [ 141.723571141095363, 40.403522919047532 ], [ 141.720584721008095, 40.399590666675977 ], [ 141.728879441633012, 40.38888455877543 ], [ 141.754235811433659, 40.369171864689861 ], [ 141.754435836844436, 40.355536748522184 ], [ 141.769122477220662, 40.349359891745678 ], [ 141.765750116674553, 40.351567639235213 ], [ 141.764040609786321, 40.347855170379887 ], [ 141.769299494376241, 40.347675612639478 ], [ 141.77260413687145, 40.342514387229244 ], [ 141.770306549807515, 40.336755081182105 ], [ 141.774351828973749, 40.321319774987671 ], [ 141.785771673024328, 40.314285946139535 ], [ 141.794336861157262, 40.295815108780289 ], [ 141.816147807575362, 40.271849251841559 ], [ 141.814803164634441, 40.26687269411957 ], [ 141.819709169642579, 40.264221721155536 ], [ 141.820967055885035, 40.253795720596088 ], [ 141.825045693603897, 40.25215427889691 ], [ 141.822752023087446, 40.246166838229044 ], [ 141.832069754015947, 40.234675838019541 ], [ 141.830301439559889, 40.227837776292404 ], [ 141.833668366402094, 40.22337805355437 ], [ 141.831227419310039, 40.222499918636402 ], [ 141.835375863305558, 40.217246775318472 ], [ 141.830794086378091, 40.220866080705093 ], [ 141.819175887857, 40.221355775049005 ], [ 141.811191088897658, 40.215966108349278 ], [ 141.814405032066588, 40.213998081446334 ], [ 141.81257435772045, 40.212239027309295 ], [ 141.80727625189752, 40.215481054507109 ], [ 141.798898171313567, 40.201061504684731 ], [ 141.799493306670797, 40.198420748019146 ], [ 141.805716808583952, 40.198977666686005 ], [ 141.812698340056386, 40.189344920331848 ], [ 141.806527665219619, 40.197537198283101 ], [ 141.801634305578773, 40.197218946197438 ], [ 141.802422502896206, 40.189231441178094 ], [ 141.795702361175131, 40.195155748539037 ], [ 141.79402328104959, 40.190717197640595 ], [ 141.800117197850454, 40.188917225249781 ], [ 141.8036754734444, 40.182993441294343 ], [ 141.806741309963513, 40.183382280268063 ], [ 141.805405927341781, 40.185900927885541 ], [ 141.819125136416005, 40.179245774772767 ], [ 141.832333994618239, 40.179106504861352 ], [ 141.846750583872449, 40.168439441027431 ], [ 141.852853644979746, 40.168465747096604 ], [ 141.863816030885232, 40.160816108376764 ], [ 141.864729274436513, 40.15477138718984 ], [ 141.876565473118148, 40.143878224800289 ], [ 141.872113670709382, 40.135510386595115 ], [ 141.86563503203115, 40.132509305759925 ], [ 141.845672607005326, 40.133342864881342 ], [ 141.835575162064174, 40.122346891995505 ], [ 141.836565421756859, 40.116323586364445 ], [ 141.828607107831772, 40.112787505139295 ], [ 141.826058663876324, 40.100744000135535 ], [ 141.83113494202405, 40.091705720942343 ], [ 141.828963112557631, 40.085597135299622 ], [ 141.833477691242479, 40.08126138680359 ], [ 141.831051361731056, 40.081459225063213 ], [ 141.833363451262358, 40.074509748126445 ], [ 141.851521607836048, 40.055364946235329 ], [ 141.863757912197912, 40.051121693911114 ], [ 141.869052866796437, 40.053248080634489 ], [ 141.87099466856921, 40.048431918798087 ], [ 141.878319248234789, 40.047531612893692 ], [ 141.884843410594954, 40.033532170573267 ], [ 141.901149728177529, 40.019038558882414 ], [ 141.899712776123806, 40.014747252184009 ], [ 141.907597496727135, 40.012778504924142 ], [ 141.904720998974994, 40.013541252327002 ], [ 141.905104137146282, 40.010574720746831 ], [ 141.923516005059696, 40.007614918793536 ], [ 141.935342802228661, 40.009672081101712 ], [ 141.939513644739009, 39.999302612825375 ], [ 141.945187392883895, 39.997335720866886 ], [ 141.947717327892406, 39.989940801626744 ], [ 141.955971245376759, 39.983761360198685 ], [ 141.955606304087723, 39.959069946420925 ], [ 141.959303774049999, 39.956749865513927 ], [ 141.957723410706876, 39.953535532039211 ], [ 141.963168948688121, 39.953393225117281 ], [ 141.957822477325522, 39.950358026701622 ], [ 141.961301115254287, 39.94577691886974 ], [ 141.943233476343948, 39.943739946341509 ], [ 141.939704578003898, 39.939001558774976 ], [ 141.942378586202835, 39.939234332998126 ], [ 141.941509493968056, 39.932158171262643 ], [ 141.938418301063848, 39.932811586285709 ], [ 141.94323841811854, 39.929077666800936 ], [ 141.94021077760533, 39.927492107175055 ], [ 141.94342180247429, 39.925445414774117 ], [ 141.939763476403414, 39.9195531979218 ], [ 141.949097833997939, 39.911595026988948 ], [ 141.955210998988491, 39.89110738709627 ], [ 141.963761699043289, 39.884976440710204 ], [ 141.971166108828925, 39.884630467921795 ], [ 141.977129000702917, 39.871640612624219 ], [ 141.979143527951464, 39.864508279233746 ], [ 141.974792827327178, 39.859225441201204 ], [ 141.978029493666213, 39.85309227888564 ], [ 141.975027445160549, 39.851416332897486 ], [ 141.978462217757169, 39.851803080947491 ], [ 141.974161919636913, 39.85080138637494 ], [ 141.977356602025679, 39.848931197616707 ], [ 141.974544747542154, 39.846293999568502 ], [ 141.978495162621698, 39.845172332737036 ], [ 141.976486978291518, 39.841999413941835 ], [ 141.981250363413551, 39.839996135413344 ], [ 141.97843830118677, 39.829376721258711 ], [ 141.986217249826268, 39.830153999907225 ], [ 141.991393773603818, 39.820460864977008 ], [ 141.987831828775938, 39.814435505294398 ], [ 141.983735888100796, 39.813992775346378 ], [ 141.984323579769466, 39.79952413513081 ], [ 141.988647664957853, 39.79769919755995 ], [ 141.98347883308179, 39.788917279109171 ], [ 141.991272995552322, 39.786010558740372 ], [ 141.996008196820867, 39.778104134798014 ], [ 142.004335006155657, 39.775831333049609 ], [ 141.989877886255499, 39.767233306172216 ], [ 141.988920245872691, 39.75686717078338 ], [ 141.995180531856136, 39.751142306072609 ], [ 142.00415594034439, 39.751598945834758 ], [ 141.989783774002035, 39.746482414032243 ], [ 141.983124135970115, 39.736756891817151 ], [ 141.985364616983588, 39.734572864845916 ], [ 141.976910194749735, 39.732499054287985 ], [ 141.974772918135727, 39.735343108097993 ], [ 141.971945991914026, 39.731779702771121 ], [ 141.973341115600078, 39.72771719799033 ], [ 141.988031555611883, 39.723264053793116 ], [ 141.982333800064907, 39.717579027250338 ], [ 141.986774475161951, 39.709905359544734 ], [ 141.975657562346669, 39.706169919306376 ], [ 141.972296056617779, 39.693666467733351 ], [ 141.967019584885975, 39.690255639586155 ], [ 141.969145810630721, 39.687296773827086 ], [ 141.97307124524184, 39.689603080717632 ], [ 141.986358340864854, 39.68526055942732 ], [ 141.971484877125476, 39.661777224739183 ], [ 141.974391803439062, 39.656982613356945 ], [ 141.969872244308704, 39.652954108345455 ], [ 141.979523696561387, 39.653362504875759 ], [ 141.982257418844824, 39.648720504847461 ], [ 141.979449442237978, 39.647173224864503 ], [ 141.983341970655488, 39.647047639936659 ], [ 141.975444617275343, 39.64304472063742 ], [ 141.969763917370983, 39.646707332877156 ], [ 141.968190169440845, 39.641491441277026 ], [ 141.972253217412117, 39.639236251851571 ], [ 141.964322048623671, 39.639853541108096 ], [ 141.963755109710632, 39.637258998803816 ], [ 141.971188223158038, 39.635230666961775 ], [ 141.976831919557526, 39.62885758620871 ], [ 141.965788275408613, 39.635289107606297 ], [ 141.97153763855124, 39.625645585575342 ], [ 141.966689494124921, 39.621805892328098 ], [ 141.963439170681227, 39.623306639589771 ], [ 141.967124280361304, 39.617480082240036 ], [ 141.962202139717078, 39.615466054115132 ], [ 141.963619301289782, 39.611145306310902 ], [ 141.955961115413174, 39.602733117139678 ], [ 141.948325772316593, 39.600831197601735 ], [ 141.950433398282826, 39.597852341712269 ], [ 141.945441088935127, 39.598992531879901 ], [ 141.945264917142254, 39.595642720035528 ], [ 141.949182113963502, 39.592194613190884 ], [ 141.948106394394699, 39.587676920153797 ], [ 141.958455616233778, 39.586170640262878 ], [ 141.976030000384299, 39.611596586113592 ], [ 141.987418521047971, 39.617892360244298 ], [ 142.01598542198974, 39.655121360262626 ], [ 142.024475136318529, 39.656268135266259 ], [ 142.026239584589234, 39.654022439983692 ], [ 142.022606471911217, 39.652433801978418 ], [ 142.027964227966777, 39.64571361169385 ], [ 142.024492995955029, 39.640900108253447 ], [ 142.028776471357105, 39.636793170668341 ], [ 142.023175642042361, 39.636226224560687 ], [ 142.028254577686653, 39.631309505029662 ], [ 142.022493410942275, 39.629661278844992 ], [ 142.02531963659203, 39.627710413704676 ], [ 142.021583333004514, 39.625692333234667 ], [ 142.024608585817646, 39.623720918585605 ], [ 142.022531672598689, 39.615802504881742 ], [ 142.034520609438687, 39.609690170864724 ], [ 142.025410699244389, 39.604844306219832 ], [ 142.02868247691481, 39.598950413930538 ], [ 142.034169469145695, 39.598403919305497 ], [ 142.029767613284776, 39.594727053710585 ], [ 142.032084086111695, 39.588733891555876 ], [ 142.02650688648373, 39.578705838303847 ], [ 142.030749144157767, 39.57657925193098 ], [ 142.027429222180899, 39.575048720921814 ], [ 142.033620531962015, 39.573923413634702 ], [ 142.036444616326094, 39.577104973116093 ], [ 142.036754669292577, 39.57219041375663 ], [ 142.057416835218874, 39.574435225005686 ], [ 142.056930077161383, 39.561366467688401 ], [ 142.067787781980655, 39.562465225190067 ], [ 142.068967081865367, 39.546208467446888 ], [ 142.072480947138047, 39.547962441313643 ], [ 142.069701945788211, 39.540650197648574 ], [ 142.065150271867651, 39.54064189240944 ], [ 142.065523890715099, 39.533586107512917 ], [ 142.050865110436575, 39.532743837558087 ], [ 142.062307224398978, 39.526007891151323 ], [ 142.05816141361845, 39.522571251562056 ], [ 142.044824034201838, 39.531365946681149 ], [ 142.033424358347474, 39.529374468157243 ], [ 142.02608282736071, 39.505131306164913 ], [ 142.019720558257177, 39.502192134659367 ], [ 142.020095578248402, 39.499281864666386 ], [ 142.010614668931908, 39.500848559213694 ], [ 142.011074059720158, 39.476680505001355 ], [ 141.99126250406141, 39.483818279290233 ], [ 141.980719493609854, 39.480080081730421 ], [ 141.97362669351719, 39.482447054188242 ], [ 141.966512724282893, 39.476436587278727 ], [ 141.955049001410316, 39.474123532774854 ], [ 141.95373185434164, 39.46661974790311 ], [ 141.956931634087709, 39.461090838271616 ], [ 141.95827941566256, 39.46578561321553 ], [ 141.957319727523441, 39.460229640285718 ], [ 141.961905745653667, 39.459531278945406 ], [ 141.957039689430189, 39.456797467629087 ], [ 141.963342698606766, 39.453430693671635 ], [ 141.964731336382101, 39.448093891819724 ], [ 141.971350531901635, 39.448763134910791 ], [ 141.973309169882327, 39.440170612783618 ], [ 141.97973108921849, 39.43913930623404 ], [ 141.986644357651016, 39.448459801678553 ], [ 141.995100362691687, 39.452326639163118 ], [ 142.004824305697184, 39.445229197669391 ], [ 142.001766394003994, 39.4549638381107 ], [ 142.008901776995458, 39.464881226187686 ], [ 142.026322165735451, 39.47325438658072 ], [ 142.035729947579057, 39.483459224963326 ], [ 142.039006109444472, 39.481180612695198 ], [ 142.050669390080316, 39.484728748433042 ], [ 142.049036524316193, 39.479774412958818 ], [ 142.052525641145508, 39.474642224858826 ], [ 142.061522943629029, 39.471441838070405 ], [ 142.048030024665991, 39.456475135319295 ], [ 142.049224500610308, 39.450750170783806 ], [ 142.038334059569252, 39.446490333162387 ], [ 142.037925189096313, 39.44256394616923 ], [ 142.043027172565985, 39.440518413893756 ], [ 142.037374087244416, 39.435520748184047 ], [ 142.0432793640515, 39.432952306004154 ], [ 142.041393527989044, 39.428039440967495 ], [ 142.044666549421777, 39.42632953208232 ], [ 142.038045305246669, 39.425267386880478 ], [ 142.036060636389266, 39.418476107886136 ], [ 142.02553444865589, 39.416029720795052 ], [ 142.01807916961809, 39.424475333270038 ], [ 142.010520894823458, 39.426518640622817 ], [ 142.006798911140891, 39.421292198176445 ], [ 142.011000441217448, 39.415518801551514 ], [ 142.00595871592202, 39.41445638655307 ], [ 142.005365356725861, 39.410442332747493 ], [ 141.998177690747866, 39.412165639732564 ], [ 141.983639780251679, 39.408382440996888 ], [ 141.980405187749284, 39.410023055319812 ], [ 141.985323580019212, 39.417731667082819 ], [ 141.982096615566434, 39.424378892671825 ], [ 141.979493216738661, 39.422929198124052 ], [ 141.982399196066126, 39.425985639425789 ], [ 141.975033086607709, 39.42703336130063 ], [ 141.972836588737664, 39.419728332896284 ], [ 141.957737300735857, 39.406064360182143 ], [ 141.956286393902019, 39.400744747971771 ], [ 141.937984720818235, 39.384714053710638 ], [ 141.947270726362945, 39.370594333361851 ], [ 141.956381724736843, 39.376639080629104 ], [ 141.966510778149996, 39.377853838084206 ], [ 141.964969196271454, 39.368055720794928 ], [ 141.955659274156233, 39.361836107550403 ], [ 141.957423722426938, 39.355977802333769 ], [ 141.939628689612391, 39.348226306398999 ], [ 141.934102282794129, 39.351085693649907 ], [ 141.931415915212369, 39.347549775202026 ], [ 141.933638833365535, 39.351012945690968 ], [ 141.930237859989347, 39.353077081342292 ], [ 141.915958754592907, 39.356090107872205 ], [ 141.91910019531781, 39.35291936004046 ], [ 141.912620052073862, 39.349798892405033 ], [ 141.915300895120254, 39.345599892121356 ], [ 141.898969364144932, 39.33734489185332 ], [ 141.902507056055811, 39.327450864565776 ], [ 141.911237327340814, 39.328930693596703 ], [ 141.914638716203854, 39.323864584982687 ], [ 141.923824384387899, 39.332973972670743 ], [ 141.944440532005046, 39.329587613277795 ], [ 141.945232334704542, 39.333693306201155 ], [ 141.955880195314876, 39.340461224406056 ], [ 141.960707860379557, 39.340674171276021 ], [ 141.959676200396416, 39.336437251977657 ], [ 141.975489026697232, 39.33722872102868 ], [ 141.98465930028658, 39.348148333378958 ], [ 141.996976522948216, 39.350695720631052 ], [ 141.980402412441435, 39.33652717069242 ], [ 141.973771361159493, 39.325460693656112 ], [ 141.97693902701451, 39.318674171176099 ], [ 141.971367638805532, 39.317476776032436 ], [ 141.970284474648906, 39.312992865128649 ], [ 141.957553696046261, 39.316930386628087 ], [ 141.95455158099071, 39.31330408001935 ], [ 141.946162191432109, 39.315981531722343 ], [ 141.936554578431128, 39.308076919014638 ], [ 141.921664500616316, 39.309895774470476 ], [ 141.917837082215669, 39.302983026745324 ], [ 141.915501828846345, 39.306111304992783 ], [ 141.908846549828468, 39.305243639982052 ], [ 141.90645741897481, 39.309490198214121 ], [ 141.896988585754684, 39.304755080582538 ], [ 141.891012633026662, 39.308304135427534 ], [ 141.891372866364804, 39.304651865391349 ], [ 141.887219921262385, 39.303150467919806 ], [ 141.908347223745409, 39.296386837682462 ], [ 141.904921284289912, 39.290976946129206 ], [ 141.925670752803057, 39.285560612732127 ], [ 141.926782114303251, 39.281371801767307 ], [ 141.921291919586452, 39.279283135308503 ], [ 141.929640466434421, 39.27049356002982 ], [ 141.922671777280812, 39.265298973368999 ], [ 141.916243917023166, 39.271110027305951 ], [ 141.913881440276327, 39.266352467092759 ], [ 141.906634500881523, 39.271831080340121 ], [ 141.898379612129474, 39.270062612999254 ], [ 141.888577833700083, 39.273662775416824 ], [ 141.893153410701416, 39.270599973210267 ], [ 141.8875943836739, 39.272342918690811 ], [ 141.886801893892311, 39.268610000151455 ], [ 141.897604060179333, 39.26629997276558 ], [ 141.8988874970604, 39.258405305660403 ], [ 141.903098145363174, 39.256734919281143 ], [ 141.902717172759367, 39.252860225319182 ], [ 141.889938612277206, 39.247682694300977 ], [ 141.913530168682428, 39.248342838051599 ], [ 141.913557716715331, 39.240527278910861 ], [ 141.922114668856921, 39.237741973313462 ], [ 141.928434188686879, 39.246276387545322 ], [ 141.932554357097956, 39.242056441151874 ], [ 141.938777134157476, 39.244078027179285 ], [ 141.938482283330814, 39.248438505232855 ], [ 141.942453605849323, 39.246310080645742 ], [ 141.968577834799248, 39.251836305800907 ], [ 141.971300751728336, 39.247667892359402 ], [ 141.9444148383742, 39.241921107573091 ], [ 141.943350142694953, 39.237488171142218 ], [ 141.950257951343474, 39.23530897263106 ], [ 141.950543164135752, 39.225701305670782 ], [ 141.955309804803733, 39.224469334292394 ], [ 141.947617367347675, 39.216984586269689 ], [ 141.938060557948461, 39.223541802312354 ], [ 141.924288144981915, 39.222563467629982 ], [ 141.927625576759056, 39.215525467726195 ], [ 141.916203112983339, 39.213674332904191 ], [ 141.904514942710534, 39.205058414014673 ], [ 141.895466135154038, 39.2094106398892 ], [ 141.886879857019835, 39.208920837626636 ], [ 141.893680998879063, 39.204172973004347 ], [ 141.889791478693837, 39.197600278729908 ], [ 141.885936978109157, 39.202115774723268 ], [ 141.866807523148736, 39.206365720701513 ], [ 141.864839533118015, 39.201486748414766 ], [ 141.872812723628385, 39.197449801467201 ], [ 141.866055837407089, 39.191498197883561 ], [ 141.880772244443619, 39.191064586161758 ], [ 141.881943307437723, 39.185265504899178 ], [ 141.890945031887782, 39.181185440855472 ], [ 141.895397249783286, 39.184884919003878 ], [ 141.920128910920539, 39.185870945587737 ], [ 141.922255278758144, 39.177937693969454 ], [ 141.887351855403836, 39.15573072119588 ], [ 141.865284942146445, 39.15343055937285 ], [ 141.850059662723311, 39.156968361001134 ], [ 141.835780998894052, 39.146188972742948 ], [ 141.848321633836349, 39.141435748161314 ], [ 141.853703579856415, 39.135264387141831 ], [ 141.872684579230054, 39.130599252053912 ], [ 141.869957664814478, 39.121769774755364 ], [ 141.874703645357044, 39.122196360073985 ], [ 141.873848028563771, 39.115579305840356 ], [ 141.900411893793944, 39.120090252163436 ], [ 141.908937393945621, 39.108961306419189 ], [ 141.920997004008541, 39.104477945900555 ], [ 141.913556912721447, 39.105562171257247 ], [ 141.892480557731574, 39.096432892364135 ], [ 141.890007522829023, 39.089428413790301 ], [ 141.883060804112915, 39.089979333079782 ], [ 141.880801996714808, 39.083930278959258 ], [ 141.877820895218179, 39.093004864682825 ], [ 141.862185110354631, 39.096324864900623 ], [ 141.86009916974092, 39.103990505257684 ], [ 141.833575940377386, 39.104253774592053 ], [ 141.820783579798444, 39.11377208131654 ], [ 141.81107357988185, 39.111649801796943 ], [ 141.815321388171583, 39.106257197012098 ], [ 141.809421855334449, 39.102456892271789 ], [ 141.815851750757702, 39.094589774998155 ], [ 141.808635446768562, 39.090273000398724 ], [ 141.812088248973623, 39.086352414032717 ], [ 141.811962438315959, 39.089084307095163 ], [ 141.815555888193785, 39.085721946110993 ], [ 141.824299274292116, 39.08620980224066 ], [ 141.820444527293148, 39.082897198047306 ], [ 141.823430245909208, 39.075226305649551 ], [ 141.835181829178168, 39.073060081657502 ], [ 141.844508223275966, 39.076414945893077 ], [ 141.857210272136399, 39.070918440633591 ], [ 141.869840609956213, 39.072161252439912 ], [ 141.871272529403768, 39.066133171408808 ], [ 141.87587736674709, 39.064885333291556 ], [ 141.86356639437372, 39.059009865413032 ], [ 141.859121854889736, 39.061822864733472 ], [ 141.849672088196371, 39.05783177421705 ], [ 141.838176744261432, 39.061033586430938 ], [ 141.81452046724587, 39.058300667242065 ], [ 141.817957055573743, 39.049251532332391 ], [ 141.844982698392869, 39.039816359837175 ], [ 141.853281218653365, 39.029123468373427 ], [ 141.836050894433242, 39.024596197556548 ], [ 141.825025278993508, 39.027221720605951 ], [ 141.81836688742203, 39.022485612820844 ], [ 141.805657276162378, 39.027120558566992 ], [ 141.800142139648074, 39.024245360335158 ], [ 141.794282049277172, 39.030046946209666 ], [ 141.798373773930621, 39.041082080973297 ], [ 141.79621325613698, 39.04327986397459 ], [ 141.782292411865342, 39.027302280076242 ], [ 141.768752387312929, 39.03461127898737 ], [ 141.758772437897733, 39.017585359876534 ], [ 141.749591141318206, 39.019688614238191 ], [ 141.745126808655414, 39.024890613111381 ], [ 141.733447522785013, 39.021590747814798 ], [ 141.727911777406689, 39.028460864077658 ], [ 141.738490078154655, 39.03072099977436 ], [ 141.730688715711722, 39.033177505137814 ], [ 141.738485641799002, 39.038295000114204 ], [ 141.733754643062412, 39.043327467788458 ], [ 141.737006057383724, 39.047693802227229 ], [ 141.735081284273861, 39.050608747795536 ], [ 141.741227134224914, 39.051426225240164 ], [ 141.738709079260616, 39.054732134880169 ], [ 141.734117301872061, 39.051055279177831 ], [ 141.738766005446905, 39.063466891983524 ], [ 141.734648832677522, 39.06858272141551 ], [ 141.731731895110897, 39.066100107833734 ], [ 141.72967277587793, 39.070920080996984 ], [ 141.725108417919159, 39.064254774538256 ], [ 141.721977328391063, 39.065701837669735 ], [ 141.726440999152828, 39.061461467672643 ], [ 141.722108053843726, 39.053477414251347 ], [ 141.72489464277362, 39.040735126125242 ], [ 141.709543333258239, 39.02425600021428 ], [ 141.716524837751081, 39.020470802285729 ], [ 141.715744475327369, 39.015187531679317 ], [ 141.718560751777318, 39.019164558597538 ], [ 141.718889688708259, 39.01268097274874 ], [ 141.722142698426865, 39.019159053847318 ], [ 141.728372334615642, 39.013833224623681 ], [ 141.731697717275893, 39.015291504999027 ], [ 141.737852826646645, 39.000390082236549 ], [ 141.744018366354567, 38.996883773967056 ], [ 141.741667561908571, 38.994531080944682 ], [ 141.74418756210639, 38.989946413596158 ], [ 141.741503138858889, 38.985495559072831 ], [ 141.738103306722337, 38.989008694096015 ], [ 141.727946834778663, 38.988229775084108 ], [ 141.728185862887358, 38.991328278577271 ], [ 141.722829131159529, 38.987918649226344 ], [ 141.720734358304071, 38.996644054279727 ], [ 141.711401919862737, 38.996725639876445 ], [ 141.717690999440151, 38.982241305591856 ], [ 141.709602737076693, 38.984674765827833 ], [ 141.709418171011862, 38.978494748833668 ], [ 141.70182263280833, 38.97757474777643 ], [ 141.700983800062431, 38.974385775183407 ], [ 141.698559883431926, 38.976295999960485 ], [ 141.696438807205254, 38.969927585789492 ], [ 141.703457108358975, 38.965007305842562 ], [ 141.718050557387414, 38.967329467780758 ], [ 141.728423995271214, 38.952273504618574 ], [ 141.712304227658024, 38.950776639730179 ], [ 141.715908470299723, 38.947471532285419 ], [ 141.704240998823138, 38.944980386835425 ], [ 141.70741549862646, 38.940834639906768 ], [ 141.703888910644764, 38.938234720555954 ], [ 141.696301388098618, 38.941450558596443 ], [ 141.698798222659889, 38.944508386652785 ], [ 141.696230506232951, 38.94729544143155 ], [ 141.688708911187405, 38.947496108058999 ], [ 141.692578638193709, 38.952038531553058 ], [ 141.69124885924748, 38.957001999642614 ], [ 141.68882464314288, 38.95387997258274 ], [ 141.686514968291249, 38.957263440655311 ], [ 141.688904085655054, 38.96459274805693 ], [ 141.668079532744287, 38.976137134721057 ], [ 141.667765745792622, 38.989008721075663 ], [ 141.679432969955656, 38.994087081153907 ], [ 141.68137968922133, 38.998246171323785 ], [ 141.669949415732958, 39.005241278961932 ], [ 141.657845746084377, 39.000220107671907 ], [ 141.658272361080662, 39.005391999940912 ], [ 141.63880272316726, 39.006127505080372 ], [ 141.62390522684484, 38.999594441230556 ], [ 141.629115226986187, 38.994296918168288 ], [ 141.622096613767781, 38.993914054290201 ], [ 141.628835965907115, 38.992440891933654 ], [ 141.625270335657547, 38.98175397196826 ], [ 141.633387328662366, 38.973919027041518 ], [ 141.629209144086758, 38.970247639217234 ], [ 141.601815667758956, 38.98615166666616 ], [ 141.574538366752336, 38.987292532224615 ], [ 141.56712961144251, 38.995960504773507 ], [ 141.536906278002448, 38.99538569409458 ], [ 141.523134228361982, 38.99134589179954 ], [ 141.516624422778932, 38.998226306199115 ], [ 141.517878469815628, 39.00165797343675 ], [ 141.492381971251007, 38.998959721314122 ], [ 141.487349831829306, 38.993805305570447 ], [ 141.48353396881771, 38.978166694137656 ], [ 141.490186304354552, 38.957309252120353 ], [ 141.493963385002303, 38.955349748092431 ], [ 141.485572335295046, 38.935728387355255 ], [ 141.492109688911114, 38.921624333196462 ], [ 141.48938396879521, 38.917448252135159 ], [ 141.491861413973197, 38.912814026745991 ], [ 141.48311639380654, 38.902485197933572 ], [ 141.466441919858767, 38.89394925215629 ], [ 141.465738638327593, 38.885095054293402 ], [ 141.450852826896494, 38.875797414219335 ], [ 141.452669416060758, 38.862552333123745 ], [ 141.466113306683837, 38.856251891511647 ], [ 141.454596614642128, 38.847250891015847 ], [ 141.449834863588194, 38.837389802297594 ], [ 141.453047756348951, 38.818598612935716 ], [ 141.458672503133585, 38.81396019760507 ], [ 141.454344968145847, 38.810897747932756 ], [ 141.429378975159693, 38.810546640015502 ], [ 141.436408222861246, 38.805432387095038 ], [ 141.432532411941338, 38.791585198198391 ], [ 141.439676394250228, 38.786102585665844 ], [ 141.437932282349038, 38.782239278919633 ], [ 141.421695771942382, 38.779828639879895 ], [ 141.422894383868766, 38.771661694931311 ], [ 141.409881335954992, 38.767822694162078 ], [ 141.415612282780671, 38.779505107874456 ], [ 141.414863994677717, 38.786202081261081 ], [ 141.396858612235178, 38.790105918653296 ], [ 141.39381267231704, 38.799839864817955 ], [ 141.379183449156926, 38.796091135297729 ], [ 141.371320921123697, 38.807474838293217 ], [ 141.352723502387789, 38.812521170815444 ], [ 141.341113061418696, 38.806457694267237 ], [ 141.334298948637638, 38.806970838433472 ], [ 141.317101051272516, 38.823179891638745 ], [ 141.309295863113675, 38.822229721024883 ], [ 141.30727277611777, 38.808710864714669 ], [ 141.302453579968756, 38.803475946158017 ], [ 141.30454975396799, 38.793460360207519 ], [ 141.284942360601576, 38.797615891760074 ], [ 141.280362048669645, 38.792513720331954 ], [ 141.272481998245667, 38.796965198085502 ], [ 141.268960726156706, 38.788212504903242 ], [ 141.262954720783796, 38.787347559442367 ], [ 141.263262698115113, 38.780298693929637 ], [ 141.258064331603691, 38.776190694245201 ], [ 141.256808560566697, 38.760938532287469 ], [ 141.228844358280526, 38.752567747903299 ], [ 141.236878780931079, 38.75201822526094 ], [ 141.233712217644779, 38.74780917055682 ], [ 141.215838611962454, 38.748470558969188 ], [ 141.207273333897319, 38.756806305766474 ], [ 141.206061310381187, 38.769484359815408 ], [ 141.19560024705379, 38.776810837949881 ], [ 141.180653747572478, 38.784536532335153 ], [ 141.167646030839705, 38.777253054385028 ], [ 141.163586355326061, 38.781957252425286 ], [ 141.142080219726381, 38.787396334173536 ], [ 141.138650854753223, 38.790863306096753 ], [ 141.142503839080973, 38.811901865278912 ], [ 141.123617004121456, 38.816548441057762 ], [ 141.126081971206077, 38.821641198382679 ], [ 141.123735136367486, 38.825463441184922 ], [ 141.104515383178409, 38.823265333528354 ], [ 141.104823695956838, 38.837347251774304 ], [ 141.123153217447111, 38.835859279382305 ], [ 141.146782698262996, 38.856266775291488 ], [ 141.146133164713888, 38.869274838263209 ], [ 141.139830803948485, 38.877504640426878 ], [ 141.118298105972826, 38.88067683796578 ], [ 141.107398418102548, 38.877518359584656 ], [ 141.102449298696229, 38.880705359964452 ], [ 141.102665862639469, 38.884769532088285 ], [ 141.093349415942839, 38.887861027164718 ], [ 141.074772140222194, 38.879465972776472 ], [ 141.051925576804024, 38.883267613009991 ], [ 141.04350632885405, 38.876565224805347 ], [ 141.03726116676944, 38.876685305882233 ], [ 141.029609170027243, 38.883470946127318 ], [ 141.022490143005712, 38.881074639583005 ], [ 141.020699728609657, 38.886396586433364 ], [ 141.005867031138678, 38.87874677504368 ], [ 140.996095084120952, 38.880643558553459 ], [ 140.989813112784987, 38.874317505148781 ], [ 140.970619948052217, 38.888014305815602 ], [ 140.970837030004986, 38.894913170706332 ], [ 140.957863190733747, 38.908131026625654 ], [ 140.931956160648383, 38.916322026640273 ], [ 140.931393022270186, 38.920410081160355 ], [ 140.926535422371899, 38.921410945658693 ], [ 140.922161310596039, 38.914342386791759 ], [ 140.914568637632556, 38.916826585878312 ], [ 140.910374188817855, 38.927444359669494 ], [ 140.881532671795412, 38.927903387131664 ], [ 140.864863332976483, 38.941270358740098 ], [ 140.841119221874692, 38.950264946170364 ], [ 140.837716808683808, 38.957539135023126 ], [ 140.824455913909333, 38.964080945679143 ], [ 140.793879558794629, 38.964010694238198 ], [ 140.77359016905109, 38.958084467724063 ], [ 140.772177224399456, 38.966635864753414 ], [ 140.774956912831271, 38.970417252254435 ], [ 140.76457345020458, 38.985387613447642 ], [ 140.767902217913047, 38.994710639584412 ], [ 140.764032892004479, 39.000192054219951 ], [ 140.778688248563867, 39.008144721301903 ], [ 140.780112022851654, 39.014722467967601 ], [ 140.795286939340826, 39.029429054407387 ], [ 140.793558910915067, 39.041861305754708 ], [ 140.810250466585785, 39.057408972346252 ], [ 140.799531672848502, 39.060973506322284 ], [ 140.803904384379848, 39.067180413944982 ], [ 140.802386913325449, 39.077894891835854 ], [ 140.77834547286534, 39.082093386700478 ], [ 140.770467418936278, 39.078879838333933 ], [ 140.752700441372326, 39.086196333094335 ], [ 140.763246808993131, 39.108858225226982 ], [ 140.755931414103543, 39.112187413818162 ], [ 140.755955472766914, 39.11830189181893 ], [ 140.766605525924319, 39.120217946001446 ], [ 140.769980750811101, 39.124164865416276 ], [ 140.758112438238527, 39.133659639580742 ], [ 140.751262970409812, 39.133070802175837 ], [ 140.74894147936584, 39.13812219788116 ], [ 140.759190895343636, 39.143714360429442 ], [ 140.774131051007316, 39.167853225346107 ], [ 140.78374280178889, 39.16541263978155 ], [ 140.788530466807629, 39.172674559183633 ], [ 140.808195719856599, 39.180417278634536 ], [ 140.79739272439474, 39.189956197820322 ], [ 140.788518807097375, 39.188601504955557 ], [ 140.764849052841555, 39.197760467771445 ], [ 140.767610896026099, 39.204774053779602 ], [ 140.763050415044631, 39.213226865327613 ], [ 140.77022697709333, 39.223407639650929 ], [ 140.787624253256695, 39.226785054386824 ], [ 140.788662386559963, 39.238428666849529 ], [ 140.777169467197268, 39.241572891875535 ], [ 140.768920335904795, 39.252462667418229 ], [ 140.757230195217403, 39.254791053564304 ], [ 140.751349442023184, 39.262807226272514 ], [ 140.743711088895679, 39.261753639918595 ], [ 140.717828716422218, 39.272608838327301 ], [ 140.717327471185968, 39.296508080683452 ], [ 140.710797172751427, 39.295802558940977 ], [ 140.70401980536974, 39.301869864802484 ], [ 140.69358588807836, 39.299592972937376 ], [ 140.697225447096798, 39.3102857753683 ], [ 140.692638974808915, 39.313628891760004 ], [ 140.694044161908664, 39.319764198059318 ], [ 140.698586589000001, 39.328429746935342 ], [ 140.709349688737234, 39.329969414157176 ], [ 140.708201829151108, 39.334459441350191 ], [ 140.703236109159207, 39.343585640065271 ], [ 140.68845289238709, 39.347524667029802 ], [ 140.692730506008161, 39.358596638923814 ], [ 140.67563968912043, 39.368341531636418 ], [ 140.678972802352973, 39.383181865250947 ], [ 140.675112191774247, 39.385865774985575 ], [ 140.665650804041434, 39.384203054427473 ], [ 140.653124811860607, 39.390998440625594 ], [ 140.663709663270424, 39.403669837892778 ], [ 140.657549830660173, 39.411157666992779 ], [ 140.658380895961614, 39.415094919594935 ], [ 140.679670077312267, 39.417067613079951 ], [ 140.685124968242803, 39.424665413977721 ], [ 140.685595059164712, 39.437262973307611 ], [ 140.676795472632989, 39.447791666552234 ], [ 140.681900921190618, 39.457223332590786 ], [ 140.689526939216989, 39.464809441402679 ], [ 140.724404552927808, 39.480534359872877 ], [ 140.713271413644861, 39.494056639902055 ], [ 140.713574720796828, 39.49885358592428 ], [ 140.719779143592632, 39.504801891694001 ], [ 140.723966394233798, 39.504418838058996 ], [ 140.721129390209285, 39.51405689221184 ], [ 140.724681026108556, 39.518594107731928 ], [ 140.737838858576538, 39.522397640139047 ], [ 140.741359364443156, 39.536185667134873 ], [ 140.739708196576089, 39.546597640069081 ], [ 140.727479195608453, 39.55595410839544 ], [ 140.729619415703496, 39.565127999957269 ], [ 140.754296719118315, 39.570719505101124 ], [ 140.763863501999026, 39.587567225347243 ], [ 140.780661854860796, 39.590326000044911 ], [ 140.778753139146147, 39.598367135235151 ], [ 140.782195862649019, 39.60396880181878 ], [ 140.797540920976758, 39.604089224638074 ], [ 140.804872192497783, 39.612009197766326 ], [ 140.802571803146293, 39.61884841422301 ], [ 140.808388145096842, 39.624263108155958 ], [ 140.807105253204895, 39.632196748281387 ], [ 140.815346977680974, 39.646117026879324 ], [ 140.822304136626713, 39.649953360259417 ], [ 140.82256780795808, 39.66912597278548 ], [ 140.818409169247843, 39.680099441036418 ], [ 140.822575811024876, 39.688174748665745 ], [ 140.811350271797664, 39.695537973099022 ], [ 140.809903606166586, 39.708022531714505 ], [ 140.794460583788918, 39.709595999955468 ], [ 140.783997523966605, 39.72907791901082 ], [ 140.774822476775967, 39.73455272093139 ], [ 140.803727301573758, 39.744752134603402 ], [ 140.805330362906034, 39.756645279256304 ], [ 140.816126808605418, 39.762885693819783 ], [ 140.822207613290743, 39.774542838381365 ], [ 140.848270557939941, 39.793251387241753 ], [ 140.841647301981425, 39.804920892085534 ], [ 140.825033995422586, 39.809740504620663 ], [ 140.821319441938726, 39.815423027450834 ], [ 140.81134503234739, 39.818327306160313 ], [ 140.804002087626259, 39.815105693572946 ], [ 140.786648949289656, 39.82339938717206 ], [ 140.788287470890168, 39.82649605424956 ], [ 140.783018495007582, 39.831239414167669 ], [ 140.789095863383409, 39.850183532344204 ], [ 140.78388603141525, 39.856314413979078 ], [ 140.787651219428312, 39.85895105444763 ], [ 140.783085668069134, 39.86064886385401 ], [ 140.782211634059763, 39.867706360160469 ], [ 140.799227367449134, 39.881636278591429 ], [ 140.815650336993485, 39.879351441216102 ], [ 140.825817366977958, 39.886238053743227 ], [ 140.834031803325161, 39.881213532478569 ], [ 140.832486938921193, 39.875144613233374 ], [ 140.844241025003384, 39.873574225170387 ], [ 140.843172750022404, 39.871212000233697 ], [ 140.853199144025325, 39.865741891874848 ], [ 140.85847372178489, 39.870325468345754 ], [ 140.877884086281597, 39.874291135027931 ], [ 140.879352089227609, 39.87822613482831 ], [ 140.874832477037216, 39.894112693845784 ], [ 140.867014642611707, 39.900831134948987 ], [ 140.868054254400363, 39.911660920315285 ], [ 140.854694942317792, 39.923289134585957 ], [ 140.857571245816416, 39.930081946025041 ], [ 140.852223385001253, 39.936129504573046 ], [ 140.857353450701225, 39.952863170998569 ], [ 140.848064188711419, 39.958358802117061 ], [ 140.845312723703273, 39.974959108076405 ], [ 140.850807327796019, 39.993753532299706 ], [ 140.848998638276612, 40.00806827872816 ], [ 140.855861919691961, 40.015705468132921 ], [ 140.850400700232171, 40.031425774879665 ], [ 140.855222580857458, 40.037137441140032 ], [ 140.855441387709902, 40.046343306298581 ], [ 140.844477808404235, 40.074590946115336 ], [ 140.851324695178619, 40.077854837630696 ], [ 140.854919882546596, 40.085162919233369 ], [ 140.862826550205227, 40.084705945822805 ], [ 140.875335862659995, 40.094565693651873 ], [ 140.881026834620798, 40.113726304725219 ], [ 140.871203217054926, 40.115951640256071 ], [ 140.874036782971189, 40.122385838036053 ], [ 140.866988949880238, 40.132367837006143 ], [ 140.882371025202701, 40.150846198093632 ], [ 140.883606834887587, 40.157317054038856 ], [ 140.868791504224646, 40.159516305633076 ], [ 140.859189974238006, 40.171425891691626 ], [ 140.892693645095733, 40.192458080975712 ], [ 140.889525227407375, 40.20053563960812 ], [ 140.898685693889774, 40.208054251602505 ], [ 140.899108716094474, 40.212387053919429 ], [ 140.895787302142367, 40.213646252272781 ], [ 140.905480830076272, 40.222137667219613 ], [ 140.940959922062802, 40.226898359771553 ], [ 140.940092023228317, 40.240240946262702 ], [ 140.944948079890082, 40.246375387414275 ], [ 140.955073891247139, 40.247628134930551 ], [ 140.958455862847813, 40.241819224977291 ], [ 140.965368079973018, 40.239717801635265 ], [ 140.968588444301304, 40.226396332125091 ], [ 140.975961217736085, 40.225762999862582 ], [ 140.979486809268906, 40.21974435991433 ], [ 140.991046160651877, 40.222806558675813 ], [ 140.996489247980435, 40.21915235959375 ], [ 141.015843606297494, 40.218044278820457 ], [ 141.02597800258286, 40.221680945619198 ], [ 141.026839079160254, 40.226569585617938 ], [ 141.04188177732226, 40.236860197739986 ], [ 141.059720363404153, 40.238157973411774 ], [ 141.076405863040236, 40.25263835967263 ], [ 141.104170921251125, 40.255812532122718 ], [ 141.110054501014474, 40.261051720660419 ], [ 141.099849026811171, 40.280957694342192 ], [ 141.134391284230446, 40.294744892163123 ], [ 141.138373411204043, 40.300496559368753 ], [ 141.153969753601359, 40.301293197722941 ], [ 141.1727826328123, 40.310101774777138 ], [ 141.197362114270277, 40.307636467748864 ], [ 141.218485642298674, 40.31522119790003 ], [ 141.226160506102588, 40.327833748029093 ], [ 141.232431608232218, 40.328346531567206 ], [ 141.248377859750462, 40.34100408107355 ], [ 141.260130363025951, 40.341872387300896 ], [ 141.262429442065127, 40.349475468118385 ], [ 141.279533113862158, 40.344750721468699 ], [ 141.292318301448518, 40.351668251788453 ], [ 141.291949883380425, 40.357881333256955 ], [ 141.295887367108321, 40.360721892301569 ], [ 141.293490143255553, 40.36323133265995 ], [ 141.310373384923878, 40.366833306312117 ], [ 141.31600305999325, 40.372621946445747 ], [ 141.336338080438168, 40.360196693622584 ], [ 141.334004616719767, 40.345601054744918 ], [ 141.346883216887022, 40.340148866277218 ], [ 141.346132723646292, 40.335730506058042 ], [ 141.350861052295841, 40.334737998959554 ], [ 141.350996641281995, 40.33107297293941 ], [ 141.370103450413922, 40.338536693913341 ], [ 141.373296160589348, 40.343170332944567 ], [ 141.376645642382528, 40.338925612926744 ], [ 141.381575031562534, 40.34214008129976 ], [ 141.389792672194176, 40.35304050481551 ], [ 141.389119274235213, 40.359223612779545 ], [ 141.397253606169102, 40.367248694171963 ], [ 141.401534137190765, 40.366363441119972 ], [ 141.407126447227824, 40.357124774988449 ], [ 141.419241608413586, 40.363524613270329 ], [ 141.427289105407908, 40.361809613323032 ], [ 141.433953139326036, 40.373716693870392 ], [ 141.441720311343374, 40.376056469030857 ], [ 141.454308910727718, 40.37300058620815 ], [ 141.466421088862262, 40.377459225263067 ], [ 141.479983865363124, 40.376359440735655 ], [ 141.496434474671332, 40.367410413859545 ], [ 141.498949533993823, 40.362122027010003 ], [ 141.507505615591754, 40.362860892016613 ], [ 141.518172387146024, 40.351836053591057 ], [ 141.539030999181364, 40.347972612845865 ], [ 141.556020805116077, 40.36123017113556 ], [ 141.57188406000148, 40.365855171279179 ], [ 141.572438197065253, 40.36948491869407 ], [ 141.585609468102575, 40.378339972711615 ], [ 141.581239882614568, 40.398426279349337 ], [ 141.58692175073827, 40.40696077541952 ], [ 141.597910530846434, 40.413152468311807 ], [ 141.612551310294748, 40.415440801351963 ], [ 141.61613819692036, 40.420196666343145 ], [ 141.631335913921362, 40.420253892003586 ], [ 141.646894448819808, 40.428240054335106 ], [ 141.654769688770216, 40.428504505378669 ], [ 141.669946589163828, 40.437244306779405 ], [ 141.676031777144885, 40.448535224920761 ], [ 141.682794526945941, 40.449741613284857 ], [ 141.6829425814351, 40.449468440616101 ] ] ] ] } }
]
}
