{
"type": "FeatureCollection",
"name": "04_miyagi_forecast",
"crs": { "type": "name", "properties": { "name": "urn:ogc:def:crs:OGC:1.3:CRS84" } },
"features": [
{ "type": "Feature", "properties": { "code": "040000", "name": "宮城県", "PrefCode": "04", "regioncode": "040000" }, "geometry": { "type": "MultiPolygon", "coordinates": [ [ [ [ 141.068582165934231, 38.262783107554412 ], [ 141.054993217363176, 38.257961386109116 ], [ 141.06851136230955, 38.262903532172345 ], [ 141.068582165934231, 38.262783107554412 ] ] ], [ [ [ 141.058922502871269, 38.268844720707364 ], [ 141.056539728425832, 38.271927225261265 ], [ 141.058333332717211, 38.269650640065038 ], [ 141.058922502871269, 38.268844720707364 ] ] ], [ [ [ 141.470118637964788, 38.283639559418191 ], [ 141.482095746021969, 38.277540135169147 ], [ 141.489077367426603, 38.267355892160765 ], [ 141.489640584045787, 38.259387747746416 ], [ 141.494824617162408, 38.258554721922906 ], [ 141.495156886980794, 38.255328108205674 ], [ 141.495504474951645, 38.259168585661769 ], [ 141.499143501571439, 38.256977026868356 ], [ 141.496594136710087, 38.250951945975601 ], [ 141.500632723121726, 38.246022639533237 ], [ 141.494843580267116, 38.251018225111068 ], [ 141.478990532687021, 38.250182198249888 ], [ 141.472214279565378, 38.263848946271878 ], [ 141.464973333252829, 38.265118135193859 ], [ 141.466510143328492, 38.268622278795192 ], [ 141.457013864598252, 38.268236252001486 ], [ 141.459578339868585, 38.272696775136126 ], [ 141.456573140138403, 38.273618612608914 ], [ 141.463296782920224, 38.277007278762937 ], [ 141.460387108278496, 38.283323386565087 ], [ 141.467344554107967, 38.279983053575108 ], [ 141.470130661001235, 38.283642386886697 ], [ 141.470118637964788, 38.283639559418191 ] ] ], [ [ [ 141.435109027159911, 38.290944026645548 ], [ 141.436497950919716, 38.287958134460382 ], [ 141.43510228314392, 38.290970838133717 ], [ 141.435109027159911, 38.290944026645548 ] ] ], [ [ [ 141.089385693594977, 38.302312333247642 ], [ 141.087543307377814, 38.30493590207027 ], [ 141.089419921792, 38.302355387391287 ], [ 141.089385693594977, 38.302312333247642 ] ] ], [ [ [ 141.416229974034195, 38.312209722200976 ], [ 141.421661893581586, 38.309485387041036 ], [ 141.419490077605019, 38.305857108219016 ], [ 141.42428379955777, 38.294573640061515 ], [ 141.428439222292354, 38.294160441151462 ], [ 141.427076082994859, 38.296433721339213 ], [ 141.429541024898413, 38.292788721422426 ], [ 141.408691919596436, 38.285021721175553 ], [ 141.406438948798495, 38.290300891772802 ], [ 141.412815083649207, 38.299323333005475 ], [ 141.409414526659134, 38.304811080666866 ], [ 141.416207859705082, 38.312202972789009 ], [ 141.416229974034195, 38.312209722200976 ] ] ], [ [ [ 141.566857367773423, 38.313552613262516 ], [ 141.571301776855535, 38.312081774754176 ], [ 141.568392334238865, 38.308301333339898 ], [ 141.589672944151062, 38.301757197936411 ], [ 141.579105938888006, 38.286898278932483 ], [ 141.583076278447606, 38.282166972627749 ], [ 141.581364552931859, 38.279667585790492 ], [ 141.586131440014015, 38.277274945782153 ], [ 141.576473606172044, 38.269112838286901 ], [ 141.558002528693805, 38.281962613383939 ], [ 141.552407249095381, 38.28780419840507 ], [ 141.552016667235421, 38.293877413711698 ], [ 141.548002825669982, 38.295213199229806 ], [ 141.551802528763801, 38.294108559262668 ], [ 141.548461530275517, 38.303660197560134 ], [ 141.566839274313111, 38.31355172113507 ], [ 141.566857367773423, 38.313552613262516 ] ] ], [ [ [ 141.186727717410349, 38.316800108338384 ], [ 141.185238885266358, 38.314975892023824 ], [ 141.186728105917382, 38.316809467582914 ], [ 141.186727717410349, 38.316800108338384 ] ] ], [ [ [ 141.157973916662968, 38.321255892045826 ], [ 141.161474864073739, 38.316611197648683 ], [ 141.155285772020875, 38.318258027186232 ], [ 141.157966277821515, 38.32125861339432 ], [ 141.157973916662968, 38.321255892045826 ] ] ], [ [ [ 141.153056161113, 38.321551667375616 ], [ 141.153391996743267, 38.318287251555489 ], [ 141.153042218023984, 38.32155558572174 ], [ 141.153056161113, 38.321551667375616 ] ] ], [ [ [ 141.118435912687232, 38.321687946141878 ], [ 141.120243995164287, 38.32026083716795 ], [ 141.118430310810254, 38.321690225023929 ], [ 141.118435912687232, 38.321687946141878 ] ] ], [ [ [ 141.075113411354891, 38.327951585697178 ], [ 141.075788858868805, 38.325529838231489 ], [ 141.069161090112289, 38.323400640227419 ], [ 141.066738560236445, 38.326508252054225 ], [ 141.075106589097913, 38.32796213474478 ], [ 141.075113411354891, 38.327951585697178 ] ] ], [ [ [ 141.051797523237155, 38.32323625225132 ], [ 141.048562140230615, 38.325311667199742 ], [ 141.053479921861026, 38.329823946318129 ], [ 141.050204385024358, 38.324236945878397 ], [ 141.051797523237155, 38.32323625225132 ] ] ], [ [ [ 141.084512529129938, 38.332115837975607 ], [ 141.085833967763506, 38.330105891873473 ], [ 141.084512891556756, 38.332125719726264 ], [ 141.084512529129938, 38.332115837975607 ] ] ], [ [ [ 141.09082472128398, 38.338266440843597 ], [ 141.090911776557277, 38.335454332751283 ], [ 141.102924111958259, 38.333840108134552 ], [ 141.107229222350838, 38.327548613877468 ], [ 141.097152698338391, 38.332600441257398 ], [ 141.087676614783959, 38.33075700013552 ], [ 141.084921894230092, 38.335921802149528 ], [ 141.091212671727476, 38.338439107978502 ], [ 141.09082472128398, 38.338266440843597 ] ] ], [ [ [ 141.054584331601632, 38.338653774352281 ], [ 141.051710636137045, 38.334835279024958 ], [ 141.054565134673339, 38.33866299959783 ], [ 141.054584331601632, 38.338653774352281 ] ] ], [ [ [ 141.094726029782464, 38.338451000613247 ], [ 141.091854915372096, 38.33903353197195 ], [ 141.094646783322446, 38.338516467660895 ], [ 141.094726029782464, 38.338451000613247 ] ] ], [ [ [ 141.04477652411731, 38.343093801937471 ], [ 141.040740025032164, 38.340759332777054 ], [ 141.044771530182061, 38.343102278947072 ], [ 141.04477652411731, 38.343093801937471 ] ] ], [ [ [ 141.115395720336323, 38.343550748368386 ], [ 141.112765668300995, 38.340391694421214 ], [ 141.115405576006538, 38.343557666852917 ], [ 141.115395720336323, 38.343550748368386 ] ] ], [ [ [ 141.121128663656918, 38.344853053925362 ], [ 141.115722023152898, 38.336278467877037 ], [ 141.109429105269101, 38.335388972722967 ], [ 141.109808833211105, 38.331043694111258 ], [ 141.104286887030298, 38.337276585845814 ], [ 141.103543411199553, 38.343360801659742 ], [ 141.106813165395351, 38.338795081228056 ], [ 141.110658520774223, 38.340909441317706 ], [ 141.113434163156171, 38.338189666619883 ], [ 141.121119389847991, 38.344854775227759 ], [ 141.121128663656918, 38.344853053925362 ] ] ], [ [ [ 141.110785614764382, 38.34702119796998 ], [ 141.112462801816946, 38.345329773750109 ], [ 141.110780699969382, 38.347023000211323 ], [ 141.110785614764382, 38.34702119796998 ] ] ], [ [ [ 141.130254474764229, 38.347143333098415 ], [ 141.127414746693262, 38.33963150469026 ], [ 141.132623773768159, 38.343353532439608 ], [ 141.131550726085152, 38.336133251648278 ], [ 141.126913281123052, 38.335725170780051 ], [ 141.13127399479913, 38.332242225098639 ], [ 141.126114189418331, 38.331666333434612 ], [ 141.1286037223839, 38.327894413996034 ], [ 141.124238911396674, 38.325460279268498 ], [ 141.115575057742831, 38.335342639651174 ], [ 141.119887198135757, 38.339459387041131 ], [ 141.121495965666327, 38.334683774736448 ], [ 141.124510895161734, 38.335119505260991 ], [ 141.121687030232351, 38.340170359574472 ], [ 141.130248443910659, 38.347152559243284 ], [ 141.130254474764229, 38.347143333098415 ] ] ], [ [ [ 141.120297755736942, 38.351899802433991 ], [ 141.122401776320999, 38.348005279320262 ], [ 141.118942827249725, 38.348250171008658 ], [ 141.120290634904904, 38.351919720618639 ], [ 141.120297755736942, 38.351899802433991 ] ] ], [ [ [ 141.115096393583713, 38.352188558555213 ], [ 141.117340220974484, 38.347578414312409 ], [ 141.114050999154301, 38.345667837900464 ], [ 141.11183313878837, 38.349120387395999 ], [ 141.115117133748754, 38.352192747597257 ], [ 141.115096393583713, 38.352188558555213 ] ] ], [ [ [ 141.12116547380765, 38.354213251740248 ], [ 141.126471919943242, 38.352235441112782 ], [ 141.124953527982939, 38.348837306896257 ], [ 141.121159415974375, 38.354219108125392 ], [ 141.12116547380765, 38.354213251740248 ] ] ], [ [ [ 141.118211361864951, 38.35558630606323 ], [ 141.115698029240775, 38.353641801827735 ], [ 141.118214501398143, 38.355602612570578 ], [ 141.118211361864951, 38.35558630606323 ] ] ], [ [ [ 141.16316457778305, 38.355767612985005 ], [ 141.167313411185091, 38.354098439791244 ], [ 141.161459947918274, 38.352671441433927 ], [ 141.163138469564728, 38.355786053583586 ], [ 141.16316457778305, 38.355767612985005 ] ] ], [ [ [ 141.127120699860484, 38.35442444133497 ], [ 141.126671413854751, 38.357104747486176 ], [ 141.127125940210021, 38.354426053819395 ], [ 141.127120699860484, 38.35442444133497 ] ] ], [ [ [ 141.150000000399814, 38.35662322528168 ], [ 141.158228716182407, 38.353223000141384 ], [ 141.154365188202974, 38.347893197712949 ], [ 141.156866666863266, 38.349610413589744 ], [ 141.157531050917328, 38.343326774910793 ], [ 141.162592140414972, 38.340430224974966 ], [ 141.158833916751973, 38.350394748319047 ], [ 141.161665279329213, 38.347998749342878 ], [ 141.160581051274562, 38.352197026571559 ], [ 141.168882996153457, 38.350137467570107 ], [ 141.163749027395738, 38.347156000049438 ], [ 141.167263139082706, 38.346891531918743 ], [ 141.163834383849803, 38.345575107904949 ], [ 141.167395771997349, 38.345505108274153 ], [ 141.16692972802457, 38.342363612690633 ], [ 141.169497275379058, 38.344719305851356 ], [ 141.168649688632286, 38.336482694021186 ], [ 141.170668145018908, 38.338865999966004 ], [ 141.166756160668342, 38.332051585912041 ], [ 141.171935057756741, 38.325252838048073 ], [ 141.182659144004333, 38.321503171434244 ], [ 141.177152698538293, 38.32365869349394 ], [ 141.179536549472232, 38.320887170906246 ], [ 141.177090636323896, 38.319482559372659 ], [ 141.162860363215259, 38.328146531737104 ], [ 141.154236031168011, 38.322346332617201 ], [ 141.145336199905728, 38.329989197643386 ], [ 141.148872555424191, 38.334185440605665 ], [ 141.141959779820013, 38.334124441389918 ], [ 141.143172801583546, 38.330871305766209 ], [ 141.137812969892707, 38.330082026564355 ], [ 141.146605835790751, 38.324711467760096 ], [ 141.137692049748352, 38.321676055305772 ], [ 141.139756743878706, 38.326961333198994 ], [ 141.131497418770891, 38.338672649323371 ], [ 141.134473475970253, 38.342686414446518 ], [ 141.136631580882863, 38.339139332714069 ], [ 141.142398470013404, 38.339409613163184 ], [ 141.142792437820844, 38.342474559353491 ], [ 141.148215939713964, 38.33882627870986 ], [ 141.149992671824407, 38.342688775166891 ], [ 141.140550025962966, 38.354314331940941 ], [ 141.149986550139261, 38.356628748018352 ], [ 141.150000000399814, 38.35662322528168 ] ] ], [ [ [ 141.527412917572178, 38.358589919389317 ], [ 141.52500130996259, 38.356912279078472 ], [ 141.527414643371117, 38.358602973048846 ], [ 141.527412917572178, 38.358589919389317 ] ] ], [ [ [ 141.529895084190798, 38.359620108081572 ], [ 141.529485305402545, 38.357299531648096 ], [ 141.529869948139662, 38.359634586267191 ], [ 141.529895084190798, 38.359620108081572 ] ] ], [ [ [ 141.075597055959406, 38.365437441085078 ], [ 141.078433773999564, 38.363104918956878 ], [ 141.075577250190008, 38.36544155908075 ], [ 141.075597055959406, 38.365437441085078 ] ] ], [ [ [ 141.426048910628765, 38.365556306278563 ], [ 141.422485863232055, 38.364208693776277 ], [ 141.426016835408745, 38.36555072148866 ], [ 141.426048910628765, 38.365556306278563 ] ] ], [ [ [ 141.07950430627875, 38.366652919796479 ], [ 141.088173190740235, 38.364790747594952 ], [ 141.079496329292283, 38.366666665933963 ], [ 141.07950430627875, 38.366652919796479 ] ] ], [ [ [ 141.07043641960513, 38.367833919399914 ], [ 141.073037107876303, 38.365493612740067 ], [ 141.070451777327776, 38.367870666598037 ], [ 141.07043641960513, 38.367833919399914 ] ] ], [ [ [ 141.077318314288846, 38.377153857264773 ], [ 141.082389585011356, 38.375800586228138 ], [ 141.077171633963758, 38.377192892338144 ], [ 141.077318314288846, 38.377153857264773 ] ] ], [ [ [ 141.420662282738249, 38.380813721176366 ], [ 141.427107107806819, 38.379925360067375 ], [ 141.423660465957823, 38.376149414364022 ], [ 141.417393774103402, 38.376879666563411 ], [ 141.42061033699747, 38.380829864906389 ], [ 141.420662282738249, 38.380813721176366 ] ] ], [ [ [ 141.37716753605298, 38.383269963937721 ], [ 141.380487886107176, 38.382196386554028 ], [ 141.375947496879576, 38.381203838086719 ], [ 141.377116328655688, 38.383256009157549 ], [ 141.37716753605298, 38.383269963937721 ] ] ], [ [ [ 141.606053216582723, 38.392029224868907 ], [ 141.605769247552757, 38.387985414295485 ], [ 141.600480557631727, 38.385532667198902 ], [ 141.60605403406646, 38.392050946194274 ], [ 141.606053216582723, 38.392029224868907 ] ] ], [ [ [ 141.27500000014993, 38.390080314854686 ], [ 141.269338067298008, 38.387015874083374 ], [ 141.288085162000698, 38.392936675886915 ], [ 141.277810233155833, 38.391666666783294 ], [ 141.27500000014993, 38.390080314854686 ] ] ], [ [ [ 141.268364578162846, 38.395553333419628 ], [ 141.27081635489094, 38.394081612676359 ], [ 141.266666667132995, 38.39657644085014 ], [ 141.268364578162846, 38.395553333419628 ] ] ], [ [ [ 141.592550025563241, 38.402575668032682 ], [ 141.596667691161088, 38.402632441334163 ], [ 141.599408054038577, 38.397696693947296 ], [ 141.58948481227435, 38.397284891684478 ], [ 141.59109092230824, 38.401038919110874 ], [ 141.594010000261392, 38.399866440583821 ], [ 141.59249155614043, 38.402624440965212 ], [ 141.592550025563241, 38.402575668032682 ] ] ], [ [ [ 141.342180532405678, 38.403284413844688 ], [ 141.345217301937055, 38.401930215607024 ], [ 141.338744448597481, 38.403116478043103 ], [ 141.341666666983201, 38.403259296679266 ], [ 141.342180532405678, 38.403284413844688 ] ] ], [ [ [ 141.54929564158067, 38.404617504993894 ], [ 141.550859338687587, 38.402804171375465 ], [ 141.549244553793187, 38.404616279217976 ], [ 141.54929564158067, 38.404617504993894 ] ] ], [ [ [ 141.583174228108192, 38.404668197978992 ], [ 141.579964721294914, 38.399761441137628 ], [ 141.583174747016983, 38.404696666917687 ], [ 141.583174228108192, 38.404668197978992 ] ] ], [ [ [ 141.55424927378499, 38.406211720594456 ], [ 141.553024357588129, 38.402157000345369 ], [ 141.554261335492356, 38.40623910764873 ], [ 141.55424927378499, 38.406211720594456 ] ] ], [ [ [ 141.311020921078693, 38.411820945979912 ], [ 141.312684476207664, 38.407283027190033 ], [ 141.310834747025979, 38.412243080553765 ], [ 141.311020921078693, 38.411820945979912 ] ] ], [ [ [ 141.283962632869247, 38.417826278659902 ], [ 141.279918754846676, 38.417493721058406 ], [ 141.283333333166865, 38.417774531669352 ], [ 141.283962632869247, 38.417826278659902 ] ] ], [ [ [ 141.593237392691549, 38.424392747827085 ], [ 141.595523022369662, 38.422774945707204 ], [ 141.591385524922089, 38.422193667104125 ], [ 141.593187250091546, 38.424416586156553 ], [ 141.593237392691549, 38.424392747827085 ] ] ], [ [ [ 141.515075356742386, 38.459632026596807 ], [ 141.51208683493951, 38.458359694544299 ], [ 141.515065135947339, 38.459641359761008 ], [ 141.515075356742386, 38.459632026596807 ] ] ], [ [ [ 141.517915331227641, 38.465580197468171 ], [ 141.526191529415655, 38.459541865065091 ], [ 141.524636886683084, 38.453695504643861 ], [ 141.532471336083404, 38.454504080598895 ], [ 141.5294521662845, 38.450205613498326 ], [ 141.534949443162304, 38.443795000438968 ], [ 141.530206523912057, 38.437677918900874 ], [ 141.518586005140037, 38.442879108384204 ], [ 141.515834500561823, 38.450587972856738 ], [ 141.519365227223489, 38.456576333531018 ], [ 141.515256718522778, 38.46241883675998 ], [ 141.517922723654806, 38.465585558326893 ], [ 141.517915331227641, 38.465580197468171 ] ] ], [ [ [ 141.514632697840852, 38.55601353219879 ], [ 141.510711698686009, 38.549661721311452 ], [ 141.514629973794285, 38.556030198434939 ], [ 141.514632697840852, 38.55601353219879 ] ] ], [ [ [ 141.494163164898168, 38.559962747582802 ], [ 141.491955162001204, 38.556325197649812 ], [ 141.494166394363674, 38.559976504512122 ], [ 141.494163164898168, 38.559962747582802 ] ] ], [ [ [ 141.488951089121542, 38.65299463919132 ], [ 141.490671803361124, 38.651250386995798 ], [ 141.487082165709467, 38.650072386631393 ], [ 141.488956328571817, 38.65300327897819 ], [ 141.488951089121542, 38.65299463919132 ] ] ], [ [ [ 141.509993449737976, 38.676078108318109 ], [ 141.511648858807803, 38.674156999945637 ], [ 141.509964189395873, 38.676108386692761 ], [ 141.509993449737976, 38.676078108318109 ] ] ], [ [ [ 141.556317951012716, 38.69989346910836 ], [ 141.554271362033774, 38.698784026761473 ], [ 141.556390440866267, 38.700000000099976 ], [ 141.556317951012716, 38.69989346910836 ] ] ], [ [ [ 141.59181517513025, 38.836706567554074 ], [ 141.59056500686961, 38.838982080758456 ], [ 141.59166666738281, 38.83690619816258 ], [ 141.59181517513025, 38.836706567554074 ] ] ], [ [ [ 141.641323502177897, 38.845380251697293 ], [ 141.643315084123856, 38.841299666946099 ], [ 141.64128486370555, 38.84538519796854 ], [ 141.641323502177897, 38.845380251697293 ] ] ], [ [ [ 141.638952891962504, 38.851930080708712 ], [ 141.639869804747718, 38.848510801632244 ], [ 141.638993217562984, 38.851971891989251 ], [ 141.638952891962504, 38.851930080708712 ] ] ], [ [ [ 141.668429273692141, 38.860280197772965 ], [ 141.665973696428978, 38.859687945642236 ], [ 141.668408469675228, 38.860294306337209 ], [ 141.668429273692141, 38.860280197772965 ] ] ], [ [ [ 141.624302699310192, 38.885406639704684 ], [ 141.627761581831578, 38.878296414348085 ], [ 141.634404085979895, 38.874710080805642 ], [ 141.631238002931582, 38.871948801496046 ], [ 141.634332970290416, 38.867347531763244 ], [ 141.62228508378962, 38.861542360291764 ], [ 141.627722827346702, 38.856147775199702 ], [ 141.622419441604052, 38.851345333420454 ], [ 141.627262995890646, 38.847950441259911 ], [ 141.636331387983205, 38.8484903330625 ], [ 141.633165887695668, 38.845622973321611 ], [ 141.63777230874507, 38.840417891572486 ], [ 141.628517056417081, 38.840052559078401 ], [ 141.624316523688663, 38.830233081091876 ], [ 141.623552191680346, 38.834885505161992 ], [ 141.615543995059397, 38.839004865082529 ], [ 141.617466693433244, 38.841595586167443 ], [ 141.610487198025794, 38.847570865303226 ], [ 141.613846641609257, 38.849000837718563 ], [ 141.604705382847214, 38.860404332993653 ], [ 141.606722243836543, 38.864989136139798 ], [ 141.612929196425284, 38.865392080080483 ], [ 141.607188832798442, 38.866511837651217 ], [ 141.601683112185924, 38.873503973029983 ], [ 141.6053925287423, 38.877634945896091 ], [ 141.618675135848889, 38.878757947321446 ], [ 141.624316134282253, 38.885444720597434 ], [ 141.624302699310192, 38.885406639704684 ] ] ], [ [ [ 141.51078719677173, 39.002449748257334 ], [ 141.518352672437913, 39.001366585899291 ], [ 141.516624422778932, 38.998226306199115 ], [ 141.523134228361982, 38.99134589179954 ], [ 141.536906278002448, 38.99538569409458 ], [ 141.56712961144251, 38.995960504773507 ], [ 141.574538366752336, 38.987292532224615 ], [ 141.604254112037665, 38.985388865303946 ], [ 141.62151128371886, 38.972851919380616 ], [ 141.635808884572384, 38.968031946217423 ], [ 141.632011140202053, 38.962977080927601 ], [ 141.637071673019364, 38.96430272119369 ], [ 141.644041114905576, 38.955467945988971 ], [ 141.632619727618362, 38.958275054750004 ], [ 141.63134771662385, 38.95425866720376 ], [ 141.639626056997031, 38.949389386910752 ], [ 141.637199026913663, 38.946838801669401 ], [ 141.640368300756563, 38.946245053966095 ], [ 141.639302801982808, 38.942705306204971 ], [ 141.648265719787219, 38.941366107759734 ], [ 141.642567859918813, 38.940286612836985 ], [ 141.643062632734427, 38.933038224634402 ], [ 141.634177445133105, 38.930087612853129 ], [ 141.642717690569043, 38.928100775730286 ], [ 141.644489300141117, 38.922723694143201 ], [ 141.6531423610312, 38.919144584854735 ], [ 141.650611362124778, 38.911380081125913 ], [ 141.64751527870726, 38.91131325160535 ], [ 141.654834332038831, 38.906956946406012 ], [ 141.651425110080822, 38.901822559463596 ], [ 141.663603580840686, 38.897170837764008 ], [ 141.663763606205521, 38.892084170647991 ], [ 141.667108196586014, 38.892928748263159 ], [ 141.668352672138212, 38.888861837703701 ], [ 141.662463021950998, 38.888598865145582 ], [ 141.665188586484192, 38.883089639875038 ], [ 141.662584916061064, 38.881722612808403 ], [ 141.670762750001018, 38.873984027540871 ], [ 141.668517030436647, 38.869937134990835 ], [ 141.674981413961177, 38.862996666562992 ], [ 141.673671025297608, 38.857040107714852 ], [ 141.66944883329711, 38.861920053967367 ], [ 141.656684967737192, 38.862582332708541 ], [ 141.658005694107601, 38.866355585841688 ], [ 141.64667722477418, 38.875161359709011 ], [ 141.648281920174554, 38.87951141372082 ], [ 141.643041478881173, 38.878795107308406 ], [ 141.645048223396884, 38.884206278596935 ], [ 141.636982218354774, 38.885207721359279 ], [ 141.641559882682486, 38.889901972897803 ], [ 141.636151751102489, 38.888830467552111 ], [ 141.637211505007031, 38.893964054097864 ], [ 141.633417197845461, 38.896571559230154 ], [ 141.638300194598401, 38.902308080953219 ], [ 141.631320584077798, 38.901431721296944 ], [ 141.629411854873297, 38.895544359884354 ], [ 141.623388003353739, 38.899810170802766 ], [ 141.62406011708083, 38.895017170106371 ], [ 141.630914837849559, 38.890873134587537 ], [ 141.620849948366526, 38.892842559036922 ], [ 141.614689169669532, 38.887984775676898 ], [ 141.615280465820888, 38.881949973112796 ], [ 141.610360116626111, 38.886279748311779 ], [ 141.60739344924832, 38.87969394641857 ], [ 141.59738389055417, 38.893823568303105 ], [ 141.588185900758731, 38.894624982057337 ], [ 141.586774136916915, 38.909343315441731 ], [ 141.575006926128822, 38.906177991421202 ], [ 141.579704254247986, 38.904884595447754 ], [ 141.58603162066288, 38.89291228797174 ], [ 141.593714345440731, 38.889748766192668 ], [ 141.593956680356541, 38.885472577097801 ], [ 141.590261051306584, 38.885409567897284 ], [ 141.590465045425617, 38.873873359667868 ], [ 141.587613229566955, 38.873545883235977 ], [ 141.592128571776243, 38.869830098580223 ], [ 141.585526213364119, 38.868289532036329 ], [ 141.586254800019105, 38.858027351081432 ], [ 141.583553968640786, 38.856710900088046 ], [ 141.586805720207849, 38.857826604414299 ], [ 141.583294993569211, 38.856723828741735 ], [ 141.583163061226401, 38.848537278572621 ], [ 141.586920025838594, 38.846428864800316 ], [ 141.590857418734913, 38.834228251832428 ], [ 141.595500025805563, 38.83343672972137 ], [ 141.596440999052902, 38.836809855590388 ], [ 141.603680466880064, 38.827808730088861 ], [ 141.5965343576745, 38.829320189175462 ], [ 141.590366874531696, 38.822208819881212 ], [ 141.579406238707065, 38.82419530626845 ], [ 141.574820674734383, 38.819143918656948 ], [ 141.57840517455918, 38.813127395712797 ], [ 141.571438781374695, 38.808030306353601 ], [ 141.568688312815425, 38.813387693687162 ], [ 141.559058806718667, 38.812516666111321 ], [ 141.555104073094526, 38.809427190012855 ], [ 141.555699364034467, 38.806281874109231 ], [ 141.558884629622071, 38.80844577515245 ], [ 141.55536147884925, 38.80079850524686 ], [ 141.539043216471327, 38.798220062605878 ], [ 141.520781050605024, 38.788793261000251 ], [ 141.51825084310201, 38.774747107892779 ], [ 141.511664669788729, 38.767792828576205 ], [ 141.520269584573725, 38.764925765611622 ], [ 141.519749441883278, 38.759600974205625 ], [ 141.529112412307995, 38.75883138655928 ], [ 141.526910998743688, 38.757129999649806 ], [ 141.530623166326109, 38.752566801816499 ], [ 141.527694330728878, 38.753797360359954 ], [ 141.532637638716096, 38.75177586516412 ], [ 141.530239493957538, 38.748581657617478 ], [ 141.538078418384316, 38.749221305818651 ], [ 141.540488003418659, 38.746319136019338 ], [ 141.534946031134496, 38.740089640124836 ], [ 141.546821245104411, 38.740417837813027 ], [ 141.54599705601936, 38.733517640127047 ], [ 141.553058833098703, 38.738759080567149 ], [ 141.565346692895673, 38.739669171994763 ], [ 141.565615162110134, 38.733272612641031 ], [ 141.561218053770176, 38.730450639885191 ], [ 141.566537301755147, 38.725806000346665 ], [ 141.558369300103209, 38.723940224561773 ], [ 141.559838948808533, 38.719150054031843 ], [ 141.556758470427098, 38.71938283814751 ], [ 141.558696834990997, 38.714611413985608 ], [ 141.566396640592529, 38.711137108091123 ], [ 141.564109000929761, 38.697869197705359 ], [ 141.559708145114882, 38.695452467557402 ], [ 141.561696939162516, 38.691422359954004 ], [ 141.554272917860885, 38.695341531686381 ], [ 141.559228638291074, 38.701113440832671 ], [ 141.556815057568883, 38.706701441318501 ], [ 141.546226743769239, 38.711390504668088 ], [ 141.537732725285082, 38.709308468011443 ], [ 141.536198756167778, 38.705288531740393 ], [ 141.534374085695617, 38.714007441889976 ], [ 141.525735940061622, 38.717176386581002 ], [ 141.521916290904187, 38.715665540832106 ], [ 141.526213332579346, 38.708962613034203 ], [ 141.520825472617503, 38.708761360048754 ], [ 141.524319780333713, 38.705526720781563 ], [ 141.517284669052287, 38.698111612660853 ], [ 141.519233190559362, 38.69461572123862 ], [ 141.516343410719855, 38.689340027420371 ], [ 141.509215576637644, 38.685433413821045 ], [ 141.506359662568457, 38.691178917972763 ], [ 141.50067697786028, 38.689816053867844 ], [ 141.499365083731732, 38.695530748145586 ], [ 141.496983969434723, 38.689906081400579 ], [ 141.489830129656866, 38.689768557972627 ], [ 141.49709616075927, 38.680439054019189 ], [ 141.494682360602496, 38.674009467962605 ], [ 141.488376497877084, 38.677911468039895 ], [ 141.481618002768641, 38.674408468376157 ], [ 141.474739415791419, 38.679938224269677 ], [ 141.475542218098894, 38.676492640023355 ], [ 141.461273165324428, 38.670312080737972 ], [ 141.462629494055932, 38.666264505602499 ], [ 141.461231309977052, 38.670216080807563 ], [ 141.453339688875644, 38.670024305777133 ], [ 141.458475005716991, 38.670610305821015 ], [ 141.452512166003771, 38.674545721108188 ], [ 141.448855577423046, 38.673825666321477 ], [ 141.450967833099071, 38.671549278076782 ], [ 141.444038663753417, 38.672684414054515 ], [ 141.450203021752145, 38.657592081409462 ], [ 141.441104552733009, 38.646386134812303 ], [ 141.443150103894254, 38.643335666807616 ], [ 141.452151089101562, 38.644340973057524 ], [ 141.458095421666485, 38.639542864211876 ], [ 141.464253281164019, 38.647901333279947 ], [ 141.484395137125944, 38.64142730632517 ], [ 141.497577224309566, 38.64519710786027 ], [ 141.497620777576913, 38.641104748285557 ], [ 141.503870000100505, 38.641739999701258 ], [ 141.502764694635061, 38.637873171209947 ], [ 141.509740777115212, 38.639008639936833 ], [ 141.51036275004094, 38.636062666858663 ], [ 141.518539274567956, 38.640055559616428 ], [ 141.518819830670736, 38.637250198238121 ], [ 141.529687808445715, 38.637026802145272 ], [ 141.5265537475575, 38.626805359579748 ], [ 141.528252283616098, 38.617931945902626 ], [ 141.524149973942258, 38.609167332206653 ], [ 141.520467198002848, 38.609498026412837 ], [ 141.517418444105942, 38.604133747574451 ], [ 141.508398029045907, 38.604003279327912 ], [ 141.510814358096241, 38.601650053906894 ], [ 141.508298366176746, 38.598377694375131 ], [ 141.501060363345118, 38.603038108022304 ], [ 141.504575383347287, 38.595030612872563 ], [ 141.491925577003826, 38.590942134771751 ], [ 141.494127561637697, 38.589386358893421 ], [ 141.487375875296493, 38.583109413868385 ], [ 141.474235640762231, 38.585224026667561 ], [ 141.458564695104656, 38.578485964155959 ], [ 141.463038949088286, 38.561251027313119 ], [ 141.478386056071713, 38.562656648785378 ], [ 141.476423074365471, 38.557566081309631 ], [ 141.479841336308709, 38.559424765940264 ], [ 141.482599546232109, 38.554549035709499 ], [ 141.487839857123731, 38.554046694199656 ], [ 141.485689637466862, 38.540913414122826 ], [ 141.493528003414667, 38.533065973116209 ], [ 141.499775161994194, 38.53289480155388 ], [ 141.498277056041388, 38.535720413866045 ], [ 141.501849337676845, 38.536498108001354 ], [ 141.509975694422792, 38.533361802405295 ], [ 141.507963527894617, 38.538100558693884 ], [ 141.514489882801968, 38.544903838241567 ], [ 141.520486860780011, 38.539289749322506 ], [ 141.526131166020605, 38.546882505023632 ], [ 141.5348565494902, 38.547016135286469 ], [ 141.530337859104975, 38.532088107879929 ], [ 141.536830777218711, 38.533134252343928 ], [ 141.541693838699757, 38.525012108022395 ], [ 141.547558468848365, 38.523850801773108 ], [ 141.538504813046757, 38.51663450497847 ], [ 141.539290441001071, 38.511282054023638 ], [ 141.533853086850513, 38.509127172281239 ], [ 141.538938559666803, 38.502565721331052 ], [ 141.542804086839169, 38.504577666626062 ], [ 141.539116861054367, 38.497929198174006 ], [ 141.533345693848787, 38.495989802087763 ], [ 141.537319467919133, 38.490387720017338 ], [ 141.523915838145513, 38.489864891951242 ], [ 141.523116589059441, 38.496037531806678 ], [ 141.51494416274295, 38.493018440248875 ], [ 141.516462192276435, 38.500307198118776 ], [ 141.512420610223103, 38.503287919202137 ], [ 141.516226031206429, 38.506097225006954 ], [ 141.513242529419244, 38.513249919048576 ], [ 141.50456732811972, 38.511682361152111 ], [ 141.503424577582223, 38.508389801947828 ], [ 141.498505965877712, 38.511333774933803 ], [ 141.494132218327309, 38.508798197578813 ], [ 141.483235499119019, 38.51986066723606 ], [ 141.46957622536263, 38.521207613340721 ], [ 141.464698808003618, 38.512085892350115 ], [ 141.475207029081162, 38.517701359929845 ], [ 141.488964305558284, 38.506093359720808 ], [ 141.489284060411137, 38.498633414100823 ], [ 141.495997912273879, 38.500620639730812 ], [ 141.497273061003057, 38.495356135277461 ], [ 141.490788885198981, 38.488696640237833 ], [ 141.498635888235754, 38.47847738662216 ], [ 141.489329170404972, 38.469139802260145 ], [ 141.483615550817035, 38.47125110825209 ], [ 141.476177288750932, 38.467943855924261 ], [ 141.476297990360081, 38.463921144345363 ], [ 141.501594384373448, 38.460752359733647 ], [ 141.494657327074037, 38.456187838098288 ], [ 141.497569559387671, 38.448783973301772 ], [ 141.501495447257184, 38.451191026744539 ], [ 141.501819779659172, 38.44718008099602 ], [ 141.506583306874177, 38.447814838683882 ], [ 141.509452387018086, 38.453607171433873 ], [ 141.512678144580718, 38.450022332564629 ], [ 141.509278029157826, 38.444201135174296 ], [ 141.507882192309353, 38.446470640008101 ], [ 141.494428833623829, 38.443088081150051 ], [ 141.494394253791825, 38.437110441293896 ], [ 141.489948469646265, 38.443066332845035 ], [ 141.481413800006976, 38.436680053641624 ], [ 141.479303217069855, 38.440372865115705 ], [ 141.467214746863192, 38.438906107730759 ], [ 141.460704254198049, 38.44672777506679 ], [ 141.447390338093669, 38.443894505027458 ], [ 141.465288029419071, 38.431454134600699 ], [ 141.463218559888674, 38.423647440976652 ], [ 141.471546226277383, 38.425638253102932 ], [ 141.475050583917323, 38.419882081193123 ], [ 141.47039469475942, 38.415434667475949 ], [ 141.474585498621877, 38.413555505282375 ], [ 141.472603256135471, 38.405774802065537 ], [ 141.469789585021431, 38.406749170737669 ], [ 141.471743995289216, 38.405243864812576 ], [ 141.465494839315397, 38.39876589163265 ], [ 141.469712943897321, 38.394273838267054 ], [ 141.475622606698039, 38.39914717090528 ], [ 141.481444772658165, 38.398797081020518 ], [ 141.481202503392865, 38.401781721349437 ], [ 141.490718029413642, 38.405650441115029 ], [ 141.493018470026414, 38.412061531714357 ], [ 141.497047082057293, 38.411564694055414 ], [ 141.500018521237848, 38.415904973335898 ], [ 141.504753112766025, 38.413622333004298 ], [ 141.500983475806834, 38.403455748184285 ], [ 141.504564424208866, 38.400836972748152 ], [ 141.505882710718538, 38.404584170722956 ], [ 141.50539814430897, 38.398243053674037 ], [ 141.510952672028225, 38.399673305778492 ], [ 141.514187781640885, 38.392637468744226 ], [ 141.521832022629837, 38.394135413718402 ], [ 141.523945084098386, 38.398085532021753 ], [ 141.530538339572786, 38.396986720560733 ], [ 141.534392476831385, 38.402459748118929 ], [ 141.539046861423571, 38.400856252414144 ], [ 141.540939417220443, 38.395788918923529 ], [ 141.53774416286285, 38.391390666645975 ], [ 141.540613722345483, 38.389749441683421 ], [ 141.533109611919144, 38.386759721084331 ], [ 141.530689973363678, 38.381521278084563 ], [ 141.525184227570094, 38.386560559022655 ], [ 141.526573994893965, 38.389153918718421 ], [ 141.515889637097189, 38.386530612497836 ], [ 141.516766887082213, 38.38958061285507 ], [ 141.512015940483366, 38.391557134754009 ], [ 141.508091309866131, 38.390536225266658 ], [ 141.507220272397717, 38.384131919152821 ], [ 141.491459104953833, 38.379744467733076 ], [ 141.488348392264584, 38.382291306398713 ], [ 141.489022891893001, 38.379575945573492 ], [ 141.484809780347177, 38.380059279012585 ], [ 141.481432386295637, 38.3757217480603 ], [ 141.488953555062608, 38.367639279129492 ], [ 141.49497230922475, 38.371359838285969 ], [ 141.498181387960699, 38.368483333339213 ], [ 141.502853722121699, 38.371499440946479 ], [ 141.518112334916395, 38.368497838504481 ], [ 141.518321478553503, 38.362713945891926 ], [ 141.521894577672697, 38.361877667220597 ], [ 141.519621051070772, 38.358705694512253 ], [ 141.524486834799632, 38.356583837674009 ], [ 141.524426666557474, 38.347581721119582 ], [ 141.534184642607215, 38.339836891859136 ], [ 141.531050532256359, 38.329459225362996 ], [ 141.524667860233649, 38.32543533297428 ], [ 141.532546226227396, 38.318566134919251 ], [ 141.539747691402908, 38.319114558590059 ], [ 141.54101503221807, 38.308042747674733 ], [ 141.539466692833685, 38.302793359925658 ], [ 141.530615110199278, 38.301234504768615 ], [ 141.525578690004636, 38.295858586005011 ], [ 141.524836498405762, 38.272400667956504 ], [ 141.511712217844661, 38.275733305447716 ], [ 141.510217523020287, 38.292426107578876 ], [ 141.507123838994062, 38.292721954854358 ], [ 141.509055032363904, 38.296715333246084 ], [ 141.495650610287498, 38.291465387018036 ], [ 141.49180538261237, 38.293708720680968 ], [ 141.497222698069095, 38.304476999613883 ], [ 141.495526394127864, 38.307041440709952 ], [ 141.484122581392057, 38.308360918821393 ], [ 141.478257328013342, 38.305467360030718 ], [ 141.470140272056028, 38.315359108436155 ], [ 141.472074837883497, 38.320069413772501 ], [ 141.468082476625113, 38.31536153210908 ], [ 141.470564577593223, 38.307957305785067 ], [ 141.466747392578213, 38.30583046760205 ], [ 141.458722996469191, 38.313798891705517 ], [ 141.449471309953083, 38.315253278915748 ], [ 141.474231634282546, 38.329308586222339 ], [ 141.473324773219815, 38.334282026894073 ], [ 141.463128339901004, 38.335717054398572 ], [ 141.462284137303186, 38.351484586344611 ], [ 141.453773671118142, 38.347769360167888 ], [ 141.451531895080961, 38.340312640416073 ], [ 141.448457004187503, 38.353787973136491 ], [ 141.444842801554159, 38.353508864942228 ], [ 141.436126977877848, 38.341268558597164 ], [ 141.430612309010939, 38.341156414936677 ], [ 141.433484034060939, 38.344810801976962 ], [ 141.43132571960632, 38.348229504588005 ], [ 141.421942750057951, 38.343982865416933 ], [ 141.421440830330084, 38.348076891435426 ], [ 141.415787638888446, 38.346042640255689 ], [ 141.420642891556213, 38.350462558999936 ], [ 141.417214773043384, 38.349559440915527 ], [ 141.415236394044427, 38.355070505299636 ], [ 141.423972243824096, 38.355578838092981 ], [ 141.429878470315202, 38.364765053064787 ], [ 141.44061622625793, 38.36509669425709 ], [ 141.443614449047686, 38.370501251931273 ], [ 141.458865110036868, 38.37301597310875 ], [ 141.453113968934531, 38.376552468022055 ], [ 141.431809610625123, 38.373655441445521 ], [ 141.438286886830383, 38.381363531601778 ], [ 141.427822335932092, 38.3803714139097 ], [ 141.42269319113791, 38.384324440620503 ], [ 141.433519143593685, 38.395740396002509 ], [ 141.429792087734768, 38.399667360360468 ], [ 141.423203800115402, 38.39476361265065 ], [ 141.419039779862032, 38.396898306411742 ], [ 141.41460413827042, 38.391467666599567 ], [ 141.408395330380245, 38.404004251894776 ], [ 141.39007564207725, 38.385692694362433 ], [ 141.373178495091565, 38.383265198430195 ], [ 141.363849248344195, 38.388567081405711 ], [ 141.370273671392852, 38.400071081315389 ], [ 141.36559527939869, 38.402685720769455 ], [ 141.368450169140033, 38.403480504721585 ], [ 141.36730260722959, 38.409193332906057 ], [ 141.363938885571201, 38.409635305624931 ], [ 141.363377445113088, 38.403030838302584 ], [ 141.363712243825034, 38.411899694215549 ], [ 141.327017587691557, 38.41201827882054 ], [ 141.327215863021706, 38.40953794591951 ], [ 141.335434253687936, 38.409508892421513 ], [ 141.32723693863386, 38.409284413544924 ], [ 141.340500337120943, 38.406021225299355 ], [ 141.317167886189054, 38.411534198044876 ], [ 141.317161920086619, 38.407186252043971 ], [ 141.324126329366663, 38.402406585595486 ], [ 141.332109805423215, 38.402683171191427 ], [ 141.324106834762688, 38.402286386707431 ], [ 141.314901528982432, 38.411716774809349 ], [ 141.314457638908948, 38.407335224740905 ], [ 141.313953943020124, 38.413211838355721 ], [ 141.294160532082969, 38.414049919268393 ], [ 141.294769610529215, 38.400133612975935 ], [ 141.283844694876848, 38.3991981345863 ], [ 141.286785031903719, 38.399633026942695 ], [ 141.286053204092127, 38.408997368833582 ], [ 141.275469467841731, 38.409550135330505 ], [ 141.264422218310756, 38.397722440638177 ], [ 141.274173917092639, 38.408124946409202 ], [ 141.274850051688645, 38.414449865768745 ], [ 141.285787496695662, 38.41617761270669 ], [ 141.285355473176651, 38.419491359938377 ], [ 141.273860660740979, 38.416521198694397 ], [ 141.273436912783382, 38.41994891880762 ], [ 141.266602555363647, 38.419386694140655 ], [ 141.266024357837864, 38.412341864785276 ], [ 141.269442022631324, 38.410351972665467 ], [ 141.266820558222207, 38.407533973114425 ], [ 141.230256719272234, 38.400944721421808 ], [ 141.174179948146161, 38.375524891860323 ], [ 141.160687458159714, 38.364537440950187 ], [ 141.158641556262864, 38.353547107712927 ], [ 141.144059442289517, 38.360445891664597 ], [ 141.132437691446398, 38.359973531753155 ], [ 141.138084527379078, 38.371745440599682 ], [ 141.1334268350804, 38.376912026868581 ], [ 141.115547249805786, 38.380556386468129 ], [ 141.107034772736597, 38.386324774768582 ], [ 141.107861245200411, 38.380036504581085 ], [ 141.116309195912777, 38.37614380169515 ], [ 141.107225006329031, 38.375548586298294 ], [ 141.108743087123798, 38.370506864600145 ], [ 141.105285719960079, 38.368046386931269 ], [ 141.103614188743904, 38.372620224643697 ], [ 141.096589389988367, 38.374640027315479 ], [ 141.098894916267454, 38.37835208068401 ], [ 141.088014967616687, 38.381721945611332 ], [ 141.082806082634647, 38.380608108277613 ], [ 141.081538948663592, 38.376660559337381 ], [ 141.074405473134107, 38.37782738742402 ], [ 141.070625526347044, 38.370827613203858 ], [ 141.061931309782153, 38.369376693779429 ], [ 141.062260245813718, 38.354416747634843 ], [ 141.0661505322214, 38.351342107652215 ], [ 141.052001478685384, 38.351063198208067 ], [ 141.059494501370182, 38.34792553193779 ], [ 141.053597197952399, 38.344841108230639 ], [ 141.053786328076626, 38.347413666607508 ], [ 141.049792750035408, 38.345033531672186 ], [ 141.041561115053469, 38.349571026881449 ], [ 141.043034617353783, 38.346440135204148 ], [ 141.036440271001766, 38.339501612909146 ], [ 141.041227055584159, 38.338373333362711 ], [ 141.039369948364538, 38.334343613367139 ], [ 141.050080855946817, 38.339553865318692 ], [ 141.048194253661904, 38.336757505254695 ], [ 141.053923695022604, 38.330616613266159 ], [ 141.043441192756859, 38.323498919039935 ], [ 141.024570220039664, 38.319922468147467 ], [ 141.039720829652651, 38.319246919010141 ], [ 141.039563747768852, 38.316521585602743 ], [ 141.045563165607632, 38.318632306136067 ], [ 141.036330635550485, 38.306467972718792 ], [ 141.045868339752133, 38.312850134825908 ], [ 141.050088249273358, 38.30904102662214 ], [ 141.048612218079484, 38.313590945965416 ], [ 141.05205783380211, 38.314937559320981 ], [ 141.058727588307647, 38.31275891928874 ], [ 141.06544724979085, 38.321697468163677 ], [ 141.076395719586799, 38.319574972806777 ], [ 141.08138769078937, 38.305798504797224 ], [ 141.090027781656886, 38.300551666626177 ], [ 141.087879610655591, 38.295681026558157 ], [ 141.084691996938204, 38.292865775335315 ], [ 141.073163916781368, 38.294766107569842 ], [ 141.064808911002501, 38.288178026794526 ], [ 141.061721088757281, 38.280730945976416 ], [ 141.044897613334228, 38.277697028195348 ], [ 141.040252865877164, 38.272677505362651 ], [ 141.029578859276967, 38.275564170849862 ], [ 141.031365161972758, 38.280789999958586 ], [ 141.028790699731076, 38.283106197592986 ], [ 141.024949248309213, 38.270718081374412 ], [ 140.998918443631283, 38.273108802229501 ], [ 140.997706329283687, 38.270038918761145 ], [ 141.046888715941577, 38.26464086498396 ], [ 141.02323175094466, 38.264127279250602 ], [ 140.979125279108416, 38.207880639679843 ], [ 140.962167859559145, 38.17739783833963 ], [ 140.965283307178993, 38.170511972249756 ], [ 140.963171504761249, 38.173559054306963 ], [ 140.960776394315189, 38.169756054298546 ], [ 140.967573216730671, 38.170467748987505 ], [ 140.960895967275178, 38.16849544131162 ], [ 140.95248992317147, 38.155185946274457 ], [ 140.930611283883763, 38.100380386645554 ], [ 140.921645577281652, 38.038612225373981 ], [ 140.922734668869907, 38.034631279210203 ], [ 140.92606413715032, 38.035174171151141 ], [ 140.922627003833213, 38.033873693915893 ], [ 140.927776406755811, 38.034247640116575 ], [ 140.922045045342657, 38.03372778430986 ], [ 140.918498495109475, 38.020932802207085 ], [ 140.914880440679894, 37.980329919090536 ], [ 140.922958080251306, 37.916572441265203 ], [ 140.926348948844975, 37.903786919131051 ], [ 140.929566355303109, 37.904125252178687 ], [ 140.92935369621614, 37.900432080975804 ], [ 140.931536667383398, 37.904005865378451 ], [ 140.931170830369638, 37.896197431566293 ], [ 140.920209857299142, 37.891997388069058 ], [ 140.914866446329484, 37.898028775008015 ], [ 140.901119663142026, 37.897637774963414 ], [ 140.900221387906754, 37.904329667180434 ], [ 140.856251414271469, 37.890900054194219 ], [ 140.859937886424404, 37.888663666894786 ], [ 140.856592995670326, 37.882469559322772 ], [ 140.861123086761154, 37.879401225386289 ], [ 140.854579533218953, 37.874518225036127 ], [ 140.861465939801292, 37.861973251764198 ], [ 140.850538833400492, 37.849231998757773 ], [ 140.855090143095708, 37.833775919123411 ], [ 140.85234197140494, 37.829733748014121 ], [ 140.85597649781721, 37.828812612911804 ], [ 140.853656614761007, 37.821013774865889 ], [ 140.858241673314637, 37.814943225149761 ], [ 140.853715888177817, 37.807029108406653 ], [ 140.857910389153176, 37.80285383763453 ], [ 140.851716808583888, 37.795308054423231 ], [ 140.830507392602158, 37.794764559037219 ], [ 140.821616666975615, 37.798886532387598 ], [ 140.810386355046262, 37.795523252296334 ], [ 140.775140414998191, 37.806365585903109 ], [ 140.773061141058861, 37.801216720775074 ], [ 140.765016472432308, 37.7982695857728 ], [ 140.783066524200763, 37.791495053953611 ], [ 140.794922502571467, 37.780906197862805 ], [ 140.80319072557154, 37.779901136228489 ], [ 140.7949798829153, 37.7733709457126 ], [ 140.775219559834909, 37.781816586066668 ], [ 140.745150051833434, 37.788462864669498 ], [ 140.726969831292763, 37.781479171226806 ], [ 140.723001855151551, 37.792535198140911 ], [ 140.712239804923115, 37.800294919275132 ], [ 140.69437333266319, 37.803264972600459 ], [ 140.685387198860212, 37.815556278599445 ], [ 140.684377082136734, 37.830522531689553 ], [ 140.67923396907247, 37.836337774668607 ], [ 140.692006887208095, 37.850863108145973 ], [ 140.691441166876416, 37.861353838309071 ], [ 140.685818028978929, 37.867937971959918 ], [ 140.687457276332339, 37.871387667007298 ], [ 140.681870246214999, 37.87592377456258 ], [ 140.690889389633639, 37.883674197606183 ], [ 140.690080532190905, 37.888213027409336 ], [ 140.666976446106219, 37.895057666777973 ], [ 140.662602774998163, 37.900220467800409 ], [ 140.647291854935247, 37.898795892216697 ], [ 140.644672048876032, 37.895448693802223 ], [ 140.627342283919347, 37.89907327910862 ], [ 140.618593554049312, 37.912575532135179 ], [ 140.612394578447152, 37.915281972585035 ], [ 140.610207562129403, 37.911093667039154 ], [ 140.591305747162551, 37.906173251294547 ], [ 140.566379247904024, 37.922790891686361 ], [ 140.562609974270913, 37.918125359997418 ], [ 140.56369469515414, 37.912182585957623 ], [ 140.558945694688077, 37.909938442005569 ], [ 140.531666199335746, 37.905215838440256 ], [ 140.521887393188763, 37.908830333353251 ], [ 140.515792218236356, 37.903493413690114 ], [ 140.503380830261221, 37.905579865118739 ], [ 140.498347664713037, 37.900359892395159 ], [ 140.488857717209953, 37.899470774956342 ], [ 140.476662191706851, 37.906916388080901 ], [ 140.469530972576422, 37.917868667405116 ], [ 140.467429882882811, 37.938169197950174 ], [ 140.474879831638987, 37.946782223720675 ], [ 140.461617030301795, 37.952591134573254 ], [ 140.448195331349552, 37.950956224650099 ], [ 140.444650558176818, 37.956983169837486 ], [ 140.429127197562138, 37.954414386814562 ], [ 140.40912133618076, 37.963813946156733 ], [ 140.407451634185577, 37.97367310762786 ], [ 140.398304279818717, 37.974384865269371 ], [ 140.388407173252517, 37.969115775172952 ], [ 140.384490855968238, 37.952216891596322 ], [ 140.358874422916301, 37.958970333414186 ], [ 140.353557911568373, 37.954778107723541 ], [ 140.355770440753304, 37.952132558570781 ], [ 140.348590894754011, 37.950157278635572 ], [ 140.336037690886769, 37.955108414321899 ], [ 140.333306225901651, 37.951676170618839 ], [ 140.327650362574218, 37.958718972902318 ], [ 140.316452166334443, 37.958110891804267 ], [ 140.314205498884689, 37.96441174800384 ], [ 140.308527082358978, 37.963589225362512 ], [ 140.302261478684386, 37.969095053893682 ], [ 140.284130972666276, 37.973116386811853 ], [ 140.275031997328824, 37.981839945557113 ], [ 140.276419857190717, 37.993387415097175 ], [ 140.289614526789023, 38.007205748346678 ], [ 140.281380051748101, 38.025710053975843 ], [ 140.276068340081906, 38.028719440949487 ], [ 140.275920584167693, 38.035977468985038 ], [ 140.283392944029174, 38.049972667404745 ], [ 140.277584279590883, 38.056712613096693 ], [ 140.289084720883238, 38.059338720705455 ], [ 140.302711556093527, 38.053566027350314 ], [ 140.315760117335572, 38.058422414063216 ], [ 140.34441891010465, 38.053355279322716 ], [ 140.355644112086225, 38.058475531620559 ], [ 140.373657470615854, 38.057008613256926 ], [ 140.382006200026126, 38.063549333035326 ], [ 140.380164228396438, 38.069470919047717 ], [ 140.383015384152714, 38.0715100265665 ], [ 140.402768689823233, 38.070344694052437 ], [ 140.417674163132233, 38.0803352788501 ], [ 140.421311997250882, 38.088453504825452 ], [ 140.417463943006624, 38.103478278599709 ], [ 140.425610194554906, 38.11491586447562 ], [ 140.42515771685521, 38.121907971975361 ], [ 140.431835615621253, 38.127209837863802 ], [ 140.445685253371835, 38.129854774578234 ], [ 140.443753060855101, 38.140928775342786 ], [ 140.452009339959091, 38.151060053678577 ], [ 140.467658198267259, 38.156975838164442 ], [ 140.469593840583343, 38.170557639823244 ], [ 140.480022633537828, 38.181565586282829 ], [ 140.478348469106663, 38.198375999952475 ], [ 140.470956719976698, 38.213837306446578 ], [ 140.474288444656054, 38.224479441073413 ], [ 140.46707085643493, 38.232751359387805 ], [ 140.471066473239262, 38.23478383800375 ], [ 140.471180169129525, 38.269361440578052 ], [ 140.487992633253498, 38.274559972564759 ], [ 140.496948340293784, 38.283143505068779 ], [ 140.492143553981919, 38.292962639514258 ], [ 140.49245357996881, 38.302226197980701 ], [ 140.501983721771353, 38.30482669379694 ], [ 140.504341283723306, 38.314326917853009 ], [ 140.520283475701945, 38.309515197768235 ], [ 140.529742023375775, 38.320697585725043 ], [ 140.521580829591699, 38.347330532378237 ], [ 140.526312581060779, 38.3575259998251 ], [ 140.545528806209518, 38.364116694030258 ], [ 140.552211141331213, 38.376212695159779 ], [ 140.563550245147781, 38.37727261274091 ], [ 140.567571439570315, 38.385331171396501 ], [ 140.578217197565664, 38.392780531995982 ], [ 140.571300855250342, 38.413114082049276 ], [ 140.579396808615911, 38.423175640443503 ], [ 140.58039260723308, 38.437268918925497 ], [ 140.592357523181249, 38.441721054083416 ], [ 140.59776461694355, 38.436528838035485 ], [ 140.613436200220576, 38.453602838500274 ], [ 140.619961582061478, 38.454838640091225 ], [ 140.60821022002574, 38.458402558931027 ], [ 140.604229780180276, 38.482282197865175 ], [ 140.574140584220686, 38.494661224635877 ], [ 140.567408495006134, 38.501302612725453 ], [ 140.569150441339843, 38.505962612684471 ], [ 140.563465887840493, 38.510706225312106 ], [ 140.570302087971072, 38.515304225109958 ], [ 140.567800077811398, 38.5202303326638 ], [ 140.571955693900236, 38.52563808113257 ], [ 140.555738715869097, 38.529954558955808 ], [ 140.554084501098941, 38.540758972648518 ], [ 140.564639637109622, 38.545723641333041 ], [ 140.569916589978675, 38.555579414158672 ], [ 140.566413450020718, 38.560375837674826 ], [ 140.578467198302633, 38.570085748558483 ], [ 140.571004228262609, 38.580256892941293 ], [ 140.56973466792067, 38.594065775215427 ], [ 140.55844586318608, 38.597636667398319 ], [ 140.56212197065247, 38.607253027205502 ], [ 140.552217886246467, 38.613343918686951 ], [ 140.537399468210992, 38.635383414313196 ], [ 140.546654746619311, 38.649703332742661 ], [ 140.562752218240348, 38.648062441428578 ], [ 140.569403774064995, 38.638212694060655 ], [ 140.575943580132162, 38.639212919140959 ], [ 140.587862114445102, 38.633942613161139 ], [ 140.602019778989643, 38.640603919435364 ], [ 140.606014967716646, 38.655417748230548 ], [ 140.613506134200748, 38.661795197890115 ], [ 140.62442413676456, 38.687171198092358 ], [ 140.620728469942947, 38.696290918990769 ], [ 140.62363488993833, 38.699784775247224 ], [ 140.606640441703121, 38.703712918616361 ], [ 140.609104332299125, 38.708788694043051 ], [ 140.607038949288153, 38.721313108812978 ], [ 140.620237912249877, 38.730719666679306 ], [ 140.620355641599645, 38.738658252176663 ], [ 140.631339300068703, 38.747114000011152 ], [ 140.635031750914663, 38.760946413945874 ], [ 140.64646236074941, 38.769516306432422 ], [ 140.637283307078974, 38.777386919370883 ], [ 140.626981243889304, 38.773953665729152 ], [ 140.603526161403238, 38.783705198136431 ], [ 140.595672244378648, 38.802326919251982 ], [ 140.59888705629271, 38.825266891653769 ], [ 140.592940272175838, 38.827788053775691 ], [ 140.590728249309336, 38.83604419798138 ], [ 140.566301970959216, 38.848043918591998 ], [ 140.559131311161195, 38.847250945874521 ], [ 140.553476977580544, 38.858833251553392 ], [ 140.540046420306112, 38.861891612907641 ], [ 140.538687107624014, 38.871064919010848 ], [ 140.54763574599292, 38.880981747709541 ], [ 140.547116445967276, 38.889207801498912 ], [ 140.554264253092924, 38.876210891919186 ], [ 140.561985771925947, 38.87301335957892 ], [ 140.579912309005977, 38.881345054031044 ], [ 140.585621283595401, 38.880054170763401 ], [ 140.590327056348656, 38.889175171397085 ], [ 140.597823021615227, 38.885057306149804 ], [ 140.607144526998354, 38.886602747918516 ], [ 140.613589532830702, 38.893912360167349 ], [ 140.639155836772488, 38.883227640843018 ], [ 140.645014474738332, 38.888634505278276 ], [ 140.654076523912522, 38.889013000249804 ], [ 140.653340659943524, 38.891604386833023 ], [ 140.671114720567971, 38.897130800845844 ], [ 140.685648003152892, 38.917604747661017 ], [ 140.700392580553171, 38.923817359683483 ], [ 140.707059415859362, 38.92026672113235 ], [ 140.71159027227327, 38.923238081172542 ], [ 140.711816056965517, 38.926876972894036 ], [ 140.722449195673903, 38.932949081135234 ], [ 140.730894085993327, 38.948450107986162 ], [ 140.745251141027438, 38.95637191932866 ], [ 140.781670311435732, 38.958122467677811 ], [ 140.793879558794629, 38.964010694238198 ], [ 140.824455913909333, 38.964080945679143 ], [ 140.837716808683808, 38.957539135023126 ], [ 140.841119221874692, 38.950264946170364 ], [ 140.864863332976483, 38.941270358740098 ], [ 140.881532671795412, 38.927903387131664 ], [ 140.910374188817855, 38.927444359669494 ], [ 140.914568637632556, 38.916826585878312 ], [ 140.922161310596039, 38.914342386791759 ], [ 140.926535422371899, 38.921410945658693 ], [ 140.931393022270186, 38.920410081160355 ], [ 140.931956160648383, 38.916322026640273 ], [ 140.957863190733747, 38.908131026625654 ], [ 140.970837030004986, 38.894913170706332 ], [ 140.970619948052217, 38.888014305815602 ], [ 140.984456497969063, 38.879934774969968 ], [ 140.985479105376498, 38.875276440555353 ], [ 140.990159248350665, 38.874387774576178 ], [ 140.996095084120952, 38.880643558553459 ], [ 141.013057134279393, 38.880891971986955 ], [ 141.020699728609657, 38.886396586433364 ], [ 141.022490143005712, 38.881074639583005 ], [ 141.029609170027243, 38.883470946127318 ], [ 141.032525746066426, 38.877918693692834 ], [ 141.043324384312996, 38.876495504863726 ], [ 141.051925576804024, 38.883267613009991 ], [ 141.074772140222194, 38.879465972776472 ], [ 141.093349415942839, 38.887861027164718 ], [ 141.102665862639469, 38.884769532088285 ], [ 141.102449298696229, 38.880705359964452 ], [ 141.107398418102548, 38.877518359584656 ], [ 141.118298105972826, 38.88067683796578 ], [ 141.139830803948485, 38.877504640426878 ], [ 141.146133164713888, 38.869274838263209 ], [ 141.146782698262996, 38.856266775291488 ], [ 141.123153217447111, 38.835859279382305 ], [ 141.104823695956838, 38.837347251774304 ], [ 141.104515383178409, 38.823265333528354 ], [ 141.123735136367486, 38.825463441184922 ], [ 141.126081971206077, 38.821641198382679 ], [ 141.123617004121456, 38.816548441057762 ], [ 141.142503839080973, 38.811901865278912 ], [ 141.138650854753223, 38.790863306096753 ], [ 141.142080219726381, 38.787396334173536 ], [ 141.163586355326061, 38.781957252425286 ], [ 141.167646030839705, 38.777253054385028 ], [ 141.180653747572478, 38.784536532335153 ], [ 141.19560024705379, 38.776810837949881 ], [ 141.206061310381187, 38.769484359815408 ], [ 141.207273333897319, 38.756806305766474 ], [ 141.215838611962454, 38.748470558969188 ], [ 141.233712217644779, 38.74780917055682 ], [ 141.236878780931079, 38.75201822526094 ], [ 141.228844358280526, 38.752567747903299 ], [ 141.256808560566697, 38.760938532287469 ], [ 141.258064331603691, 38.776190694245201 ], [ 141.263262698115113, 38.780298693929637 ], [ 141.262954720783796, 38.787347559442367 ], [ 141.268960726156706, 38.788212504903242 ], [ 141.272481998245667, 38.796965198085502 ], [ 141.280362048669645, 38.792513720331954 ], [ 141.284942360601576, 38.797615891760074 ], [ 141.30454975396799, 38.793460360207519 ], [ 141.302438885046627, 38.803344279115265 ], [ 141.30727277611777, 38.808710864714669 ], [ 141.306727223982307, 38.819326413583155 ], [ 141.316179921566231, 38.823227412714971 ], [ 141.334298948637638, 38.806970838433472 ], [ 141.341113061418696, 38.806457694267237 ], [ 141.352723502387789, 38.812521170815444 ], [ 141.371320921123697, 38.807474838293217 ], [ 141.379183449156926, 38.796091135297729 ], [ 141.39381267231704, 38.799839864817955 ], [ 141.396858612235178, 38.790105918653296 ], [ 141.414863994677717, 38.786202081261081 ], [ 141.415612282780671, 38.779505107874456 ], [ 141.409608807200811, 38.768296585618998 ], [ 141.414022554797157, 38.76803902608026 ], [ 141.423056329286283, 38.771839468416772 ], [ 141.421695771942382, 38.779828639879895 ], [ 141.437932282349038, 38.782239278919633 ], [ 141.43979503191531, 38.785618693747779 ], [ 141.432532411941338, 38.791585198198391 ], [ 141.436344889904831, 38.805606000316686 ], [ 141.429415083839103, 38.810601081374841 ], [ 141.454344968145847, 38.810897747932756 ], [ 141.458672503133585, 38.81396019760507 ], [ 141.453047756348951, 38.818598612935716 ], [ 141.449834863588194, 38.837389802297594 ], [ 141.454596614642128, 38.847250891015847 ], [ 141.466166328913005, 38.85667605405672 ], [ 141.452669416060758, 38.862552333123745 ], [ 141.450757030212799, 38.875482972561201 ], [ 141.466038366177713, 38.885438386672263 ], [ 141.466441919858767, 38.89394925215629 ], [ 141.48311639380654, 38.902485197933572 ], [ 141.491861413973197, 38.912814026745991 ], [ 141.48938396879521, 38.917448252135159 ], [ 141.492109688911114, 38.921624333196462 ], [ 141.485572335295046, 38.935728387355255 ], [ 141.493963385002303, 38.955349748092431 ], [ 141.490186304354552, 38.957309252120353 ], [ 141.484067860343544, 38.985305892053304 ], [ 141.490193087041348, 38.997778360183247 ], [ 141.510516083550442, 39.002498361110554 ], [ 141.51078719677173, 39.002449748257334 ] ] ] ] } }
]
}
