{
"type": "FeatureCollection",
"name": "06_yamagata_forecast",
"crs": { "type": "name", "properties": { "name": "urn:ogc:def:crs:OGC:1.3:CRS84" } },
"features": [
{ "type": "Feature", "properties": { "code": "060000", "name": "山形県", "PrefCode": "06", "regioncode": "060000" }, "geometry": { "type": "MultiPolygon", "coordinates": [ [ [ [ 139.540326937937948, 38.566597666848907 ], [ 139.541033942662352, 38.562400279049712 ], [ 139.540356445593602, 38.566666667332868 ], [ 139.540326937937948, 38.566597666848907 ] ] ], [ [ [ 139.682609883039731, 38.726202864870345 ], [ 139.684150699595193, 38.723010720368507 ], [ 139.682542801709019, 38.7261958375679 ], [ 139.682609883039731, 38.726202864870345 ] ] ], [ [ [ 139.792017795085258, 38.941666666583444 ], [ 139.800295850373232, 38.949578053884125 ], [ 139.798929235196056, 38.946611649108377 ], [ 139.792017795085258, 38.941666666583444 ] ] ], [ [ [ 139.821041725195528, 38.96604402631084 ], [ 139.801116381016186, 38.948565721231091 ], [ 139.81821988284139, 38.960853197916776 ], [ 139.825664772910955, 38.975438440631592 ], [ 139.821002995891604, 38.966057305700133 ], [ 139.821041725195528, 38.96604402631084 ] ] ], [ [ [ 140.063448469871105, 39.105782224570078 ], [ 140.0672179773278, 39.099313053954347 ], [ 140.063970778128919, 39.091455586406255 ], [ 140.114495811232814, 39.0783632245832 ], [ 140.116862826857982, 39.068231027140257 ], [ 140.127627134384852, 39.063050999604002 ], [ 140.137795525043543, 39.065567891744877 ], [ 140.151863839244811, 39.048395946116045 ], [ 140.162195811187757, 39.054190332917585 ], [ 140.171156719007399, 39.051031693557889 ], [ 140.17514616106655, 39.057433333181848 ], [ 140.198107134436782, 39.061256585922763 ], [ 140.204765837173682, 39.053496306309569 ], [ 140.200658469712721, 39.035572468094983 ], [ 140.217519416288042, 39.033091306019003 ], [ 140.226734280063056, 39.027209333344103 ], [ 140.245440829730569, 39.030900892062562 ], [ 140.250644254928488, 39.027635054414304 ], [ 140.260564864377102, 39.035235000195144 ], [ 140.266210220025641, 39.031287748031218 ], [ 140.286634916368371, 39.028092640263196 ], [ 140.293907588064826, 39.018218198411205 ], [ 140.310722528921588, 39.013589225062731 ], [ 140.318735837289069, 39.025124999818956 ], [ 140.318795745627199, 39.031261666792545 ], [ 140.32910247719758, 39.034802170883552 ], [ 140.344252438399394, 39.025824864825722 ], [ 140.362209558724203, 39.025955333072204 ], [ 140.36403367071739, 39.009495333043219 ], [ 140.376225109701068, 38.994458332985744 ], [ 140.394675331001736, 38.991222973361573 ], [ 140.410610778065006, 38.994053171316864 ], [ 140.413569754440687, 38.989997333210397 ], [ 140.43185856002458, 38.9919019992779 ], [ 140.437867393765259, 38.98194505272204 ], [ 140.446300052405604, 38.979591972991216 ], [ 140.446340414878364, 38.973202531771449 ], [ 140.451086614855512, 38.972146386846305 ], [ 140.449834747775412, 38.963324748038758 ], [ 140.453722750804332, 38.952520559176492 ], [ 140.449582503229976, 38.945595026689205 ], [ 140.451501529671873, 38.937684224847146 ], [ 140.458308339957966, 38.933884504666196 ], [ 140.462122192085531, 38.919431467688128 ], [ 140.471626834510857, 38.914855639776022 ], [ 140.482440854761649, 38.916549774552493 ], [ 140.500335863409418, 38.894785693604945 ], [ 140.515821894964574, 38.900355640200701 ], [ 140.525995965741345, 38.897452000009821 ], [ 140.538243917223099, 38.900189440989948 ], [ 140.547738391913299, 38.890189171393217 ], [ 140.54763574599292, 38.880981747709541 ], [ 140.538687107624014, 38.871064919010848 ], [ 140.540046420306112, 38.861891612907641 ], [ 140.553476977580544, 38.858833251553392 ], [ 140.559131311161195, 38.847250945874521 ], [ 140.566301970959216, 38.848043918591998 ], [ 140.590728249309336, 38.83604419798138 ], [ 140.592940272175838, 38.827788053775691 ], [ 140.59888705629271, 38.825266891653769 ], [ 140.595672244378648, 38.802326919251982 ], [ 140.603526161403238, 38.783705198136431 ], [ 140.626981243889304, 38.773953665729152 ], [ 140.637714694777401, 38.777244134908926 ], [ 140.646495421626469, 38.769098801568475 ], [ 140.635031750914663, 38.760946413945874 ], [ 140.631339300068703, 38.747114000011152 ], [ 140.620355641599645, 38.738658252176663 ], [ 140.620237912249877, 38.730719666679306 ], [ 140.607038949288153, 38.721313108812978 ], [ 140.609104332299125, 38.708788694043051 ], [ 140.606640441703121, 38.703712918616361 ], [ 140.62363488993833, 38.699784775247224 ], [ 140.620728469942947, 38.696290918990769 ], [ 140.62442413676456, 38.687171198092358 ], [ 140.613506134200748, 38.661795197890115 ], [ 140.606014967716646, 38.655417748230548 ], [ 140.602019778989643, 38.640603919435364 ], [ 140.587862114445102, 38.633942613161139 ], [ 140.575943580132162, 38.639212919140959 ], [ 140.569403774064995, 38.638212694060655 ], [ 140.562752218240348, 38.648062441428578 ], [ 140.546654746619311, 38.649703332742661 ], [ 140.537469196246434, 38.635675918808658 ], [ 140.552217886246467, 38.613343918686951 ], [ 140.56212197065247, 38.607253027205502 ], [ 140.55844586318608, 38.597636667398319 ], [ 140.56973466792067, 38.594065775215427 ], [ 140.571004228262609, 38.580256892941293 ], [ 140.578467198302633, 38.570085748558483 ], [ 140.566413450020718, 38.560375837674826 ], [ 140.569916589978675, 38.555579414158672 ], [ 140.564639637109622, 38.545723641333041 ], [ 140.554084501098941, 38.540758972648518 ], [ 140.555738715869097, 38.529954558955808 ], [ 140.571955693900236, 38.52563808113257 ], [ 140.567800077811398, 38.5202303326638 ], [ 140.570302087971072, 38.515304225109958 ], [ 140.563465887840493, 38.510706225312106 ], [ 140.569150441339843, 38.505962612684471 ], [ 140.567408495006134, 38.501302612725453 ], [ 140.574140584220686, 38.494661224635877 ], [ 140.604229780180276, 38.482282197865175 ], [ 140.60821022002574, 38.458402558931027 ], [ 140.620039636020465, 38.455198333836108 ], [ 140.613436200220576, 38.453602838500274 ], [ 140.59776461694355, 38.436528838035485 ], [ 140.592357523181249, 38.441721054083416 ], [ 140.58039260723308, 38.437268918925497 ], [ 140.579396808615911, 38.423175640443503 ], [ 140.571300855250342, 38.413114082049276 ], [ 140.578217197565664, 38.392780531995982 ], [ 140.567571439570315, 38.385331171396501 ], [ 140.563550245147781, 38.37727261274091 ], [ 140.552211141331213, 38.376212695159779 ], [ 140.545528806209518, 38.364116694030258 ], [ 140.526312581060779, 38.3575259998251 ], [ 140.521580829591699, 38.347330532378237 ], [ 140.529742023375775, 38.320697585725043 ], [ 140.520283475701945, 38.309515197768235 ], [ 140.504341283723306, 38.314326917853009 ], [ 140.501983721771353, 38.30482669379694 ], [ 140.49245357996881, 38.302226197980701 ], [ 140.492143553981919, 38.292962639514258 ], [ 140.496948340293784, 38.283143505068779 ], [ 140.487992633253498, 38.274559972564759 ], [ 140.471180169129525, 38.269361440578052 ], [ 140.471066472339885, 38.23478383800375 ], [ 140.46707085643493, 38.232751359387805 ], [ 140.474288443756791, 38.224479441073413 ], [ 140.470956719077435, 38.213837306446578 ], [ 140.478348470005926, 38.198375999952475 ], [ 140.480150699695059, 38.182135027109894 ], [ 140.469593839683967, 38.170557639823244 ], [ 140.467658197367996, 38.156975838164442 ], [ 140.452009339059828, 38.151060053678577 ], [ 140.444263891065816, 38.141616000378178 ], [ 140.442378028922917, 38.13681883761933 ], [ 140.445685253371835, 38.129854774578234 ], [ 140.426161362057314, 38.123278224010903 ], [ 140.425610194554906, 38.11491586447562 ], [ 140.417463943006624, 38.103478278599709 ], [ 140.420846161021586, 38.085599359722721 ], [ 140.403230116676582, 38.070566054080189 ], [ 140.383015384152714, 38.0715100265665 ], [ 140.380164228396438, 38.069470919047717 ], [ 140.3823315045953, 38.064093467839314 ], [ 140.374980830201253, 38.057439170881082 ], [ 140.355644112086225, 38.058475531620559 ], [ 140.350045382688336, 38.053987532398764 ], [ 140.319911828568138, 38.055373278853779 ], [ 140.315348716170433, 38.058422414063216 ], [ 140.302711556093527, 38.053566027350314 ], [ 140.282220726305582, 38.059562586244397 ], [ 140.277090362929926, 38.056160666781409 ], [ 140.283392944029174, 38.049972667404745 ], [ 140.275920584167693, 38.035977468985038 ], [ 140.276068340081906, 38.028719440949487 ], [ 140.281380051748101, 38.025710053975843 ], [ 140.289614526789023, 38.007205748346678 ], [ 140.276246225982618, 37.993031865428293 ], [ 140.274889221860121, 37.982025775169461 ], [ 140.280002580854443, 37.976644413708755 ], [ 140.27129713355589, 37.966817999251305 ], [ 140.272491828035527, 37.957929414011289 ], [ 140.278074669110765, 37.952628585940545 ], [ 140.275288780752703, 37.947246639920536 ], [ 140.281004358164637, 37.941347774380347 ], [ 140.276504501381737, 37.926350531551861 ], [ 140.264529831386653, 37.91193691905363 ], [ 140.270720077269857, 37.890737440580494 ], [ 140.264765810793619, 37.885955774939134 ], [ 140.269962438016137, 37.866545504871226 ], [ 140.265467327854935, 37.862154639624976 ], [ 140.267339195647423, 37.847566305940347 ], [ 140.262115965579369, 37.834416305668015 ], [ 140.268994059728129, 37.823787945957008 ], [ 140.28738147777301, 37.813827641332637 ], [ 140.291366252350713, 37.814938197939512 ], [ 140.298801829041281, 37.807808198289763 ], [ 140.282211310403682, 37.798229054227534 ], [ 140.276287977008565, 37.781768000193097 ], [ 140.266034423250062, 37.779065252359544 ], [ 140.254950142335247, 37.764617801970019 ], [ 140.244371246236142, 37.758413972726714 ], [ 140.237254865020077, 37.746468467745615 ], [ 140.20482082981755, 37.747530026589516 ], [ 140.199598586305797, 37.752811135225784 ], [ 140.166414253914695, 37.757290973099998 ], [ 140.146009753647263, 37.752720224558743 ], [ 140.14069291764406, 37.738078694176465 ], [ 140.133643670818856, 37.738497585795017 ], [ 140.127371050633542, 37.733917917777717 ], [ 140.102283256167425, 37.73761264031117 ], [ 140.086730143281557, 37.75804386483253 ], [ 140.069122724334306, 37.757844171271529 ], [ 140.064999662804212, 37.767618279360136 ], [ 140.053517082047733, 37.770839107738709 ], [ 140.051426550395036, 37.779332946358466 ], [ 140.037498053792206, 37.76797997409659 ], [ 140.031451051025215, 37.76888110827656 ], [ 140.019502606160358, 37.762023387369481 ], [ 140.010100583575081, 37.763994505242295 ], [ 140.001994384233512, 37.759400081148897 ], [ 139.986498716442725, 37.760408134827628 ], [ 139.978039779612232, 37.766240919083202 ], [ 139.978945940103131, 37.77355172113505 ], [ 139.973387003907192, 37.775778107973338 ], [ 139.967297833728139, 37.783653386594551 ], [ 139.968782022672258, 37.788465864807847 ], [ 139.960145887922408, 37.795647532307839 ], [ 139.962130388606624, 37.805802505081601 ], [ 139.957919027141429, 37.814861386843575 ], [ 139.940992217816643, 37.82166530580929 ], [ 139.937031946167394, 37.82829586516209 ], [ 139.927958248974051, 37.827523360115038 ], [ 139.930085472966311, 37.822470892417812 ], [ 139.924826743959102, 37.81351397219214 ], [ 139.907380467334747, 37.815427306824802 ], [ 139.898831440018967, 37.810280108140546 ], [ 139.886619636786918, 37.809157053655156 ], [ 139.879446809622664, 37.810270107679401 ], [ 139.876422048738618, 37.817329837901752 ], [ 139.857717172709386, 37.826538721185102 ], [ 139.837874694761467, 37.814495414032194 ], [ 139.8216139440284, 37.811993775292535 ], [ 139.809485446795975, 37.803302693764351 ], [ 139.804236497916122, 37.805418559319094 ], [ 139.803417107613541, 37.815161864728339 ], [ 139.794743139284492, 37.81781658606667 ], [ 139.782954475168935, 37.831968801618928 ], [ 139.741306782182278, 37.820292774891698 ], [ 139.720856472248443, 37.83968664042618 ], [ 139.715636523806552, 37.854158278981458 ], [ 139.706664227871897, 37.856046081861223 ], [ 139.69728269813811, 37.848733613365596 ], [ 139.68037085623007, 37.847074197816028 ], [ 139.6788325289981, 37.851708053583877 ], [ 139.657131024677142, 37.863537775348107 ], [ 139.656874696310297, 37.871590838246618 ], [ 139.638590700300597, 37.879923891574379 ], [ 139.631839856624197, 37.889273586207082 ], [ 139.629317082017792, 37.893657468217611 ], [ 139.631771581893076, 37.900945504831213 ], [ 139.624805746288189, 37.918068801633922 ], [ 139.631786134722347, 37.930304864977586 ], [ 139.639385641634135, 37.934716532442053 ], [ 139.642989027221915, 37.946674252015157 ], [ 139.640093748028107, 37.952425081052695 ], [ 139.645246860654197, 37.962627001135274 ], [ 139.637973774370266, 37.969952251695133 ], [ 139.64429077789714, 37.979618333219548 ], [ 139.639343799776611, 37.985519721358116 ], [ 139.644923022879311, 37.991764135206722 ], [ 139.643657470815697, 37.995268838186405 ], [ 139.654457276382232, 37.997024667354594 ], [ 139.652292048839058, 38.021204613302302 ], [ 139.656764889987699, 38.028517640276903 ], [ 139.654674332254672, 38.035165386573397 ], [ 139.68007011574332, 38.043163695148451 ], [ 139.682052633422359, 38.049526440892578 ], [ 139.690432167310746, 38.052446721239221 ], [ 139.692725524863135, 38.057028640259603 ], [ 139.686165473258029, 38.065037802752443 ], [ 139.691801920222474, 38.075060279308502 ], [ 139.671333139113131, 38.076874171405962 ], [ 139.672485667979231, 38.089116638821849 ], [ 139.682670507238186, 38.108074081353834 ], [ 139.693892826892466, 38.115801559094734 ], [ 139.688353645204643, 38.134575387044549 ], [ 139.69226314023183, 38.148657864668792 ], [ 139.690627302208327, 38.155164505537527 ], [ 139.684747249585939, 38.159309225440438 ], [ 139.682241387630029, 38.171407251843277 ], [ 139.687558664301037, 38.182124441190069 ], [ 139.696227082014275, 38.185463026797322 ], [ 139.702624111713476, 38.199188801821776 ], [ 139.698636276742832, 38.202945748447576 ], [ 139.721624552631056, 38.205865441536957 ], [ 139.730647976822752, 38.200948225580191 ], [ 139.73891416285835, 38.202022386623923 ], [ 139.754894577822597, 38.193099333067835 ], [ 139.76396577220271, 38.19895430629623 ], [ 139.77605894856174, 38.198151504888074 ], [ 139.786365693621974, 38.192244000460278 ], [ 139.810953722236604, 38.211515837885656 ], [ 139.860309222092951, 38.231160107952689 ], [ 139.868576550267676, 38.247985586165896 ], [ 139.875694942367772, 38.252127775376607 ], [ 139.876438586371705, 38.261622748291245 ], [ 139.899904669365014, 38.275805693677853 ], [ 139.899824384188037, 38.287444251950717 ], [ 139.898502995916601, 38.293467305771571 ], [ 139.879235031871303, 38.3035184410233 ], [ 139.875033606116062, 38.316649251561785 ], [ 139.864304331679591, 38.32685425182234 ], [ 139.847588339630192, 38.336707332977085 ], [ 139.848935577115299, 38.342846748278873 ], [ 139.827695356655454, 38.344742639661149 ], [ 139.826040051007567, 38.350460945616192 ], [ 139.816491336406102, 38.356012332902878 ], [ 139.803806226276379, 38.355142945690432 ], [ 139.790627197687058, 38.348767468244091 ], [ 139.785352698168595, 38.352758306950363 ], [ 139.770721724927739, 38.35290558532455 ], [ 139.761628586190341, 38.361061413753305 ], [ 139.750110143168627, 38.359419251697148 ], [ 139.732399688894589, 38.371600693817015 ], [ 139.728779104671958, 38.37723930634894 ], [ 139.731118859148069, 38.381447333127994 ], [ 139.722635162182996, 38.393844000100557 ], [ 139.709805057957169, 38.386765224935232 ], [ 139.703389170373953, 38.40021825177098 ], [ 139.717208418234009, 38.421323639574382 ], [ 139.720132866038966, 38.450692080175429 ], [ 139.715147250345353, 38.459438441231157 ], [ 139.719087834036372, 38.466242585926636 ], [ 139.7134150058979, 38.469628414719637 ], [ 139.711396355257648, 38.476801170837405 ], [ 139.725146743827281, 38.485244694187315 ], [ 139.721764474550923, 38.496226332779088 ], [ 139.702528197218612, 38.499162774842262 ], [ 139.693161724833772, 38.506798612565944 ], [ 139.653063644671533, 38.506967864975024 ], [ 139.637808807230726, 38.511421225009599 ], [ 139.631288469687206, 38.521973693631082 ], [ 139.621213943069051, 38.525584531900677 ], [ 139.599828520769734, 38.522059864870926 ], [ 139.581702555428706, 38.532954306096428 ], [ 139.577266108943832, 38.539624558826404 ], [ 139.571027198046863, 38.538501251631487 ], [ 139.560726550390086, 38.54286708065132 ], [ 139.556416809388338, 38.548339027224358 ], [ 139.552297055564736, 38.547686251619268 ], [ 139.549952581446519, 38.553226802075301 ], [ 139.544204060069433, 38.554060171439801 ], [ 139.542957004362279, 38.558313279434344 ], [ 139.539107587645162, 38.55793310812652 ], [ 139.542108585742653, 38.562110414064421 ], [ 139.541778949139257, 38.559066306065233 ], [ 139.548218248773196, 38.559778891982319 ], [ 139.543125005814431, 38.562225467931057 ], [ 139.557549727637934, 38.575466198106596 ], [ 139.556452891987419, 38.579978945771757 ], [ 139.565335357340928, 38.592569946345975 ], [ 139.563565110241711, 38.595480306271156 ], [ 139.570103579916349, 38.599574639857792 ], [ 139.56827124542167, 38.602389999898605 ], [ 139.574080751625502, 38.605023052971546 ], [ 139.574152048977908, 38.61136208089539 ], [ 139.587227497251206, 38.625365107913467 ], [ 139.59189510997146, 38.64101294639039 ], [ 139.591761335817068, 38.637434640196545 ], [ 139.596032112791818, 38.6403309464161 ], [ 139.595155525607083, 38.646725693635915 ], [ 139.61123505755188, 38.664319801717511 ], [ 139.609782826915989, 38.669130639567413 ], [ 139.615143475191303, 38.671463721073906 ], [ 139.624472087916615, 38.684791136002161 ], [ 139.627575668082727, 38.687551748014812 ], [ 139.635248806986965, 38.684661639922808 ], [ 139.647929999669827, 38.693440774971862 ], [ 139.652650310863237, 38.702532134850173 ], [ 139.660616524433067, 38.704300586003285 ], [ 139.662381582444141, 38.713155999749631 ], [ 139.667413060864078, 38.714008441036754 ], [ 139.668985331208091, 38.718183865592948 ], [ 139.68118219220446, 38.717595838477223 ], [ 139.676993774243329, 38.718200081268776 ], [ 139.690318637794917, 38.723141414344866 ], [ 139.698543553941931, 38.73049102663964 ], [ 139.696957692143883, 38.73508186513601 ], [ 139.70876533015587, 38.74475733288466 ], [ 139.707399196116057, 38.750407585341861 ], [ 139.723389584561687, 38.759081918795573 ], [ 139.722596161283832, 38.763298919909289 ], [ 139.734497860288116, 38.762766774866805 ], [ 139.729522387148563, 38.766203278658452 ], [ 139.745795084475617, 38.774564532027568 ], [ 139.75379555142365, 38.785993639994558 ], [ 139.777391167368592, 38.832317613367195 ], [ 139.804848780646807, 38.906100279204566 ], [ 139.808688806643204, 38.925308414052097 ], [ 139.800540661122682, 38.928493837920314 ], [ 139.795250751720914, 38.935745198382278 ], [ 139.800623307020032, 38.928584414039506 ], [ 139.808689441564525, 38.925369135377366 ], [ 139.810060362695594, 38.929746892105413 ], [ 139.802917172689376, 38.930147252293921 ], [ 139.807928053936621, 38.936154468154257 ], [ 139.816002192447286, 38.93684153221102 ], [ 139.817784449093097, 38.942800946406578 ], [ 139.811555252672861, 38.944881054017458 ], [ 139.812398611706612, 38.950980134725512 ], [ 139.821767834218235, 38.949234531748289 ], [ 139.823988949230738, 38.953256171335283 ], [ 139.835872554774596, 38.955992775046582 ], [ 139.837534864342615, 38.962863278917268 ], [ 139.833739805347818, 38.963978946371356 ], [ 139.829449584131112, 38.957973639771694 ], [ 139.818886978351429, 38.960524692660499 ], [ 139.826010388668578, 38.974861198185806 ], [ 139.832332581283708, 38.973186108352252 ], [ 139.838583216642178, 38.98165946761037 ], [ 139.86715143958736, 39.052327999737429 ], [ 139.870614669431461, 39.066478108178217 ], [ 139.864592801816457, 39.069143838117668 ], [ 139.870305862925306, 39.066582837827752 ], [ 139.872781776557758, 39.069606693993762 ], [ 139.863740894726561, 39.070841224842695 ], [ 139.869917691248475, 39.070635135303291 ], [ 139.867533164923657, 39.07369872081938 ], [ 139.87280269838584, 39.077794864741293 ], [ 139.870994254381344, 39.082119226021518 ], [ 139.87934280212869, 39.096204837783091 ], [ 139.877673306977613, 39.105366225171224 ], [ 139.86919263263394, 39.112415695028346 ], [ 139.869548690419833, 39.118222171416107 ], [ 139.906039533197941, 39.118828306381261 ], [ 139.945653942675335, 39.112830892231955 ], [ 139.948052243915981, 39.117166693787965 ], [ 139.994446718741187, 39.105515640334602 ], [ 139.997640830959654, 39.115839225200148 ], [ 140.007766394103896, 39.123040279385464 ], [ 140.062439195812317, 39.133498640250082 ], [ 140.062873450549318, 39.106942504692881 ], [ 140.063448469871105, 39.105782224570078 ] ] ], [ [ [ 139.550292892103357, 39.184827171736629 ], [ 139.550564721184969, 39.187432918694299 ], [ 139.550223307060037, 39.184982305688891 ], [ 139.550292892103357, 39.184827171736629 ] ] ], [ [ [ 139.522555940404345, 39.187509999586837 ], [ 139.52079150472423, 39.185418919347683 ], [ 139.522498170654103, 39.18752972082001 ], [ 139.522555940404345, 39.187509999586837 ] ] ], [ [ [ 139.55039182921962, 39.208550468029728 ], [ 139.558866200214993, 39.204868693935111 ], [ 139.555261088828274, 39.205710639234667 ], [ 139.564542244329232, 39.196598774813651 ], [ 139.554059921927887, 39.193424891945256 ], [ 139.547365811083409, 39.186667720638866 ], [ 139.550419999583369, 39.182915223858572 ], [ 139.544270245675307, 39.181421919386139 ], [ 139.541065356880836, 39.182976694319052 ], [ 139.539147951017185, 39.19546913549226 ], [ 139.549377976712321, 39.200712441126313 ], [ 139.550195446962334, 39.208548252999549 ], [ 139.55039182921962, 39.208550468029728 ] ] ] ] } }
]
}
