{
"type": "FeatureCollection",
"name": "07_fukushima_forecast",
"crs": { "type": "name", "properties": { "name": "urn:ogc:def:crs:OGC:1.3:CRS84" } },
"features": [
{ "type": "Feature", "properties": { "code": "070000", "name": "福島県", "PrefCode": "07", "regioncode": "070000" }, "geometry": { "type": "MultiPolygon", "coordinates": [ [ [ [ 140.900000000000091, 36.915519251712169 ], [ 140.882550948067887, 36.908409919382336 ], [ 140.90667311257414, 36.91761661281646 ], [ 140.900022217751257, 36.915525919285813 ], [ 140.900000000000091, 36.915519251712169 ] ] ], [ [ [ 140.865025615639752, 36.912634559337505 ], [ 140.872347471258877, 36.917655531877358 ], [ 140.865081996836693, 36.912683585878824 ], [ 140.865025615639752, 36.912634559337505 ] ] ], [ [ [ 140.882886420372074, 36.920405531889855 ], [ 140.87340691309862, 36.918185252347598 ], [ 140.882914474723293, 36.92041664031575 ], [ 140.882886420372074, 36.920405531889855 ] ] ], [ [ [ 140.901087056422625, 36.930363775268063 ], [ 140.900155033228316, 36.934684388174048 ], [ 140.901541920023647, 36.930753304921154 ], [ 140.901087056422625, 36.930363775268063 ] ] ], [ [ [ 140.906693061335773, 36.934411972734381 ], [ 140.903886161217429, 36.936665612627962 ], [ 140.906608884792263, 36.934490864861573 ], [ 140.906693061335773, 36.934411972734381 ] ] ], [ [ [ 140.910028418376896, 36.938779505070158 ], [ 140.897908079794092, 36.935645892044363 ], [ 140.890884889925815, 36.926738054117948 ], [ 140.888178301087805, 36.914827171236993 ], [ 140.890772671621562, 36.926687225335229 ], [ 140.897886979000987, 36.935741721103625 ], [ 140.910007860774272, 36.938860053748556 ], [ 140.910028418376896, 36.938779505070158 ] ] ], [ [ [ 140.957159143879494, 36.953996251725698 ], [ 140.953067108060623, 36.952747972940642 ], [ 140.957084967797073, 36.954136251886553 ], [ 140.957159143879494, 36.953996251725698 ] ] ], [ [ [ 140.969038858956196, 36.96111172102917 ], [ 140.971326420378091, 36.962345332770951 ], [ 140.969102191912725, 36.961140054170244 ], [ 140.969038858956196, 36.96111172102917 ] ] ], [ [ [ 140.999999999800252, 37.108031522936471 ], [ 140.997388612294685, 37.103362847217682 ], [ 141.000048457070648, 37.108063667404394 ], [ 140.999999999800252, 37.108031522936471 ] ] ], [ [ [ 141.007559558826642, 37.148536666833763 ], [ 141.009317886311464, 37.146176109240116 ], [ 141.007433165408315, 37.14846889212572 ], [ 141.007559558826642, 37.148536666833763 ] ] ], [ [ [ 141.022953060935038, 37.665423946358089 ], [ 141.021178949448995, 37.670646467760321 ], [ 141.022601088769306, 37.666660640076543 ], [ 141.022953060935038, 37.665423946358089 ] ] ], [ [ [ 141.018741555578345, 37.688246026632896 ], [ 141.019693086866482, 37.685325414436363 ], [ 141.018553839188371, 37.688207639970642 ], [ 141.018741555578345, 37.688246026632896 ] ] ], [ [ [ 140.973306498196393, 37.832941693604312 ], [ 140.970926303905912, 37.832875413569525 ], [ 140.974036614598162, 37.833009053724879 ], [ 140.973306498196393, 37.832941693604312 ] ] ], [ [ [ 140.285530973375785, 37.972848612773305 ], [ 140.302419532735257, 37.96903227941624 ], [ 140.308527082358978, 37.963589225362512 ], [ 140.314205498884689, 37.96441174800384 ], [ 140.316452166334443, 37.958110891804267 ], [ 140.328508444409294, 37.958370359704361 ], [ 140.333836807922467, 37.951461720981683 ], [ 140.336037690886769, 37.955108414321899 ], [ 140.350227860527411, 37.950139505333937 ], [ 140.355770440753304, 37.952132558570781 ], [ 140.353557911568373, 37.954778107723541 ], [ 140.358874422916301, 37.958970333414186 ], [ 140.384490855968238, 37.952216891596322 ], [ 140.388407173252517, 37.969115775172952 ], [ 140.398304279818717, 37.974384865269371 ], [ 140.407451634185577, 37.97367310762786 ], [ 140.40912133618076, 37.963813946156733 ], [ 140.429127197562138, 37.954414386814562 ], [ 140.444650558176818, 37.956983169837486 ], [ 140.448195331349552, 37.950956224650099 ], [ 140.461617030301795, 37.952591134573254 ], [ 140.474879831638987, 37.946782223720675 ], [ 140.467429882882811, 37.938169197950174 ], [ 140.469530972576422, 37.917868667405116 ], [ 140.476662191706851, 37.906916388080901 ], [ 140.488857717209953, 37.899470774956342 ], [ 140.498347664713037, 37.900359892395159 ], [ 140.503380830261221, 37.905579865118739 ], [ 140.515792218236356, 37.903493413690114 ], [ 140.521887393188763, 37.908830333353251 ], [ 140.531666199335746, 37.905215838440256 ], [ 140.558945694688077, 37.909938442005569 ], [ 140.56369469515414, 37.912182585957623 ], [ 140.562609974270913, 37.918125359997418 ], [ 140.566379247904024, 37.922790891686361 ], [ 140.590980466875067, 37.906256586072629 ], [ 140.615494358078195, 37.91481833339941 ], [ 140.627342283919347, 37.89907327910862 ], [ 140.644672048876032, 37.895448693802223 ], [ 140.647291854935247, 37.898795892216697 ], [ 140.660348002858086, 37.900895748040398 ], [ 140.666976446106219, 37.895057666777973 ], [ 140.688544941595865, 37.889134694010977 ], [ 140.691046887004291, 37.883940837599653 ], [ 140.681870246214999, 37.87592377456258 ], [ 140.687457276332339, 37.871387667007298 ], [ 140.685818028978929, 37.867937971959918 ], [ 140.691441166876416, 37.861353838309071 ], [ 140.692006887208095, 37.850863108145973 ], [ 140.67923396907247, 37.836337774668607 ], [ 140.684377082136734, 37.830522531689553 ], [ 140.685387198860212, 37.815556278599445 ], [ 140.694562529337304, 37.803117748185571 ], [ 140.709829468055545, 37.801429918555925 ], [ 140.722893528213831, 37.792630749309694 ], [ 140.726969831292763, 37.781479171226806 ], [ 140.745150051833434, 37.788462864669498 ], [ 140.775219559834909, 37.781816586066668 ], [ 140.79195036281908, 37.773298467550262 ], [ 140.797909143891957, 37.774806747533432 ], [ 140.80319072557154, 37.779901136228489 ], [ 140.794922502571467, 37.780906197862805 ], [ 140.772747756104081, 37.797276198238023 ], [ 140.76471255464071, 37.796447667226118 ], [ 140.773061141058861, 37.801216720775074 ], [ 140.775054034216396, 37.806357531574861 ], [ 140.810179974126527, 37.795534640411404 ], [ 140.821616666975615, 37.798886532387598 ], [ 140.830684332416126, 37.794747053733602 ], [ 140.854749948451399, 37.797336108374736 ], [ 140.857967327929941, 37.803102440825057 ], [ 140.853942607265594, 37.811685746699879 ], [ 140.858241673314637, 37.814943225149761 ], [ 140.853656614761007, 37.821013774865889 ], [ 140.85597649781721, 37.828812612911804 ], [ 140.85234197140494, 37.829733748014121 ], [ 140.855090143095708, 37.833775919123411 ], [ 140.850546056755206, 37.849313945881931 ], [ 140.861562335433518, 37.862828802007641 ], [ 140.854579533218953, 37.874518225036127 ], [ 140.861123086761154, 37.879401225386289 ], [ 140.856592995670326, 37.882469559322772 ], [ 140.859937886424404, 37.888663666894786 ], [ 140.856251414271469, 37.890900054194219 ], [ 140.870155746090859, 37.896417440812286 ], [ 140.900221387906754, 37.904329667180434 ], [ 140.901119663142026, 37.897637774963414 ], [ 140.914866446329484, 37.898028775008015 ], [ 140.920209857299142, 37.891997388069058 ], [ 140.931170830369638, 37.896197431566293 ], [ 140.933414137052864, 37.879562694163042 ], [ 140.946410506139955, 37.853208414137043 ], [ 140.949792502921696, 37.858146134636456 ], [ 140.967786329075921, 37.859415197653277 ], [ 140.955856251964519, 37.859367892414355 ], [ 140.956873112704102, 37.856402558731133 ], [ 140.949375278646244, 37.855250504707101 ], [ 140.952482334692036, 37.846207945640231 ], [ 140.958774668915908, 37.845045775142466 ], [ 140.953882217590376, 37.840633837881342 ], [ 140.962382802024763, 37.841626279329375 ], [ 140.955118392399982, 37.838558774567844 ], [ 140.959482334642075, 37.831374053869524 ], [ 140.962466251916112, 37.830495386552911 ], [ 140.967490337009508, 37.844650306366589 ], [ 140.963026082587703, 37.831450945904464 ], [ 140.970282310180551, 37.828071108394965 ], [ 140.972520025778635, 37.831617531823667 ], [ 140.975366744279881, 37.827405890669354 ], [ 140.974897691175556, 37.831992532029801 ], [ 140.97547935109128, 37.827302287870339 ], [ 140.980877588330145, 37.825676919754073 ], [ 140.976544136702614, 37.837263413575727 ], [ 140.978468664297452, 37.829158036214437 ], [ 140.987353529042252, 37.822730532088428 ], [ 140.989047197969853, 37.773226892307264 ], [ 140.991805227129589, 37.766961467597696 ], [ 141.000611440765397, 37.763087001164251 ], [ 141.011344384435802, 37.73977072094209 ], [ 141.011226030956664, 37.689512801774413 ], [ 141.017475161749417, 37.686201801971663 ], [ 141.013476108635587, 37.684192505180022 ], [ 141.014572970366316, 37.675038225134017 ], [ 141.017295641780493, 37.671541252726684 ], [ 141.032130026379718, 37.673327837809495 ], [ 141.041004189191995, 37.664976837610993 ], [ 141.032039390005934, 37.67316161341779 ], [ 141.019069948419428, 37.671762747652735 ], [ 141.022251556464198, 37.664282748050425 ], [ 141.03307355370157, 37.666949360224862 ], [ 141.019986680440979, 37.662593359895709 ], [ 141.019225576998792, 37.658292891803569 ], [ 141.024530077900863, 37.642187305599748 ], [ 141.022489105188129, 37.619785973144189 ], [ 141.027628690211941, 37.602681251838362 ], [ 141.025217782274922, 37.584372386876225 ], [ 141.030384305591269, 37.529864946210353 ], [ 141.040171414279371, 37.486082197935161 ], [ 141.045269274357565, 37.483967107596015 ], [ 141.041151764342544, 37.48406550511902 ], [ 141.044728975162116, 37.481500306793748 ], [ 141.040992775895916, 37.479128054416208 ], [ 141.045895966026023, 37.479730171210463 ], [ 141.040212361311546, 37.478687748141112 ], [ 141.036811089360299, 37.471041080781333 ], [ 141.0392404666743, 37.453357000025562 ], [ 141.034610025632219, 37.433690945680667 ], [ 141.040823280669883, 37.423613278629944 ], [ 141.035210699913932, 37.430280306391069 ], [ 141.036532438021709, 37.419900585843436 ], [ 141.042851115186863, 37.423322440578204 ], [ 141.033895278644309, 37.418965972601598 ], [ 141.035486421261453, 37.368084585834993 ], [ 141.039178144555763, 37.363929306092643 ], [ 141.033320271913112, 37.356561505009495 ], [ 141.032205005556648, 37.344111440790414 ], [ 141.02753089523469, 37.339043279024168 ], [ 141.030731970903844, 37.335893468308996 ], [ 141.027275693718366, 37.338182197950118 ], [ 141.029721855079629, 37.334201359705048 ], [ 141.026625759071635, 37.333807792995287 ], [ 141.025443942883726, 37.324801386674721 ], [ 141.036093138987212, 37.319107278777949 ], [ 141.027430245809228, 37.322292225106139 ], [ 141.028041530292398, 37.313706694308564 ], [ 141.030077563029181, 37.319293225302147 ], [ 141.032502191922731, 37.315599440761616 ], [ 141.029366550026339, 37.313701107720021 ], [ 141.038613307358332, 37.318947080743214 ], [ 141.031593644631016, 37.313501081409811 ], [ 141.025344526428853, 37.313426134608505 ], [ 141.024503722368991, 37.296480891879696 ], [ 141.012650143389465, 37.251777999555088 ], [ 141.012926666932231, 37.240912171159835 ], [ 141.020813189776959, 37.240611278687595 ], [ 141.023247328101775, 37.235072640190253 ], [ 141.016491114573341, 37.234857134749006 ], [ 141.020916718831586, 37.234538225258916 ], [ 141.016486108946879, 37.234547694220737 ], [ 141.016462723875634, 37.230172693914767 ], [ 141.02231836619967, 37.229238505152921 ], [ 141.028782749724201, 37.237971747797985 ], [ 141.02243058360466, 37.22906266700852 ], [ 141.012321505932846, 37.229132467889144 ], [ 141.002515965639418, 37.200158387199849 ], [ 140.999150000172449, 37.170898412931479 ], [ 141.002130557579221, 37.166559225427989 ], [ 141.000689274390538, 37.155020919080187 ], [ 141.005140895136265, 37.147353641057748 ], [ 140.999836860982441, 37.150021586027435 ], [ 141.005576978195108, 37.144542252423037 ], [ 141.001435188283381, 37.143987027179605 ], [ 140.998840362692704, 37.13533619840689 ], [ 141.000541996915672, 37.108968504093241 ], [ 140.994762114380137, 37.10561563994986 ], [ 140.99678582280751, 37.102600856144647 ], [ 140.989776420445537, 37.101752612892824 ], [ 140.984221219134042, 37.0920737484048 ], [ 140.97357208778169, 37.047944973381846 ], [ 140.973965498908683, 37.01454799989034 ], [ 140.981230699936873, 37.010497558615498 ], [ 140.979652087573868, 37.008347359642983 ], [ 140.98210211422122, 37.011517000409299 ], [ 140.979531167429514, 37.006401440773914 ], [ 140.983016031364855, 36.995516973029908 ], [ 140.970631581682255, 36.987922864748441 ], [ 140.966919830485836, 36.970137026602572 ], [ 140.95883610879946, 36.969849586189525 ], [ 140.957720168850756, 36.965218467957982 ], [ 140.961719999878142, 36.967894585966405 ], [ 140.959734384034618, 36.965415693779278 ], [ 140.949236640958247, 36.960384918629131 ], [ 140.951040169268481, 36.955038504823165 ], [ 140.937265772397495, 36.952491918866997 ], [ 140.925760946910259, 36.941095864582564 ], [ 140.924972282844692, 36.935319720528753 ], [ 140.908754448658897, 36.934306973288244 ], [ 140.914941996575976, 36.936455297174291 ], [ 140.91038907889299, 36.939218224941158 ], [ 140.916264616918625, 36.940692891863534 ], [ 140.90940797699659, 36.945482865441932 ], [ 140.905215499495739, 36.940989721198719 ], [ 140.903156693226833, 36.944656802169732 ], [ 140.895100920670984, 36.93903146812778 ], [ 140.89572513560654, 36.942412053873227 ], [ 140.893269000763894, 36.941668170649621 ], [ 140.891157523001311, 36.936845360125346 ], [ 140.884985135855345, 36.938359197918714 ], [ 140.888303555065022, 36.934386360042538 ], [ 140.879090039373864, 36.9330293514235 ], [ 140.882755940434322, 36.929048450225821 ], [ 140.880490636333889, 36.927707269674784 ], [ 140.875882165729422, 36.93313758573106 ], [ 140.873426252119884, 36.931642622009463 ], [ 140.874521530144534, 36.927289747723705 ], [ 140.868892335313035, 36.926278639947327 ], [ 140.872222827921291, 36.922274440912759 ], [ 140.866857030127903, 36.925031945767728 ], [ 140.861631114684315, 36.921742721249643 ], [ 140.864959364383253, 36.916146053997238 ], [ 140.854012477394008, 36.920223586449424 ], [ 140.841472891960507, 36.908606360095519 ], [ 140.828118611584728, 36.912583639723266 ], [ 140.816565888205218, 36.908287640362346 ], [ 140.79464213982294, 36.884522081329067 ], [ 140.789750660664481, 36.872309946247071 ], [ 140.792053917054659, 36.861761171141211 ], [ 140.789439922414545, 36.859631107989287 ], [ 140.793466912967688, 36.859292197576906 ], [ 140.786867587968914, 36.856167531906124 ], [ 140.78641739274849, 36.862108332833373 ], [ 140.777805616136334, 36.867274197846029 ], [ 140.771693864880035, 36.868523946123275 ], [ 140.771468832021014, 36.865032585485494 ], [ 140.76725630413523, 36.867815640079755 ], [ 140.771543800406107, 36.863066198046681 ], [ 140.76504396920393, 36.862274586003366 ], [ 140.767331555806663, 36.865107612326483 ], [ 140.765368780944527, 36.867432332835961 ], [ 140.764143969068982, 36.86310791939502 ], [ 140.764644034394792, 36.866690667340492 ], [ 140.759856471898729, 36.866723747103322 ], [ 140.760106278382068, 36.872364802193943 ], [ 140.758381439851632, 36.867298748438543 ], [ 140.740846056600276, 36.875556053669015 ], [ 140.734207808043948, 36.871592837639412 ], [ 140.724535446553659, 36.874217134912897 ], [ 140.721305914536401, 36.870889747663796 ], [ 140.705487691403846, 36.8783943868915 ], [ 140.70616442314963, 36.881366333289691 ], [ 140.695083747616877, 36.888771252091658 ], [ 140.688183060699771, 36.888426999706326 ], [ 140.68010325556088, 36.893384748107678 ], [ 140.656080999438586, 36.897150505391551 ], [ 140.654959364083425, 36.901041693819138 ], [ 140.636214112091693, 36.89757194568881 ], [ 140.627989883026771, 36.902856891732199 ], [ 140.615519441968786, 36.903270305580179 ], [ 140.601247911561927, 36.922809837903742 ], [ 140.592669999820714, 36.926743360118053 ], [ 140.593860635659894, 36.938859053702402 ], [ 140.589636109019239, 36.939194278693037 ], [ 140.586217471159443, 36.945298999948932 ], [ 140.57558944239895, 36.94257744099616 ], [ 140.574924695018694, 36.939031305350511 ], [ 140.567356744418248, 36.936467892179508 ], [ 140.570583994855497, 36.931314559219572 ], [ 140.56495802859024, 36.91285661364185 ], [ 140.571803695883887, 36.912473306397999 ], [ 140.580773579836887, 36.904407721339339 ], [ 140.579855227236976, 36.893633720919524 ], [ 140.593282139559165, 36.880032748412646 ], [ 140.591985135505638, 36.873019639944459 ], [ 140.588755084579589, 36.874911053602318 ], [ 140.58047263250603, 36.866889720584197 ], [ 140.575332245286972, 36.869072531672032 ], [ 140.57227494243466, 36.864078668295974 ], [ 140.538035887846036, 36.858856279094084 ], [ 140.535122477420487, 36.85211272082546 ], [ 140.527923995296192, 36.848365801640512 ], [ 140.528482826821119, 36.839994721379355 ], [ 140.519104306218765, 36.836239747866102 ], [ 140.513914968001473, 36.823442891576235 ], [ 140.504423695796959, 36.823169585807818 ], [ 140.501481114961507, 36.818172639555712 ], [ 140.488000389006856, 36.818362972972864 ], [ 140.489323385266061, 36.809576612770513 ], [ 140.480589611121673, 36.803736360544633 ], [ 140.478620362939409, 36.796941666824523 ], [ 140.464192970129488, 36.791401747692532 ], [ 140.438501024602715, 36.821541838085409 ], [ 140.4309698059119, 36.817039386758324 ], [ 140.423066445959762, 36.820519171322758 ], [ 140.41509866397223, 36.832026414187737 ], [ 140.392869001303438, 36.83244683825103 ], [ 140.37705914366461, 36.838058026856515 ], [ 140.376889778840336, 36.84704855924366 ], [ 140.368407276174935, 36.861230251874701 ], [ 140.372433190239576, 36.871254359800901 ], [ 140.365211829362465, 36.884324946339234 ], [ 140.346381388190593, 36.885044531679853 ], [ 140.326526031051571, 36.891302170958454 ], [ 140.321665005635509, 36.908021945556413 ], [ 140.292703916552568, 36.933197441009156 ], [ 140.285124720829231, 36.935535279029978 ], [ 140.272974889879379, 36.930154801602839 ], [ 140.243037327710567, 36.943486251789125 ], [ 140.241211581649281, 36.952077918661075 ], [ 140.253089830831073, 36.962967892054621 ], [ 140.243670195023583, 36.973999279343332 ], [ 140.244201361603587, 36.978990945675662 ], [ 140.250976445606511, 36.983374801605862 ], [ 140.250246498277306, 36.988658693643856 ], [ 140.243954551661318, 36.991389801598132 ], [ 140.240213218165536, 37.000275080930294 ], [ 140.246016394041362, 37.005198666785077 ], [ 140.244895304574698, 37.010240613313726 ], [ 140.252046199072879, 37.010226135128107 ], [ 140.2494635539, 37.025561693917098 ], [ 140.224654500704673, 37.023804558933307 ], [ 140.219983865363133, 37.018487641091838 ], [ 140.20308046718992, 37.023962387254414 ], [ 140.195593333265833, 37.036526027754007 ], [ 140.199782891567224, 37.047692666783178 ], [ 140.190650661099198, 37.056666306305033 ], [ 140.19458627783456, 37.060235999691656 ], [ 140.19339046729624, 37.065106837610529 ], [ 140.172827003763246, 37.070254973388387 ], [ 140.165617522930347, 37.078685801908307 ], [ 140.157199973799834, 37.081420278722931 ], [ 140.152917716979118, 37.086171109309305 ], [ 140.156233061406738, 37.091389440770115 ], [ 140.14937800429152, 37.092554170738424 ], [ 140.147135772298157, 37.098684171037689 ], [ 140.137382113893523, 37.10643446817619 ], [ 140.128260052059773, 37.104057837898949 ], [ 140.097559830621776, 37.124345946108576 ], [ 140.08906693898814, 37.121509585998638 ], [ 140.065483605983673, 37.127486026159204 ], [ 140.057417366218488, 37.126056612222953 ], [ 140.045607834234261, 37.136758026561722 ], [ 140.023255305288217, 37.143324802397785 ], [ 140.01706319061384, 37.139575973052786 ], [ 139.990492724359797, 37.142715332746434 ], [ 139.963015861992517, 37.148492720562672 ], [ 139.961261192949792, 37.153295747800598 ], [ 139.953886782748896, 37.155062386819736 ], [ 139.911120804381653, 37.147861838053416 ], [ 139.902431724744361, 37.154271505025974 ], [ 139.877336615192689, 37.146078441067232 ], [ 139.866289389943404, 37.147227891553996 ], [ 139.857412918571413, 37.13819677456155 ], [ 139.847653475727384, 37.139471225416798 ], [ 139.838978144925477, 37.133152613002721 ], [ 139.83177313911915, 37.133640945773095 ], [ 139.828319728073097, 37.126651251154385 ], [ 139.815051854559556, 37.116615693959147 ], [ 139.816181803247673, 37.111081278678114 ], [ 139.821297638974897, 37.108324054411639 ], [ 139.818244747297285, 37.096874054294233 ], [ 139.822092995795174, 37.085136865573929 ], [ 139.809419078627684, 37.084850721083967 ], [ 139.787951024820018, 37.090702332646572 ], [ 139.777980999423676, 37.088807333391799 ], [ 139.774910999043414, 37.091894278798009 ], [ 139.76309639398346, 37.075807027072699 ], [ 139.751816887339487, 37.070227865123911 ], [ 139.719248106714872, 37.070949775212 ], [ 139.700439883294052, 37.059327305810541 ], [ 139.692063721863292, 37.062548413878233 ], [ 139.673274422876375, 37.057748973136654 ], [ 139.67123741797252, 37.048202613859587 ], [ 139.664650920903341, 37.039840694092788 ], [ 139.655844772918044, 37.041977360067165 ], [ 139.638757108154095, 37.03213210841011 ], [ 139.62555705611328, 37.033223801737108 ], [ 139.623054227570606, 37.028952972601644 ], [ 139.625524773149778, 37.025986306123173 ], [ 139.616686328711125, 37.015175532424905 ], [ 139.602712671752442, 37.015981081261941 ], [ 139.595773449784929, 37.011740838069272 ], [ 139.582052022982566, 37.015081973254496 ], [ 139.576423332670743, 37.002078387107929 ], [ 139.556802970181025, 36.996841224742752 ], [ 139.554449610761026, 36.992472640200219 ], [ 139.547879027195449, 36.993637639965186 ], [ 139.535260362575741, 36.980584386959947 ], [ 139.523597807692681, 36.981492468402735 ], [ 139.504009390021452, 36.969617559302947 ], [ 139.494164916277896, 36.967906198911976 ], [ 139.484207367176282, 36.97547169436325 ], [ 139.461165253373792, 36.970720585886397 ], [ 139.457082698208069, 36.954214250986922 ], [ 139.434448560053056, 36.941853639633791 ], [ 139.430350116564682, 36.925931972882267 ], [ 139.408003256045504, 36.926569414147195 ], [ 139.393289196239493, 36.910795505108524 ], [ 139.383302438057171, 36.911402694079129 ], [ 139.372975187554971, 36.918407413671275 ], [ 139.34939975419536, 36.913040170667387 ], [ 139.350015057748806, 36.918363505171669 ], [ 139.342386718572243, 36.92753319779888 ], [ 139.33315968876866, 36.924559027377256 ], [ 139.304454553035271, 36.925824279067285 ], [ 139.294399831287251, 36.9346642523534 ], [ 139.281710584276084, 36.931147306003425 ], [ 139.266135006325499, 36.941153639728725 ], [ 139.255084643341661, 36.932510027116109 ], [ 139.243884305816096, 36.929645865364421 ], [ 139.234692606778481, 36.934351972665468 ], [ 139.234970414553004, 36.937372531916878 ], [ 139.230577327981337, 36.936935559428605 ], [ 139.230564864277085, 36.940562775251919 ], [ 139.241620195115956, 36.941549198436803 ], [ 139.244114668956854, 36.947866945703026 ], [ 139.24183827531624, 36.949909441867305 ], [ 139.249897497671441, 36.955813892197398 ], [ 139.24855031144773, 36.961340000440714 ], [ 139.251418392444975, 36.963827223947305 ], [ 139.247715615583274, 36.970987468696762 ], [ 139.25269313917704, 36.97354719824466 ], [ 139.247176225602402, 36.980485531682007 ], [ 139.255665447102729, 36.988748586278291 ], [ 139.251029663188433, 37.004618801916251 ], [ 139.243366640757927, 37.015134640251517 ], [ 139.24854061046085, 37.030900720691761 ], [ 139.253201480064263, 37.034308775329748 ], [ 139.252821218824238, 37.039812082161916 ], [ 139.259555422344874, 37.043297640373851 ], [ 139.26032683471567, 37.047690413981456 ], [ 139.246997173280988, 37.070867585270889 ], [ 139.248912776003863, 37.081115612695442 ], [ 139.238787782130544, 37.089911413980644 ], [ 139.240875863130668, 37.093737801758209 ], [ 139.235134253942761, 37.110517775175254 ], [ 139.252982891747138, 37.158434080968107 ], [ 139.250295939605962, 37.163714332550455 ], [ 139.253845694123584, 37.164971838379699 ], [ 139.243216200367442, 37.170379612928855 ], [ 139.244430116956437, 37.181599026873641 ], [ 139.22565172494717, 37.198265666827126 ], [ 139.226553138816371, 37.203245918964058 ], [ 139.22135727511818, 37.204826197770842 ], [ 139.220664772861028, 37.209177305788103 ], [ 139.217592554752628, 37.209388972922795 ], [ 139.208385253376832, 37.195772586036071 ], [ 139.196583800002486, 37.194028413880233 ], [ 139.194399104834929, 37.204665333338539 ], [ 139.165904085804982, 37.232165586172925 ], [ 139.164753281838557, 37.237512532377536 ], [ 139.174748392024753, 37.256434775444575 ], [ 139.2123210886474, 37.286239252339669 ], [ 139.217706977295279, 37.305245919263825 ], [ 139.21574756230018, 37.309068413876275 ], [ 139.224285913763993, 37.319985080946765 ], [ 139.217867911874691, 37.334150387030775 ], [ 139.22814905323628, 37.34327566663876 ], [ 139.233621828984269, 37.343606504736442 ], [ 139.238057470575882, 37.372630306243707 ], [ 139.231461414612681, 37.380232252116798 ], [ 139.231501504590824, 37.387877504843004 ], [ 139.222605694197455, 37.39325722594026 ], [ 139.212133995487534, 37.392094442104849 ], [ 139.204588520743755, 37.406154999653552 ], [ 139.197246328755114, 37.410766640368195 ], [ 139.208433061336791, 37.416790532357254 ], [ 139.207531750889643, 37.428908837572862 ], [ 139.215278520887068, 37.442144919152724 ], [ 139.223586109911139, 37.449171027321086 ], [ 139.235888366055292, 37.444840720622835 ], [ 139.251450440685403, 37.452520694374584 ], [ 139.258557977069017, 37.447010108429822 ], [ 139.278822606677977, 37.45320310803703 ], [ 139.283967082215099, 37.449909776315167 ], [ 139.304799804567438, 37.458839108038433 ], [ 139.311023996260474, 37.455674107773916 ], [ 139.326471115050026, 37.462386252723434 ], [ 139.335454228030244, 37.457822892112858 ], [ 139.345930726421898, 37.46032619819556 ], [ 139.351640778399315, 37.468074197566239 ], [ 139.362550312047347, 37.469968026803031 ], [ 139.373852308936989, 37.463832775362334 ], [ 139.397512697652928, 37.459839171240787 ], [ 139.406329689663494, 37.466046053682476 ], [ 139.404623307020074, 37.475051279193224 ], [ 139.409941671870683, 37.483576252342232 ], [ 139.407890830897145, 37.492461440842874 ], [ 139.414032243593283, 37.496800891847727 ], [ 139.411245577321552, 37.505162504945702 ], [ 139.41424919604367, 37.510155801748908 ], [ 139.427919779674198, 37.511343333128366 ], [ 139.429423942561016, 37.514708586332233 ], [ 139.439134812121893, 37.513189440740177 ], [ 139.457198754818705, 37.517867559340459 ], [ 139.47611516218501, 37.502554360395493 ], [ 139.485794111209316, 37.510276864885441 ], [ 139.496737223743935, 37.512570252115495 ], [ 139.513664774110111, 37.50858002674687 ], [ 139.523437366841108, 37.514539505693676 ], [ 139.543099974084612, 37.512054559270553 ], [ 139.564749493993986, 37.501673774824894 ], [ 139.585105771714098, 37.512897054055827 ], [ 139.590547276235839, 37.528032585635344 ], [ 139.578707756357971, 37.530016999984639 ], [ 139.570199143675609, 37.539063919864077 ], [ 139.570948611689118, 37.543761134668671 ], [ 139.565737223893848, 37.546110028055409 ], [ 139.57027697730075, 37.550598054256852 ], [ 139.56757202253084, 37.56288333299949 ], [ 139.572384033096682, 37.57034802703987 ], [ 139.564194942342738, 37.58844302692421 ], [ 139.564986666801246, 37.59738389155342 ], [ 139.554131362272642, 37.60255972105432 ], [ 139.548539688955543, 37.609636107620304 ], [ 139.552200337075988, 37.618574467637643 ], [ 139.546039533197927, 37.628890865121377 ], [ 139.555303748169536, 37.641080586399994 ], [ 139.549292606768404, 37.649037802252849 ], [ 139.568493255659291, 37.653133919195056 ], [ 139.588659689193378, 37.667247775064823 ], [ 139.59641997420249, 37.66586444059152 ], [ 139.609411673110344, 37.684271107725522 ], [ 139.617649195953732, 37.68880446785198 ], [ 139.627203384728432, 37.688284441174062 ], [ 139.628207833025158, 37.692406413625122 ], [ 139.621547808284845, 37.700111694299324 ], [ 139.624091996648417, 37.710249468438292 ], [ 139.632750609952723, 37.716428080691401 ], [ 139.631767561923539, 37.71985141391167 ], [ 139.64961260693633, 37.729061999611645 ], [ 139.658865357350464, 37.744954441094649 ], [ 139.657887664783971, 37.755007467620601 ], [ 139.666712192213936, 37.757029693965251 ], [ 139.680305006071194, 37.775394360061739 ], [ 139.696559689078413, 37.785122081119198 ], [ 139.705361244226083, 37.796178440782455 ], [ 139.713539973890761, 37.798992306150069 ], [ 139.721621244924563, 37.809422838393346 ], [ 139.741505383067079, 37.817712774624908 ], [ 139.735978171355555, 37.827919414349537 ], [ 139.720555615749163, 37.839568027042844 ], [ 139.714649559229883, 37.852921613141973 ], [ 139.680829195710885, 37.846950864790642 ], [ 139.69728269813811, 37.848733613365596 ], [ 139.706168105174015, 37.855928305746772 ], [ 139.715886523644258, 37.854012441321174 ], [ 139.720856472248443, 37.83968664042618 ], [ 139.741306782182278, 37.820292774891698 ], [ 139.782954475168935, 37.831968801618928 ], [ 139.794743139284492, 37.81781658606667 ], [ 139.803417107613541, 37.815161864728339 ], [ 139.804236497916122, 37.805418559319094 ], [ 139.809758222863707, 37.803261305165165 ], [ 139.8216139440284, 37.811993775292535 ], [ 139.837874694761467, 37.814495414032194 ], [ 139.857717172709386, 37.826538721185102 ], [ 139.876422048738618, 37.817329837901752 ], [ 139.879446809622664, 37.810270107679401 ], [ 139.886619636786918, 37.809157053655156 ], [ 139.898831440018967, 37.810280108140546 ], [ 139.907380467334747, 37.815427306824802 ], [ 139.924826743959102, 37.81351397219214 ], [ 139.930085472966311, 37.822470892417812 ], [ 139.927958248974051, 37.827523360115038 ], [ 139.937031946167394, 37.82829586516209 ], [ 139.940992217816643, 37.82166530580929 ], [ 139.957919027141429, 37.814861386843575 ], [ 139.962130388606624, 37.805802505081601 ], [ 139.959362282543339, 37.797679197936702 ], [ 139.968782022672258, 37.788465864807847 ], [ 139.967361166684555, 37.783542838331357 ], [ 139.978945940103131, 37.77355172113505 ], [ 139.978039779612232, 37.766240919083202 ], [ 139.992568755343882, 37.758699531758054 ], [ 140.037297496882047, 37.767900531584303 ], [ 140.051259611042269, 37.77935961305576 ], [ 140.053517082047733, 37.770839107738709 ], [ 140.064999662804212, 37.767618279360136 ], [ 140.069122724334306, 37.757844171271529 ], [ 140.086730143281557, 37.75804386483253 ], [ 140.101757977448756, 37.737994306292251 ], [ 140.115371167245598, 37.734356000029436 ], [ 140.14069291764406, 37.738078694176465 ], [ 140.146009753647263, 37.752720224558743 ], [ 140.166414253914695, 37.757290973099998 ], [ 140.199598586305797, 37.752811135225784 ], [ 140.20482082981755, 37.747530026589516 ], [ 140.237254865020077, 37.746468467745615 ], [ 140.244371246236142, 37.758413972726714 ], [ 140.254950142335247, 37.764617801970019 ], [ 140.266034423250062, 37.779065252359544 ], [ 140.276287977008565, 37.781768000193097 ], [ 140.282211310403682, 37.798229054227534 ], [ 140.298801829041281, 37.807808198289763 ], [ 140.291366252350713, 37.814938197939512 ], [ 140.28738147777301, 37.813827641332637 ], [ 140.268994059728129, 37.823787945957008 ], [ 140.262115965579369, 37.834416305668015 ], [ 140.267339195647423, 37.847566305940347 ], [ 140.265467327854935, 37.862154639624976 ], [ 140.269962438016137, 37.866545504871226 ], [ 140.264765810793619, 37.885955774939134 ], [ 140.270720077269857, 37.890737440580494 ], [ 140.264529831386653, 37.91193691905363 ], [ 140.276504501381737, 37.926350531551861 ], [ 140.281004358164637, 37.941347774380347 ], [ 140.275288780752703, 37.947246639920536 ], [ 140.278074669110765, 37.952628585940545 ], [ 140.272491828035527, 37.957929414011289 ], [ 140.27129713355589, 37.966817999251305 ], [ 140.277737004259393, 37.975844413688776 ], [ 140.285045693803795, 37.972955559251716 ], [ 140.285530973375785, 37.972848612773305 ] ] ] ] } }
]
}
