{
"type": "FeatureCollection",
"name": "09_tochigi_forecast",
"crs": { "type": "name", "properties": { "name": "urn:ogc:def:crs:OGC:1.3:CRS84" } },
"features": [
{ "type": "Feature", "properties": { "code": "090000", "name": "栃木県", "PrefCode": "09", "regioncode": "090000" }, "geometry": { "type": "Polygon", "coordinates": [ [ [ 139.957839559448189, 37.154189360050964 ], [ 139.963015861992517, 37.148492720562672 ], [ 139.990308002712254, 37.142748387328254 ], [ 140.01706319061384, 37.139575973052786 ], [ 140.023255305288217, 37.143324802397785 ], [ 140.028521192898779, 37.139574225670003 ], [ 140.038656355406488, 37.139432774902673 ], [ 140.059473217315144, 37.125474667222193 ], [ 140.065483605983673, 37.127486026159204 ], [ 140.08906693898814, 37.121509585998638 ], [ 140.100436808611903, 37.123429000048361 ], [ 140.128260052059773, 37.104057837898949 ], [ 140.140085188180933, 37.104662251561706 ], [ 140.14937800429152, 37.092554170738424 ], [ 140.156233061406738, 37.091389440770115 ], [ 140.152917716979118, 37.086171109309305 ], [ 140.157099143610708, 37.081505558734591 ], [ 140.165617522930347, 37.078685801908307 ], [ 140.172781997191464, 37.070276081376107 ], [ 140.193062140105781, 37.065503506081996 ], [ 140.19458627783456, 37.060235999691656 ], [ 140.190650661099198, 37.056666306305033 ], [ 140.199782891567224, 37.047692666783178 ], [ 140.195593333265833, 37.036526027754007 ], [ 140.20308046718992, 37.023962387254414 ], [ 140.219983865363133, 37.018487641091838 ], [ 140.224654500704673, 37.023804558933307 ], [ 140.249808559917142, 37.024925865136595 ], [ 140.252046199072879, 37.010226135128107 ], [ 140.244895304574698, 37.010240613313726 ], [ 140.246016394041362, 37.005198666785077 ], [ 140.240213218165536, 37.000275080930294 ], [ 140.243954551661318, 36.991389801598132 ], [ 140.250246498277306, 36.988658693643856 ], [ 140.250976445606511, 36.983374801605862 ], [ 140.244201361603587, 36.978990945675662 ], [ 140.243670195023583, 36.973999279343332 ], [ 140.253089830831073, 36.962967892054621 ], [ 140.244541388074708, 36.957087359194304 ], [ 140.240581530113559, 36.946290694060338 ], [ 140.26173683568652, 36.937527054330133 ], [ 140.26425652381954, 36.93331538709549 ], [ 140.252419754068455, 36.928693198232565 ], [ 140.248385187626354, 36.921314865188947 ], [ 140.248684812953798, 36.909037054416558 ], [ 140.256727886183057, 36.873249504860837 ], [ 140.251569052070181, 36.852245892434041 ], [ 140.256807393446479, 36.84784113536017 ], [ 140.255425110280726, 36.840530612997441 ], [ 140.262936809186499, 36.836045306345852 ], [ 140.267401414343908, 36.817781667390079 ], [ 140.263294942607558, 36.810269748150404 ], [ 140.266390946884712, 36.790489198417845 ], [ 140.263491192664446, 36.785937802387707 ], [ 140.253680830206235, 36.783377559326937 ], [ 140.25742469529348, 36.777232278646807 ], [ 140.253671893643059, 36.774515891695103 ], [ 140.261076355589353, 36.767510054245633 ], [ 140.256606030743797, 36.765964504558269 ], [ 140.254889339171768, 36.760022864563609 ], [ 140.262206278197255, 36.748283666757857 ], [ 140.283336329008421, 36.734138613406344 ], [ 140.287104331899513, 36.718189973288702 ], [ 140.292259610992346, 36.712564107747426 ], [ 140.271212217769744, 36.70680944130271 ], [ 140.268189105343026, 36.702215838290329 ], [ 140.246697003663826, 36.702271170877907 ], [ 140.243898079632686, 36.697620081401681 ], [ 140.231410778084978, 36.699730107658411 ], [ 140.220066161424256, 36.684463999913703 ], [ 140.22507199657548, 36.677512891606739 ], [ 140.221525031754823, 36.67744483810884 ], [ 140.221565836694026, 36.674286224829473 ], [ 140.231689780159286, 36.669793971814386 ], [ 140.229308611902979, 36.662278386938056 ], [ 140.240930310585441, 36.650922802145658 ], [ 140.239109416366546, 36.645564467825977 ], [ 140.242820244858422, 36.636706386690435 ], [ 140.233766549486745, 36.63440138741413 ], [ 140.234695667870824, 36.623758054890345 ], [ 140.2397054474485, 36.624991108153154 ], [ 140.248486225558963, 36.610676359926117 ], [ 140.249170894721033, 36.599546387156067 ], [ 140.243834940929901, 36.588437532266369 ], [ 140.245650726100166, 36.582120586296071 ], [ 140.242598170769043, 36.574286440866615 ], [ 140.246984500734129, 36.564619774782841 ], [ 140.243781970861278, 36.562819774513059 ], [ 140.251539753956536, 36.554580053726568 ], [ 140.24697855981276, 36.548259252362641 ], [ 140.247747366847534, 36.534490109331159 ], [ 140.2601540342813, 36.517405945627956 ], [ 140.247386692841701, 36.514970134564123 ], [ 140.2492105584206, 36.507941558656057 ], [ 140.242499390134867, 36.507579891798628 ], [ 140.241155446866401, 36.502657973286887 ], [ 140.229458144877526, 36.502081333386855 ], [ 140.231236446305047, 36.497420774948864 ], [ 140.227165252274631, 36.48594497418128 ], [ 140.216618754252181, 36.478978053994069 ], [ 140.207312411438693, 36.456875891809034 ], [ 140.202606549652614, 36.454073667265959 ], [ 140.206187366753625, 36.446479802700765 ], [ 140.2013467190759, 36.438143694376038 ], [ 140.203261088828299, 36.420743170760773 ], [ 140.185157470740705, 36.398337666350301 ], [ 140.156508664043713, 36.397992720587638 ], [ 140.144261478784301, 36.414044666728046 ], [ 140.13183306124688, 36.414920531757161 ], [ 140.109584553284549, 36.407301413329606 ], [ 140.111077005199718, 36.39795364054811 ], [ 140.101569948094721, 36.396993640344306 ], [ 140.092214423157202, 36.401662306170522 ], [ 140.087951025119764, 36.398284531705826 ], [ 140.081120752420816, 36.403663413735615 ], [ 140.066398715628338, 36.403773197575049 ], [ 140.065196161074027, 36.39686986485242 ], [ 140.069147808224784, 36.388927360109619 ], [ 140.062659662813303, 36.38142850532131 ], [ 140.048165668011279, 36.37558297317571 ], [ 140.035100609605479, 36.378222999591799 ], [ 140.01540880677112, 36.374685557692374 ], [ 140.015085227101622, 36.377375559434597 ], [ 140.011062115324421, 36.372923333445158 ], [ 140.00043177710495, 36.376632532365534 ], [ 140.002241750856228, 36.368018359959422 ], [ 139.989928781088452, 36.367207802797907 ], [ 139.979243838732259, 36.36976644056881 ], [ 139.973540219605525, 36.378537279371983 ], [ 139.9652848380249, 36.367478693886653 ], [ 139.96450141430887, 36.35094174786343 ], [ 139.94616739351045, 36.349187053639639 ], [ 139.914331555856734, 36.336711586270724 ], [ 139.910281970736378, 36.310085225352907 ], [ 139.915058106446509, 36.30901546828926 ], [ 139.910754449358365, 36.30120133187603 ], [ 139.904266056633219, 36.297925775254384 ], [ 139.894289054296451, 36.301933864756109 ], [ 139.899054111258238, 36.306307999914338 ], [ 139.89664241191781, 36.309754387255225 ], [ 139.878818144841603, 36.310703027222985 ], [ 139.880677664942368, 36.322963586300546 ], [ 139.874670661322057, 36.323163892299817 ], [ 139.870125887899462, 36.313841666559711 ], [ 139.864678911003011, 36.31558610761283 ], [ 139.85797661542847, 36.310746108346279 ], [ 139.848978222966707, 36.311483919347438 ], [ 139.835356135277493, 36.293496413628645 ], [ 139.841692191841275, 36.275900864833091 ], [ 139.831562113201016, 36.264614748172164 ], [ 139.821945032137592, 36.23985617122537 ], [ 139.760040220679684, 36.219235386703758 ], [ 139.727486718637238, 36.201580720973539 ], [ 139.727542023345791, 36.205842666605804 ], [ 139.720130894725116, 36.207661864703368 ], [ 139.718968417558472, 36.211521558872903 ], [ 139.706930582780274, 36.210562134235147 ], [ 139.706473060783196, 36.201856586212557 ], [ 139.691540803865109, 36.20619105407394 ], [ 139.687943840336061, 36.199681333027172 ], [ 139.685494942337755, 36.20383938717805 ], [ 139.677335471654715, 36.201481360276603 ], [ 139.674172995787217, 36.209074973031647 ], [ 139.664425472557582, 36.207060801914508 ], [ 139.669942438292992, 36.213722467917592 ], [ 139.665356354512255, 36.223442170619705 ], [ 139.65905302157978, 36.221209135093545 ], [ 139.659632218252341, 36.228513559153498 ], [ 139.66309138765746, 36.230558837820183 ], [ 139.65410277532294, 36.231581613400806 ], [ 139.653497224017769, 36.236953838648787 ], [ 139.645494721004638, 36.240466891833648 ], [ 139.641515810905958, 36.235458586244818 ], [ 139.642061388222601, 36.242030775100261 ], [ 139.63071975371372, 36.254841305581863 ], [ 139.643051777417668, 36.266089612945336 ], [ 139.636912865736235, 36.264015721448459 ], [ 139.632491505378766, 36.271165170736083 ], [ 139.619010077952794, 36.274393747673344 ], [ 139.608602527884386, 36.268095441051798 ], [ 139.562257612898634, 36.266920946244738 ], [ 139.553587885772345, 36.273784802326816 ], [ 139.555915136074759, 36.276615054241404 ], [ 139.553268469963996, 36.27945672125071 ], [ 139.548592049283684, 36.280759468374811 ], [ 139.544029804731736, 36.275783666982704 ], [ 139.539247302720923, 36.280757505154781 ], [ 139.534586719101867, 36.279022251575725 ], [ 139.525965058940415, 36.284713612942937 ], [ 139.512781388050712, 36.278257279250113 ], [ 139.503221672941891, 36.281066441163375 ], [ 139.500619688747747, 36.276256440582301 ], [ 139.487667717391332, 36.275891198020418 ], [ 139.481039611389065, 36.271320387425988 ], [ 139.473924331842454, 36.276350360380889 ], [ 139.471874304755374, 36.270656505193585 ], [ 139.462715668393457, 36.272102892034866 ], [ 139.458497885768907, 36.276846775358422 ], [ 139.46848544704585, 36.279196198445845 ], [ 139.46087435776542, 36.287204252074616 ], [ 139.443649299075901, 36.288360945701129 ], [ 139.443532943890318, 36.293693693409296 ], [ 139.438216277859055, 36.296856225934107 ], [ 139.435163476113644, 36.292095946171003 ], [ 139.430364306067986, 36.295685666560303 ], [ 139.431444616675776, 36.30123705384699 ], [ 139.426847950572551, 36.303610945688661 ], [ 139.429163217408586, 36.306178413902728 ], [ 139.416974616685252, 36.313295946250946 ], [ 139.415458520694187, 36.31912205393968 ], [ 139.418198559815778, 36.32141702667451 ], [ 139.414836615217723, 36.325186467581489 ], [ 139.419047471263866, 36.327077865051479 ], [ 139.421713553737618, 36.322472305552537 ], [ 139.42670858623228, 36.324707027307511 ], [ 139.422792502771813, 36.332256198264986 ], [ 139.393455810037722, 36.347754000147063 ], [ 139.388016641055174, 36.355047332868196 ], [ 139.368599105364524, 36.367317919386551 ], [ 139.366315032412899, 36.379420559311427 ], [ 139.360977717048058, 36.38368027912162 ], [ 139.369783410875812, 36.39761986526463 ], [ 139.375459274226159, 36.400309027040009 ], [ 139.378485188041054, 36.414369838197501 ], [ 139.391815005957824, 36.424377027178139 ], [ 139.394480609992229, 36.434369801824971 ], [ 139.402526472019076, 36.436815359741104 ], [ 139.405003191444166, 36.445028974107913 ], [ 139.411957393419016, 36.45004366668195 ], [ 139.408237691316458, 36.457968667020396 ], [ 139.414741050559087, 36.461856440722215 ], [ 139.420616328680694, 36.456994505192313 ], [ 139.431173022317239, 36.457569198060071 ], [ 139.42964219183375, 36.461501972937754 ], [ 139.436474720931642, 36.465975306015594 ], [ 139.438026446263507, 36.474914747917353 ], [ 139.430985576623129, 36.471470586398482 ], [ 139.42965977987501, 36.48194617107896 ], [ 139.425910894772073, 36.484595054018598 ], [ 139.42808119359222, 36.490417836913707 ], [ 139.421677588050329, 36.490406440704703 ], [ 139.422568690292906, 36.493662559379686 ], [ 139.417920079348278, 36.494711170684013 ], [ 139.419029274381614, 36.502278108647829 ], [ 139.423967638795602, 36.506328666834577 ], [ 139.421726808845165, 36.509004774950483 ], [ 139.430261025226173, 36.513209774611482 ], [ 139.442848340378646, 36.531583109273129 ], [ 139.434485524887123, 36.533742001092548 ], [ 139.437830830228677, 36.535995054628131 ], [ 139.439046445637018, 36.55068533276193 ], [ 139.452235913556592, 36.54959508104821 ], [ 139.460757885667931, 36.553246747639321 ], [ 139.465442115161522, 36.563443693571628 ], [ 139.472517418943767, 36.565156748285347 ], [ 139.473909144091749, 36.573132054001121 ], [ 139.482550272776962, 36.577978441152197 ], [ 139.483530025690243, 36.582024279696782 ], [ 139.473840025796562, 36.590456226074025 ], [ 139.471445888417065, 36.602890667270515 ], [ 139.4652419710402, 36.606581504732731 ], [ 139.452759416114191, 36.603570081693988 ], [ 139.445443553577206, 36.60746786574947 ], [ 139.427765939846267, 36.600972279347275 ], [ 139.403726420338103, 36.608822531634587 ], [ 139.40654725005561, 36.604785865275517 ], [ 139.398167225137399, 36.602039467947122 ], [ 139.386688833423023, 36.611983333863805 ], [ 139.352288417976183, 36.615090279292986 ], [ 139.345689494074918, 36.625870000300324 ], [ 139.329558911214804, 36.627667504951432 ], [ 139.330528028745562, 36.642511640000237 ], [ 139.326701855006718, 36.657112413107427 ], [ 139.334522114004471, 36.665691279029375 ], [ 139.334930116631654, 36.674513747911192 ], [ 139.339314552624614, 36.678426504779452 ], [ 139.336945863360938, 36.692353945578191 ], [ 139.361131284381372, 36.713499306447886 ], [ 139.359744643100839, 36.716741802192473 ], [ 139.36693422823214, 36.724589332231972 ], [ 139.364771479220508, 36.730458801632437 ], [ 139.36811938989797, 36.74181355904858 ], [ 139.372465031835759, 36.74626522476035 ], [ 139.355915524981583, 36.750565774690813 ], [ 139.355279222258332, 36.760246359581856 ], [ 139.350783410625922, 36.763535000439958 ], [ 139.354513748111003, 36.769276386596005 ], [ 139.353056860785614, 36.773608919116384 ], [ 139.359914137427609, 36.775158359270904 ], [ 139.367551478817745, 36.783788640333512 ], [ 139.374997912124059, 36.784813080559275 ], [ 139.377648105375783, 36.804259532151718 ], [ 139.38861177731178, 36.805268135316226 ], [ 139.393701854656911, 36.809679252395654 ], [ 139.390994915982674, 36.814244278550689 ], [ 139.393840804409706, 36.817852613107675 ], [ 139.406699559237381, 36.826940107699841 ], [ 139.398552918282576, 36.834344864623858 ], [ 139.390920051918897, 36.832655972894884 ], [ 139.374448885008064, 36.838041559370538 ], [ 139.366357496601267, 36.841241838240308 ], [ 139.363824746714727, 36.84731519833781 ], [ 139.348540246035554, 36.852709919227436 ], [ 139.355680894557736, 36.858541305936569 ], [ 139.356146550922631, 36.877813531869037 ], [ 139.360955719630851, 36.874163802417627 ], [ 139.362409921580706, 36.877513802220221 ], [ 139.370233865100886, 36.878231027739787 ], [ 139.370631970688919, 36.889595468156358 ], [ 139.379420973099514, 36.897986586212028 ], [ 139.394333605911243, 36.903609666552939 ], [ 139.393289196239493, 36.910795505108524 ], [ 139.403711284748056, 36.923966053990227 ], [ 139.411985252617342, 36.927713865302678 ], [ 139.420237498262054, 36.924121946071011 ], [ 139.430350116564682, 36.925931972882267 ], [ 139.434448560053056, 36.941853639633791 ], [ 139.457082698208069, 36.954214250986922 ], [ 139.461165253373792, 36.970720585886397 ], [ 139.484207367176282, 36.97547169436325 ], [ 139.494164916277896, 36.967906198911976 ], [ 139.504009390021452, 36.969617559302947 ], [ 139.523597807692681, 36.981492468402735 ], [ 139.535260362575741, 36.980584386959947 ], [ 139.547879027195449, 36.993637639965186 ], [ 139.554449610761026, 36.992472640200219 ], [ 139.556802970181025, 36.996841224742752 ], [ 139.576423332670743, 37.002078387107929 ], [ 139.582052022982566, 37.015081973254496 ], [ 139.595773449784929, 37.011740838069272 ], [ 139.602712671752442, 37.015981081261941 ], [ 139.616686328711125, 37.015175532424905 ], [ 139.625524773149778, 37.025986306123173 ], [ 139.623054227570606, 37.028952972601644 ], [ 139.62555705611328, 37.033223801737108 ], [ 139.638757108154095, 37.03213210841011 ], [ 139.655844772918044, 37.041977360067165 ], [ 139.664650920903341, 37.039840694092788 ], [ 139.67123741797252, 37.048202613859587 ], [ 139.673049416097683, 37.057650919154639 ], [ 139.692063721863292, 37.062548413878233 ], [ 139.700439883294052, 37.059327305810541 ], [ 139.719248106714872, 37.070949775212 ], [ 139.751816887339487, 37.070227865123911 ], [ 139.76309639398346, 37.075807027072699 ], [ 139.774910999043414, 37.091894278798009 ], [ 139.777980999423676, 37.088807333391799 ], [ 139.787951024820018, 37.090702332646572 ], [ 139.809419078627684, 37.084850721083967 ], [ 139.822092995795174, 37.085136865573929 ], [ 139.818244747297285, 37.096874054294233 ], [ 139.821297638974897, 37.108324054411639 ], [ 139.816181803247673, 37.111081278678114 ], [ 139.815169363575365, 37.116859027122473 ], [ 139.828319728073097, 37.126651251154385 ], [ 139.83177313911915, 37.133640945773095 ], [ 139.838978144925477, 37.133152613002721 ], [ 139.847653475727384, 37.139471225416798 ], [ 139.857412918571413, 37.13819677456155 ], [ 139.866289389943404, 37.147227891553996 ], [ 139.877336615192689, 37.146078441067232 ], [ 139.902431724744361, 37.154271505025974 ], [ 139.907341362114266, 37.149089026837146 ], [ 139.91589469538394, 37.147611559425968 ], [ 139.933795887770088, 37.153736558595369 ], [ 139.957677055551699, 37.154202413710493 ], [ 139.957839559448189, 37.154189360050964 ] ] ] } }
]
}
