{
"type": "FeatureCollection",
"name": "10_gunma_forecast",
"crs": { "type": "name", "properties": { "name": "urn:ogc:def:crs:OGC:1.3:CRS84" } },
"features": [
{ "type": "Feature", "properties": { "code": "100000", "name": "群馬県", "PrefCode": "10", "regioncode": "100000" }, "geometry": { "type": "Polygon", "coordinates": [ [ [ 139.108341479076103, 37.055405506259149 ], [ 139.115209493623297, 37.047609081094265 ], [ 139.123029248101375, 37.047072414260583 ], [ 139.131841388269549, 37.025809386993672 ], [ 139.143220000202859, 37.021282694440856 ], [ 139.150372723922146, 37.009476332566749 ], [ 139.170995524723708, 37.001979108249316 ], [ 139.179601335233542, 36.990386613251644 ], [ 139.175215939663985, 36.973295801759889 ], [ 139.182729533441261, 36.96171691890072 ], [ 139.20605483836016, 36.955862198381794 ], [ 139.228714669246642, 36.961197748377458 ], [ 139.237952697758828, 36.946570838273601 ], [ 139.229811504897043, 36.938271945693771 ], [ 139.238878197271106, 36.934189467869714 ], [ 139.240665421771837, 36.92940641367511 ], [ 139.254894916067542, 36.932421135427091 ], [ 139.266135006325499, 36.941153639728725 ], [ 139.281710584276084, 36.931147306003425 ], [ 139.294399831287251, 36.9346642523534 ], [ 139.304454553035271, 36.925824279067285 ], [ 139.33315968876866, 36.924559027377256 ], [ 139.342386718572243, 36.92753319779888 ], [ 139.350015057748806, 36.918363505171669 ], [ 139.349346134816301, 36.91305822455746 ], [ 139.373131582356677, 36.918393802432092 ], [ 139.383302438057171, 36.911402694079129 ], [ 139.393289196239493, 36.910795505108524 ], [ 139.395590000178458, 36.906867440879751 ], [ 139.373880635782825, 36.893967414364738 ], [ 139.370233865100886, 36.878231027739787 ], [ 139.362409921580706, 36.877513802220221 ], [ 139.360955719630851, 36.874163802417627 ], [ 139.356146550922631, 36.877813531869037 ], [ 139.355680894557736, 36.858541305936569 ], [ 139.348526082612693, 36.852740468298009 ], [ 139.363824746714727, 36.84731519833781 ], [ 139.366357496601267, 36.841241838240308 ], [ 139.374448885008064, 36.838041559370538 ], [ 139.390920051918897, 36.832655972894884 ], [ 139.398552918282576, 36.834344864623858 ], [ 139.406709273714114, 36.827042053947707 ], [ 139.393840804409706, 36.817852613107675 ], [ 139.390994915982674, 36.814244278550689 ], [ 139.393701854656911, 36.809679252395654 ], [ 139.38861177731178, 36.805268135316226 ], [ 139.377648105375783, 36.804259532151718 ], [ 139.374997912124059, 36.784813080559275 ], [ 139.367551478817745, 36.783788640333512 ], [ 139.359914137427609, 36.775158359270904 ], [ 139.353056860785614, 36.773608919116384 ], [ 139.354513748111003, 36.769276386596005 ], [ 139.350783410625922, 36.763535000439958 ], [ 139.355279222258332, 36.760246359581856 ], [ 139.355915524981583, 36.750565774690813 ], [ 139.372465031835759, 36.74626522476035 ], [ 139.36811938989797, 36.74181355904858 ], [ 139.364771479220508, 36.730458801632437 ], [ 139.36693422823214, 36.724589332231972 ], [ 139.359744643100839, 36.716741802192473 ], [ 139.361131284381372, 36.713499306447886 ], [ 139.336945863360938, 36.692353945578191 ], [ 139.339314552624614, 36.678426504779452 ], [ 139.334930116631654, 36.674513747911192 ], [ 139.334522114004471, 36.665691279029375 ], [ 139.326701855006718, 36.657112413107427 ], [ 139.330528028745562, 36.642511640000237 ], [ 139.329558911214804, 36.627667504951432 ], [ 139.345689494074918, 36.625870000300324 ], [ 139.352288417976183, 36.615090279292986 ], [ 139.386688833423023, 36.611983333863805 ], [ 139.398167225137399, 36.602039467947122 ], [ 139.40654725005561, 36.604785865275517 ], [ 139.403726420338103, 36.608822531634587 ], [ 139.427765939846267, 36.600972279347275 ], [ 139.445443553577206, 36.60746786574947 ], [ 139.452759416114191, 36.603570081693988 ], [ 139.4652419710402, 36.606581504732731 ], [ 139.471445888417065, 36.602890667270515 ], [ 139.473840025796562, 36.590456226074025 ], [ 139.483529468110532, 36.581882053713855 ], [ 139.473909144091749, 36.573132054001121 ], [ 139.472517418943767, 36.565156748285347 ], [ 139.465442115161522, 36.563443693571628 ], [ 139.460757885667931, 36.553246747639321 ], [ 139.452235913556592, 36.54959508104821 ], [ 139.439046445637018, 36.55068533276193 ], [ 139.437830830228677, 36.535995054628131 ], [ 139.434485524887123, 36.533742001092548 ], [ 139.442848340378646, 36.531583109273129 ], [ 139.430261025226173, 36.513209774611482 ], [ 139.421726808845165, 36.509004774950483 ], [ 139.423967638795602, 36.506328666834577 ], [ 139.419029274381614, 36.502278108647829 ], [ 139.417920079348278, 36.494711170684013 ], [ 139.422568690292906, 36.493662559379686 ], [ 139.421677588050329, 36.490406440704703 ], [ 139.42808119359222, 36.490417836913707 ], [ 139.425910894772073, 36.484595054018598 ], [ 139.42965977987501, 36.48194617107896 ], [ 139.430985576623129, 36.471470586398482 ], [ 139.438026446263507, 36.474914747917353 ], [ 139.436474720931642, 36.465975306015594 ], [ 139.42964219183375, 36.461501972937754 ], [ 139.431173022317239, 36.457569198060071 ], [ 139.420616328680694, 36.456994505192313 ], [ 139.414741050559087, 36.461856440722215 ], [ 139.408237691316458, 36.457968667020396 ], [ 139.411957393419016, 36.45004366668195 ], [ 139.405003191444166, 36.445028974107913 ], [ 139.402526472019076, 36.436815359741104 ], [ 139.394480609992229, 36.434369801824971 ], [ 139.391815005957824, 36.424377027178139 ], [ 139.378485188041054, 36.414369838197501 ], [ 139.375459274226159, 36.400309027040009 ], [ 139.361025227332448, 36.385234278838936 ], [ 139.367795278729204, 36.375813197820889 ], [ 139.367369974045118, 36.368803468105625 ], [ 139.393455810037722, 36.347754000147063 ], [ 139.422792502771813, 36.332256198264986 ], [ 139.42670858623228, 36.324707027307511 ], [ 139.421713553737618, 36.322472305552537 ], [ 139.419047471263866, 36.327077865051479 ], [ 139.414836615217723, 36.325186467581489 ], [ 139.418198559815778, 36.32141702667451 ], [ 139.415458520694187, 36.31912205393968 ], [ 139.416974616685252, 36.313295946250946 ], [ 139.429163217408586, 36.306178413902728 ], [ 139.426847950572551, 36.303610945688661 ], [ 139.431444616675776, 36.30123705384699 ], [ 139.430364306067986, 36.295685666560303 ], [ 139.435163476113644, 36.292095946171003 ], [ 139.438216277859055, 36.296856225934107 ], [ 139.443532943890318, 36.293693693409296 ], [ 139.443649299075901, 36.288360945701129 ], [ 139.46087435776542, 36.287204252074616 ], [ 139.46848544704585, 36.279196198445845 ], [ 139.458497885768907, 36.276846775358422 ], [ 139.462715668393457, 36.272102892034866 ], [ 139.471874304755374, 36.270656505193585 ], [ 139.473924331842454, 36.276350360380889 ], [ 139.481039611389065, 36.271320387425988 ], [ 139.487667717391332, 36.275891198020418 ], [ 139.500619688747747, 36.276256440582301 ], [ 139.503221672941891, 36.281066441163375 ], [ 139.512781388050712, 36.278257279250113 ], [ 139.525965058940415, 36.284713612942937 ], [ 139.534586719101867, 36.279022251575725 ], [ 139.539247302720923, 36.280757505154781 ], [ 139.544029804731736, 36.275783666982704 ], [ 139.548592049283684, 36.280759468374811 ], [ 139.553268469963996, 36.27945672125071 ], [ 139.555915136074759, 36.276615054241404 ], [ 139.553587885772345, 36.273784802326816 ], [ 139.562257612898634, 36.266920946244738 ], [ 139.608602527884386, 36.268095441051798 ], [ 139.619010077952794, 36.274393747673344 ], [ 139.632491505378766, 36.271165170736083 ], [ 139.636912865736235, 36.264015721448459 ], [ 139.643051777417668, 36.266089612945336 ], [ 139.63071975371372, 36.254841305581863 ], [ 139.642061388222601, 36.242030775100261 ], [ 139.641515810905958, 36.235458586244818 ], [ 139.645494721004638, 36.240466891833648 ], [ 139.653497224017769, 36.236953838648787 ], [ 139.65410277532294, 36.231581613400806 ], [ 139.66309138765746, 36.230558837820183 ], [ 139.659632218252341, 36.228513559153498 ], [ 139.65905302157978, 36.221209135093545 ], [ 139.665356354512255, 36.223442170619705 ], [ 139.669842995757676, 36.212961081189007 ], [ 139.663322411799982, 36.207008306688067 ], [ 139.660422724129489, 36.214731919142821 ], [ 139.650781581704678, 36.21209194578671 ], [ 139.651165667761461, 36.197668640395477 ], [ 139.628719780193819, 36.195079225126165 ], [ 139.624888611620236, 36.186571748287633 ], [ 139.601064746840621, 36.205467332751255 ], [ 139.587771673424072, 36.210369279118993 ], [ 139.528216641185054, 36.19150177508692 ], [ 139.501549299960288, 36.193513919132101 ], [ 139.463654137028811, 36.189341946173954 ], [ 139.419830751987661, 36.210948304920407 ], [ 139.418924111258775, 36.216679973002385 ], [ 139.390074643330195, 36.229214415213164 ], [ 139.376672995662261, 36.244504946745963 ], [ 139.359289390093295, 36.253229108036976 ], [ 139.347401582017483, 36.25370691873934 ], [ 139.340248716205338, 36.24386413482199 ], [ 139.322266226005581, 36.236594775328683 ], [ 139.30837658910832, 36.237631135168783 ], [ 139.298482087878142, 36.243275026721165 ], [ 139.266972697831761, 36.250557802300762 ], [ 139.267010725664477, 36.242621973225539 ], [ 139.244066782755908, 36.244433919190044 ], [ 139.235295382775803, 36.247563639950101 ], [ 139.22400403385916, 36.258301693568342 ], [ 139.211634527311617, 36.256247559277483 ], [ 139.210854837580769, 36.261484773803318 ], [ 139.195390921254102, 36.263194224933613 ], [ 139.163903385632807, 36.278911721298925 ], [ 139.135664721050148, 36.278443107963142 ], [ 139.129663891275641, 36.283397558550519 ], [ 139.107803501930107, 36.261705333434463 ], [ 139.111195135846856, 36.258497000236446 ], [ 139.107474279914186, 36.252617559153066 ], [ 139.080741283683324, 36.213592801866355 ], [ 139.063418663840366, 36.196285530752675 ], [ 139.064528080106925, 36.187219973323181 ], [ 139.056385836836967, 36.180519667049055 ], [ 139.058332724275829, 36.164735747656664 ], [ 139.063764669004286, 36.159079919402814 ], [ 139.062158559869658, 36.152936558775195 ], [ 139.048177665167145, 36.15228625180913 ], [ 139.04272208715463, 36.148027360274511 ], [ 139.041860077980232, 36.127937027371956 ], [ 139.032291997377797, 36.127187838148245 ], [ 139.024710310532441, 36.134099531867946 ], [ 139.019856135252553, 36.131045332576093 ], [ 139.015408611818089, 36.134112027048445 ], [ 139.004856641420929, 36.133412027143379 ], [ 139.006433865230747, 36.129238386842133 ], [ 139.001385226846764, 36.125026171021034 ], [ 138.993539079065272, 36.124878387227852 ], [ 138.985326524099833, 36.115488640388492 ], [ 138.977604552008529, 36.116432531935857 ], [ 138.969730389445999, 36.124445919443701 ], [ 138.95845228304654, 36.124090359882246 ], [ 138.957905032091617, 36.10764089181373 ], [ 138.94506858584657, 36.094596170676766 ], [ 138.931490506481737, 36.088103134751918 ], [ 138.916314086326111, 36.093749027295814 ], [ 138.897858781157879, 36.090654613020035 ], [ 138.86480625160732, 36.077346919324896 ], [ 138.859177367041866, 36.069919414049764 ], [ 138.84603705606537, 36.06662500044348 ], [ 138.842939247748177, 36.055957774731553 ], [ 138.83209058381351, 36.047642504597945 ], [ 138.828394720040365, 36.037302532286105 ], [ 138.790975525100521, 36.029399801859427 ], [ 138.773547716953658, 36.038793170268661 ], [ 138.754411193321971, 36.034525972595588 ], [ 138.749064916213001, 36.016521279033839 ], [ 138.732168029131344, 35.998332135419787 ], [ 138.716809026815213, 35.992904386927989 ], [ 138.712550051643689, 35.985333000017988 ], [ 138.690803449919372, 35.99080189159406 ], [ 138.679749441983176, 36.011614945773204 ], [ 138.661988053705727, 36.011504386718116 ], [ 138.66133199737385, 36.016426585818351 ], [ 138.64611702957734, 36.019894919315107 ], [ 138.641893476003133, 36.025846864641153 ], [ 138.631494578312186, 36.028166585819349 ], [ 138.644191115227841, 36.049689332796504 ], [ 138.642815382723825, 36.068742333691773 ], [ 138.632939921939965, 36.080045945763857 ], [ 138.63053302228127, 36.091180918764451 ], [ 138.645183061149396, 36.098806747933111 ], [ 138.647595304579681, 36.106586468190983 ], [ 138.640165641831004, 36.117225919240809 ], [ 138.644826744358852, 36.121056198384906 ], [ 138.637568690242915, 36.123833134891299 ], [ 138.634323722262025, 36.133947026634019 ], [ 138.622478715620332, 36.131932027241305 ], [ 138.600767587654104, 36.135512332628082 ], [ 138.594297613044432, 36.144194279742294 ], [ 138.593240972592866, 36.15322677539541 ], [ 138.577274864043829, 36.168073198319519 ], [ 138.583389610941822, 36.178831278940436 ], [ 138.590581581974448, 36.17793791939954 ], [ 138.588292387383831, 36.172638747879944 ], [ 138.594490999660024, 36.165629865326082 ], [ 138.60954405981056, 36.161412332713041 ], [ 138.608452139854421, 36.165386251574319 ], [ 138.613166589266712, 36.168731531734863 ], [ 138.63634274971821, 36.17206677456204 ], [ 138.622797250093072, 36.19692791918817 ], [ 138.636707003925153, 36.204270414248299 ], [ 138.63466119285988, 36.213674865003043 ], [ 138.631442022831152, 36.217302667184413 ], [ 138.622244526763552, 36.214585720854359 ], [ 138.611762334763966, 36.229502972584157 ], [ 138.612496809280401, 36.240917972886166 ], [ 138.602118470091341, 36.249052973016319 ], [ 138.605952165759959, 36.266794667040301 ], [ 138.600335524564912, 36.278399945900844 ], [ 138.607178859017154, 36.279595504628901 ], [ 138.612508910557835, 36.285655224708933 ], [ 138.644504279848661, 36.293255720874868 ], [ 138.653530699682165, 36.303114892238511 ], [ 138.647828807253745, 36.315577135076751 ], [ 138.653305772043836, 36.324260171269941 ], [ 138.650080609832344, 36.352483253299567 ], [ 138.657163476013693, 36.368901531980157 ], [ 138.649558780913026, 36.379237639905227 ], [ 138.65218744529443, 36.3953934406548 ], [ 138.647835838153469, 36.409282054123537 ], [ 138.637151387726476, 36.417216224848971 ], [ 138.625133579950784, 36.415651532192499 ], [ 138.612999973669957, 36.422621504678773 ], [ 138.59239688690684, 36.424391505363758 ], [ 138.586861894261119, 36.420385135365734 ], [ 138.583842166882505, 36.422545108170254 ], [ 138.55500797663683, 36.417773747860224 ], [ 138.538925966160491, 36.402502387175502 ], [ 138.529346808608352, 36.403042666585861 ], [ 138.505163554054889, 36.414870414338225 ], [ 138.495172166162547, 36.413998467655233 ], [ 138.488824941817711, 36.408917388027078 ], [ 138.488957419149642, 36.400933504577608 ], [ 138.459650000247393, 36.404750441379804 ], [ 138.456964773005893, 36.420240134974279 ], [ 138.446970362492266, 36.419314585999416 ], [ 138.401449947756987, 36.43402113466766 ], [ 138.403461115138384, 36.452048054973829 ], [ 138.39869778217701, 36.453155838071496 ], [ 138.403349196308454, 36.466870278940291 ], [ 138.397089532655855, 36.490453000405694 ], [ 138.40603180292544, 36.507364080587877 ], [ 138.404078222731869, 36.521710440884192 ], [ 138.413889364003012, 36.532134053743619 ], [ 138.41191077815995, 36.54068291918145 ], [ 138.42890697827454, 36.556450666964736 ], [ 138.426162243792533, 36.560393720194099 ], [ 138.428429494025977, 36.568696198370901 ], [ 138.420295083851101, 36.573964532137495 ], [ 138.427029585047421, 36.587752279444203 ], [ 138.426457108109162, 36.59417753166781 ], [ 138.431983838683323, 36.599280586230122 ], [ 138.441297445320856, 36.599689468394331 ], [ 138.438943307088039, 36.605575837854701 ], [ 138.44158333260475, 36.610669441441644 ], [ 138.454973646116969, 36.613850838145709 ], [ 138.460575667932744, 36.626472198033582 ], [ 138.458187912142535, 36.633698278552743 ], [ 138.473097172496523, 36.644048279204753 ], [ 138.481209105016205, 36.645247721205408 ], [ 138.490081854993718, 36.641195802344441 ], [ 138.52407761239192, 36.650377251808777 ], [ 138.528987613087907, 36.654761972886774 ], [ 138.534617367297756, 36.665638388101172 ], [ 138.517967497002473, 36.676833612980886 ], [ 138.519899195791368, 36.689194171274039 ], [ 138.514031192285756, 36.690364414985822 ], [ 138.52103116705473, 36.694015559070863 ], [ 138.559777173178077, 36.707037639775308 ], [ 138.574768520950556, 36.707234360177608 ], [ 138.584055719895673, 36.701197973008107 ], [ 138.595728560324915, 36.714535532289062 ], [ 138.610861581896529, 36.706380837905385 ], [ 138.622577782238977, 36.720508108062802 ], [ 138.630330830403523, 36.719510053945896 ], [ 138.648925084425173, 36.727119558620814 ], [ 138.676158780903052, 36.730600693966892 ], [ 138.68470383771205, 36.736421838297247 ], [ 138.712401414393867, 36.738757386644124 ], [ 138.721873747775248, 36.749690198344013 ], [ 138.721389882836888, 36.759236054000723 ], [ 138.72702744496064, 36.764168838121407 ], [ 138.748179441927732, 36.75777686531012 ], [ 138.767349170327975, 36.746516026793245 ], [ 138.78941953338483, 36.744873801784593 ], [ 138.795344642941018, 36.758137134621109 ], [ 138.807407522938888, 36.764889081765773 ], [ 138.817770337131378, 36.761585748683387 ], [ 138.826923502018076, 36.772291333178543 ], [ 138.825054915851752, 36.775774667367045 ], [ 138.831763890691036, 36.793899279228413 ], [ 138.826737523118254, 36.799850666974748 ], [ 138.821744254194073, 36.817626135038154 ], [ 138.83957011756695, 36.817175559404575 ], [ 138.856445383147957, 36.811643891552421 ], [ 138.875583502176937, 36.818588837704738 ], [ 138.881891052030483, 36.825785468124934 ], [ 138.929022801860924, 36.832613225420062 ], [ 138.924970946851772, 36.846457360219063 ], [ 138.916019000776373, 36.850838198024462 ], [ 138.922114915870679, 36.861037332906619 ], [ 138.91706939004041, 36.871048693842226 ], [ 138.923149195578958, 36.883599251904002 ], [ 138.930530052120275, 36.886967026806872 ], [ 138.932277029261513, 36.893483413628701 ], [ 138.940634838227311, 36.8951581347402 ], [ 138.954685966384318, 36.895333441385276 ], [ 138.971470143232636, 36.88721319823054 ], [ 138.979531283841766, 36.891779306269996 ], [ 138.979633022346206, 36.905110694403049 ], [ 138.974396394178257, 36.913041224672838 ], [ 138.976690894769035, 36.920790666556059 ], [ 138.966657300793827, 36.931153720867599 ], [ 138.963798806569685, 36.951424559395946 ], [ 138.966554553250148, 36.979075386619854 ], [ 138.9707751363635, 36.981435385734528 ], [ 139.000268494595389, 36.979130107668368 ], [ 139.01549885878535, 36.988286225029299 ], [ 139.030616355360621, 36.983563694309112 ], [ 139.047389170174142, 36.98729286537349 ], [ 139.054230894839975, 36.998313108263403 ], [ 139.073540973237414, 37.008529748449178 ], [ 139.080683191076446, 37.008703919250536 ], [ 139.088183527947535, 37.016172504657391 ], [ 139.091194915912752, 37.019969441436615 ], [ 139.090405577355568, 37.044917197970335 ], [ 139.094623411241514, 37.056194386162019 ], [ 139.097016199638006, 37.058626332839026 ], [ 139.108333333016958, 37.055406134885288 ], [ 139.108341479076103, 37.055405506259149 ] ] ] } }
]
}
