{
"type": "FeatureCollection",
"name": "14_kanagawa_forecast",
"crs": { "type": "name", "properties": { "name": "urn:ogc:def:crs:OGC:1.3:CRS84" } },
"features": [
{ "type": "Feature", "properties": { "code": "140000", "name": "神奈川県", "PrefCode": "14", "regioncode": "140000" }, "geometry": { "type": "MultiPolygon", "coordinates": [ [ [ [ 139.609771245446723, 35.137860864687184 ], [ 139.624002697566539, 35.136225720940331 ], [ 139.630233061306853, 35.129187667077247 ], [ 139.610187302402096, 35.132808280078109 ], [ 139.609742477033706, 35.137870278790388 ], [ 139.609771245446723, 35.137860864687184 ] ] ], [ [ [ 139.607242088351768, 35.13946063989664 ], [ 139.609341829062259, 35.137762081355049 ], [ 139.607049208953867, 35.139434386887501 ], [ 139.607242088351768, 35.13946063989664 ] ] ], [ [ [ 139.727498691311666, 35.210926946221662 ], [ 139.724317951112653, 35.210835666832622 ], [ 139.727661698828456, 35.21092769355829 ], [ 139.727498691311666, 35.210926946221662 ] ] ], [ [ [ 139.60591241192833, 35.220112135067041 ], [ 139.609235888025864, 35.21843408106804 ], [ 139.605870777814175, 35.220073278958694 ], [ 139.60591241192833, 35.220112135067041 ] ] ], [ [ [ 139.603884086381527, 35.223144693972529 ], [ 139.605807665191605, 35.220167722162728 ], [ 139.601706083069303, 35.221534278883894 ], [ 139.603830583914373, 35.223179585869218 ], [ 139.603884086381527, 35.223144693972529 ] ] ], [ [ [ 139.689838585981988, 35.272605721177115 ], [ 139.68813138765347, 35.274153359989612 ], [ 139.689881945895195, 35.272636612889414 ], [ 139.689838585981988, 35.272605721177115 ] ] ], [ [ [ 139.694934838072413, 35.287902720634122 ], [ 139.692921802798992, 35.284276387045679 ], [ 139.694933500780508, 35.287909306369443 ], [ 139.694934838072413, 35.287902720634122 ] ] ], [ [ [ 139.482666550620934, 35.302792532249612 ], [ 139.488036666958692, 35.298933973024475 ], [ 139.474132996140952, 35.298786081312642 ], [ 139.482690804437084, 35.302829918865712 ], [ 139.482666550620934, 35.302792532249612 ] ] ], [ [ [ 139.651842412097722, 35.307418440708545 ], [ 139.656958521218826, 35.301983585773939 ], [ 139.649715668343447, 35.294270918967811 ], [ 139.643688948885938, 35.300530224690192 ], [ 139.651797639349638, 35.307370441192973 ], [ 139.651842412097722, 35.307418440708545 ] ] ], [ [ [ 139.675230441132044, 35.31936822466389 ], [ 139.671995966440818, 35.321233171273889 ], [ 139.675105447058854, 35.319560532092908 ], [ 139.675230441132044, 35.31936822466389 ] ] ], [ [ [ 139.664044383941246, 35.324333837636573 ], [ 139.671349363782156, 35.321569532108299 ], [ 139.664051283539948, 35.324348973226563 ], [ 139.664044383941246, 35.324333837636573 ] ] ], [ [ [ 139.634301750725285, 35.330393108055546 ], [ 139.639192672304034, 35.328947332753273 ], [ 139.633576328784557, 35.323093774158394 ], [ 139.629542387371316, 35.328801864714364 ], [ 139.634176977885318, 35.330542251623683 ], [ 139.634301750725285, 35.330393108055546 ] ] ], [ [ [ 139.648806588653201, 35.335393387195097 ], [ 139.646048223147091, 35.334333305937378 ], [ 139.64880325486638, 35.335836612669596 ], [ 139.648806588653201, 35.335393387195097 ] ] ], [ [ [ 139.645792866047941, 35.338693505201149 ], [ 139.649690078134654, 35.335417891922248 ], [ 139.642901505200371, 35.334500107693884 ], [ 139.644753358580715, 35.338690801839107 ], [ 139.645792866047941, 35.338693505201149 ] ] ], [ [ [ 139.652598884930626, 35.379000080589321 ], [ 139.648277418568114, 35.375527612909082 ], [ 139.65291516210516, 35.379260973015562 ], [ 139.652598884930626, 35.379000080589321 ] ] ], [ [ [ 139.656380363263224, 35.38006097303554 ], [ 139.653366808831265, 35.378698278902505 ], [ 139.65841330682872, 35.381794440561009 ], [ 139.656519662852247, 35.3801805316063 ], [ 139.656380363263224, 35.38006097303554 ] ] ], [ [ [ 139.65443963707969, 35.384878865167536 ], [ 139.658327249802824, 35.382959586016113 ], [ 139.653991414072607, 35.385243080703674 ], [ 139.65443963707969, 35.384878865167536 ] ] ], [ [ [ 139.692138119178935, 35.410081252148132 ], [ 139.685436445935352, 35.404682486107902 ], [ 139.689212061587455, 35.398832423177851 ], [ 139.695039583909761, 35.407536559264827 ], [ 139.692093671086127, 35.410024756737187 ], [ 139.695190999165334, 35.407585306117028 ], [ 139.682371893647996, 35.39315905364748 ], [ 139.677949753578332, 35.39532383782489 ], [ 139.685381646645737, 35.395741269843768 ], [ 139.681608405203747, 35.398877170744868 ], [ 139.685373100388347, 35.40190943197473 ], [ 139.682250441104998, 35.404502027246792 ], [ 139.676381919589971, 35.399762252026335 ], [ 139.67126282741765, 35.401747169995929 ], [ 139.680188910789639, 35.410188441443495 ], [ 139.684172750072435, 35.408976775857582 ], [ 139.688877612711735, 35.412793918604507 ], [ 139.691668248590872, 35.410470666687957 ], [ 139.692138119178935, 35.410081252148132 ] ] ], [ [ [ 139.65826461741824, 35.460094505357176 ], [ 139.656441855307435, 35.462978414422366 ], [ 139.658286913410393, 35.460109945817408 ], [ 139.65826461741824, 35.460094505357176 ] ] ], [ [ [ 139.694749363692267, 35.465281332667416 ], [ 139.684692865783177, 35.458860468236082 ], [ 139.688426977722884, 35.457001171167178 ], [ 139.698060635989577, 35.461646386271752 ], [ 139.702247859651038, 35.455120694164748 ], [ 139.707183061149408, 35.456678801985163 ], [ 139.693731284371324, 35.44786241431899 ], [ 139.695488223302959, 35.449825198174381 ], [ 139.670152892242299, 35.463096972946971 ], [ 139.673109273174532, 35.4606169997748 ], [ 139.670575135634067, 35.464499305598508 ], [ 139.69239697823798, 35.472012054013135 ], [ 139.694701946038094, 35.465881414295893 ], [ 139.694749363692267, 35.465281332667416 ] ] ], [ [ [ 139.645700388761952, 35.474710972533387 ], [ 139.655961166774546, 35.470224081276399 ], [ 139.652279000575504, 35.466973026683888 ], [ 139.65554272391762, 35.464125586027023 ], [ 139.642128391312326, 35.468381134781623 ], [ 139.645606692894603, 35.474627919243119 ], [ 139.645700388761952, 35.474710972533387 ] ] ], [ [ [ 139.783135446643655, 35.49486244224795 ], [ 139.750615135879912, 35.480892693742874 ], [ 139.7819950847055, 35.494886386697431 ], [ 139.783135446643655, 35.49486244224795 ] ] ], [ [ [ 139.734057716790289, 35.49478619772492 ], [ 139.741843579417719, 35.477025135002009 ], [ 139.712707393231653, 35.464253865323656 ], [ 139.700266329427677, 35.47868505507131 ], [ 139.734067056249728, 35.494819108415186 ], [ 139.734057716790289, 35.49478619772492 ] ] ], [ [ [ 139.771203113133197, 35.506218251870905 ], [ 139.784427690585517, 35.502029467885677 ], [ 139.778341505256321, 35.50445161285171 ], [ 139.776091218934653, 35.503456225224681 ], [ 139.778676393900469, 35.499552919331791 ], [ 139.782100168687862, 35.500993170998072 ], [ 139.761561140634171, 35.491890414011436 ], [ 139.7589136714289, 35.495320892345376 ], [ 139.756113114228924, 35.494077225283775 ], [ 139.758190025649242, 35.490588026616194 ], [ 139.745610584061296, 35.48501325156036 ], [ 139.736283279849545, 35.49445366710313 ], [ 139.761188585684749, 35.505732251941936 ], [ 139.769766329252775, 35.506149890804863 ], [ 139.771203113133197, 35.506218251870905 ] ] ], [ [ [ 139.756959780069906, 35.526658892294108 ], [ 139.766032749711712, 35.513563586090697 ], [ 139.753828275054957, 35.508575413624499 ], [ 139.748515616402642, 35.518346080906952 ], [ 139.756846303614111, 35.526560108062597 ], [ 139.756959780069906, 35.526658892294108 ] ] ], [ [ [ 139.135601140780068, 35.672337919359563 ], [ 139.147160311399261, 35.666817108123098 ], [ 139.16160367077282, 35.667906586419861 ], [ 139.168360310579942, 35.658555747849562 ], [ 139.166954720583931, 35.651065504969154 ], [ 139.179086420302156, 35.645572468394732 ], [ 139.189825057580379, 35.646534413832171 ], [ 139.198485913794002, 35.653018306349793 ], [ 139.213665940231067, 35.647782504658892 ], [ 139.21537119332595, 35.637075865259021 ], [ 139.221433969302325, 35.629466413644138 ], [ 139.219640609626481, 35.625895026834087 ], [ 139.225905642231623, 35.623477278653525 ], [ 139.238637562073905, 35.606976747978592 ], [ 139.252223670585977, 35.601667333180956 ], [ 139.264775057822703, 35.602458694313327 ], [ 139.266155616088895, 35.60811119777361 ], [ 139.285248418279934, 35.61338867584675 ], [ 139.304186225913668, 35.604620613250745 ], [ 139.340004266983442, 35.605525485912494 ], [ 139.399796743624847, 35.584425892441061 ], [ 139.401512100602986, 35.577027703265969 ], [ 139.409103748339362, 35.575221135247261 ], [ 139.416232801902311, 35.561885945679876 ], [ 139.422441193406371, 35.559435413613471 ], [ 139.433392477181087, 35.546355171054358 ], [ 139.445098715733252, 35.542072414210622 ], [ 139.458316978146058, 35.52798946803955 ], [ 139.454773748209959, 35.521690801689203 ], [ 139.463442917756538, 35.517624386656166 ], [ 139.468416419582127, 35.502066359874675 ], [ 139.484938391893365, 35.503968891850946 ], [ 139.476972893284483, 35.511396080564737 ], [ 139.487594642978479, 35.52477525237606 ], [ 139.486816355290671, 35.535525505297869 ], [ 139.480332529322823, 35.543146333336665 ], [ 139.481860363265241, 35.555956053529087 ], [ 139.476485940074099, 35.562552134673354 ], [ 139.474739559183377, 35.559605198421195 ], [ 139.46826566802622, 35.563139359593833 ], [ 139.473344085661097, 35.576869080843437 ], [ 139.476488833193116, 35.582009666812723 ], [ 139.489763580225144, 35.584317170700899 ], [ 139.482867951095159, 35.571383837793917 ], [ 139.491030973200964, 35.56142577517943 ], [ 139.507591361851951, 35.575140775426519 ], [ 139.493936083783296, 35.582730225219791 ], [ 139.493678079979418, 35.589075775027027 ], [ 139.471059753704708, 35.601158000341513 ], [ 139.466048948899925, 35.609500504644643 ], [ 139.453516939355382, 35.604476054426414 ], [ 139.449280583931909, 35.61177605382187 ], [ 139.462776252122353, 35.625052747886059 ], [ 139.47546680944572, 35.619700504674597 ], [ 139.476043721840369, 35.61323966717697 ], [ 139.489287031271488, 35.604409107994002 ], [ 139.4997406608029, 35.605448531824322 ], [ 139.494677950726896, 35.617286027328362 ], [ 139.516075005756989, 35.625618774886618 ], [ 139.517272801998274, 35.630515972833905 ], [ 139.523492283042515, 35.63239402706273 ], [ 139.520986472347886, 35.637760135122164 ], [ 139.52551819660755, 35.642666775951 ], [ 139.562510637156265, 35.632384026601585 ], [ 139.56563033677071, 35.627201837994505 ], [ 139.57654557661715, 35.621982135067526 ], [ 139.618520829672661, 35.613786359652806 ], [ 139.651051140897493, 35.592234413487461 ], [ 139.664492827282174, 35.589522441307679 ], [ 139.678789727563981, 35.562987748285991 ], [ 139.703735525374213, 35.552607694089886 ], [ 139.697761555651368, 35.543756892966314 ], [ 139.702226525034121, 35.537027413584326 ], [ 139.717302386595975, 35.538004053944007 ], [ 139.726563281270501, 35.543574864788241 ], [ 139.733647976672842, 35.540865693996636 ], [ 139.7395952527188, 35.545155945790327 ], [ 139.756853580028746, 35.54450174835705 ], [ 139.776496380603589, 35.534469999790701 ], [ 139.774464046778348, 35.532224297313519 ], [ 139.796442412787201, 35.518555468260331 ], [ 139.794213086964419, 35.516395395631037 ], [ 139.799609791758598, 35.513205180174964 ], [ 139.794111141615986, 35.516295505233415 ], [ 139.791560194847193, 35.513378440862425 ], [ 139.796078637918868, 35.51070880156999 ], [ 139.790642632751315, 35.507833559271376 ], [ 139.796474059930006, 35.506687251915196 ], [ 139.799913424464989, 35.51049575667389 ], [ 139.796510143428463, 35.506620197564132 ], [ 139.780189922327168, 35.513311441369979 ], [ 139.77625306003074, 35.509584999747972 ], [ 139.778810725634571, 35.508637641314124 ], [ 139.772148716090442, 35.512287531744221 ], [ 139.773518585914076, 35.515633586221099 ], [ 139.769308391768959, 35.51444202677817 ], [ 139.766237003734773, 35.520570865153331 ], [ 139.768977808179329, 35.522915693604432 ], [ 139.765306161350281, 35.521956332818547 ], [ 139.760958197363038, 35.530274026625079 ], [ 139.751727108019736, 35.533283224741069 ], [ 139.755876107796212, 35.527786467671376 ], [ 139.737863644991307, 35.51471336033336 ], [ 139.746461025256167, 35.515557053914961 ], [ 139.748771140775602, 35.506844198001374 ], [ 139.733812087657839, 35.500603802323667 ], [ 139.730310829980908, 35.515295972631066 ], [ 139.731368106253171, 35.499063612595705 ], [ 139.719836031307864, 35.494231172130924 ], [ 139.714158715552344, 35.502591027054279 ], [ 139.719167885389652, 35.506042694314942 ], [ 139.716289169909373, 35.506193251617333 ], [ 139.711206394159831, 35.503960171125073 ], [ 139.718033333071958, 35.493630837792978 ], [ 139.696300999091932, 35.484044359759423 ], [ 139.697937249904271, 35.49096808191149 ], [ 139.690615291762356, 35.492652036362415 ], [ 139.690947367327226, 35.488183466993462 ], [ 139.687975511760555, 35.49530512633055 ], [ 139.687051801899202, 35.490858586754428 ], [ 139.692800778333321, 35.481406387394941 ], [ 139.6817719837901, 35.478356360058001 ], [ 139.681774384080654, 35.472890413761661 ], [ 139.675925499262462, 35.469214774842044 ], [ 139.66773155576675, 35.468627225266289 ], [ 139.668003969407778, 35.47368522469344 ], [ 139.673140051572204, 35.475132134940111 ], [ 139.669570336601851, 35.480462666718722 ], [ 139.673959689188337, 35.484499774644917 ], [ 139.665934422535656, 35.482878467867067 ], [ 139.667851090055819, 35.47715280186037 ], [ 139.653895446517708, 35.476644052680911 ], [ 139.651451829338498, 35.481516198214024 ], [ 139.648323527708726, 35.480384467968861 ], [ 139.651678948624635, 35.476505891633622 ], [ 139.64037411167601, 35.474274865192911 ], [ 139.640293644835879, 35.467901108149647 ], [ 139.632937951325403, 35.464498532181551 ], [ 139.638808365913405, 35.462848386843632 ], [ 139.639376667299416, 35.458476134865805 ], [ 139.635063332606819, 35.455501306140434 ], [ 139.646977860439961, 35.456998171028829 ], [ 139.643454188959709, 35.449082504753846 ], [ 139.649680998579242, 35.453256892391721 ], [ 139.646225811372119, 35.447602027311746 ], [ 139.651855772426075, 35.445125198169421 ], [ 139.657144111611501, 35.451334134662659 ], [ 139.661599468141048, 35.447350414090408 ], [ 139.665801971284054, 35.449484251696902 ], [ 139.656977147077782, 35.444339784253714 ], [ 139.660280777835737, 35.44125880225198 ], [ 139.663179805403729, 35.443552945811859 ], [ 139.660354383747858, 35.444648748141276 ], [ 139.664066860697176, 35.44284138692052 ], [ 139.673121050695954, 35.45089674758691 ], [ 139.668989728892939, 35.439335837678811 ], [ 139.675296835380664, 35.445713135352946 ], [ 139.681293217108305, 35.441242026298539 ], [ 139.675346109235647, 35.43158835991494 ], [ 139.678306199871258, 35.430379531690107 ], [ 139.685383995674897, 35.442041693569365 ], [ 139.690613890618579, 35.439223972808122 ], [ 139.686865252829193, 35.427274775210776 ], [ 139.686861115048487, 35.430110864624737 ], [ 139.681332632594945, 35.425114748446958 ], [ 139.679259753734755, 35.427582694086141 ], [ 139.680541245382187, 35.421960252263887 ], [ 139.675185940878578, 35.423526613162721 ], [ 139.679860751772367, 35.41878644134124 ], [ 139.678005811019375, 35.4161909997149 ], [ 139.68171683556352, 35.418995504938664 ], [ 139.68022038885988, 35.415513332674209 ], [ 139.683333903836683, 35.416780368619186 ], [ 139.669110142718978, 35.402587170961226 ], [ 139.666612917851921, 35.404095135282319 ], [ 139.66922924713208, 35.406516747849707 ], [ 139.658766004747349, 35.407892667412739 ], [ 139.652578689754819, 35.413019196978382 ], [ 139.648262282978067, 35.412473775244564 ], [ 139.650420610023161, 35.409800251780268 ], [ 139.642908663803837, 35.411798973443922 ], [ 139.634587638908442, 35.407797919338577 ], [ 139.629348170681624, 35.413181864551461 ], [ 139.631295226293673, 35.410272386861209 ], [ 139.627716860744613, 35.409140667407939 ], [ 139.630786497798681, 35.404981359602118 ], [ 139.641988053905607, 35.406969387427353 ], [ 139.645481581909507, 35.402979278970577 ], [ 139.626023306930165, 35.401636801597192 ], [ 139.621983592768629, 35.395347332613369 ], [ 139.624427522911901, 35.391713413243451 ], [ 139.631673553991391, 35.395928999723594 ], [ 139.629886394241794, 35.393947504573703 ], [ 139.636235863294473, 35.395037838125802 ], [ 139.633846718950963, 35.39384225241804 ], [ 139.638537523388095, 35.390903972140677 ], [ 139.62742933939262, 35.386207081091982 ], [ 139.628592892148276, 35.384160135082197 ], [ 139.632612776258725, 35.382190198019259 ], [ 139.64568069990446, 35.390539225105215 ], [ 139.653232943845296, 35.387261837463882 ], [ 139.647893086996419, 35.379680999578511 ], [ 139.643252996228853, 35.378956198170044 ], [ 139.650520752231046, 35.373077668099938 ], [ 139.658273021582772, 35.378543946246168 ], [ 139.654058079916467, 35.374767693874048 ], [ 139.65651364458904, 35.366539973640897 ], [ 139.650936057353192, 35.366416504817892 ], [ 139.65097797655244, 35.35983810794238 ], [ 139.656927419964518, 35.353493945789012 ], [ 139.656953333029946, 35.341934865102019 ], [ 139.638019532775274, 35.340297973073064 ], [ 139.633804163031755, 35.335986196905537 ], [ 139.637462204916915, 35.333120017974522 ], [ 139.629342697407651, 35.32943983837788 ], [ 139.62199136201184, 35.331473306248142 ], [ 139.634129064704666, 35.321922414387984 ], [ 139.640732387189928, 35.330373467761376 ], [ 139.661878755300336, 35.328209775360904 ], [ 139.661224577652206, 35.322259530652843 ], [ 139.655692411575615, 35.321570504275428 ], [ 139.65606581098848, 35.31759541359753 ], [ 139.64894204903635, 35.318403612736574 ], [ 139.651209390101371, 35.315686721265251 ], [ 139.644876615163753, 35.312662305720892 ], [ 139.644959752990303, 35.308674801700818 ], [ 139.636678105810006, 35.311721134622701 ], [ 139.642017638902985, 35.303311639820379 ], [ 139.631098690252429, 35.299953386939308 ], [ 139.634911336389109, 35.295175440893956 ], [ 139.642741219032132, 35.299068332637489 ], [ 139.649066979257782, 35.288053027025626 ], [ 139.651543994559802, 35.291367559365426 ], [ 139.653877301796115, 35.28521661295639 ], [ 139.660803774075021, 35.28288235963322 ], [ 139.66272394265593, 35.284849278571414 ], [ 139.656973631627807, 35.292651323599785 ], [ 139.664613774406234, 35.289487891752856 ], [ 139.66542778226642, 35.292534864992092 ], [ 139.661338339193094, 35.300214532075074 ], [ 139.67396730194946, 35.300577892355875 ], [ 139.680204163291592, 35.295046837841369 ], [ 139.677425668260071, 35.292211081176504 ], [ 139.685078949234139, 35.288589135380334 ], [ 139.671996744354374, 35.286669838242517 ], [ 139.679065135947326, 35.284652918797235 ], [ 139.677320142710528, 35.280051197604735 ], [ 139.687406550272158, 35.274836386989705 ], [ 139.684589754014041, 35.273591415011822 ], [ 139.688000414887256, 35.269814693193609 ], [ 139.689232672250114, 35.272375694382845 ], [ 139.690994864121762, 35.266484224867156 ], [ 139.721080921447424, 35.26317155862057 ], [ 139.732672944301044, 35.265835197636306 ], [ 139.733079804789213, 35.261576800728847 ], [ 139.739270973376733, 35.261666892113453 ], [ 139.747010830285603, 35.253491026789504 ], [ 139.73418136188036, 35.247979748366731 ], [ 139.73640472070133, 35.246472179747343 ], [ 139.733219727608457, 35.240839946106689 ], [ 139.724439611399021, 35.239565306393843 ], [ 139.716680389388557, 35.246119721048331 ], [ 139.724495472787908, 35.236083360758528 ], [ 139.722046135021174, 35.234382999975537 ], [ 139.725243696139728, 35.236892532064758 ], [ 139.729482801689983, 35.232823359710324 ], [ 139.728769468436326, 35.223722919377281 ], [ 139.721984448723447, 35.223893640379231 ], [ 139.722373139308957, 35.227086441386234 ], [ 139.717660856363523, 35.228347000413805 ], [ 139.713391920300978, 35.223860441006593 ], [ 139.71330600536794, 35.220440304876206 ], [ 139.720057367053869, 35.221999359682741 ], [ 139.715292166200584, 35.217344360853645 ], [ 139.722763449573563, 35.218278558608631 ], [ 139.725059000572514, 35.211341505805876 ], [ 139.686792360978757, 35.207624080786729 ], [ 139.656881336904235, 35.185631134968958 ], [ 139.655241970840393, 35.174892198216412 ], [ 139.660155667749905, 35.17151502719679 ], [ 139.662256446278093, 35.160554440834801 ], [ 139.679375252765794, 35.156924386751086 ], [ 139.68194527865171, 35.151031134779089 ], [ 139.681296692988099, 35.146395332878342 ], [ 139.676285966424302, 35.144898612780821 ], [ 139.67786016941136, 35.139303801729113 ], [ 139.672828690092047, 35.142203973234814 ], [ 139.669869727206219, 35.139376666599958 ], [ 139.666234643214239, 35.146600720946594 ], [ 139.661804086389566, 35.144624135195727 ], [ 139.664525422310476, 35.139612387002103 ], [ 139.660059882757423, 35.140674387413128 ], [ 139.657060246233414, 35.137302440555231 ], [ 139.651475810660145, 35.142332504341653 ], [ 139.646580026447168, 35.137756749274615 ], [ 139.639771218766782, 35.137931224946101 ], [ 139.637904720826214, 35.142101332710411 ], [ 139.625544864004382, 35.137501749206422 ], [ 139.621460440946635, 35.139145054300855 ], [ 139.623565576690112, 35.143073080758143 ], [ 139.619441388309497, 35.138701693928112 ], [ 139.611842022591304, 35.142186747620372 ], [ 139.609116913115145, 35.139847333088028 ], [ 139.604864617208364, 35.144671613104492 ], [ 139.607796938577962, 35.142877918880913 ], [ 139.61730510994289, 35.147597197652601 ], [ 139.606806550282158, 35.154838359802511 ], [ 139.619305577190744, 35.154551360956589 ], [ 139.614054837760591, 35.15754183788556 ], [ 139.618345888152248, 35.159495919001529 ], [ 139.611090117415074, 35.157578053584359 ], [ 139.610662529352339, 35.163447306248258 ], [ 139.630125162446348, 35.163592386679341 ], [ 139.616824540120547, 35.165300279284509 ], [ 139.620069390290155, 35.174673224989419 ], [ 139.613932282648761, 35.183097251936658 ], [ 139.620102411597031, 35.184117027378988 ], [ 139.616257418644977, 35.185369837847816 ], [ 139.616140505879684, 35.18973677483234 ], [ 139.609371945558905, 35.190207505172282 ], [ 139.608096808520941, 35.194718838203869 ], [ 139.598893580174604, 35.195741108365496 ], [ 139.606325278988493, 35.199415386610838 ], [ 139.60361642116095, 35.202699720615669 ], [ 139.608132477431923, 35.208054468439002 ], [ 139.610899662589418, 35.205814467663629 ], [ 139.609510531985507, 35.21018308098445 ], [ 139.62305513588592, 35.207609775270953 ], [ 139.627445642302632, 35.215715306416314 ], [ 139.622730117301103, 35.215705467833118 ], [ 139.620782775704583, 35.221455252757778 ], [ 139.604253191531598, 35.222985468104923 ], [ 139.599835057941618, 35.238887386643626 ], [ 139.585914615667093, 35.251493612740092 ], [ 139.576138559646893, 35.253529224594104 ], [ 139.579784696306774, 35.256353198341458 ], [ 139.5755086124326, 35.264648108723293 ], [ 139.56738089501232, 35.26729494570526 ], [ 139.570663969067027, 35.269237946274245 ], [ 139.571025357134545, 35.276240919382985 ], [ 139.564747198024861, 35.284492468053031 ], [ 139.573423449732445, 35.287204441132133 ], [ 139.571318028903988, 35.29303902672973 ], [ 139.557709974235991, 35.291772837946155 ], [ 139.556458832908902, 35.296315999783587 ], [ 139.552170169317947, 35.294520234421327 ], [ 139.552244669156266, 35.302866107584862 ], [ 139.541059338617629, 35.309155919210355 ], [ 139.534408443794746, 35.30860925191547 ], [ 139.525764422889893, 35.301626359768761 ], [ 139.501544720612401, 35.306219505026206 ], [ 139.490385706934944, 35.304746405622154 ], [ 139.492612139638595, 35.306856386912784 ], [ 139.490171608033393, 35.307634504628766 ], [ 139.482956394921757, 35.304328585995506 ], [ 139.470781530443332, 35.314322973126764 ], [ 139.439134747370758, 35.319157865143438 ], [ 139.414864189330956, 35.314959252467588 ], [ 139.403236667538295, 35.318197224622281 ], [ 139.399107082326054, 35.313842333157197 ], [ 139.397112751152576, 35.316101306030475 ], [ 139.39892418900024, 35.312593278257225 ], [ 139.391035498789279, 35.316585721353988 ], [ 139.363703280681875, 35.311498000232575 ], [ 139.366492438075625, 35.314447027408448 ], [ 139.337731646898078, 35.313528045283135 ], [ 139.320205005956268, 35.309229667215448 ], [ 139.316834772306947, 35.306049720218482 ], [ 139.320472217918564, 35.304854441179543 ], [ 139.312019079017318, 35.305921081192992 ], [ 139.254537562358678, 35.294253946062838 ], [ 139.206596808495988, 35.276511865330349 ], [ 139.157860195991361, 35.243132026621765 ], [ 139.147773086958409, 35.240778080843825 ], [ 139.146278366053821, 35.236609721361617 ], [ 139.150497301609221, 35.238566558899606 ], [ 139.143280558750803, 35.231442748384154 ], [ 139.142681283814227, 35.20870936014893 ], [ 139.137706497756767, 35.192478467807121 ], [ 139.140262308958427, 35.188837918635102 ], [ 139.136004227712988, 35.18137122540179 ], [ 139.145360856118714, 35.16843908139856 ], [ 139.140163333171358, 35.162380694113779 ], [ 139.145708028602712, 35.152336440474414 ], [ 139.141653384795973, 35.152195224430102 ], [ 139.150470271585846, 35.146783000035498 ], [ 139.157682244440139, 35.147277837602189 ], [ 139.160236355023812, 35.140322972826993 ], [ 139.151445058442732, 35.140330081068441 ], [ 139.131237756117571, 35.150911197593757 ], [ 139.120176160601432, 35.1492408921535 ], [ 139.112125382880208, 35.141379467588422 ], [ 139.090098975087699, 35.140185279427158 ], [ 139.048227496601726, 35.149702774963146 ], [ 139.028759883062207, 35.150370026955216 ], [ 139.031225771951881, 35.156986135102102 ], [ 139.026278560007654, 35.16025697298096 ], [ 139.029124189429808, 35.170298640170188 ], [ 139.021577004175469, 35.182038107772485 ], [ 139.009336082694176, 35.183245333405466 ], [ 138.98767769097276, 35.200881197908984 ], [ 138.988352749979526, 35.211346468264935 ], [ 138.982163839589589, 35.217825359652693 ], [ 138.983572477387952, 35.222751467206479 ], [ 138.976074110931563, 35.235552838093042 ], [ 138.978739688885639, 35.239393385696246 ], [ 138.974395253837997, 35.248143945686593 ], [ 138.975471113701019, 35.263752802150179 ], [ 138.996191893840887, 35.287814414403726 ], [ 139.004612244359691, 35.289898026672631 ], [ 139.009632866163884, 35.313648531954243 ], [ 139.018975161174808, 35.329060169791035 ], [ 139.010590143220611, 35.338411279057311 ], [ 139.008622387013588, 35.347093774757923 ], [ 139.013353306609929, 35.358669892201817 ], [ 139.006839106039934, 35.361385720674548 ], [ 139.005915862926827, 35.375384612609821 ], [ 138.998617496700149, 35.384040467693467 ], [ 139.001797056089345, 35.398935197701292 ], [ 138.995279533423741, 35.403333000317787 ], [ 138.984070830404562, 35.401771892359022 ], [ 138.97182046694104, 35.405176053831894 ], [ 138.943255550803087, 35.39918802680603 ], [ 138.917717639357647, 35.400393864785087 ], [ 138.915817108372948, 35.405531667352591 ], [ 138.918066303816886, 35.411339170766155 ], [ 138.930169780111328, 35.42087055902914 ], [ 138.927403747884682, 35.437644721027084 ], [ 138.937369663379286, 35.448867504731595 ], [ 138.958727302023476, 35.462086107987545 ], [ 138.973463476158599, 35.466545026731637 ], [ 138.978769338634152, 35.46374169422387 ], [ 138.98882158185063, 35.473640585944338 ], [ 139.007873022422132, 35.474497801732241 ], [ 139.014593022050349, 35.479831170871876 ], [ 139.027549442352893, 35.480967802422185 ], [ 139.030620272807369, 35.488701999897444 ], [ 139.04370089488043, 35.498941946913362 ], [ 139.04611481194911, 35.509736387124633 ], [ 139.060081244653816, 35.507499360407223 ], [ 139.085789974227964, 35.512086305738478 ], [ 139.110125966040528, 35.532288838059458 ], [ 139.11398435799174, 35.538729946230092 ], [ 139.111960779066749, 35.549793558925671 ], [ 139.129178975029731, 35.563874945672239 ], [ 139.127771000031657, 35.581000224580748 ], [ 139.121437664816426, 35.586987972816758 ], [ 139.129333279807042, 35.594596332654703 ], [ 139.133104746886602, 35.606701026631129 ], [ 139.127796977848334, 35.612899081327612 ], [ 139.134413670554522, 35.616509639908031 ], [ 139.123490610203589, 35.623951557718271 ], [ 139.127553475612444, 35.641080998689176 ], [ 139.117175720083424, 35.65470541382382 ], [ 139.131341387694988, 35.671994585182006 ], [ 139.135439753841638, 35.672364026678565 ], [ 139.135601140780068, 35.672337919359563 ] ] ] ] } }
]
}
