{
"type": "FeatureCollection",
"name": "16_toyama_forecast",
"crs": { "type": "name", "properties": { "name": "urn:ogc:def:crs:OGC:1.3:CRS84" } },
"features": [
{ "type": "Feature", "properties": { "code": "160000", "name": "富山県", "PrefCode": "16", "regioncode": "160000" }, "geometry": { "type": "MultiPolygon", "coordinates": [ [ [ [ 137.075319143763522, 36.802415000152166 ], [ 137.064376588808614, 36.81162741507319 ], [ 137.075004525838267, 36.802682640191733 ], [ 137.075319143763522, 36.802415000152166 ] ] ], [ [ [ 137.031358833343575, 36.92835080204793 ], [ 137.028755642259171, 36.932356802424522 ], [ 137.03093752344796, 36.929161225210407 ], [ 137.031358833343575, 36.92835080204793 ] ] ], [ [ [ 137.632865330570667, 36.979676360375777 ], [ 137.651536393889501, 36.969020386981299 ], [ 137.666506109369493, 36.950239027209363 ], [ 137.673475863320505, 36.950681774244515 ], [ 137.687728664446354, 36.943144306164868 ], [ 137.711155083740209, 36.944234837567762 ], [ 137.713738079648692, 36.933841558840925 ], [ 137.720387224390947, 36.92688046805921 ], [ 137.716282191569917, 36.921390748184535 ], [ 137.717831854756355, 36.907673864757101 ], [ 137.712571855007127, 36.904080558770829 ], [ 137.712983475606961, 36.893758080970713 ], [ 137.734129493881142, 36.868832080835887 ], [ 137.734438586371766, 36.831399468011114 ], [ 137.730081362065221, 36.826425892441023 ], [ 137.749328221720134, 36.809576081271189 ], [ 137.754293748357895, 36.796589081321088 ], [ 137.749554553200142, 36.780024919114794 ], [ 137.763386744103059, 36.768233468899496 ], [ 137.751902581439026, 36.752037080846662 ], [ 137.759294254126644, 36.740740666948284 ], [ 137.750753450211619, 36.726583999751824 ], [ 137.75002510997092, 36.704745359610683 ], [ 137.756704551973598, 36.695562586344352 ], [ 137.754222049008376, 36.687459801728494 ], [ 137.759738417594008, 36.685932305931203 ], [ 137.758479780417588, 36.675968135121366 ], [ 137.761863865425084, 36.66600700042278 ], [ 137.753454086437046, 36.65776810791192 ], [ 137.756472633005728, 36.65205172111007 ], [ 137.754621698732421, 36.639119224572596 ], [ 137.751808560017139, 36.627104225379753 ], [ 137.746678807281228, 36.624472837851215 ], [ 137.744245421688902, 36.617509225370497 ], [ 137.752936913307963, 36.594766720707639 ], [ 137.751036329263229, 36.588498668179056 ], [ 137.724307691147146, 36.586490613351202 ], [ 137.713205966082569, 36.577080054401051 ], [ 137.6938872496969, 36.569059504692461 ], [ 137.687737755692979, 36.562074505434111 ], [ 137.689537717291842, 36.553794252203033 ], [ 137.684597638770128, 36.537807333341789 ], [ 137.710553280809336, 36.535742053752813 ], [ 137.702751803253136, 36.52469572153035 ], [ 137.705440388563147, 36.517820468340005 ], [ 137.694296160639396, 36.510682441341658 ], [ 137.677354747223831, 36.514386026693842 ], [ 137.66874555076663, 36.509461305894604 ], [ 137.666820751576438, 36.493815802057668 ], [ 137.657649637121153, 36.493108585992502 ], [ 137.652000700372128, 36.488200251740295 ], [ 137.650820117154694, 36.479815559340636 ], [ 137.656717613027467, 36.470223108010089 ], [ 137.655410051832519, 36.459172305257709 ], [ 137.645293358701565, 36.454530333108437 ], [ 137.639912217574874, 36.445829775423874 ], [ 137.636544915715376, 36.428412054073078 ], [ 137.61740263282536, 36.418600865137876 ], [ 137.608079026625887, 36.419416359577383 ], [ 137.603805084037504, 36.41067664001497 ], [ 137.605361166584657, 36.402538333077644 ], [ 137.59240747122783, 36.389674972821808 ], [ 137.576743605932734, 36.392980746664193 ], [ 137.559505252565373, 36.387451559142221 ], [ 137.540902502648464, 36.391441774618272 ], [ 137.531199753965552, 36.402447025809636 ], [ 137.515045863375917, 36.411345586329787 ], [ 137.511497563062107, 36.423693332881044 ], [ 137.504238663583578, 36.425709972637208 ], [ 137.47410775616811, 36.425409135023642 ], [ 137.46071155569382, 36.412226108048515 ], [ 137.449369299753471, 36.416818890879142 ], [ 137.445309001009605, 36.412964440656481 ], [ 137.436010362688194, 36.420393305706568 ], [ 137.409723864564739, 36.424680801977502 ], [ 137.395221634670747, 36.43639746816865 ], [ 137.396205887791552, 36.450464694190316 ], [ 137.38993594039141, 36.459921640171615 ], [ 137.378017249596496, 36.452719720838502 ], [ 137.361497781897128, 36.450051387361668 ], [ 137.358589922087276, 36.436843612842495 ], [ 137.351206550142251, 36.432902531826414 ], [ 137.338397107840365, 36.433853946202703 ], [ 137.318620660814872, 36.424440918613527 ], [ 137.312895939995656, 36.425341468234251 ], [ 137.305006835197332, 36.43583538739324 ], [ 137.313826031446297, 36.441594559441398 ], [ 137.313375252565947, 36.449087612703238 ], [ 137.317788301389101, 36.451182025829894 ], [ 137.317011699030786, 36.460803170929637 ], [ 137.308518365829968, 36.463775387124485 ], [ 137.298512503349457, 36.45822986521614 ], [ 137.278484474578931, 36.464995748255205 ], [ 137.256378585603329, 36.451141332406621 ], [ 137.247611970915841, 36.461963864740596 ], [ 137.232064358283537, 36.444502467814686 ], [ 137.213869610993811, 36.438792774666865 ], [ 137.213980973143407, 36.430749694243048 ], [ 137.208944304735951, 36.431690838361533 ], [ 137.205629830852104, 36.427604170596055 ], [ 137.204870725703472, 36.436773892001554 ], [ 137.19312574705566, 36.448011666505238 ], [ 137.191675252111281, 36.45521336010853 ], [ 137.177998832779963, 36.454199747720224 ], [ 137.174939364360284, 36.450062252071348 ], [ 137.171244667907217, 36.454726693781936 ], [ 137.160708559752266, 36.45663446790644 ], [ 137.152832698370389, 36.447654748967523 ], [ 137.144191828690055, 36.445521135292211 ], [ 137.143389584861552, 36.438469748080479 ], [ 137.132267613359772, 36.434563108400766 ], [ 137.12200031076577, 36.417150053632099 ], [ 137.111510310852282, 36.415382838147536 ], [ 137.10192577175701, 36.399193107775773 ], [ 137.091944111831367, 36.396540332570339 ], [ 137.094882671797905, 36.383966721287209 ], [ 137.078726005001158, 36.384311441319994 ], [ 137.059361776624769, 36.373417865242345 ], [ 137.058387860311541, 36.368234800695575 ], [ 137.062166471605451, 36.366140919068187 ], [ 137.048904423000749, 36.345494802443227 ], [ 137.058735524724739, 36.342500333423686 ], [ 137.052533280986154, 36.338539774890762 ], [ 137.051514915680855, 36.328132838160002 ], [ 137.037570973221932, 36.317438666960982 ], [ 137.019741244562852, 36.318280918929304 ], [ 137.018201505395268, 36.311452306378897 ], [ 137.02125121886877, 36.30917646761992 ], [ 137.01080949366326, 36.298028693669323 ], [ 137.012595576924355, 36.293099801814435 ], [ 137.002680830156237, 36.286925667285743 ], [ 136.986216108686563, 36.286274559023752 ], [ 136.986524968252752, 36.282464558692482 ], [ 136.975305771943908, 36.274364026878402 ], [ 136.970722191875666, 36.277749027395771 ], [ 136.967889391282483, 36.275241532270968 ], [ 136.957734694600504, 36.277936802241697 ], [ 136.973288715801687, 36.309852360298237 ], [ 136.961408780390911, 36.322947081043026 ], [ 136.954896886582105, 36.339350440870192 ], [ 136.93964389095288, 36.349208224579968 ], [ 136.932756666886689, 36.34829322555197 ], [ 136.907474227653552, 36.36084155869105 ], [ 136.890090532152385, 36.345558468148852 ], [ 136.874756913201054, 36.342792891878503 ], [ 136.875741115060464, 36.350105667042953 ], [ 136.869578053884197, 36.350716197894258 ], [ 136.876304188687413, 36.35794483788402 ], [ 136.871220921008785, 36.367549000186273 ], [ 136.864134748020319, 36.355200640297369 ], [ 136.865100271860115, 36.349660359637937 ], [ 136.85206413655078, 36.347428665900281 ], [ 136.844063333256258, 36.351111693649784 ], [ 136.837151920125052, 36.347215585930599 ], [ 136.842496589246252, 36.332715865145133 ], [ 136.832518755036631, 36.31541805400002 ], [ 136.832367639255267, 36.306811414315348 ], [ 136.826184552874906, 36.302548333738685 ], [ 136.80939204920378, 36.302540774936858 ], [ 136.804445135834385, 36.30623466829536 ], [ 136.791130414836857, 36.300557134903897 ], [ 136.788357638594221, 36.312333505287086 ], [ 136.790420168955734, 36.322075720717976 ], [ 136.783650751581035, 36.329591559203152 ], [ 136.786931051227043, 36.333429333297147 ], [ 136.784658611905456, 36.34378713466856 ], [ 136.78752194628089, 36.348534919251165 ], [ 136.793336667653193, 36.348487972841724 ], [ 136.80819002614885, 36.358688586209325 ], [ 136.800134527886257, 36.370299693576044 ], [ 136.795142995552851, 36.401263892114969 ], [ 136.778856693281796, 36.414371386830112 ], [ 136.769799195576525, 36.414997467858882 ], [ 136.768651750577874, 36.428766946337532 ], [ 136.774098170793991, 36.432752774920687 ], [ 136.778176472166479, 36.430882505223508 ], [ 136.796725135956308, 36.444688080690412 ], [ 136.790098754853716, 36.447401694132907 ], [ 136.78820238683079, 36.452685305582463 ], [ 136.798362697980224, 36.461648639772932 ], [ 136.794882722759553, 36.463881694184863 ], [ 136.798292724429757, 36.4684528015556 ], [ 136.795550532331276, 36.474885584702008 ], [ 136.802817782914417, 36.48500700017297 ], [ 136.802516135011729, 36.490347278803938 ], [ 136.793950052053333, 36.496981135071394 ], [ 136.797090609643988, 36.501994225053522 ], [ 136.795106199791348, 36.510807802338263 ], [ 136.81285538336931, 36.538099252378629 ], [ 136.8172340340235, 36.552385919274798 ], [ 136.802444059745653, 36.568771720738368 ], [ 136.791008249131437, 36.569621973075641 ], [ 136.795318560303372, 36.584841135310171 ], [ 136.794165772432507, 36.589883892127943 ], [ 136.78831250341932, 36.593023586369441 ], [ 136.790906719269742, 36.603899107657753 ], [ 136.783148755410821, 36.616831838018982 ], [ 136.784819947582605, 36.62850372067021 ], [ 136.799903358952861, 36.63640453194364 ], [ 136.800568716073485, 36.646571972918252 ], [ 136.807303720890104, 36.647705865133616 ], [ 136.810305772093784, 36.657954136274441 ], [ 136.823835861835619, 36.670171864240217 ], [ 136.82057569441281, 36.683929864671597 ], [ 136.810025694430351, 36.686586250655012 ], [ 136.815581608004891, 36.700507026578066 ], [ 136.789215357103103, 36.719026440817629 ], [ 136.79306092112472, 36.720646441779934 ], [ 136.796101478600463, 36.729577278968293 ], [ 136.819861440253362, 36.730649802346534 ], [ 136.821960856308579, 36.740300080984014 ], [ 136.839314227569616, 36.74520230614155 ], [ 136.849164772636186, 36.759234251759381 ], [ 136.852665615725641, 36.770328667134322 ], [ 136.843135863329508, 36.782314558869871 ], [ 136.850774526723058, 36.786860054448027 ], [ 136.854053450406468, 36.79466058591737 ], [ 136.848809610575131, 36.813158586399709 ], [ 136.860018053690283, 36.829076774573537 ], [ 136.856441699025254, 36.839791468301655 ], [ 136.861794228221129, 36.841075864759375 ], [ 136.861918689895674, 36.847747224554837 ], [ 136.867229532816737, 36.850918612703879 ], [ 136.861110920632541, 36.854624720654385 ], [ 136.862388689986119, 36.860326694021751 ], [ 136.871243385174125, 36.862677837512251 ], [ 136.883031673373125, 36.876824279417008 ], [ 136.882072749657709, 36.882137054081852 ], [ 136.885609416341595, 36.885192640128309 ], [ 136.879010505930182, 36.892734891701934 ], [ 136.878976302914111, 36.906271026686568 ], [ 136.895581478702297, 36.924719693958764 ], [ 136.915612244109866, 36.930807775058838 ], [ 136.930953606223966, 36.950602559260744 ], [ 136.947967470822164, 36.955364000048633 ], [ 136.95378691273595, 36.956056774800345 ], [ 136.973746887109201, 36.944311802447771 ], [ 136.98241574638962, 36.952740999597495 ], [ 136.986948223381887, 36.967296802105807 ], [ 136.996266860827063, 36.967014333145016 ], [ 137.005087418649509, 36.961131053755196 ], [ 137.042271920213011, 36.965326694171665 ], [ 137.05169666686777, 36.959174324135802 ], [ 137.027578301097833, 36.940401197657195 ], [ 137.032560895069309, 36.923708053783685 ], [ 137.022412283200424, 36.911084639844319 ], [ 137.01814983124973, 36.910997080950551 ], [ 137.00800736714632, 36.893768801788838 ], [ 136.994181089285917, 36.883928251787438 ], [ 136.993377055806491, 36.879378441262133 ], [ 136.984889078967853, 36.876837360056186 ], [ 136.988399845176787, 36.863069702704649 ], [ 136.993251440301833, 36.86321574810836 ], [ 136.988910635817206, 36.862569197610412 ], [ 136.989553256277873, 36.858602413970289 ], [ 136.990730636110015, 36.862714278940871 ], [ 136.992285161930795, 36.85987002728001 ], [ 136.991113748200974, 36.856224692815374 ], [ 136.993081219322903, 36.862330387137717 ], [ 136.991110337072428, 36.853934386662672 ], [ 137.008350558331699, 36.835750305332397 ], [ 137.044846939135027, 36.814095359813052 ], [ 137.056820155825562, 36.801604153409016 ], [ 137.057908470399639, 36.806501999767534 ], [ 137.059071997974343, 36.801943892096972 ], [ 137.063001829371046, 36.805002721098731 ], [ 137.069297198806794, 36.801705532184599 ], [ 137.064132634213706, 36.797595946096067 ], [ 137.084117471244326, 36.787553721327242 ], [ 137.079196304565812, 36.788272973019332 ], [ 137.08280569402757, 36.784102530707287 ], [ 137.091157562071885, 36.784732135279853 ], [ 137.096484111652444, 36.781047054378121 ], [ 137.09091158220383, 36.786145694168511 ], [ 137.114295421296674, 36.782042774754302 ], [ 137.107850078218576, 36.779322892137827 ], [ 137.113604578288687, 36.774565440742549 ], [ 137.093920116620097, 36.775636197852293 ], [ 137.097356445943319, 36.771423305740996 ], [ 137.092629144319631, 36.772939891862563 ], [ 137.092200143421906, 36.770431386799089 ], [ 137.112101439729713, 36.767891891997294 ], [ 137.109047172988653, 36.763111251583041 ], [ 137.113944720772338, 36.765163505391513 ], [ 137.125588975350979, 36.758054306161341 ], [ 137.13315858699923, 36.756887891762858 ], [ 137.134419272831224, 36.760628531881309 ], [ 137.118319105042701, 36.766506170723233 ], [ 137.120637808188349, 36.772325918406466 ], [ 137.117554694793398, 36.77604519872699 ], [ 137.121918807906695, 36.779466720712662 ], [ 137.118930219554045, 36.777948306269366 ], [ 137.118929169145872, 36.784219613444463 ], [ 137.119988911359201, 36.780209945632521 ], [ 137.141117716609415, 36.772762134564914 ], [ 137.136602022765146, 36.77337489213761 ], [ 137.137935667896841, 36.769453973022507 ], [ 137.13936914407077, 36.772126134913265 ], [ 137.139133644901904, 36.769617467971841 ], [ 137.149113281352925, 36.768435278565278 ], [ 137.155574501062461, 36.763227613063918 ], [ 137.181238183595383, 36.757644459024618 ], [ 137.189433307001536, 36.757460865126859 ], [ 137.193017288816918, 36.761599829368663 ], [ 137.204418287573958, 36.759310748092616 ], [ 137.224209104866304, 36.761824640095142 ], [ 137.225704669335073, 36.765469666991578 ], [ 137.224635305275228, 36.762186612722076 ], [ 137.228135746367684, 36.761552559203324 ], [ 137.22774482456407, 36.765703873834752 ], [ 137.23415457787155, 36.764366531590213 ], [ 137.229116913015218, 36.766939107953533 ], [ 137.299142309370154, 36.75841171203092 ], [ 137.296953165256468, 36.757053757325082 ], [ 137.3010667200532, 36.75566661242425 ], [ 137.299342322190455, 36.759178874205759 ], [ 137.318959727709284, 36.758150720679282 ], [ 137.333518444021024, 36.762627865083971 ], [ 137.347633138958258, 36.781019000026902 ], [ 137.392923995446154, 36.807281279407562 ], [ 137.391961335946917, 36.820326252354732 ], [ 137.394493605595471, 36.821748666867506 ], [ 137.392343035202998, 36.823638522899557 ], [ 137.391416264948703, 36.820523649047232 ], [ 137.392055693715406, 36.823668955058281 ], [ 137.411204838432582, 36.84777610808095 ], [ 137.412601413624429, 36.853186360262384 ], [ 137.411052942939023, 36.855086197869809 ], [ 137.409085641789034, 36.851187531579399 ], [ 137.408917613357289, 36.860147773900678 ], [ 137.418737301785086, 36.874103224983912 ], [ 137.414807107961678, 36.890617386683118 ], [ 137.418619974432318, 36.893279585884216 ], [ 137.414560077685451, 36.889651468940201 ], [ 137.408916277864023, 36.897250027067173 ], [ 137.428887134034085, 36.925714441268497 ], [ 137.425810000231422, 36.925021099044557 ], [ 137.492666861086832, 36.954857170921741 ], [ 137.574582892086823, 36.964133026717889 ], [ 137.589963917001228, 36.974277332632823 ], [ 137.585055694264952, 36.972646666610444 ], [ 137.587606938709314, 36.974814531865206 ], [ 137.632718301308614, 36.979691252249552 ], [ 137.632865330570667, 36.979676360375777 ] ] ] ] } }
]
}
