{
"type": "FeatureCollection",
"name": "21_gifu_forecast",
"crs": { "type": "name", "properties": { "name": "urn:ogc:def:crs:OGC:1.3:CRS84" } },
"features": [
{ "type": "Feature", "properties": { "code": "210000", "name": "岐阜県", "PrefCode": "21", "regioncode": "210000" }, "geometry": { "type": "Polygon", "coordinates": [ [ [ 137.279028365666591, 36.465064639921252 ], [ 137.298512503349457, 36.45822986521614 ], [ 137.30661002603199, 36.463876774893322 ], [ 137.317011699030786, 36.460803170929637 ], [ 137.317788301389101, 36.451182025829894 ], [ 137.312042724392313, 36.444904837987963 ], [ 137.31387464340014, 36.441667891959696 ], [ 137.305006835197332, 36.43583538739324 ], [ 137.313805109618215, 36.424952864882869 ], [ 137.319793165422311, 36.424525359557776 ], [ 137.338397107840365, 36.433853946202703 ], [ 137.351206550142251, 36.432902531826414 ], [ 137.358589922087276, 36.436843612842495 ], [ 137.361497781897128, 36.450051387361668 ], [ 137.378017249596496, 36.452719720838502 ], [ 137.38993594039141, 36.459921640171615 ], [ 137.396205887791552, 36.450464694190316 ], [ 137.395221634670747, 36.43639746816865 ], [ 137.403856913266054, 36.427122170851533 ], [ 137.436010362688194, 36.420393305706568 ], [ 137.445309001009605, 36.412964440656481 ], [ 137.449369299753471, 36.416818890879142 ], [ 137.460829053018415, 36.41223610761034 ], [ 137.47410775616811, 36.425409135023642 ], [ 137.510835331085673, 36.424188891704034 ], [ 137.515045863375917, 36.411345586329787 ], [ 137.531199753965552, 36.402447025809636 ], [ 137.540902502648464, 36.391441774618272 ], [ 137.559505252565373, 36.387451559142221 ], [ 137.576743605932734, 36.392980746664193 ], [ 137.58734719831466, 36.389800530769946 ], [ 137.587086549604692, 36.371964171409445 ], [ 137.618654552965268, 36.364680108000641 ], [ 137.635470506458773, 36.342549865384058 ], [ 137.645422412314588, 36.341715441114786 ], [ 137.646365668041199, 36.330231837829103 ], [ 137.652433917291546, 36.322009332764537 ], [ 137.648831854606442, 36.309107081326772 ], [ 137.653056835404641, 36.304674558584054 ], [ 137.646858715957023, 36.296452333208663 ], [ 137.647820609233804, 36.289051749138991 ], [ 137.629043086869046, 36.27862591855137 ], [ 137.620924449004178, 36.266675053610868 ], [ 137.61473944077261, 36.264777000258391 ], [ 137.605923280635011, 36.248786720630733 ], [ 137.596350219587066, 36.2429761712134 ], [ 137.589679299560089, 36.228603414016391 ], [ 137.583197107660453, 36.226910053556196 ], [ 137.58302538301507, 36.220396468122544 ], [ 137.573057639198737, 36.218654802377273 ], [ 137.578569974324864, 36.197538694655066 ], [ 137.595088781022469, 36.190739802000337 ], [ 137.590933476099053, 36.185932865409484 ], [ 137.595063644971333, 36.172048170286871 ], [ 137.590842477298565, 36.163799558802623 ], [ 137.57051547341041, 36.155616197629456 ], [ 137.567959558786697, 36.147668693555431 ], [ 137.554721440242361, 36.140198973204122 ], [ 137.560551335875516, 36.130241747858406 ], [ 137.557084811814661, 36.118057864978539 ], [ 137.55020033697599, 36.112892865113679 ], [ 137.554884475638119, 36.10553205356149 ], [ 137.577995278759204, 36.0850901711745 ], [ 137.592790310824284, 36.080944640083146 ], [ 137.596814448727855, 36.075841027041804 ], [ 137.613950051853521, 36.076387170931241 ], [ 137.610909442217007, 36.067571332750845 ], [ 137.61372333276563, 36.059616892205838 ], [ 137.606971362238596, 36.055831053960048 ], [ 137.605423280959712, 36.048685801808347 ], [ 137.597859363818657, 36.042407441250475 ], [ 137.600223501613414, 36.028571359880402 ], [ 137.594775940157547, 36.012915279116896 ], [ 137.575715887678143, 35.995492775171499 ], [ 137.569113942954118, 35.995693585690503 ], [ 137.543458028765031, 35.982870801945978 ], [ 137.541982723324054, 35.966628053841646 ], [ 137.532557392109993, 35.961617225654493 ], [ 137.524519000751297, 35.942463640084952 ], [ 137.50355610872748, 35.939887801880616 ], [ 137.497749688997033, 35.92881946774429 ], [ 137.484214617011048, 35.916102559385649 ], [ 137.481932088195322, 35.900527864569369 ], [ 137.476520389004804, 35.894168692731057 ], [ 137.458329754314718, 35.889394504053143 ], [ 137.447670000170433, 35.893419506205305 ], [ 137.43489910550943, 35.905488918878575 ], [ 137.419401828831383, 35.904471693913592 ], [ 137.380816161037046, 35.892422225505356 ], [ 137.364370025856033, 35.878872532341575 ], [ 137.368185887968366, 35.874205306329884 ], [ 137.367585330598558, 35.860667000381795 ], [ 137.361127030088483, 35.846207838121302 ], [ 137.3558036955842, 35.84239950513313 ], [ 137.333317275571858, 35.841965054343859 ], [ 137.324551750862724, 35.81202091903026 ], [ 137.332321192768859, 35.809334802359274 ], [ 137.338114253969707, 35.798040919153152 ], [ 137.351105084132428, 35.801533413836012 ], [ 137.36028594004415, 35.795968441390528 ], [ 137.380960972570847, 35.801312891976409 ], [ 137.39179263302367, 35.798582613197084 ], [ 137.396958470157301, 35.785351531847766 ], [ 137.391130973016061, 35.780675134549881 ], [ 137.393261529895767, 35.777727081339776 ], [ 137.411091829624297, 35.777270134908861 ], [ 137.434266861426522, 35.771156837717911 ], [ 137.440179339105271, 35.758553252030993 ], [ 137.4499415824381, 35.75929241381391 ], [ 137.452494085933381, 35.763424359746466 ], [ 137.45969603134688, 35.761353559219458 ], [ 137.468093528293707, 35.747024946144393 ], [ 137.466630998621781, 35.741030224565236 ], [ 137.479024864206167, 35.726558863900493 ], [ 137.485212360861851, 35.724704135387583 ], [ 137.485719273625591, 35.706028332641495 ], [ 137.497633968732771, 35.698138891496683 ], [ 137.497196445859345, 35.688481946184936 ], [ 137.535373915873606, 35.66580505425992 ], [ 137.545447497304167, 35.651082280023275 ], [ 137.539723021999976, 35.646833109260626 ], [ 137.53844357990738, 35.63855033253185 ], [ 137.526598559775721, 35.634259506071373 ], [ 137.527691335886516, 35.628705332685001 ], [ 137.522652411979266, 35.619402559280729 ], [ 137.516826304290589, 35.618281172138438 ], [ 137.513808781150374, 35.608022837583917 ], [ 137.532036004757856, 35.593231197761611 ], [ 137.530982918426957, 35.588981748209164 ], [ 137.537603191334256, 35.584451468260681 ], [ 137.550520169170568, 35.587706198382421 ], [ 137.571303527735722, 35.584160918891371 ], [ 137.564118494972604, 35.568612864692 ], [ 137.572061309082187, 35.561248413583485 ], [ 137.573946834878598, 35.544724531112251 ], [ 137.602381050744953, 35.530723134565051 ], [ 137.607809416171676, 35.533295360192767 ], [ 137.631587497365217, 35.50991394567211 ], [ 137.628331946162461, 35.501467306171321 ], [ 137.624546356129486, 35.500606198117623 ], [ 137.624429689778481, 35.493826747906155 ], [ 137.631750219796913, 35.470043973150894 ], [ 137.618175745814028, 35.467769252249241 ], [ 137.593011193312009, 35.447029802183692 ], [ 137.615537588189227, 35.430594531712302 ], [ 137.62149367129598, 35.41238480171728 ], [ 137.632045914187643, 35.410703693620633 ], [ 137.634292827152308, 35.399750945749588 ], [ 137.613098054831426, 35.391688171072303 ], [ 137.590342750117884, 35.393679837554487 ], [ 137.575227782436286, 35.40000872112563 ], [ 137.577363307170913, 35.390436224851953 ], [ 137.586415253361338, 35.389557332704783 ], [ 137.598543306328565, 35.379028170913386 ], [ 137.603656809214385, 35.33255927898756 ], [ 137.590595421841272, 35.330595945646451 ], [ 137.583367912299423, 35.318995667016452 ], [ 137.571466251966058, 35.318348719917537 ], [ 137.565070388687559, 35.310825667070958 ], [ 137.556987613087927, 35.309874559363493 ], [ 137.559283995060355, 35.302109559208816 ], [ 137.556384526824559, 35.295537332581887 ], [ 137.561984252671209, 35.289317053839 ], [ 137.561761751403765, 35.283205945597956 ], [ 137.551394812021044, 35.284232054066081 ], [ 137.543429220781945, 35.2805534410885 ], [ 137.518935331400485, 35.283327306410115 ], [ 137.520675058207416, 35.273476468164517 ], [ 137.516141439975513, 35.274982586177487 ], [ 137.504802244428106, 35.262944837734153 ], [ 137.496985577322562, 35.264170639763279 ], [ 137.496985552141609, 35.259125918826157 ], [ 137.476498885315323, 35.25336397326879 ], [ 137.460735811308723, 35.240182612737442 ], [ 137.453365525398794, 35.240507586356102 ], [ 137.450450220101629, 35.235092332145484 ], [ 137.441887717344343, 35.233623973067949 ], [ 137.435526328677156, 35.224560386952362 ], [ 137.430312969567922, 35.222960386912405 ], [ 137.417078003147367, 35.240322585019328 ], [ 137.40841827468364, 35.234801199116077 ], [ 137.400744383946176, 35.241755080932307 ], [ 137.387456614731036, 35.240541468314177 ], [ 137.382784941571913, 35.247310640173964 ], [ 137.386827445430299, 35.252048972881823 ], [ 137.383180245771769, 35.260208693576374 ], [ 137.37774328102762, 35.258834801984563 ], [ 137.372551608170284, 35.26341980118292 ], [ 137.344099079409034, 35.25785789182828 ], [ 137.345119923245875, 35.261775387224418 ], [ 137.339950194745711, 35.264545107570711 ], [ 137.346342723338125, 35.270671774982475 ], [ 137.344629948313582, 35.273717613277256 ], [ 137.331174383591019, 35.2767631709836 ], [ 137.308081050700025, 35.291155693480505 ], [ 137.282670752153535, 35.287661613292869 ], [ 137.275086588575277, 35.290491892187106 ], [ 137.271428249014548, 35.285978586042972 ], [ 137.262663772914834, 35.285201946812435 ], [ 137.257197108060154, 35.272413054019296 ], [ 137.243655965650305, 35.268652251999868 ], [ 137.242218470406101, 35.264463918575018 ], [ 137.23538929937672, 35.26465808130547 ], [ 137.22399732801432, 35.256200864878053 ], [ 137.221012606746513, 35.260371693898605 ], [ 137.212255939460078, 35.259947251664357 ], [ 137.207009559043968, 35.253061414352828 ], [ 137.188717860341058, 35.252657250931463 ], [ 137.172894553341052, 35.264902802122663 ], [ 137.177109272874759, 35.269241693749223 ], [ 137.165226783389357, 35.283414748391976 ], [ 137.145601219220907, 35.279826135967426 ], [ 137.131714449362448, 35.293609892082884 ], [ 137.102333748303863, 35.301647504628704 ], [ 137.096033449684001, 35.290554171138126 ], [ 137.081310661058183, 35.29219083833658 ], [ 137.081840699888403, 35.305120838356061 ], [ 137.066769584948474, 35.308971640029199 ], [ 137.063522114154352, 35.318196918852777 ], [ 137.072978807426125, 35.326456919351415 ], [ 137.068217716474464, 35.335681919385138 ], [ 137.061357445090039, 35.339122170651706 ], [ 137.049898559670851, 35.334369386737876 ], [ 137.047184941731757, 35.336778000504353 ], [ 137.045241388079717, 35.350597135049782 ], [ 137.049849754362754, 35.359600468386986 ], [ 137.046952555116377, 35.366131279435024 ], [ 137.033981724976684, 35.368045972943321 ], [ 137.028337885584961, 35.376064559431939 ], [ 137.020013722055637, 35.375720945565263 ], [ 137.014906250922763, 35.381580080856111 ], [ 137.002236523696638, 35.381373946350607 ], [ 136.998445746374159, 35.391330025959974 ], [ 136.990112723623383, 35.394856667001648 ], [ 136.988963022225789, 35.401164413806725 ], [ 136.978264721339883, 35.403176054231551 ], [ 136.987098949756842, 35.415373278554 ], [ 136.986379532589467, 35.419938251649057 ], [ 136.993215641888469, 35.424195775314843 ], [ 136.986424526570659, 35.424604919181718 ], [ 136.964372606810457, 35.420939027114457 ], [ 136.961121479372878, 35.414892641282449 ], [ 136.961713021938522, 35.399771333380386 ], [ 136.922074188672923, 35.379178414352396 ], [ 136.888542724267381, 35.377912891966446 ], [ 136.864931828840895, 35.372605414308453 ], [ 136.833768715553788, 35.355922693577497 ], [ 136.800753721906858, 35.360933531657224 ], [ 136.792886782698929, 35.363457693917496 ], [ 136.794455667994725, 35.368334613052014 ], [ 136.774640946722343, 35.369604053784087 ], [ 136.768115383218401, 35.366901838349236 ], [ 136.759600077781442, 35.358086027148488 ], [ 136.725733307446262, 35.295614360414447 ], [ 136.707892723970076, 35.280088252371002 ], [ 136.696019948062258, 35.258640441403315 ], [ 136.678433528284813, 35.242971531810781 ], [ 136.68336797705058, 35.202296559039041 ], [ 136.67231739283352, 35.188777387066807 ], [ 136.674626304160711, 35.154627135134206 ], [ 136.671053800392656, 35.142081586296229 ], [ 136.672777717118038, 35.134777135256627 ], [ 136.669629948763145, 35.133729080632634 ], [ 136.655470195093471, 35.161307107736889 ], [ 136.646381555664334, 35.165813224700628 ], [ 136.645218249322852, 35.144572414285562 ], [ 136.63407130994301, 35.149832666744203 ], [ 136.623765188112998, 35.145830171025636 ], [ 136.615552114238767, 35.149928504796719 ], [ 136.602301245106446, 35.178039278589893 ], [ 136.597240414613452, 35.177090946190276 ], [ 136.592698469558741, 35.186594558891841 ], [ 136.587719026811669, 35.184463440835202 ], [ 136.585189274365575, 35.194459532181725 ], [ 136.577404838062876, 35.196745640299127 ], [ 136.576055667934838, 35.202252306099126 ], [ 136.559839584729161, 35.206578413862758 ], [ 136.556987885782405, 35.220625917751931 ], [ 136.547371245386785, 35.220316226312832 ], [ 136.550444864638848, 35.233055081726718 ], [ 136.540854577976461, 35.237412612701974 ], [ 136.541392633363444, 35.245749278606354 ], [ 136.536464033788207, 35.247571225032061 ], [ 136.534174889559608, 35.257089000257224 ], [ 136.516010998908541, 35.253893747698328 ], [ 136.51079822255997, 35.238630134673031 ], [ 136.505984889990714, 35.235060720975525 ], [ 136.497086278209281, 35.237928505196408 ], [ 136.489449078911889, 35.235519891429874 ], [ 136.482446861233711, 35.239805467648239 ], [ 136.479779364126443, 35.234273252108949 ], [ 136.47303075166792, 35.237432135184918 ], [ 136.470272698226495, 35.232693801577739 ], [ 136.466254084858178, 35.238053531645221 ], [ 136.461663527849623, 35.236226027409316 ], [ 136.440828833284058, 35.216732721138214 ], [ 136.434539390380678, 35.220448279164827 ], [ 136.431739389861036, 35.229229107637252 ], [ 136.415130506167998, 35.217743586097697 ], [ 136.392471919943205, 35.229819694223579 ], [ 136.392049689141913, 35.234180532006008 ], [ 136.385685525166878, 35.235114693788148 ], [ 136.377266641442361, 35.24326746721988 ], [ 136.396962190852491, 35.257731332934725 ], [ 136.39354136224415, 35.261912999685251 ], [ 136.395960803848084, 35.280229386576991 ], [ 136.39103163410266, 35.289969386977702 ], [ 136.406847781599936, 35.305264387241721 ], [ 136.412264162661018, 35.315562693963216 ], [ 136.411427249967687, 35.329014081334833 ], [ 136.422325058254842, 35.348389613290067 ], [ 136.421423112886373, 35.35391683669269 ], [ 136.410559494125437, 35.352543505378549 ], [ 136.409727030378235, 35.356967667124195 ], [ 136.413528417902285, 35.359972919015036 ], [ 136.411911776807074, 35.369895972820927 ], [ 136.436483995340154, 35.378822918642811 ], [ 136.444351829373545, 35.389425108082321 ], [ 136.427965226613992, 35.400784505100887 ], [ 136.420306109039757, 35.412908054263369 ], [ 136.411808078679996, 35.418598054056986 ], [ 136.411839493797629, 35.422406080376334 ], [ 136.418886744128031, 35.427775505135514 ], [ 136.415729001392378, 35.43342241391332 ], [ 136.423119027421194, 35.439734359653016 ], [ 136.426222698418883, 35.448400973326329 ], [ 136.420538611667666, 35.465962000745776 ], [ 136.401619467664318, 35.470016999784775 ], [ 136.398005356761814, 35.480928613564743 ], [ 136.386718715796178, 35.488809720692132 ], [ 136.394094941728213, 35.506323252216362 ], [ 136.400071114790194, 35.513639334187985 ], [ 136.405677807684697, 35.513455413836311 ], [ 136.399056978097178, 35.521342666930593 ], [ 136.400404500667264, 35.53008183790655 ], [ 136.384252775645109, 35.533091333698167 ], [ 136.372800583879894, 35.559723333365184 ], [ 136.362640271831197, 35.558746387236056 ], [ 136.356662140045842, 35.539914467578683 ], [ 136.345976809182503, 35.536128107726029 ], [ 136.34092788481405, 35.537283413698617 ], [ 136.33732014380962, 35.550254531621363 ], [ 136.329564111694481, 35.550917667416456 ], [ 136.32244319070071, 35.544356080668649 ], [ 136.3175033846735, 35.54739736030001 ], [ 136.316231192915325, 35.556923748332395 ], [ 136.32267041520754, 35.569467612740198 ], [ 136.324449390227187, 35.584180080746194 ], [ 136.320309999706751, 35.601553414258717 ], [ 136.314981673965121, 35.60592953242201 ], [ 136.323711479401368, 35.616444224121722 ], [ 136.315764811696795, 35.623424504637228 ], [ 136.293703890622169, 35.618185639855426 ], [ 136.288559415984309, 35.620588170607618 ], [ 136.287344746662825, 35.62809953226764 ], [ 136.279164188676418, 35.636685640430017 ], [ 136.283103139198602, 35.643736441283806 ], [ 136.276629026808223, 35.654699505278018 ], [ 136.290544422986841, 35.665936107965081 ], [ 136.288788054225392, 35.671377748284499 ], [ 136.298907302330235, 35.677683279160078 ], [ 136.292014501568019, 35.683882720611109 ], [ 136.291822023267855, 35.690523305606121 ], [ 136.297797587488731, 35.691841333111086 ], [ 136.309463450977546, 35.70351583818541 ], [ 136.311751750742815, 35.711955305592937 ], [ 136.323953138926299, 35.716746999574411 ], [ 136.320448975539875, 35.722544224636295 ], [ 136.327002865889654, 35.731433972699733 ], [ 136.325198417573006, 35.743648440623076 ], [ 136.318386160992645, 35.751058467574296 ], [ 136.327947833925464, 35.77510186495914 ], [ 136.346527562097322, 35.776046865370574 ], [ 136.35708869029088, 35.786831612688843 ], [ 136.377776471606921, 35.795194135001395 ], [ 136.388798105748037, 35.791895251764515 ], [ 136.389500610265031, 35.788042198188975 ], [ 136.400275057647832, 35.789334694840363 ], [ 136.409207003700317, 35.779931082253711 ], [ 136.418505330856419, 35.782433305552672 ], [ 136.430934189061645, 35.774991919241756 ], [ 136.445804747091415, 35.772908306073532 ], [ 136.458932243628169, 35.779067197992845 ], [ 136.472598612136267, 35.772695558853002 ], [ 136.485714448962767, 35.776454440819862 ], [ 136.5059307508036, 35.750293334269998 ], [ 136.513708833395981, 35.762248333393927 ], [ 136.513306886803434, 35.775330279269042 ], [ 136.522814967336899, 35.78816553211368 ], [ 136.544947691183097, 35.778774694396702 ], [ 136.555817690633944, 35.78097774742514 ], [ 136.570745446445244, 35.777423838039738 ], [ 136.585986550339044, 35.784334666611642 ], [ 136.58523158207197, 35.78963077504028 ], [ 136.589652140234193, 35.795547413882105 ], [ 136.59914963664653, 35.798529919220471 ], [ 136.611451283949691, 35.788796278825259 ], [ 136.622056809873925, 35.786799864821944 ], [ 136.627647108127576, 35.790841531411616 ], [ 136.626627665434512, 35.796838468020951 ], [ 136.637853773932534, 35.797304558758412 ], [ 136.645195188007619, 35.806831748086779 ], [ 136.652510999283209, 35.798725359887499 ], [ 136.653777912021042, 35.78732008125678 ], [ 136.657665422221498, 35.78348258595264 ], [ 136.666135421612466, 35.785136441893314 ], [ 136.676959300231601, 35.793253053585602 ], [ 136.68977875468579, 35.789282748200321 ], [ 136.697120700260143, 35.794062721317573 ], [ 136.710047911481979, 35.79204325229432 ], [ 136.720584060106376, 35.800217918821943 ], [ 136.723383798923237, 35.808194251563521 ], [ 136.741096550065777, 35.801068774604289 ], [ 136.755011582018938, 35.809477720820212 ], [ 136.76390963712015, 35.810607198263654 ], [ 136.774385472711515, 35.806673359488002 ], [ 136.776021283755313, 35.798833106762515 ], [ 136.78931683480414, 35.79943591873274 ], [ 136.798528559945112, 35.817742306062598 ], [ 136.797089688738197, 35.828095332933344 ], [ 136.802188106396102, 35.843961441367469 ], [ 136.820916419657124, 35.843933973374249 ], [ 136.831130336695765, 35.851934279343595 ], [ 136.830078197350986, 35.86584202678813 ], [ 136.81899824936977, 35.881655586036516 ], [ 136.823768586251276, 35.892766387059169 ], [ 136.811956472313454, 35.912450197618568 ], [ 136.805964812026559, 35.912773801569756 ], [ 136.798984305781119, 35.920643225604408 ], [ 136.784782943178357, 35.924018224761312 ], [ 136.793244162488122, 35.945981504642759 ], [ 136.75286535715054, 35.95645991859044 ], [ 136.748845939788339, 35.963601864834231 ], [ 136.753607082001281, 35.968373531813086 ], [ 136.752250829712125, 35.988605197671802 ], [ 136.726745058237952, 35.995937775008372 ], [ 136.735726109072743, 36.032314694367699 ], [ 136.735477030140942, 36.047804972521533 ], [ 136.732792580812998, 36.048881945745279 ], [ 136.74463929976389, 36.060099413557168 ], [ 136.764969882953778, 36.069392414028755 ], [ 136.75396919582181, 36.090198027217241 ], [ 136.756178106134712, 36.099111919379652 ], [ 136.768813190576338, 36.111866919422823 ], [ 136.772290505602427, 36.126116640370697 ], [ 136.778587445254402, 36.129398027297157 ], [ 136.780785031304163, 36.141544694432127 ], [ 136.775831439569288, 36.143913891812701 ], [ 136.773372632840847, 36.157443333143362 ], [ 136.766449274014803, 36.162555801808878 ], [ 136.786442049361199, 36.16618969419909 ], [ 136.798407276474677, 36.172564107747405 ], [ 136.80205866337667, 36.187059081011853 ], [ 136.811243086899026, 36.196634613396725 ], [ 136.822602502803306, 36.201497666783951 ], [ 136.820993645340536, 36.21074183856507 ], [ 136.831644721027146, 36.21759653235415 ], [ 136.832291671723283, 36.223607359891787 ], [ 136.840415005847944, 36.231414306225304 ], [ 136.847298885335363, 36.245630135322529 ], [ 136.851823333180391, 36.247102081795674 ], [ 136.844286693376262, 36.259240946412604 ], [ 136.833671997065039, 36.265827585574641 ], [ 136.814578690354324, 36.266401999652601 ], [ 136.814402309019442, 36.270314467838489 ], [ 136.806002892019933, 36.275806108665051 ], [ 136.805942891950963, 36.284374973226477 ], [ 136.792287082383041, 36.299211026967384 ], [ 136.804176808712782, 36.306191053874102 ], [ 136.80939204920378, 36.302540774936858 ], [ 136.826184552874906, 36.302548333738685 ], [ 136.832367639255267, 36.306811414315348 ], [ 136.832518755036631, 36.31541805400002 ], [ 136.842496589246252, 36.332715865145133 ], [ 136.837151920125052, 36.347215585930599 ], [ 136.844063333256258, 36.351111693649784 ], [ 136.85206413655078, 36.347428665900281 ], [ 136.865100271860115, 36.349660359637937 ], [ 136.864134748020319, 36.355200640297369 ], [ 136.871220921008785, 36.367549000186273 ], [ 136.876304188687413, 36.35794483788402 ], [ 136.869578053884197, 36.350716197894258 ], [ 136.875741115060464, 36.350105667042953 ], [ 136.874756913201054, 36.342792891878503 ], [ 136.890090532152385, 36.345558468148852 ], [ 136.907474227653552, 36.36084155869105 ], [ 136.932756666886689, 36.34829322555197 ], [ 136.93964389095288, 36.349208224579968 ], [ 136.954896886582105, 36.339350440870192 ], [ 136.961408780390911, 36.322947081043026 ], [ 136.973288715801687, 36.309852360298237 ], [ 136.957734694600504, 36.277936802241697 ], [ 136.967889391282483, 36.275241532270968 ], [ 136.970722191875666, 36.277749027395771 ], [ 136.975305771943908, 36.274364026878402 ], [ 136.986524968252752, 36.282464558692482 ], [ 136.986216108686563, 36.286274559023752 ], [ 137.002680830156237, 36.286925667285743 ], [ 137.012595576924355, 36.293099801814435 ], [ 137.01080949366326, 36.298028693669323 ], [ 137.02125121886877, 36.30917646761992 ], [ 137.018201505395268, 36.311452306378897 ], [ 137.019741244562852, 36.318280918929304 ], [ 137.037570973221932, 36.317438666960982 ], [ 137.051514915680855, 36.328132838160002 ], [ 137.052533280986154, 36.338539774890762 ], [ 137.058735524724739, 36.342500333423686 ], [ 137.048904423000749, 36.345494802443227 ], [ 137.062166471605451, 36.366140919068187 ], [ 137.058387860311541, 36.368234800695575 ], [ 137.059361776624769, 36.373417865242345 ], [ 137.078726005001158, 36.384311441319994 ], [ 137.094882671797905, 36.383966721287209 ], [ 137.091944111831367, 36.396540332570339 ], [ 137.10192577175701, 36.399193107775773 ], [ 137.111510310852282, 36.415382838147536 ], [ 137.12200031076577, 36.417150053632099 ], [ 137.132267613359772, 36.434563108400766 ], [ 137.143389584861552, 36.438469748080479 ], [ 137.144191828690055, 36.445521135292211 ], [ 137.152832698370389, 36.447654748967523 ], [ 137.159696614707059, 36.45644419834116 ], [ 137.171244667907217, 36.454726693781936 ], [ 137.174939364360284, 36.450062252071348 ], [ 137.177998832779963, 36.454199747720224 ], [ 137.191675252111281, 36.45521336010853 ], [ 137.19312574705566, 36.448011666505238 ], [ 137.204870725703472, 36.436773892001554 ], [ 137.205629830852104, 36.427604170596055 ], [ 137.208944304735951, 36.431690838361533 ], [ 137.213980973143407, 36.430749694243048 ], [ 137.213869610993811, 36.438792774666865 ], [ 137.232064358283537, 36.444502467814686 ], [ 137.247085577937128, 36.461716919000651 ], [ 137.256378585603329, 36.451141332406621 ], [ 137.278484474578931, 36.464995748255205 ], [ 137.279028365666591, 36.465064639921252 ] ] ] } }
]
}
