{
"type": "FeatureCollection",
"name": "23_aichi_forecast",
"crs": { "type": "name", "properties": { "name": "urn:ogc:def:crs:OGC:1.3:CRS84" } },
"features": [
{ "type": "Feature", "properties": { "code": "230000", "name": "愛知県", "PrefCode": "23", "regioncode": "230000" }, "geometry": { "type": "MultiPolygon", "coordinates": [ [ [ [ 137.114305006271138, 34.646087693792083 ], [ 137.115523191042485, 34.643214865273876 ], [ 137.11426572028688, 34.646094721094528 ], [ 137.114305006271138, 34.646087693792083 ] ] ], [ [ [ 137.124428689832257, 34.649726748290846 ], [ 137.128363281340398, 34.648307333017044 ], [ 137.124389079192724, 34.649745413719927 ], [ 137.124428689832257, 34.649726748290846 ] ] ], [ [ [ 137.125826938662385, 34.65278177495901 ], [ 137.125305811214275, 34.650115332756457 ], [ 137.125812088157431, 34.652792135148957 ], [ 137.125826938662385, 34.65278177495901 ] ] ], [ [ [ 137.093343280667909, 34.653255919125399 ], [ 137.09568727634678, 34.650726639722677 ], [ 137.093266355358082, 34.653260198099701 ], [ 137.093343280667909, 34.653255919125399 ] ] ], [ [ [ 137.008631504740265, 34.659648865003192 ], [ 137.007743917048174, 34.656629586386373 ], [ 137.008611970566108, 34.659653973152388 ], [ 137.008631504740265, 34.659648865003192 ] ] ], [ [ [ 136.999492049118885, 34.681103134901832 ], [ 136.997771751265418, 34.679416387156607 ], [ 136.999483501962118, 34.681122613317996 ], [ 136.999492049118885, 34.681103134901832 ] ] ], [ [ [ 137.005724864411036, 34.68074380178507 ], [ 137.00223046676274, 34.679305559204238 ], [ 137.001811633600028, 34.682552612712982 ], [ 137.003556303980304, 34.680746613065764 ], [ 137.005724864411036, 34.68074380178507 ] ] ], [ [ [ 136.999999999700321, 34.681651440761414 ], [ 137.004312218334235, 34.685517108227998 ], [ 137.000004422566121, 34.681660532007982 ], [ 136.999999999700321, 34.681651440761414 ] ] ], [ [ [ 137.008373332763199, 34.685602495258991 ], [ 137.010147328236712, 34.677322973176729 ], [ 137.005343890907852, 34.674704694166337 ], [ 137.006060505787786, 34.666806829071959 ], [ 137.003220025883593, 34.6664878017707 ], [ 137.002102048970414, 34.670291414217445 ], [ 136.998113501736725, 34.670440135104229 ], [ 136.999410362798017, 34.678081874179213 ], [ 137.006942335120698, 34.678868720714945 ], [ 137.004418197142172, 34.682549892263751 ], [ 137.008383890803998, 34.685620828838239 ], [ 137.008373332763199, 34.685602495258991 ] ] ], [ [ [ 137.237789442428834, 34.690482251754588 ], [ 137.234757418620006, 34.689165414052695 ], [ 137.23773878092004, 34.6905894680296 ], [ 137.237789442428834, 34.690482251754588 ] ] ], [ [ [ 136.9753723082855, 34.700866975230781 ], [ 136.974685914223642, 34.698242413556613 ], [ 136.975466445719917, 34.70091780221486 ], [ 136.9753723082855, 34.700866975230781 ] ] ], [ [ [ 136.999999999700321, 34.709129829278254 ], [ 136.99771997369794, 34.707905973382026 ], [ 137.000024942397204, 34.709149081065277 ], [ 136.999999999700321, 34.709129829278254 ] ] ], [ [ [ 137.007616394081424, 34.709139720921428 ], [ 137.013795252748764, 34.706564225358761 ], [ 137.01081306127378, 34.702626387297983 ], [ 136.996216393571785, 34.701373585822353 ], [ 136.996021166943365, 34.705162559104849 ], [ 137.007452503430386, 34.709580558695905 ], [ 137.007616394081424, 34.709139720921428 ] ] ], [ [ [ 137.253259857256694, 34.715445532385445 ], [ 137.251593358646687, 34.711361666907464 ], [ 137.246521414331824, 34.712034107987733 ], [ 137.253367911699797, 34.715636387409404 ], [ 137.253259857256694, 34.715445532385445 ] ] ], [ [ [ 137.04632968916394, 34.719857000200477 ], [ 137.044424863916447, 34.715880252072054 ], [ 137.046647056316715, 34.720417161822638 ], [ 137.04632968916394, 34.719857000200477 ] ] ], [ [ [ 137.275191581726176, 34.729932721118246 ], [ 137.272835551319758, 34.732527161799112 ], [ 137.275000000049999, 34.730154000206994 ], [ 137.275191581726176, 34.729932721118246 ] ] ], [ [ [ 137.04095108862191, 34.732421828704503 ], [ 137.054230000414236, 34.727423225001871 ], [ 137.049359494345254, 34.723673359637871 ], [ 137.056278833201645, 34.722470000190413 ], [ 137.052459442149598, 34.715752197605866 ], [ 137.046767173366447, 34.713838225353868 ], [ 137.050207807744187, 34.719061864613423 ], [ 137.044054773109337, 34.72650972064713 ], [ 137.037672217998534, 34.724277802078973 ], [ 137.037663969416712, 34.720256441281776 ], [ 137.031184500664267, 34.723509279229916 ], [ 137.034208910812595, 34.725959135006121 ], [ 137.030328365861465, 34.727830721310795 ], [ 137.040934059959, 34.732425613051646 ], [ 137.04095108862191, 34.732421828704503 ] ] ], [ [ [ 137.275000000049999, 34.739724559340971 ], [ 137.270926161113493, 34.737479107774675 ], [ 137.286683865268287, 34.746420198133706 ], [ 137.278388974671543, 34.741666666883248 ], [ 137.275000000049999, 34.739724559340971 ] ] ], [ [ [ 137.318809415921919, 34.748491693836627 ], [ 137.318687886037196, 34.733119198092595 ], [ 137.308058754707872, 34.735051225133986 ], [ 137.314250441304921, 34.748553468267971 ], [ 137.318390142990779, 34.748496721046877 ], [ 137.318809415921919, 34.748491693836627 ] ] ], [ [ [ 137.102455771916425, 34.769464332712857 ], [ 137.103314941931103, 34.766845720953313 ], [ 137.098591089207503, 34.76602649522664 ], [ 137.102375525410253, 34.769550027311936 ], [ 137.102455771916425, 34.769464332712857 ] ] ], [ [ [ 137.147503112678578, 34.773409720582208 ], [ 137.144282918322119, 34.771162161904329 ], [ 137.147509221773248, 34.773421332628459 ], [ 137.147503112678578, 34.773409720582208 ] ] ], [ [ [ 137.14590756158475, 34.78001713498287 ], [ 137.141932801857365, 34.778890865421147 ], [ 137.145913113099709, 34.780033532321738 ], [ 137.14590756158475, 34.78001713498287 ] ] ], [ [ [ 137.172540894946451, 34.780741135095354 ], [ 137.174646278003365, 34.778215891849982 ], [ 137.172534112259541, 34.780747720830732 ], [ 137.172540894946451, 34.780741135095354 ] ] ], [ [ [ 137.083012724257856, 34.779184387049895 ], [ 137.081166550096327, 34.783171278631642 ], [ 137.082794772660691, 34.779452973176205 ], [ 137.083012724257856, 34.779184387049895 ] ] ], [ [ [ 137.14057077771929, 34.785030108053093 ], [ 137.137243332913499, 34.784963972809123 ], [ 137.141666667282948, 34.785126802260152 ], [ 137.14057077771929, 34.785030108053093 ] ] ], [ [ [ 137.108333333416681, 34.785750586420477 ], [ 137.106308301187255, 34.783889414265104 ], [ 137.108505031981736, 34.785911585751137 ], [ 137.108333333416681, 34.785750586420477 ] ] ], [ [ [ 137.235769663139536, 34.789467441269437 ], [ 137.234763748048636, 34.786626467637404 ], [ 137.228684669162249, 34.787799775339408 ], [ 137.235698974628008, 34.789478027189261 ], [ 137.235769663139536, 34.789467441269437 ] ] ], [ [ [ 137.192967496952519, 34.793503936757304 ], [ 137.191950259397004, 34.787251224864178 ], [ 137.19252037561489, 34.794014820027996 ], [ 137.192967496952519, 34.793503936757304 ] ] ], [ [ [ 137.298628443947564, 34.809903666920718 ], [ 137.308039805093017, 34.805074667262147 ], [ 137.311373501985599, 34.799063694034317 ], [ 137.301462166345914, 34.798045495103565 ], [ 137.298563411272426, 34.809564332927664 ], [ 137.298628443947564, 34.809903666920718 ] ] ], [ [ [ 137.231915161655479, 34.812164918676103 ], [ 137.231392502661947, 34.809815054021556 ], [ 137.231891919576469, 34.812177278958302 ], [ 137.231915161655479, 34.812164918676103 ] ] ], [ [ [ 137.225000000149976, 34.814727026930825 ], [ 137.230542698187037, 34.815064946290306 ], [ 137.225072140167185, 34.814805802146111 ], [ 137.225000000149976, 34.814727026930825 ] ] ], [ [ [ 136.957136328878505, 34.827601359814935 ], [ 136.943367418771459, 34.818636441019009 ], [ 136.946081414425748, 34.82488380194593 ], [ 136.954891828794871, 34.83048938687574 ], [ 136.957100584424552, 34.827646639780653 ], [ 136.957136328878505, 34.827601359814935 ] ] ], [ [ [ 136.805831479439234, 34.877642197929163 ], [ 136.819848715745707, 34.867114305980465 ], [ 136.822743306958159, 34.861384108289997 ], [ 136.819028755272939, 34.861233441270372 ], [ 136.819666160564907, 34.858579864769013 ], [ 136.823472554614796, 34.859173107952643 ], [ 136.824217081752977, 34.853009919072576 ], [ 136.824469636564572, 34.848743693566632 ], [ 136.812648003302797, 34.8467490269461 ], [ 136.814197522597624, 34.840170586003808 ], [ 136.808751505277769, 34.839274999741519 ], [ 136.798433410773328, 34.87566927871427 ], [ 136.80570822285631, 34.877685801558528 ], [ 136.805831479439234, 34.877642197929163 ] ] ], [ [ [ 136.979356173648512, 34.929907135006317 ], [ 136.978794085678601, 34.926412577278654 ], [ 136.97930976683233, 34.929913846646741 ], [ 136.979356173648512, 34.929907135006317 ] ] ], [ [ [ 136.982987938242786, 34.949243360292883 ], [ 136.982418235713112, 34.946835242952147 ], [ 136.982948663949742, 34.949247712112253 ], [ 136.982987938242786, 34.949243360292883 ] ] ], [ [ [ 136.822054578256257, 34.960939225165134 ], [ 136.825745473274992, 34.96049402657809 ], [ 136.820272139947406, 34.949768774809172 ], [ 136.811019222259347, 34.954777108276971 ], [ 136.818691166863914, 34.964349440874059 ], [ 136.82163944220656, 34.96117453187918 ], [ 136.822054578256257, 34.960939225165134 ] ] ], [ [ [ 136.821682502645444, 35.008035837583861 ], [ 136.815448611764054, 35.000465467807146 ], [ 136.819757638704118, 34.997594026942863 ], [ 136.815406938979095, 35.000407305952479 ], [ 136.811992217666784, 34.996027225376224 ], [ 136.800224720894221, 35.003611108365988 ], [ 136.804143747835724, 35.007771999877946 ], [ 136.801709999816694, 35.009463666914769 ], [ 136.804200531929041, 35.007831107819413 ], [ 136.821676393550774, 35.017635279344745 ], [ 136.82168233537152, 35.008333333316727 ], [ 136.821682502645444, 35.008035837583861 ] ] ], [ [ [ 136.800808248701742, 35.040183468392399 ], [ 136.80079250337144, 35.043174639597964 ], [ 136.80080538256243, 35.040820972609822 ], [ 136.800808248701742, 35.040183468392399 ] ] ], [ [ [ 136.800792244366676, 35.043625747630188 ], [ 136.801204578128818, 35.046781386851592 ], [ 136.800796978397898, 35.044284640423882 ], [ 136.800792244366676, 35.043625747630188 ] ] ], [ [ [ 136.830902606769996, 35.049372000017854 ], [ 136.83897133585856, 35.030196694022266 ], [ 136.81085352756827, 35.026652559368188 ], [ 136.807844332150239, 35.048509468337329 ], [ 136.829984332411073, 35.049371532370401 ], [ 136.830902606769996, 35.049372000017854 ] ] ], [ [ [ 136.848669754305774, 35.056045251986859 ], [ 136.85495644618311, 35.055308468011447 ], [ 136.85202849461939, 35.043851278713589 ], [ 136.846176550307632, 35.045527918978337 ], [ 136.850235161923251, 35.04060019804075 ], [ 136.844082698357852, 35.041621558987799 ], [ 136.848150117034379, 35.036701027230663 ], [ 136.84552233488796, 35.033911838360723 ], [ 136.837977108356881, 35.051836946418007 ], [ 136.840585031673982, 35.056035945802307 ], [ 136.84865557739306, 35.056049720718079 ], [ 136.848669754305774, 35.056045251986859 ] ] ], [ [ [ 136.878157302017939, 35.071924891620483 ], [ 136.882259779864967, 35.069421504598836 ], [ 136.876445863385925, 35.053661838123389 ], [ 136.873160869278763, 35.049686766331263 ], [ 136.865253839193429, 35.050006504996247 ], [ 136.869457587897386, 35.068062054320421 ], [ 136.87815880658377, 35.07194074756751 ], [ 136.878157302017939, 35.071924891620483 ] ] ], [ [ [ 136.869987392903909, 35.084753386959278 ], [ 136.869510557965896, 35.087926170856178 ], [ 136.870077275645826, 35.08491002727601 ], [ 136.869987392903909, 35.084753386959278 ] ] ], [ [ [ 136.989451193118157, 35.421685224293697 ], [ 136.978264721339883, 35.403176054231551 ], [ 136.988963022225789, 35.401164413806725 ], [ 136.990112723623383, 35.394856667001648 ], [ 136.998445746374159, 35.391330025959974 ], [ 137.002236523696638, 35.381373946350607 ], [ 137.014906250922763, 35.381580080856111 ], [ 137.020013722055637, 35.375720945565263 ], [ 137.028337885584961, 35.376064559431939 ], [ 137.033981724976684, 35.368045972943321 ], [ 137.046952555116377, 35.366131279435024 ], [ 137.049849754362754, 35.359600468386986 ], [ 137.045241388079717, 35.350597135049782 ], [ 137.047184941731757, 35.336778000504353 ], [ 137.049898559670851, 35.334369386737876 ], [ 137.061357445090039, 35.339122170651706 ], [ 137.068217716474464, 35.335681919385138 ], [ 137.072978807426125, 35.326456919351415 ], [ 137.063522114154352, 35.318196918852777 ], [ 137.066769584948474, 35.308971640029199 ], [ 137.081840699888403, 35.305120838356061 ], [ 137.081310661058183, 35.29219083833658 ], [ 137.096033449684001, 35.290554171138126 ], [ 137.102333748303863, 35.301647504628704 ], [ 137.131714449362448, 35.293609892082884 ], [ 137.145601219220907, 35.279826135967426 ], [ 137.165226783389357, 35.283414748391976 ], [ 137.177109272874759, 35.269241693749223 ], [ 137.172894553341052, 35.264902802122663 ], [ 137.186500634896447, 35.253070027160049 ], [ 137.207009559043968, 35.253061414352828 ], [ 137.212255939460078, 35.259947251664357 ], [ 137.221012606746513, 35.260371693898605 ], [ 137.22399732801432, 35.256200864878053 ], [ 137.23538929937672, 35.26465808130547 ], [ 137.242218470406101, 35.264463918575018 ], [ 137.243655965650305, 35.268652251999868 ], [ 137.257197108060154, 35.272413054019296 ], [ 137.262663772914834, 35.285201946812435 ], [ 137.271428249014548, 35.285978586042972 ], [ 137.275086588575277, 35.290491892187106 ], [ 137.282670752153535, 35.287661613292869 ], [ 137.308081050700025, 35.291155693480505 ], [ 137.331174383591019, 35.2767631709836 ], [ 137.344629948313582, 35.273717613277256 ], [ 137.346342723338125, 35.270671774982475 ], [ 137.339950194745711, 35.264545107570711 ], [ 137.345119923245875, 35.261775387224418 ], [ 137.344099079409034, 35.25785789182828 ], [ 137.372551608170284, 35.26341980118292 ], [ 137.37774328102762, 35.258834801984563 ], [ 137.383180245771769, 35.260208693576374 ], [ 137.386827445430299, 35.252048972881823 ], [ 137.382784941571913, 35.247310640173964 ], [ 137.387022995814618, 35.240884253005902 ], [ 137.400744383946176, 35.241755080932307 ], [ 137.40841827468364, 35.234801199116077 ], [ 137.417078003147367, 35.240322585019328 ], [ 137.429814358445924, 35.222881224988612 ], [ 137.435526328677156, 35.224560386952362 ], [ 137.441887717344343, 35.233623973067949 ], [ 137.450450220101629, 35.235092332145484 ], [ 137.453365525398794, 35.240507586356102 ], [ 137.460735811308723, 35.240182612737442 ], [ 137.476498885315323, 35.25336397326879 ], [ 137.496985552141609, 35.259125918826157 ], [ 137.496985577322562, 35.264170639763279 ], [ 137.504802244428106, 35.262944837734153 ], [ 137.516141439975513, 35.274982586177487 ], [ 137.520675058207416, 35.273476468164517 ], [ 137.518935331400485, 35.283327306410115 ], [ 137.543429220781945, 35.2805534410885 ], [ 137.551394812021044, 35.284232054066081 ], [ 137.561521478633381, 35.283153721966755 ], [ 137.562087589270845, 35.289865107888488 ], [ 137.565787029647709, 35.290156505318521 ], [ 137.570752308971919, 35.282727053910435 ], [ 137.555759780389621, 35.274545946438309 ], [ 137.557895887885024, 35.265230107683351 ], [ 137.547612528795185, 35.25897483811832 ], [ 137.546005576995867, 35.251680667229039 ], [ 137.552558053611392, 35.240348170731522 ], [ 137.562631115233899, 35.235365108213216 ], [ 137.57872583672804, 35.219435136222614 ], [ 137.578736886698039, 35.19842822508258 ], [ 137.5914838387082, 35.199339053954247 ], [ 137.614859727794283, 35.210460440896668 ], [ 137.633238910747195, 35.212202387230434 ], [ 137.644578911187864, 35.208991278724568 ], [ 137.64476477317578, 35.213772107996419 ], [ 137.65368953274583, 35.217743224570199 ], [ 137.653983410506044, 35.226776278702346 ], [ 137.668143476240516, 35.227349054215551 ], [ 137.678821555870172, 35.230966278570975 ], [ 137.681537135230656, 35.235234891776884 ], [ 137.687223527843571, 35.230726000404673 ], [ 137.704383022358684, 35.233937386801017 ], [ 137.711883021983908, 35.228822387443302 ], [ 137.721640025866577, 35.230850441394807 ], [ 137.723183023278011, 35.221625721050259 ], [ 137.735519468049119, 35.222697387374581 ], [ 137.743671388923531, 35.218802386720824 ], [ 137.75956756259302, 35.222102386915651 ], [ 137.768096693307825, 35.218405170562221 ], [ 137.766093306860739, 35.209997108379923 ], [ 137.77394966284669, 35.203250747823802 ], [ 137.783564111594501, 35.205988532344918 ], [ 137.795320195070985, 35.204068801733854 ], [ 137.822963799839499, 35.215880198912089 ], [ 137.838115667604029, 35.212466585564528 ], [ 137.827786252433611, 35.211324360231117 ], [ 137.83106316523299, 35.205300468242058 ], [ 137.821972606650547, 35.203732135129997 ], [ 137.816376303623542, 35.187994693600274 ], [ 137.807400194563343, 35.187825251434276 ], [ 137.803233605846344, 35.183518613093554 ], [ 137.810441946338869, 35.174813892447219 ], [ 137.817529728214481, 35.174985838325824 ], [ 137.825471946073549, 35.168200279019686 ], [ 137.821290829708119, 35.158440278596061 ], [ 137.829129442070212, 35.15226138665372 ], [ 137.821860829913476, 35.148007505242219 ], [ 137.814650830171786, 35.152383054134702 ], [ 137.812188053835712, 35.144608333208055 ], [ 137.814942217709245, 35.140575559114836 ], [ 137.805861673077857, 35.131124440740393 ], [ 137.800987496875564, 35.130860279278522 ], [ 137.797295551448656, 35.136384999867914 ], [ 137.792841114925523, 35.134764441325956 ], [ 137.792190271963591, 35.128605278710722 ], [ 137.798951946175407, 35.12553000020938 ], [ 137.80117917028258, 35.105955279212822 ], [ 137.795033061326762, 35.10290333272269 ], [ 137.792644449381896, 35.095365837663337 ], [ 137.778268340411614, 35.099623053760979 ], [ 137.773361388417356, 35.09049527943364 ], [ 137.775532217837622, 35.077614721442274 ], [ 137.741080558121325, 35.057110559205 ], [ 137.728752503125634, 35.040336945793456 ], [ 137.717137497197768, 35.035044720637416 ], [ 137.716520000197875, 35.027468891975843 ], [ 137.704919441878815, 35.014756107908113 ], [ 137.701029442354979, 35.003488332920256 ], [ 137.701904721026153, 34.998582774875217 ], [ 137.708131672738546, 34.994456946131208 ], [ 137.699836938623889, 34.984431667287652 ], [ 137.70712138784188, 34.971947224684698 ], [ 137.694631673413028, 34.970257775376069 ], [ 137.68950972769187, 34.956736667163511 ], [ 137.682976108960361, 34.955034999665543 ], [ 137.675821115352278, 34.94545972088946 ], [ 137.66858333285461, 34.948227225306255 ], [ 137.658133332986949, 34.94299722514188 ], [ 137.650998340301271, 34.933356386687933 ], [ 137.653140271806137, 34.926592224951264 ], [ 137.646951115002025, 34.918761945707274 ], [ 137.646383060929566, 34.908416108017036 ], [ 137.640525836698089, 34.904973333252769 ], [ 137.641251673226179, 34.893083332629772 ], [ 137.616252775844941, 34.875340829215929 ], [ 137.597450558096853, 34.872447224559835 ], [ 137.595265005875376, 34.859188332575513 ], [ 137.587251673226206, 34.849575829061337 ], [ 137.551589442398949, 34.851864440891291 ], [ 137.542273606341951, 34.842049161839384 ], [ 137.52979306140071, 34.843585828922926 ], [ 137.518338884831678, 34.83598777531563 ], [ 137.502673890887422, 34.83349582856971 ], [ 137.498886666786348, 34.82774166664467 ], [ 137.5012574973357, 34.8226577748365 ], [ 137.487013890878416, 34.811749440884057 ], [ 137.494281672960938, 34.802232775422283 ], [ 137.492942218208896, 34.78686610818437 ], [ 137.481951115151901, 34.782239721286146 ], [ 137.476717497014988, 34.774785559206236 ], [ 137.479052775565151, 34.771407225363191 ], [ 137.474106938684372, 34.749940559209506 ], [ 137.480550557762058, 34.740682775289883 ], [ 137.47823083028868, 34.735463891645338 ], [ 137.481858885179463, 34.721265828655135 ], [ 137.487762502737382, 34.716422494702442 ], [ 137.491789999608841, 34.702459721339096 ], [ 137.489272775618133, 34.68880333260779 ], [ 137.484679728386823, 34.684031946217374 ], [ 137.484963890771041, 34.674105108064339 ], [ 137.308222775760555, 34.639581495389734 ], [ 137.207117419233555, 34.610661694181886 ], [ 137.191998444172896, 34.604886586147074 ], [ 137.189194721359399, 34.600607306082338 ], [ 137.186694060182845, 34.608710251676825 ], [ 137.187129156685273, 34.602369342371333 ], [ 137.179588145276739, 34.602828531711395 ], [ 137.142913994585228, 34.590025774969604 ], [ 137.117264112149087, 34.58714227869325 ], [ 137.09613869014845, 34.590946197808819 ], [ 137.038317717188988, 34.578292467723259 ], [ 137.031332308739138, 34.580898387350771 ], [ 137.01763680939132, 34.578356252139372 ], [ 137.015316304004273, 34.581260306018351 ], [ 137.020306641138632, 34.589271748292617 ], [ 137.018486200178017, 34.58469082931839 ], [ 137.020938249400729, 34.583834802434239 ], [ 137.027256329416105, 34.590498107901396 ], [ 137.033743113254104, 34.608998306326839 ], [ 137.059620558342203, 34.653227720882683 ], [ 137.068320894793487, 34.661230134862876 ], [ 137.076158806583749, 34.662909892177822 ], [ 137.091380998634236, 34.657916251833626 ], [ 137.089957691094583, 34.649716081432075 ], [ 137.085076808647841, 34.647176720629204 ], [ 137.09116561640019, 34.64881169440423 ], [ 137.106429636818348, 34.642723359695367 ], [ 137.102266719133809, 34.639504026889369 ], [ 137.102558300924898, 34.632808360217723 ], [ 137.105532724056047, 34.637125053878208 ], [ 137.119264136930383, 34.634310468153615 ], [ 137.140813722375469, 34.645571586359665 ], [ 137.126830219639032, 34.654945693988623 ], [ 137.148310752439329, 34.654176305991768 ], [ 137.158034449030652, 34.657406107805684 ], [ 137.156546419981396, 34.655228721428387 ], [ 137.162729753675308, 34.654948053809676 ], [ 137.175084357557125, 34.659196559074019 ], [ 137.187444332190239, 34.669923468293462 ], [ 137.197675525205341, 34.668690720800157 ], [ 137.207183773912107, 34.678271360434962 ], [ 137.225227587982886, 34.676458197687737 ], [ 137.232259663152945, 34.682525640246126 ], [ 137.229200726232648, 34.684098333271493 ], [ 137.232673605802347, 34.68897813473319 ], [ 137.243471970655037, 34.68886191894245 ], [ 137.232669247687681, 34.699144386804051 ], [ 137.245475694347874, 34.70620846794651 ], [ 137.245482087628261, 34.709383494752558 ], [ 137.245557134254454, 34.706217332563881 ], [ 137.252173165059617, 34.705211386896053 ], [ 137.2606779897975, 34.695834819621268 ], [ 137.266905473009274, 34.708615441349593 ], [ 137.258465473203046, 34.715673945796027 ], [ 137.284827003563464, 34.730946775073676 ], [ 137.300929688554334, 34.728071828652048 ], [ 137.30088399490046, 34.693776972929015 ], [ 137.290460751662408, 34.693729414081247 ], [ 137.287016886919901, 34.679560251704288 ], [ 137.294142672346538, 34.683750747998658 ], [ 137.307318922929994, 34.67975669421611 ], [ 137.315828781173423, 34.688512829103843 ], [ 137.308307690647439, 34.691487720781765 ], [ 137.311455498572514, 34.696265774745768 ], [ 137.32297416282745, 34.694379441358194 ], [ 137.32506443637476, 34.702355378398067 ], [ 137.311793358576665, 34.69835949539447 ], [ 137.308483748226422, 34.70210974836624 ], [ 137.308342970152012, 34.724984775327187 ], [ 137.327922671594138, 34.724690613381142 ], [ 137.328109053390222, 34.727445467934047 ], [ 137.332923475937719, 34.7189797484167 ], [ 137.342926589190824, 34.727346865365575 ], [ 137.351755525097474, 34.727463865365166 ], [ 137.347310052117223, 34.73207564007879 ], [ 137.338832022679753, 34.728546775013683 ], [ 137.320314228119173, 34.7328344412565 ], [ 137.320573384853901, 34.770231413948636 ], [ 137.325752412344059, 34.770999693980741 ], [ 137.331039559028454, 34.780511945569856 ], [ 137.325601088819212, 34.785525666876083 ], [ 137.319822308852508, 34.780112053928178 ], [ 137.308571414139465, 34.778769919196463 ], [ 137.303326588651203, 34.792984802206888 ], [ 137.316666666933202, 34.797663613285181 ], [ 137.306589248095406, 34.808082558663216 ], [ 137.28870119300575, 34.812927972747786 ], [ 137.294801777380144, 34.810241251732407 ], [ 137.293527328323648, 34.804833414230757 ], [ 137.28070092121061, 34.804455305967622 ], [ 137.280848832707534, 34.810049332810536 ], [ 137.276743942878738, 34.81009602740977 ], [ 137.27643089516971, 34.805714026780947 ], [ 137.280962218331752, 34.803670107889218 ], [ 137.274574772707638, 34.805837305847035 ], [ 137.270552192429818, 34.803640864634247 ], [ 137.273066134794362, 34.801577864826641 ], [ 137.268144085880976, 34.809047387327098 ], [ 137.266843800201286, 34.803589532231172 ], [ 137.251401776970511, 34.805264891861327 ], [ 137.246464033987991, 34.814240413664209 ], [ 137.242663553879993, 34.814894639875774 ], [ 137.24592131022041, 34.812961639767934 ], [ 137.243911633914877, 34.809967775092787 ], [ 137.21607211363721, 34.823185720944309 ], [ 137.223572049410564, 34.815552973291119 ], [ 137.214454423033317, 34.815883332949511 ], [ 137.219129441670475, 34.812496972657186 ], [ 137.21374464300095, 34.803109359909058 ], [ 137.213623567273885, 34.805902072322851 ], [ 137.209669779736601, 34.802748161598458 ], [ 137.199074423346019, 34.807509559218829 ], [ 137.198568003410742, 34.811073612956932 ], [ 137.195941025258207, 34.80870044057292 ], [ 137.198379053150802, 34.806877531872658 ], [ 137.193439260613445, 34.808848621866446 ], [ 137.193571271197243, 34.798235702615614 ], [ 137.189787458224714, 34.797710531815653 ], [ 137.189875421813326, 34.793959000007874 ], [ 137.188234305668743, 34.797583999901747 ], [ 137.185774423351063, 34.791920972574871 ], [ 137.190615058438311, 34.792842891885982 ], [ 137.18660325563576, 34.78771469407792 ], [ 137.191276550272619, 34.788919225342056 ], [ 137.187877444788342, 34.787958774577817 ], [ 137.186936523701661, 34.782327864739216 ], [ 137.189626589295699, 34.776150441389802 ], [ 137.17506916980642, 34.764819828972009 ], [ 137.169533644761941, 34.765211892015259 ], [ 137.167448806717175, 34.771977802033973 ], [ 137.173731855440792, 34.770314053550806 ], [ 137.175322114024425, 34.778967000226942 ], [ 137.178292114289661, 34.778511026862475 ], [ 137.168335512174167, 34.787631666867981 ], [ 137.168313994994946, 34.784949134894703 ], [ 137.161021283705395, 34.786606865114777 ], [ 137.164216446332034, 34.783819440714694 ], [ 137.152536939228412, 34.781320305687586 ], [ 137.144261672738025, 34.785831000200574 ], [ 137.148035667811882, 34.785352134593381 ], [ 137.145541114830621, 34.788507720754751 ], [ 137.13613036342565, 34.789051413991615 ], [ 137.13001752309026, 34.781925386647345 ], [ 137.114938638007857, 34.789232666954092 ], [ 137.117173774350249, 34.790281494995043 ], [ 137.106767250408325, 34.791250892214975 ], [ 137.107828520569797, 34.787133694264639 ], [ 137.102859779755136, 34.786785558606709 ], [ 137.105571361629131, 34.784236585849783 ], [ 137.098727198001825, 34.783640945972934 ], [ 137.088284086041767, 34.775075864859332 ], [ 137.076262360819328, 34.787057531579876 ], [ 137.043229389724615, 34.775623945888469 ], [ 137.025524577797114, 34.777657278860374 ], [ 137.014219143698597, 34.787492225186099 ], [ 137.020288911004513, 34.78945166716079 ], [ 137.013763890691052, 34.790871559075242 ], [ 137.012150751555964, 34.796024775123328 ], [ 137.000393281324932, 34.804345639939356 ], [ 136.996718392439902, 34.814345414009722 ], [ 137.00152114088803, 34.813199026613859 ], [ 136.964418080130372, 34.822757387343586 ], [ 136.956743528391144, 34.833290026813359 ], [ 136.954217664613566, 34.848332135020087 ], [ 136.965042802283506, 34.85223302713257 ], [ 136.955289636707448, 34.854840613203805 ], [ 136.968082386692799, 34.874897027276063 ], [ 136.97588430581618, 34.874211946224364 ], [ 136.970606718924955, 34.877478306378805 ], [ 136.976798832700069, 34.893303667430359 ], [ 136.983834318998674, 34.893260991001966 ], [ 136.983067638860462, 34.89702877535774 ], [ 136.977351556029589, 34.894608531558561 ], [ 136.976885641559193, 34.897758225361883 ], [ 136.978747497199265, 34.926052441067327 ], [ 136.982149104597511, 34.92938969387933 ], [ 136.979529883097712, 34.93583480223441 ], [ 136.986299248311752, 34.951462666768691 ], [ 136.983330038550548, 34.951372387425806 ], [ 136.986386031090547, 34.951980775192681 ], [ 136.981035771783468, 34.956849918788748 ], [ 136.977961919606969, 34.943596224885937 ], [ 136.974607886344984, 34.944359802363067 ], [ 136.977522399339364, 34.94186059539021 ], [ 136.973247004345808, 34.917425973130207 ], [ 136.968345084058456, 34.914662494978188 ], [ 136.972556939251376, 34.911816027387829 ], [ 136.971701309867626, 34.908507640115545 ], [ 136.957178053824236, 34.881110080865597 ], [ 136.964193060761204, 34.87652113544209 ], [ 136.958764189016165, 34.871080387250117 ], [ 136.957834449200504, 34.876133026717866 ], [ 136.944160778197443, 34.880888639898842 ], [ 136.934243891042797, 34.874610559030145 ], [ 136.946013086634707, 34.874162747912521 ], [ 136.939721945811243, 34.86144333314337 ], [ 136.927703138888774, 34.864947197954848 ], [ 136.928065811188276, 34.858574306059438 ], [ 136.93660238739028, 34.856099252178808 ], [ 136.934895357235064, 34.848490531712741 ], [ 136.929852606712529, 34.846859026622838 ], [ 136.929573112709022, 34.852290197934337 ], [ 136.92622238715353, 34.851462945758385 ], [ 136.927287419179152, 34.846103945940399 ], [ 136.930640856190621, 34.84598941368057 ], [ 136.929369545767941, 34.839071252036717 ], [ 136.936009273709033, 34.835831386809105 ], [ 136.935395784987577, 34.830043063236815 ], [ 136.923771025012911, 34.829373359692852 ], [ 136.922985615593802, 34.831932919268866 ], [ 136.922071984434638, 34.827716080932419 ], [ 136.926871855052127, 34.827625225124109 ], [ 136.926081335685126, 34.821227000225917 ], [ 136.938046719280692, 34.820873224919467 ], [ 136.926270973027044, 34.821174999626578 ], [ 136.92536552479919, 34.813988802241454 ], [ 136.92006383877515, 34.811145162119601 ], [ 136.921456589150353, 34.793282135162485 ], [ 136.914500117286593, 34.77304433322945 ], [ 136.919451529964249, 34.76580953198436 ], [ 136.92701386519775, 34.764083494657598 ], [ 136.92743011730613, 34.757101973077624 ], [ 136.942804747141395, 34.747704585598171 ], [ 136.950034423150214, 34.73880577506651 ], [ 136.966590531927523, 34.732068441005822 ], [ 136.970053786952803, 34.724827577430801 ], [ 136.962072827199336, 34.720470468237579 ], [ 136.972891582380726, 34.71740119810687 ], [ 136.967686887340051, 34.709788892043775 ], [ 136.97023491580876, 34.710933972724717 ], [ 136.977812088057476, 34.701757613423183 ], [ 136.970734941564388, 34.69945082899261 ], [ 136.974872438112584, 34.69773082881477 ], [ 136.972208469945031, 34.694719494808908 ], [ 136.964576939074504, 34.701181666900482 ], [ 136.943510830060859, 34.700371107940327 ], [ 136.935660557988399, 34.708196467892719 ], [ 136.933161115393204, 34.704404532243416 ], [ 136.93664258079059, 34.703986891581849 ], [ 136.929843722310011, 34.703077864951581 ], [ 136.871367717346288, 34.730295360142804 ], [ 136.866569221792247, 34.737117612687712 ], [ 136.859099922323594, 34.738468026578232 ], [ 136.858946419741528, 34.742752585663368 ], [ 136.844173916593036, 34.757766278890699 ], [ 136.840264033958078, 34.766126224645575 ], [ 136.84349083023767, 34.765850252387281 ], [ 136.856352749779603, 34.794229865016291 ], [ 136.866539196127064, 34.839131000295481 ], [ 136.861336135154602, 34.850618387028987 ], [ 136.855656718582736, 34.854321225044544 ], [ 136.858441284038122, 34.853053775411468 ], [ 136.855218521217807, 34.865517225139854 ], [ 136.837218638129684, 34.875869802349541 ], [ 136.836316226013082, 34.878406225067295 ], [ 136.84107900139486, 34.877833919000238 ], [ 136.837929857077256, 34.884386413602158 ], [ 136.830419376752843, 34.871864640141098 ], [ 136.832770194688806, 34.874447467876394 ], [ 136.829856550439558, 34.876486721085371 ], [ 136.829627536281805, 34.872834252298958 ], [ 136.820765965776786, 34.886333721024471 ], [ 136.826891141213309, 34.893071829401435 ], [ 136.821439727961092, 34.904494586356122 ], [ 136.824771556062501, 34.904153693837941 ], [ 136.820544668701586, 34.907455107767078 ], [ 136.824314864139751, 34.928569360187851 ], [ 136.821564279567951, 34.933512946065662 ], [ 136.825767664945829, 34.940368333232072 ], [ 136.828892049128854, 34.961370945612714 ], [ 136.820133385347503, 34.966436558700252 ], [ 136.831088443576846, 34.978731026715536 ], [ 136.836120440905688, 34.976375278696196 ], [ 136.838674253813792, 34.980051639771432 ], [ 136.833909856954392, 34.982289667434259 ], [ 136.836830584264135, 34.986491972726412 ], [ 136.825457755870843, 34.993973135152089 ], [ 136.837739144146212, 34.986703279232984 ], [ 136.846237885869755, 34.998967467974296 ], [ 136.85150697776487, 34.998254134720582 ], [ 136.854564527031357, 35.002628108000863 ], [ 136.843839274363063, 35.004736748402252 ], [ 136.849438223195534, 35.010923747732818 ], [ 136.865926719142863, 35.008873252098965 ], [ 136.867135084216784, 35.004730026869311 ], [ 136.869679143977351, 35.008185224868271 ], [ 136.870582826836085, 35.012620198263619 ], [ 136.852005694107561, 35.01639955869274 ], [ 136.869093411032168, 35.041653748421822 ], [ 136.889263280875753, 35.042253467623482 ], [ 136.889300921100698, 35.045472640350113 ], [ 136.879219415743478, 35.047394891760916 ], [ 136.886377056056403, 35.065814504635739 ], [ 136.883275576706524, 35.070422973441509 ], [ 136.885251140827563, 35.074534892371446 ], [ 136.889586861444513, 35.070340721447167 ], [ 136.890089856761506, 35.076697251976668 ], [ 136.896083021614231, 35.076490279303016 ], [ 136.890141089339863, 35.077764413596867 ], [ 136.890216446232102, 35.082473360057577 ], [ 136.896600467237818, 35.0849836943421 ], [ 136.890138002866593, 35.08621638697673 ], [ 136.892015253101476, 35.092517054318648 ], [ 136.888213773846701, 35.093661892182638 ], [ 136.884817108223046, 35.088758333330475 ], [ 136.879239779991963, 35.091749973082869 ], [ 136.868536744175458, 35.088206747643369 ], [ 136.867553839138395, 35.078991251644993 ], [ 136.864696135418399, 35.073960251664346 ], [ 136.863544423136659, 35.079339080634099 ], [ 136.861017249946144, 35.074856278594439 ], [ 136.862601634158182, 35.069795252049289 ], [ 136.856513748211, 35.072512774844711 ], [ 136.855089000856765, 35.077580198267583 ], [ 136.855077301576216, 35.069258694033579 ], [ 136.859931777229804, 35.068321747950336 ], [ 136.855479559334299, 35.056587640307384 ], [ 136.842596834876076, 35.059278224810271 ], [ 136.84984574558473, 35.078516828688748 ], [ 136.847336939248407, 35.083053991148802 ], [ 136.827542360991174, 35.082452666657275 ], [ 136.821401309822704, 35.07773858596704 ], [ 136.823635863404434, 35.072275225221517 ], [ 136.819800505788749, 35.072075108079844 ], [ 136.818664422824895, 35.064556586017659 ], [ 136.823586160572972, 35.063354305756661 ], [ 136.823600169312385, 35.068251558562622 ], [ 136.833607030040412, 35.063928468024415 ], [ 136.830082580646604, 35.050249838159573 ], [ 136.796933332607296, 35.051490837831977 ], [ 136.796940169253503, 35.044693108000558 ], [ 136.800655006023817, 35.044709694197081 ], [ 136.800677055601682, 35.041262386849723 ], [ 136.796918366089812, 35.041241081011151 ], [ 136.796928365651638, 35.038553504740491 ], [ 136.800812087907616, 35.038929279262902 ], [ 136.800462606863903, 35.02901258636183 ], [ 136.786138975133667, 35.035669531823487 ], [ 136.780746588884085, 35.033511170604072 ], [ 136.796766666648409, 35.022119693868831 ], [ 136.793880661263529, 35.014462467568876 ], [ 136.796929728124496, 35.012456413732536 ], [ 136.785790194661786, 35.019564171349487 ], [ 136.770624007891684, 35.021437882752139 ], [ 136.772707496953444, 35.024389999998562 ], [ 136.760857497275765, 35.037714171072196 ], [ 136.753401114769645, 35.053015559220739 ], [ 136.750139170286502, 35.08024805420439 ], [ 136.731275278831163, 35.097281107637059 ], [ 136.71407167256973, 35.105166946097711 ], [ 136.69506605695301, 35.12470161308903 ], [ 136.676393281324977, 35.12886717118306 ], [ 136.672202723876694, 35.136100198065719 ], [ 136.674626304160711, 35.154627135134206 ], [ 136.67231739283352, 35.188777387066807 ], [ 136.68336797705058, 35.202296559039041 ], [ 136.677926861035871, 35.241506531701134 ], [ 136.696019948062258, 35.258640441403315 ], [ 136.707892723970076, 35.280088252371002 ], [ 136.725733307446262, 35.295614360414447 ], [ 136.759600077781442, 35.358086027148488 ], [ 136.768792049313674, 35.36736683820908 ], [ 136.794455667994725, 35.368334613052014 ], [ 136.792886782698929, 35.363457693917496 ], [ 136.800753721906858, 35.360933531657224 ], [ 136.834039001398878, 35.355944639733366 ], [ 136.864931828840895, 35.372605414308453 ], [ 136.888542724267381, 35.377912891966446 ], [ 136.924200584389496, 35.380051171324567 ], [ 136.961713021938522, 35.399771333380386 ], [ 136.961121479372878, 35.414892641282449 ], [ 136.964372606810457, 35.420939027114457 ], [ 136.993215641888469, 35.424195775314843 ], [ 136.989865357000667, 35.422039387208031 ], [ 136.989451193118157, 35.421685224293697 ] ] ] ] } }
]
}
