{
"type": "FeatureCollection",
"name": "27_osaka_forecast",
"crs": { "type": "name", "properties": { "name": "urn:ogc:def:crs:OGC:1.3:CRS84" } },
"features": [
{ "type": "Feature", "properties": { "code": "270000", "name": "大阪府", "PrefCode": "27", "regioncode": "270000" }, "geometry": { "type": "MultiPolygon", "coordinates": [ [ [ [ 135.317885667789369, 34.435881918715609 ], [ 135.316837977390833, 34.431082198284855 ], [ 135.317783333034413, 34.435944748051725 ], [ 135.317885667789369, 34.435881918715609 ] ] ], [ [ [ 135.233333332667257, 34.434091026779527 ], [ 135.233057497105847, 34.431594972829771 ], [ 135.255441219037039, 34.446247332848202 ], [ 135.257863864925525, 34.445210332690749 ], [ 135.251832672240084, 34.444147279173649 ], [ 135.259593747753343, 34.443453026835755 ], [ 135.265148340223732, 34.437670946357116 ], [ 135.227687173024719, 34.413475828846458 ], [ 135.219122750214865, 34.422223721447665 ], [ 135.22942505802007, 34.430879721322128 ], [ 135.226750219746918, 34.428587801785682 ], [ 135.22162594028498, 34.433487224655721 ], [ 135.206170947031637, 34.423106720798557 ], [ 135.209012827180345, 34.42008225219422 ], [ 135.201164501240783, 34.428091802294887 ], [ 135.24158255479108, 34.455224414075474 ], [ 135.245459442199603, 34.451268774834148 ], [ 135.254213878267933, 34.451140179875438 ], [ 135.239919559040459, 34.438503278803353 ], [ 135.233333332667257, 34.434091026779527 ] ] ], [ [ [ 135.339074669160709, 34.469298332851849 ], [ 135.347207756432908, 34.458686026938665 ], [ 135.332467470597408, 34.444737891840305 ], [ 135.327072891800526, 34.448426134758392 ], [ 135.340786719331732, 34.466929161551604 ], [ 135.339012309270743, 34.475593667214014 ], [ 135.339066719153834, 34.470275198042032 ], [ 135.339074669160709, 34.469298332851849 ] ] ], [ [ [ 135.354780117308678, 34.4887038652912 ], [ 135.355941803071801, 34.482633775128647 ], [ 135.352945188269928, 34.48016610827932 ], [ 135.359629558557344, 34.473686323864797 ], [ 135.358129027132918, 34.486414387414072 ], [ 135.361265913691, 34.476222531644567 ], [ 135.35106418876137, 34.465631251880836 ], [ 135.34780311302336, 34.469519225232091 ], [ 135.351610829975925, 34.468896063402667 ], [ 135.353052230975777, 34.479236242558613 ], [ 135.345551218713808, 34.471196387103646 ], [ 135.354743410579999, 34.482712197809747 ], [ 135.354807885675427, 34.488704919296651 ], [ 135.354780117308678, 34.4887038652912 ] ] ], [ [ [ 135.366973800100823, 34.492317135327596 ], [ 135.364696056577827, 34.480148720786872 ], [ 135.366977223819845, 34.492327694267715 ], [ 135.366973800100823, 34.492317135327596 ] ] ], [ [ [ 135.396925641705025, 34.531936080985417 ], [ 135.402694941918071, 34.525562693563529 ], [ 135.400429831171891, 34.519325828624119 ], [ 135.395043256341296, 34.517322586068531 ], [ 135.395313943283895, 34.522517000059565 ], [ 135.390651414431318, 34.521646108281345 ], [ 135.392715914308042, 34.525082468181438 ], [ 135.387079611235094, 34.524834251699417 ], [ 135.396473890657603, 34.532462865169123 ], [ 135.396925641705025, 34.531936080985417 ] ] ], [ [ [ 135.437669300198081, 34.555625586151905 ], [ 135.440958664111122, 34.55425855908527 ], [ 135.440648585963572, 34.548245612744893 ], [ 135.421692218121393, 34.524908999750608 ], [ 135.404598586355746, 34.530136414364108 ], [ 135.407385642033773, 34.535038224934169 ], [ 135.399165862814357, 34.536489558946016 ], [ 135.409274500717743, 34.555043505353524 ], [ 135.415876523682641, 34.549987197551161 ], [ 135.41132535697966, 34.541998586365708 ], [ 135.42023167325317, 34.537978197735697 ], [ 135.430662891679162, 34.553816107927105 ], [ 135.4374074194169, 34.555697864664751 ], [ 135.437669300198081, 34.555625586151905 ] ] ], [ [ [ 135.438920506276418, 34.603993278766836 ], [ 135.44302688718119, 34.602775774782231 ], [ 135.438901413669328, 34.603949197597444 ], [ 135.438920506276418, 34.603993278766836 ] ] ], [ [ [ 135.422452891687612, 34.60075797310202 ], [ 135.422582944447413, 34.604111440690474 ], [ 135.422320610407951, 34.600819162074743 ], [ 135.422452891687612, 34.60075797310202 ] ] ], [ [ [ 135.395561828815403, 34.600000000199884 ], [ 135.396568249325355, 34.595588865134062 ], [ 135.395112477159159, 34.601686161587168 ], [ 135.389424448679392, 34.604444054049907 ], [ 135.395187860131728, 34.60174100044685 ], [ 135.395561828815403, 34.600000000199884 ] ] ], [ [ [ 135.389658663616501, 34.628276359866163 ], [ 135.39953143992409, 34.620673946345619 ], [ 135.418429584757632, 34.619546387156106 ], [ 135.420684916275945, 34.610780973063527 ], [ 135.401282114178343, 34.610730027368902 ], [ 135.401142503423898, 34.618421414416787 ], [ 135.389699300382517, 34.628312613336504 ], [ 135.389658663616501, 34.628276359866163 ] ] ], [ [ [ 135.349357003922705, 34.620069639702137 ], [ 135.345675472644984, 34.617279440893526 ], [ 135.34356849509004, 34.622024225337782 ], [ 135.353290440701358, 34.632410892248913 ], [ 135.358635939896772, 34.627591278814521 ], [ 135.349062191766848, 34.620335440628139 ], [ 135.349357003922705, 34.620069639702137 ] ] ], [ [ [ 135.416912891616676, 34.64467716202148 ], [ 135.439300467142857, 34.641212801729466 ], [ 135.441862087965092, 34.628395693606421 ], [ 135.422153580223608, 34.621900721441193 ], [ 135.420569467606924, 34.62585366721305 ], [ 135.410429830972021, 34.625865747806074 ], [ 135.407470973306886, 34.62942589219125 ], [ 135.414802969681318, 34.634823026861227 ], [ 135.412283061214339, 34.637202080811448 ], [ 135.396485720339797, 34.628675441218661 ], [ 135.397702866394184, 34.638754828672461 ], [ 135.416917834290643, 34.644689559175845 ], [ 135.416912891616676, 34.64467716202148 ] ] ], [ [ [ 135.379625279183301, 34.660918080904764 ], [ 135.404523449797466, 34.653718134684198 ], [ 135.392750077753931, 34.641390891776268 ], [ 135.378938911201885, 34.643189197723359 ], [ 135.372900077876352, 34.652076162385015 ], [ 135.379437613155346, 34.660114891888782 ], [ 135.379625279183301, 34.660918080904764 ] ] ], [ [ [ 135.402755940234556, 34.673082747970511 ], [ 135.409389052762663, 34.668786495000802 ], [ 135.409776031039087, 34.659040747932238 ], [ 135.386849390187308, 34.66267966663338 ], [ 135.38825221836521, 34.668859694419439 ], [ 135.40276427964784, 34.673090829278408 ], [ 135.402755940234556, 34.673082747970511 ] ] ], [ [ [ 135.357251672826465, 35.049974721156502 ], [ 135.366937497167783, 35.044194999599597 ], [ 135.37597527903597, 35.044135000430003 ], [ 135.380044448692388, 35.039106387250001 ], [ 135.382046939414749, 35.027640279375419 ], [ 135.377650000147469, 35.02033694619314 ], [ 135.381693333180806, 35.010247505218217 ], [ 135.397473890907349, 35.010641667279174 ], [ 135.403247223680523, 35.006691945576904 ], [ 135.409767223978292, 35.011525558757569 ], [ 135.421013333398719, 35.002156386608021 ], [ 135.440184162569153, 35.007693332581312 ], [ 135.493055551172802, 34.989067774957903 ], [ 135.483162775741562, 34.981868333257012 ], [ 135.48826277620617, 34.967293892299324 ], [ 135.490916394076407, 34.968021945656346 ], [ 135.486251672676644, 34.963923333095408 ], [ 135.487121673226738, 34.966771387089921 ], [ 135.481936393649676, 34.965229720675097 ], [ 135.487328885120064, 34.957167494584269 ], [ 135.481137497097848, 34.949739440722681 ], [ 135.494355005878901, 34.940854720768812 ], [ 135.504198340181347, 34.94639805372725 ], [ 135.514593606409903, 34.94411972114824 ], [ 135.51727138816409, 34.933479720612695 ], [ 135.538145837260686, 34.925399721220231 ], [ 135.536065005695491, 34.920468892225642 ], [ 135.541313605638493, 34.915226108198397 ], [ 135.54947027223534, 34.918554161845123 ], [ 135.553408053638805, 34.915536386894814 ], [ 135.57245055764713, 34.91640722471368 ], [ 135.581258053716283, 34.922451667110806 ], [ 135.581053332944975, 34.937035828840465 ], [ 135.571799728174938, 34.939063612995369 ], [ 135.562800000219909, 34.933418054099945 ], [ 135.56471250297966, 34.942364440566507 ], [ 135.559131115208856, 34.93305166670109 ], [ 135.557327223572543, 34.934685829287616 ], [ 135.563131387803423, 34.953663892374777 ], [ 135.578577781739341, 34.955885000192666 ], [ 135.578287781855693, 34.960587225120378 ], [ 135.571231114724242, 34.963915559355655 ], [ 135.572730557968953, 34.971237774703582 ], [ 135.582551946115473, 34.976756108307825 ], [ 135.592364720555452, 34.966040278735932 ], [ 135.594761387727885, 34.969711108081242 ], [ 135.613263606030614, 34.971195279038966 ], [ 135.618705551220273, 34.958136387284469 ], [ 135.613148612418627, 34.941703613331129 ], [ 135.603439441676983, 34.936033612661163 ], [ 135.599321672657084, 34.92829166662716 ], [ 135.615199441700952, 34.927624721303914 ], [ 135.623750272157395, 34.934908053563845 ], [ 135.630404721101058, 34.935146945874919 ], [ 135.649288885074043, 34.925348054269364 ], [ 135.653514162648548, 34.917289721343593 ], [ 135.648248612283737, 34.916854441379428 ], [ 135.648502218402768, 34.909547494721153 ], [ 135.663712218344244, 34.905146108306326 ], [ 135.663907497133323, 34.902175829251178 ], [ 135.671383891353571, 34.902384999867877 ], [ 135.68269444888972, 34.887842224938765 ], [ 135.679922217636317, 34.881341387395139 ], [ 135.683518611894442, 34.877632774832762 ], [ 135.682013061353814, 34.873153332660252 ], [ 135.691117781560479, 34.868889440895032 ], [ 135.691381945720309, 34.861380829361849 ], [ 135.694848885267902, 34.860886107807687 ], [ 135.690651387751359, 34.856519161829908 ], [ 135.694914449442308, 34.848282225344462 ], [ 135.702256666611902, 34.851730000339273 ], [ 135.7077213880317, 34.849272494929721 ], [ 135.724167782217478, 34.823283613048375 ], [ 135.732493333400726, 34.822418892418 ], [ 135.746024720864284, 34.803642495105123 ], [ 135.740775550751096, 34.788468612836255 ], [ 135.727282775679669, 34.776232494633973 ], [ 135.720717497214764, 34.774460829303905 ], [ 135.715627497211244, 34.779936386654981 ], [ 135.709640829960449, 34.780169161777451 ], [ 135.706593333315709, 34.772451108032271 ], [ 135.710042218074022, 34.771514440738883 ], [ 135.710216394271242, 34.753871387054915 ], [ 135.706657782330808, 34.7485488916181 ], [ 135.697978884817758, 34.749661387163314 ], [ 135.696793332846141, 34.743694999624608 ], [ 135.704135550914998, 34.723781108311528 ], [ 135.673018612419128, 34.70163610782015 ], [ 135.673098054032039, 34.690146107656801 ], [ 135.678704720846213, 34.677759441145326 ], [ 135.664321387621953, 34.651294999564641 ], [ 135.659097496552249, 34.614817775220217 ], [ 135.650121388391426, 34.607832775062548 ], [ 135.653216939410299, 34.6032608286244 ], [ 135.675693891360083, 34.601738892436003 ], [ 135.677079727747355, 34.589200828655351 ], [ 135.681758885064596, 34.584778333353427 ], [ 135.671544720712404, 34.579911108011288 ], [ 135.672993890955354, 34.570629721384591 ], [ 135.656922775765565, 34.562279721232187 ], [ 135.655773060878118, 34.549199162111677 ], [ 135.650284720563491, 34.544111946409259 ], [ 135.653650829921958, 34.541403891676339 ], [ 135.659496666937684, 34.54389082919846 ], [ 135.662286666996124, 34.530041107810916 ], [ 135.669988884579425, 34.530648892132717 ], [ 135.677143605692891, 34.525161666977397 ], [ 135.677526108942857, 34.509743053998818 ], [ 135.673019727578435, 34.502788054325322 ], [ 135.678301388398381, 34.499499721035363 ], [ 135.680489727618919, 34.488956386827851 ], [ 135.684726109122721, 34.485416107567346 ], [ 135.681211946174471, 34.480234999945367 ], [ 135.681918340259244, 34.461041387350178 ], [ 135.686779442117654, 34.448966387189046 ], [ 135.678979169653076, 34.432761108438456 ], [ 135.664285278942543, 34.423226666977143 ], [ 135.669421945666272, 34.413675278691187 ], [ 135.677305006121173, 34.413828053721772 ], [ 135.680003332887622, 34.408324999599131 ], [ 135.676043891312588, 34.405579999817178 ], [ 135.675552776039808, 34.399458053846161 ], [ 135.66383610894934, 34.397303891561421 ], [ 135.653831387708465, 34.383346667015132 ], [ 135.636357781586412, 34.381485279022456 ], [ 135.619911114906131, 34.3844824945715 ], [ 135.613702503068112, 34.376630829449255 ], [ 135.597677497018935, 34.380397225251784 ], [ 135.593138884851669, 34.374834162066975 ], [ 135.57712082966259, 34.376049441128885 ], [ 135.563403061302324, 34.369329161811436 ], [ 135.554671673059374, 34.359531108374028 ], [ 135.539704721196017, 34.357505279345219 ], [ 135.507820830067317, 34.336496666687879 ], [ 135.502350558031935, 34.338091108018261 ], [ 135.504895278794152, 34.341217225194839 ], [ 135.501745005827388, 34.350202224952795 ], [ 135.489922776315098, 34.355345559250225 ], [ 135.485376108920377, 34.36283249532346 ], [ 135.477477497388691, 34.353285558681648 ], [ 135.465705005781501, 34.347334721320408 ], [ 135.435450830091781, 34.348673333407646 ], [ 135.42491583709625, 34.339982494696415 ], [ 135.408974449111611, 34.341842774724341 ], [ 135.405573332743188, 34.33387722485412 ], [ 135.397046108591098, 34.330391108163155 ], [ 135.391130000349335, 34.333005558759567 ], [ 135.386779727802264, 34.329124720629409 ], [ 135.362534721300449, 34.328939161712981 ], [ 135.358977223620059, 34.333039721306136 ], [ 135.345900000084953, 34.330525278918515 ], [ 135.338238054142948, 34.335278053839147 ], [ 135.339135550565288, 34.329429721204747 ], [ 135.327903061377242, 34.323747495150826 ], [ 135.330506938644362, 34.316746387236037 ], [ 135.324198611776524, 34.319131945982576 ], [ 135.303967497202279, 34.313714721357371 ], [ 135.302536666833817, 34.30466389212495 ], [ 135.293373060818112, 34.299292774841717 ], [ 135.282812217709761, 34.317910000246343 ], [ 135.27228250283531, 34.311983612753579 ], [ 135.254236393694669, 34.315753333349733 ], [ 135.235523332935486, 34.303635558734072 ], [ 135.225005551165282, 34.300861386743634 ], [ 135.2080430612383, 34.308202495049159 ], [ 135.205181387910784, 34.288345558700598 ], [ 135.19179527872916, 34.286595558937961 ], [ 135.184321673306613, 34.278828892339561 ], [ 135.166853332715164, 34.27992777484701 ], [ 135.153598340191365, 34.274256667111558 ], [ 135.154802502733332, 34.28103805356335 ], [ 135.146764721115005, 34.28380777480902 ], [ 135.143379727792308, 34.280411945554874 ], [ 135.139643605867832, 34.281892774631899 ], [ 135.136615550767146, 34.273506387010229 ], [ 135.131201945913176, 34.272491108178144 ], [ 135.125674163132203, 34.277451945750727 ], [ 135.111409728376316, 34.271833612930948 ], [ 135.107356938971634, 34.27846389169531 ], [ 135.108639728340904, 34.283986667051067 ], [ 135.101387223941288, 34.285812494950733 ], [ 135.096764162736008, 34.296641945769238 ], [ 135.106072502943675, 34.308598891925385 ], [ 135.103534721350343, 34.311139440732632 ], [ 135.097082502955232, 34.307944720572436 ], [ 135.091924890121618, 34.315060332868143 ], [ 135.098158781003008, 34.314563107601373 ], [ 135.102063333356227, 34.319779946187623 ], [ 135.116041414080087, 34.322823973247807 ], [ 135.122660311024561, 34.319923918653956 ], [ 135.120551828903899, 34.32373327866793 ], [ 135.13055658881558, 34.32617369426066 ], [ 135.133186640850909, 34.323002973408563 ], [ 135.130139053374705, 34.320480332801196 ], [ 135.141463800414158, 34.320407054242196 ], [ 135.140154162684553, 34.3176984949896 ], [ 135.153423359100771, 34.331356640096942 ], [ 135.163817717014126, 34.331512613116672 ], [ 135.180085836792045, 34.340780559375389 ], [ 135.183378300668096, 34.338779135248956 ], [ 135.180373554196194, 34.340677532142422 ], [ 135.176703384953271, 34.337572252257701 ], [ 135.187017302106824, 34.336656054433433 ], [ 135.222879611405006, 34.347280360000639 ], [ 135.240417976808203, 34.368924775358153 ], [ 135.239230143256577, 34.366415918659754 ], [ 135.24308569424943, 34.366688558929923 ], [ 135.241022892292676, 34.368482360172834 ], [ 135.248831505069916, 34.376998775373238 ], [ 135.259327055599215, 34.38316147682076 ], [ 135.256936173765439, 34.381031613318328 ], [ 135.263790415195558, 34.381079081334576 ], [ 135.282424967838097, 34.398881639676006 ], [ 135.287888494958111, 34.395919054320927 ], [ 135.284839559398165, 34.39971910815035 ], [ 135.288351051359996, 34.397256892091946 ], [ 135.28574488981485, 34.401570892282905 ], [ 135.292954746564419, 34.407098972739448 ], [ 135.294528365891438, 34.415067198092743 ], [ 135.302102633329923, 34.415816747944632 ], [ 135.310309921865496, 34.423038467651224 ], [ 135.306440532104943, 34.419471973153065 ], [ 135.30954191972387, 34.417068865036128 ], [ 135.314864059928482, 34.42229830582221 ], [ 135.319654332081768, 34.420936332945473 ], [ 135.313766354633572, 34.426647251869213 ], [ 135.318420116894913, 34.431002000342119 ], [ 135.323419415773515, 34.428634613296822 ], [ 135.320632022849622, 34.425795387047515 ], [ 135.322797056139279, 34.424400865007954 ], [ 135.325457197691549, 34.426747305943479 ], [ 135.328392581252729, 34.429875693908173 ], [ 135.321084163303567, 34.433137775088312 ], [ 135.324899831162384, 34.436937279431959 ], [ 135.330944448927198, 34.433810162209284 ], [ 135.334057523236197, 34.4422873597739 ], [ 135.338624916406843, 34.442804026584611 ], [ 135.33715522723196, 34.445763919369426 ], [ 135.343521361621583, 34.450090108072061 ], [ 135.346742555124933, 34.448256278904182 ], [ 135.351364253857241, 34.462779468397798 ], [ 135.353444188798335, 34.450844197701599 ], [ 135.360804863653584, 34.461546864796048 ], [ 135.352911219077555, 34.462433829257861 ], [ 135.362659831386168, 34.472336278696332 ], [ 135.363540246085563, 34.46578672128021 ], [ 135.366403333147332, 34.47112505377828 ], [ 135.369570168928249, 34.467435135423216 ], [ 135.372223995441118, 34.471673386617567 ], [ 135.367783968755248, 34.471064306372682 ], [ 135.365216809008643, 34.480065585658281 ], [ 135.375930920875362, 34.47322072055988 ], [ 135.376878949304114, 34.478630801870054 ], [ 135.371797976695348, 34.481284306425664 ], [ 135.377372114131845, 34.486511613120513 ], [ 135.369707561954442, 34.490118360374083 ], [ 135.372443061298327, 34.494364225228878 ], [ 135.370843449765403, 34.502751945645855 ], [ 135.378646860864023, 34.510885162420379 ], [ 135.367161387887791, 34.517044639798314 ], [ 135.378991296711092, 34.532937801638298 ], [ 135.3860199220818, 34.517465080948796 ], [ 135.381743113354105, 34.511680864580285 ], [ 135.389063411347365, 34.513234161927073 ], [ 135.386216057025422, 34.50836361269063 ], [ 135.390089300380964, 34.505483162418045 ], [ 135.392693942971164, 34.51221666716549 ], [ 135.395880271557303, 34.513276973253767 ], [ 135.393146938680388, 34.512057999776914 ], [ 135.396466550391096, 34.512718306304862 ], [ 135.397015771760493, 34.509029279177923 ], [ 135.400494475339883, 34.510819054156059 ], [ 135.397312724302878, 34.513937027072188 ], [ 135.402041167166203, 34.518566162298612 ], [ 135.405271335903535, 34.51035253174399 ], [ 135.409915084213822, 34.513620278652979 ], [ 135.406475305091362, 34.516985774673799 ], [ 135.410364332448012, 34.522912494915772 ], [ 135.418631699293542, 34.519265135177875 ], [ 135.431753333149913, 34.530854387220245 ], [ 135.444786031250374, 34.55722078381217 ], [ 135.431110168599503, 34.560764279048271 ], [ 135.410539040144613, 34.560747315136553 ], [ 135.409239053039983, 34.557818090132798 ], [ 135.402133191193911, 34.600000973266333 ], [ 135.415748248882664, 34.593758721387928 ], [ 135.42081710762352, 34.569679054344931 ], [ 135.429429493976045, 34.570704161867639 ], [ 135.426189883256598, 34.58962369437802 ], [ 135.433759273671626, 34.586682865421949 ], [ 135.434392697664975, 34.582662413839387 ], [ 135.44150936396602, 34.58294925170668 ], [ 135.444966030557907, 34.567009531964402 ], [ 135.452368248695734, 34.564797386790019 ], [ 135.449425356694974, 34.568046532121798 ], [ 135.451399688744687, 34.574981720629978 ], [ 135.455505305225756, 34.575819494873826 ], [ 135.456692139630604, 34.572686828834151 ], [ 135.457613995089901, 34.575716667290408 ], [ 135.451752192409799, 34.577139667261861 ], [ 135.45011208800247, 34.583734585582704 ], [ 135.463637562423628, 34.581411197868533 ], [ 135.466405083927498, 34.58456622465161 ], [ 135.449294864166745, 34.587045532325533 ], [ 135.452495616079887, 34.589975440813987 ], [ 135.462331530076085, 34.587376919009671 ], [ 135.460596834976059, 34.594861134633732 ], [ 135.459056252244295, 34.590058414064629 ], [ 135.451774695246058, 34.59190297304383 ], [ 135.437703695669029, 34.588655918635766 ], [ 135.425549363612276, 34.593344775141304 ], [ 135.423590946864806, 34.605030197985286 ], [ 135.445400947196049, 34.598183467692934 ], [ 135.446565837243611, 34.60186116156342 ], [ 135.436973799601219, 34.604709972787077 ], [ 135.437503528165394, 34.610765386913101 ], [ 135.423405473383923, 34.610771414169506 ], [ 135.4234251361612, 34.618984225441693 ], [ 135.426617497399661, 34.613026829324781 ], [ 135.432960998551266, 34.613024919164729 ], [ 135.430987690829284, 34.622578440642599 ], [ 135.441299169920853, 34.62617591858384 ], [ 135.447160584093695, 34.614704000189533 ], [ 135.44814530486201, 34.630707891955694 ], [ 135.453574253948773, 34.629224559166119 ], [ 135.447095966006145, 34.641263197938258 ], [ 135.450789247825583, 34.645333251628301 ], [ 135.435409248138399, 34.648048494642353 ], [ 135.440622360833345, 34.649454197952934 ], [ 135.437593969386285, 34.650870864898536 ], [ 135.426116718911544, 34.649920224838581 ], [ 135.428007172992693, 34.654887945822111 ], [ 135.423382866226348, 34.657462306440323 ], [ 135.419205771629095, 34.653363162380117 ], [ 135.420461854730888, 34.660200224960477 ], [ 135.414313942634408, 34.651667387240195 ], [ 135.416457445254991, 34.661429639566279 ], [ 135.426268171039283, 34.667822973051841 ], [ 135.417281582179385, 34.663712135107005 ], [ 135.416666667133086, 34.673210135139698 ], [ 135.409970972582414, 34.67072655928331 ], [ 135.408900855789966, 34.675456441061954 ], [ 135.40676814503388, 34.673836801627147 ], [ 135.422259728103995, 34.679632972683578 ], [ 135.417768002991011, 34.688051946340295 ], [ 135.410269585273227, 34.69212735998974 ], [ 135.408577782438783, 34.698781666840489 ], [ 135.446170272240352, 34.718339720701579 ], [ 135.447708612062911, 34.733619999963082 ], [ 135.460295006309593, 34.733135558559241 ], [ 135.459937223624024, 34.751000000149929 ], [ 135.456665006185176, 34.751668054337301 ], [ 135.45628888542376, 34.760347495040889 ], [ 135.451920558087295, 34.758183612883499 ], [ 135.450408884962144, 34.76632249538693 ], [ 135.444696667417361, 34.768529161891365 ], [ 135.442787496645678, 34.79117444084784 ], [ 135.428636939443209, 34.803181107821899 ], [ 135.423691387647523, 34.80207444078286 ], [ 135.415990557718146, 34.817692775201465 ], [ 135.423336667153535, 34.828572495424396 ], [ 135.424329999829638, 34.837122774596423 ], [ 135.416878339663754, 34.852224720994116 ], [ 135.431358340115366, 34.856415279341718 ], [ 135.430093606434866, 34.861282224994738 ], [ 135.445817782065092, 34.897212225363944 ], [ 135.443579169842906, 34.898938892216165 ], [ 135.430741945684304, 34.892430558823264 ], [ 135.432442775913387, 34.895988891973843 ], [ 135.427204448926204, 34.906045828752042 ], [ 135.418651388151147, 34.908948054309292 ], [ 135.439302775702572, 34.920504440627496 ], [ 135.463596109073251, 34.918305558654652 ], [ 135.468381945770261, 34.927170559174044 ], [ 135.452541673059841, 34.92978777518573 ], [ 135.441656939116456, 34.939394999679564 ], [ 135.418484721292884, 34.933894441175596 ], [ 135.417455005644115, 34.9417741624477 ], [ 135.410284720863274, 34.939961945787218 ], [ 135.412118884578945, 34.943003613026349 ], [ 135.409100272359751, 34.945494441015683 ], [ 135.410690000343266, 34.94267499985142 ], [ 135.395956667166502, 34.944439440927511 ], [ 135.392351946085455, 34.941365828869948 ], [ 135.382632218202389, 34.955991387292727 ], [ 135.360384721078049, 34.954469720900931 ], [ 135.35424805410446, 34.962617225204838 ], [ 135.346481388405437, 34.964496107709238 ], [ 135.349592503091571, 34.97897833308366 ], [ 135.359532776216724, 34.982515559145781 ], [ 135.352562775851538, 34.990388891634097 ], [ 135.35469749659228, 35.024790279248066 ], [ 135.339802775577709, 35.025877225053932 ], [ 135.336484720593489, 35.032718613373333 ], [ 135.330203891396536, 35.035223612879463 ], [ 135.338086939260847, 35.043603892305839 ], [ 135.348824448789401, 35.04593638655507 ], [ 135.349839441636959, 35.051137504991914 ], [ 135.357141218992183, 35.050000000199873 ], [ 135.357251672826465, 35.049974721156502 ] ] ] ] } }
]
}
