{
"type": "FeatureCollection",
"name": "28_hyogo_forecast",
"crs": { "type": "name", "properties": { "name": "urn:ogc:def:crs:OGC:1.3:CRS84" } },
"features": [
{ "type": "Feature", "properties": { "code": "280000", "name": "兵庫県", "PrefCode": "28", "regioncode": "280000" }, "geometry": { "type": "MultiPolygon", "coordinates": [ [ [ [ 134.821444993891419, 34.179540640288394 ], [ 134.830869882639035, 34.17182582859914 ], [ 134.830593722422464, 34.164445386645355 ], [ 134.823081698861415, 34.157294666615599 ], [ 134.812581283899249, 34.15619325161731 ], [ 134.811572476588594, 34.165159387196013 ], [ 134.816497108354952, 34.169957828790814 ], [ 134.819558274694714, 34.168020386931346 ], [ 134.817075745649163, 34.168504613397261 ], [ 134.81954727598611, 34.172211000137622 ], [ 134.822191309781147, 34.170754891624995 ], [ 134.81908644628254, 34.175895000054254 ], [ 134.821381051194635, 34.179553252380742 ], [ 134.821444993891419, 34.179540640288394 ] ] ], [ [ [ 134.801439883443891, 34.199337197953355 ], [ 134.796599079284192, 34.198383748411288 ], [ 134.802090726405936, 34.200000000099976 ], [ 134.801439883443891, 34.199337197953355 ] ] ], [ [ [ 134.711424942107442, 34.249595693586457 ], [ 134.712778494631834, 34.247385748153818 ], [ 134.711359144109224, 34.249638531892799 ], [ 134.711424942107442, 34.249595693586457 ] ] ], [ [ [ 134.947800051631134, 34.298027468293071 ], [ 134.957922750434705, 34.282837026807385 ], [ 134.957172386696357, 34.276374225190409 ], [ 134.958095576749542, 34.281755639711037 ], [ 134.952159753569845, 34.292320027047651 ], [ 134.945430972961049, 34.295404531693862 ], [ 134.947774695246039, 34.298035802310494 ], [ 134.947800051631134, 34.298027468293071 ] ] ], [ [ [ 134.941701699373994, 34.30062508088281 ], [ 134.944061166989286, 34.299127865258811 ], [ 134.941666667182972, 34.300645559345128 ], [ 134.941701699373994, 34.30062508088281 ] ] ], [ [ [ 134.902334967684624, 34.350045667373706 ], [ 134.904549532934652, 34.347324387210733 ], [ 134.902335771678622, 34.350075972728007 ], [ 134.902334967684624, 34.350045667373706 ] ] ], [ [ [ 134.7780409986932, 34.417903279412883 ], [ 134.779993476317941, 34.416603134926788 ], [ 134.77796988300372, 34.417948775215848 ], [ 134.7780409986932, 34.417903279412883 ] ] ], [ [ [ 134.911804383665412, 34.430124063274945 ], [ 134.914540506239405, 34.432031099056019 ], [ 134.912277899205719, 34.43045484741333 ], [ 134.911804383665412, 34.430124063274945 ] ] ], [ [ [ 134.991666667083109, 34.516651135141842 ], [ 134.988047108087585, 34.512102494634462 ], [ 134.991681245093446, 34.516666667332856 ], [ 134.991666667083109, 34.516651135141842 ] ] ], [ [ [ 134.995067029819666, 34.524828080551515 ], [ 134.993565616160367, 34.520328532236022 ], [ 134.994968170944389, 34.524846225273109 ], [ 134.995067029819666, 34.524828080551515 ] ] ], [ [ [ 134.892748366444039, 34.531145252251633 ], [ 134.895831388108149, 34.53107519776222 ], [ 134.892638495370306, 34.531625161971704 ], [ 134.892748366444039, 34.531145252251633 ] ] ], [ [ [ 135.018640803929998, 34.592494892425407 ], [ 135.022240855730956, 34.5906721348112 ], [ 135.018597717410785, 34.592441864800264 ], [ 135.018640803929998, 34.592494892425407 ] ] ], [ [ [ 135.015762776431075, 34.593513333273791 ], [ 135.018126809005139, 34.591992468177921 ], [ 135.015706808922118, 34.593481999994367 ], [ 135.015762776431075, 34.593513333273791 ] ] ], [ [ [ 134.461459442399359, 34.596778892132193 ], [ 134.46116194576723, 34.594236387299475 ], [ 134.461438884796735, 34.596761946206925 ], [ 134.461459442399359, 34.596778892132193 ] ] ], [ [ [ 134.467763061316305, 34.597573891921627 ], [ 134.466659169585114, 34.59471666664092 ], [ 134.467694994328554, 34.597602225062701 ], [ 134.467763061316305, 34.597573891921627 ] ] ], [ [ [ 134.484014720802747, 34.599932774977617 ], [ 134.482653333384746, 34.594193054366031 ], [ 134.476158884624851, 34.593290829308387 ], [ 134.479463891345517, 34.599642495404908 ], [ 134.483871115259831, 34.599952224615549 ], [ 134.484014720802747, 34.599932774977617 ] ] ], [ [ [ 135.004251829258578, 34.608326865292668 ], [ 135.01635230901195, 34.591221161927137 ], [ 135.023839001368856, 34.588883892277863 ], [ 135.024501530121597, 34.574044225061016 ], [ 135.013455383159453, 34.560144135343648 ], [ 135.001947471198946, 34.550380278627017 ], [ 134.99831941630805, 34.550855440826012 ], [ 135.001851997371887, 34.54950766734504 ], [ 134.99425302195948, 34.543161053639778 ], [ 134.99672108900711, 34.543451135361636 ], [ 134.994406913048692, 34.524769198339868 ], [ 134.985986497778754, 34.512683387428467 ], [ 134.988783969404722, 34.511656197975185 ], [ 134.958525862778401, 34.488943198270022 ], [ 134.934319403018094, 34.458380756566726 ], [ 134.940637588254162, 34.459183189252826 ], [ 134.925788079756103, 34.445815667259296 ], [ 134.923706108750025, 34.451113613002917 ], [ 134.916455292377918, 34.44481991900409 ], [ 134.924859624172427, 34.444136631200649 ], [ 134.914818768171699, 34.433515243034094 ], [ 134.910755227371965, 34.437357847386806 ], [ 134.90537381285128, 34.432379766213273 ], [ 134.905133126392684, 34.429070180144777 ], [ 134.911233437373312, 34.429719621963045 ], [ 134.899014021380026, 34.419721757153411 ], [ 134.902981984031385, 34.419379504860331 ], [ 134.899670921276083, 34.413384829146594 ], [ 134.894938417973663, 34.416776080851491 ], [ 134.896929856927386, 34.41126182027682 ], [ 134.899351555829753, 34.412254973088579 ], [ 134.89477861204341, 34.39898833344489 ], [ 134.898172801833425, 34.368557693682646 ], [ 134.8945002457898, 34.354944558744421 ], [ 134.896907523163691, 34.353314387349144 ], [ 134.893656641241023, 34.352241053681723 ], [ 134.897193411346962, 34.348670144411699 ], [ 134.901165135862357, 34.350027224976486 ], [ 134.897173864582214, 34.34672722478166 ], [ 134.901834163116177, 34.346563414170305 ], [ 134.900436524026418, 34.344218108179177 ], [ 134.903312191704345, 34.347092693972684 ], [ 134.901126615201179, 34.343861305754729 ], [ 134.904030440652377, 34.340863585686009 ], [ 134.914216497593316, 34.337940693708106 ], [ 134.912563721738479, 34.330931919072839 ], [ 134.914873410979226, 34.329773360252432 ], [ 134.914911829117727, 34.333589306001727 ], [ 134.920970532064416, 34.311436720628194 ], [ 134.943344773342687, 34.299101945898144 ], [ 134.949597912413765, 34.286767413985046 ], [ 134.948925383199935, 34.274315829012323 ], [ 134.955184384052131, 34.27701019786241 ], [ 134.951617003721822, 34.266500613412632 ], [ 134.898441751285873, 34.252152666712277 ], [ 134.846065136396987, 34.230911494769714 ], [ 134.829899300112629, 34.222132161869808 ], [ 134.814853799663183, 34.20794774789033 ], [ 134.794576782792319, 34.199500774741011 ], [ 134.797389804595923, 34.197322586168468 ], [ 134.775437276109415, 34.200506440719721 ], [ 134.734090777767278, 34.188719945768923 ], [ 134.729269442131113, 34.189722694346926 ], [ 134.732485279272282, 34.198874801630836 ], [ 134.729838053783169, 34.207565640342068 ], [ 134.716311387760356, 34.215802468009542 ], [ 134.700923190752746, 34.217040161774094 ], [ 134.699903384733489, 34.221275161919266 ], [ 134.710739974370426, 34.240178720671452 ], [ 134.715091088682811, 34.243244774826564 ], [ 134.721737198213191, 34.241493972868625 ], [ 134.722588444301323, 34.25559780219686 ], [ 134.707701970969197, 34.252147775299647 ], [ 134.703204331914435, 34.247729693870326 ], [ 134.707050699929937, 34.244486279018588 ], [ 134.700984772729157, 34.241341586345186 ], [ 134.695068028666697, 34.247850161655663 ], [ 134.681017082172616, 34.248402667349296 ], [ 134.658161335777095, 34.240657972987094 ], [ 134.675985550692644, 34.255486360007581 ], [ 134.669009273958864, 34.271757134584163 ], [ 134.659424162894879, 34.272361720916763 ], [ 134.663030220368455, 34.288058666874008 ], [ 134.659218975375438, 34.293483559119011 ], [ 134.654290415370383, 34.293168468150327 ], [ 134.662175357207047, 34.296927774597179 ], [ 134.673966471975177, 34.31754802672009 ], [ 134.68205224411588, 34.320360495440582 ], [ 134.687368028811534, 34.331178666961989 ], [ 134.693498029110856, 34.324478359788543 ], [ 134.701224746924595, 34.325088774627318 ], [ 134.706611555578888, 34.32108261327204 ], [ 134.718826808610402, 34.325328161565437 ], [ 134.717281893844415, 34.327911640409923 ], [ 134.724103165228939, 34.333310224787112 ], [ 134.723304721036129, 34.328479225036233 ], [ 134.725982776184196, 34.33153733278175 ], [ 134.726750272007507, 34.328369828804625 ], [ 134.729623139196633, 34.329555333112182 ], [ 134.725233086937465, 34.332672467860164 ], [ 134.729779000700432, 34.333295198015037 ], [ 134.736840311031642, 34.344471802431769 ], [ 134.749379973806754, 34.377051559282108 ], [ 134.754888171152288, 34.385552775040594 ], [ 134.760070143022745, 34.384604865322331 ], [ 134.765398106337557, 34.389158747977888 ], [ 134.775312309015931, 34.415720864926016 ], [ 134.777316394236323, 34.418875531980291 ], [ 134.779588365910399, 34.41328699999508 ], [ 134.783065278939489, 34.416743892316845 ], [ 134.797977497163856, 34.449204999810945 ], [ 134.802929169745425, 34.44945305441496 ], [ 134.818694162905331, 34.469435865272999 ], [ 134.824118366269659, 34.467071865074558 ], [ 134.830146770157398, 34.470529485847123 ], [ 134.826367782047555, 34.466164477009045 ], [ 134.830220868898095, 34.469495395895876 ], [ 134.8334368607226, 34.466116829128396 ], [ 134.841573488625613, 34.471352585853197 ], [ 134.877973865001877, 34.525450801713191 ], [ 134.875323722112171, 34.518104125704895 ], [ 134.887603773995011, 34.531387495436604 ], [ 134.898584968321643, 34.529229305987712 ], [ 134.909419363612756, 34.53720525202084 ], [ 134.906607328365567, 34.533717531838647 ], [ 134.913454448963762, 34.536032721333072 ], [ 134.922250169309905, 34.546590747764867 ], [ 134.935067808032954, 34.549423694048301 ], [ 134.975951115051998, 34.597694694254812 ], [ 134.992255421750428, 34.607042306057622 ], [ 135.004243995264233, 34.608333333216819 ], [ 135.004251829258578, 34.608326865292668 ] ] ], [ [ [ 134.472192217896577, 34.612671946053524 ], [ 134.47459805365736, 34.610818053910123 ], [ 134.472022218150869, 34.609194720959636 ], [ 134.472199169656051, 34.612621387067406 ], [ 134.472192217896577, 34.612671946053524 ] ] ], [ [ [ 135.050394085618564, 34.623887802280308 ], [ 135.055908002652245, 34.623285332951809 ], [ 135.045573021577752, 34.624045054135991 ], [ 135.050000000000068, 34.623907224938534 ], [ 135.050394085618564, 34.623887802280308 ] ] ], [ [ [ 134.500968327226587, 34.636099440936505 ], [ 134.497160829708605, 34.629659161940822 ], [ 134.497737496588229, 34.635401108374481 ], [ 134.500904720876179, 34.636182774815268 ], [ 134.500968327226587, 34.636099440936505 ] ] ], [ [ [ 135.131652918147665, 34.640521224874703 ], [ 135.137026394352688, 34.640133612576221 ], [ 135.131453281244035, 34.640199612921833 ], [ 135.131652918147665, 34.640521224874703 ] ] ], [ [ [ 135.120747613111917, 34.64063258612498 ], [ 135.118339001144022, 34.640527585779523 ], [ 135.120773113388509, 34.640688495177983 ], [ 135.120747613111917, 34.64063258612498 ] ] ], [ [ [ 134.985094254296428, 34.640867891939706 ], [ 134.988479610945319, 34.640374558938788 ], [ 134.983540271666243, 34.640956414007348 ], [ 134.985094254296428, 34.640867891939706 ] ] ], [ [ [ 134.482263333386186, 34.640822495062139 ], [ 134.480000829774553, 34.639295000164168 ], [ 134.482283605903717, 34.640828053771713 ], [ 134.482263333386186, 34.640822495062139 ] ] ], [ [ [ 135.125974500722691, 34.641008559397562 ], [ 135.123147055592199, 34.640909080889401 ], [ 135.125972387315869, 34.641016333137316 ], [ 135.125974500722691, 34.641008559397562 ] ] ], [ [ [ 135.236549169808427, 34.640808864937242 ], [ 135.240492088139376, 34.633106161720036 ], [ 135.209276692765229, 34.630138586026987 ], [ 135.2131606101741, 34.639910251556898 ], [ 135.236289584996371, 34.641293999718357 ], [ 135.236549169808427, 34.640808864937242 ] ] ], [ [ [ 134.994509104811414, 34.644600639607859 ], [ 134.990242023150927, 34.643175973192683 ], [ 134.993666939177956, 34.644582747595791 ], [ 134.994509104811414, 34.644600639607859 ] ] ], [ [ [ 134.585553891399059, 34.643303891861194 ], [ 134.587949170018192, 34.637428891630123 ], [ 134.585415837371102, 34.643722494797373 ], [ 134.585553891399059, 34.643303891861194 ] ] ], [ [ [ 134.533713332704224, 34.64652389196408 ], [ 134.534343061383197, 34.643271107975295 ], [ 134.529238326887366, 34.64269361282004 ], [ 134.533619170088741, 34.646542495339929 ], [ 134.533713332704224, 34.64652389196408 ] ] ], [ [ [ 134.519437859669551, 34.648323613444063 ], [ 134.515528171288111, 34.645693720588781 ], [ 134.519817134353275, 34.649170612933517 ], [ 134.519437859669551, 34.648323613444063 ] ] ], [ [ [ 135.202460363155296, 34.653470586398498 ], [ 135.20443824932579, 34.651516559241884 ], [ 135.202401997154539, 34.653533386956269 ], [ 135.202460363155296, 34.653470586398498 ] ] ], [ [ [ 134.441108885266885, 34.653885000292576 ], [ 134.441463333266256, 34.648880559090571 ], [ 134.433367496812593, 34.648283054019771 ], [ 134.441074720921733, 34.65391333343365 ], [ 134.441108885266885, 34.653885000292576 ] ] ], [ [ [ 135.200880168884737, 34.654068252447928 ], [ 135.190301556071972, 34.653048945552428 ], [ 135.20093474694113, 34.654082387092558 ], [ 135.200880168884737, 34.654068252447928 ] ] ], [ [ [ 134.528132775906897, 34.65703277494265 ], [ 134.52660416315166, 34.654703612681658 ], [ 134.528060830143204, 34.657023892338827 ], [ 134.528132775906897, 34.65703277494265 ] ] ], [ [ [ 134.515590558157783, 34.659586107612824 ], [ 134.518320389074802, 34.648951747625119 ], [ 134.513774163247149, 34.651013054009297 ], [ 134.509717691118567, 34.647832278736701 ], [ 134.512917223551085, 34.647649999647797 ], [ 134.511579857024799, 34.643717197790522 ], [ 134.517819442413384, 34.644455559176777 ], [ 134.514431387798368, 34.64216999964583 ], [ 134.518762502987215, 34.64108527876266 ], [ 134.515421115092408, 34.635379162218612 ], [ 134.500837224058728, 34.643831387408682 ], [ 134.503648611794119, 34.651312225179083 ], [ 134.513891945656837, 34.654218612798786 ], [ 134.511217664963283, 34.654081864586431 ], [ 134.515452775725066, 34.659576667429292 ], [ 134.515590558157783, 34.659586107612824 ] ] ], [ [ [ 135.280192230886769, 34.651352099319979 ], [ 135.276807859894916, 34.651300909909139 ], [ 135.274535486223726, 34.665417044660956 ], [ 135.280457601037483, 34.666075504880723 ], [ 135.282847302061441, 34.651410261174647 ], [ 135.280192230886769, 34.651352099319979 ] ] ], [ [ [ 135.247167029934531, 34.667361279099794 ], [ 135.250427275598327, 34.663697468063731 ], [ 135.244967665025797, 34.66981733300355 ], [ 135.247167029934531, 34.667361279099794 ] ] ], [ [ [ 134.487329442000259, 34.671605107889491 ], [ 134.495998327361008, 34.66800425209459 ], [ 134.490045382888184, 34.658416414286137 ], [ 134.495135551064891, 34.659374999856425 ], [ 134.493506004698474, 34.652666224666575 ], [ 134.498200558409053, 34.652756108307813 ], [ 134.500056938976627, 34.644038333102628 ], [ 134.492826109137695, 34.645190558897241 ], [ 134.484117223731005, 34.641160559212494 ], [ 134.49075817115272, 34.647683919377414 ], [ 134.482726394307747, 34.6463738922414 ], [ 134.481140830185268, 34.649947225184349 ], [ 134.467583332704748, 34.640341107755944 ], [ 134.458497664635615, 34.64525025229733 ], [ 134.461670829844934, 34.646976386750907 ], [ 134.461098054331842, 34.658609720861989 ], [ 134.464963579705454, 34.656822305704907 ], [ 134.463717133738783, 34.664196829220316 ], [ 134.469838884556907, 34.667090279193076 ], [ 134.467069221767247, 34.661601107904858 ], [ 134.475216109136227, 34.657965828760041 ], [ 134.478654059936957, 34.663812639741593 ], [ 134.482330557709133, 34.658343613267164 ], [ 134.487238560111564, 34.662857585808979 ], [ 134.4842747732622, 34.671012414191637 ], [ 134.487322697984155, 34.671660945896008 ], [ 134.487329442000259, 34.671605107889491 ] ] ], [ [ [ 135.254231556241393, 34.669179450171555 ], [ 135.295781439861571, 34.676258828781954 ], [ 135.254439313123839, 34.669483955220414 ], [ 135.254231556241393, 34.669179450171555 ] ] ], [ [ [ 134.573378781405722, 34.676681162105979 ], [ 134.591208469595244, 34.665433198283552 ], [ 134.584816666755842, 34.655114162188909 ], [ 134.57867847003547, 34.656199694260522 ], [ 134.575915837246157, 34.650877224904036 ], [ 134.571001115109425, 34.652373053773488 ], [ 134.561550830406532, 34.6687419461839 ], [ 134.573405913951888, 34.676759802423021 ], [ 134.573378781405722, 34.676681162105979 ] ] ], [ [ [ 135.359681088811271, 34.672298666850054 ], [ 135.353736667213525, 34.676430108262934 ], [ 135.317054331792065, 34.677626468286917 ], [ 135.353761413858251, 34.676501721277475 ], [ 135.35833333331675, 34.673500305894436 ], [ 135.359681088811271, 34.672298666850054 ] ] ], [ [ [ 134.6078830613543, 34.679335558789035 ], [ 134.610770557815044, 34.675157494722669 ], [ 134.606461946361833, 34.676896666647906 ], [ 134.607806939138982, 34.679350000102488 ], [ 134.6078830613543, 34.679335558789035 ] ] ], [ [ [ 135.219998806799595, 34.682779224781427 ], [ 135.225523112801511, 34.677888197981986 ], [ 135.216313554127282, 34.675055197739255 ], [ 135.217775057672839, 34.67267786509143 ], [ 135.228021970837403, 34.675812360352211 ], [ 135.231886328891051, 34.673434387387147 ], [ 135.219566446034719, 34.669657027050221 ], [ 135.220992140375074, 34.667287026575082 ], [ 135.245367328239695, 34.670681747864421 ], [ 135.234020804116881, 34.669327287924034 ], [ 135.236447729878932, 34.665288116953093 ], [ 135.22572269844386, 34.661996027194959 ], [ 135.228148196981806, 34.657969161647543 ], [ 135.238893061165868, 34.661247134747498 ], [ 135.245113670859268, 34.650815495438792 ], [ 135.249474668721064, 34.650804892431893 ], [ 135.217171115254814, 34.650074865063004 ], [ 135.204271633728922, 34.656216305638054 ], [ 135.201441996950621, 34.673629306447367 ], [ 135.20424574584456, 34.675917197920398 ], [ 135.201609441722439, 34.675652864688004 ], [ 135.217732723886115, 34.682440495132823 ], [ 135.219998806799595, 34.682779224781427 ] ] ], [ [ [ 135.228242437838276, 34.68442816232988 ], [ 135.240503943002636, 34.685784586389616 ], [ 135.230185966309364, 34.684649359580305 ], [ 135.228242437838276, 34.68442816232988 ] ] ], [ [ [ 134.535588611625144, 34.686552225205105 ], [ 134.537632502637962, 34.68463166721773 ], [ 134.534048715975473, 34.679868891835952 ], [ 134.528773890902357, 34.681434161857112 ], [ 134.527525693955681, 34.677233441170415 ], [ 134.532252217665814, 34.676711945899626 ], [ 134.53232294394877, 34.672792305620476 ], [ 134.535762580978371, 34.67946053217787 ], [ 134.540898054301806, 34.677313333343704 ], [ 134.545908054213442, 34.679825828699109 ], [ 134.542948611988891, 34.670043613222219 ], [ 134.545975279435652, 34.662565000374514 ], [ 134.541897223578076, 34.658194720609913 ], [ 134.535902776292119, 34.658445278926536 ], [ 134.52635165960146, 34.666737494939468 ], [ 134.522434475370801, 34.66452713491941 ], [ 134.52255666715655, 34.667717225369699 ], [ 134.517449442437851, 34.66816055876285 ], [ 134.508096394233235, 34.677261946082012 ], [ 134.535456394197354, 34.686561107808927 ], [ 134.535588611625144, 34.686552225205105 ] ] ], [ [ [ 134.637879441882774, 34.68746444083132 ], [ 134.639809170257081, 34.683333612756087 ], [ 134.636151945855659, 34.685478333058654 ], [ 134.637857781711318, 34.68747027923007 ], [ 134.637879441882774, 34.68746444083132 ] ] ], [ [ [ 135.363034345059077, 34.688478350895252 ], [ 135.362051970622019, 34.68596833317207 ], [ 135.362994642688705, 34.688487729924873 ], [ 135.363034345059077, 34.688478350895252 ] ] ], [ [ [ 134.714889170199058, 34.688521387052447 ], [ 134.713966199580454, 34.685188252236117 ], [ 134.71487416321213, 34.688541666764536 ], [ 134.714889170199058, 34.688521387052447 ] ] ], [ [ [ 135.28139891063131, 34.697300333243845 ], [ 135.288158300565215, 34.696667721338315 ], [ 135.289103553686118, 34.690871667193733 ], [ 135.278333086702673, 34.692444918698072 ], [ 135.278769728240377, 34.689669386932735 ], [ 135.289470219874829, 34.688029694414922 ], [ 135.290505136303068, 34.681703586151627 ], [ 135.254463086702117, 34.677761107589106 ], [ 135.252217224145625, 34.693315865334966 ], [ 135.264187562106372, 34.697782892366661 ], [ 135.281397977135043, 34.697323414344169 ], [ 135.28139891063131, 34.697300333243845 ] ] ], [ [ [ 134.871545550586802, 34.700776802007852 ], [ 134.88621294367249, 34.689487694201773 ], [ 134.883282697938171, 34.690956693596604 ], [ 134.877600415226993, 34.684414640123578 ], [ 134.85736769086634, 34.691981532221973 ], [ 134.861715966019119, 34.697161639797912 ], [ 134.868968754604452, 34.695790585567124 ], [ 134.870340700063366, 34.698483278980177 ], [ 134.86382033733878, 34.700689639715165 ], [ 134.864913501956607, 34.70284430562026 ], [ 134.871518781366717, 34.700788027345652 ], [ 134.871545550586802, 34.700776802007852 ] ] ], [ [ [ 135.356409493703268, 34.702350441120018 ], [ 135.35873416295135, 34.70409327868191 ], [ 135.356580337013042, 34.702484225166927 ], [ 135.356409493703268, 34.702350441120018 ] ] ], [ [ [ 135.332370699947887, 34.707446224663613 ], [ 135.334959753689759, 34.707334467711576 ], [ 135.325519662802208, 34.70744902695111 ], [ 135.332370699947887, 34.707446224663613 ] ] ], [ [ [ 134.855623165276938, 34.7102504142253 ], [ 134.862116328905472, 34.707442080587612 ], [ 134.853258585915114, 34.6941481618083 ], [ 134.836490777627318, 34.697294585676616 ], [ 134.840023113176244, 34.696714225281312 ], [ 134.845889338722031, 34.708246613190681 ], [ 134.853145667938293, 34.705732559310206 ], [ 134.854414747142982, 34.708230721270809 ], [ 134.8478813883155, 34.712252747566311 ], [ 134.854644332370071, 34.710588775151905 ], [ 134.855623165276938, 34.7102504142253 ] ] ], [ [ [ 135.34326180288997, 34.715366892068459 ], [ 135.353051153587899, 34.707332008965068 ], [ 135.347107690667485, 34.702868000058231 ], [ 135.343202996221407, 34.7152434142522 ], [ 135.34326180288997, 34.715366892068459 ] ] ], [ [ [ 134.806136498400747, 34.716284919113775 ], [ 134.805970855870328, 34.713161053839599 ], [ 134.806140584020795, 34.716323134904826 ], [ 134.806136498400747, 34.716284919113775 ] ] ], [ [ [ 135.32210522657499, 34.712075666558803 ], [ 135.322042437708433, 34.708450413955518 ], [ 135.32046619955554, 34.712054585550732 ], [ 135.315852088403176, 34.708375828681596 ], [ 135.322037807998527, 34.707958134959995 ], [ 135.320951310054966, 34.704850197578594 ], [ 135.306941556107972, 34.706157224576316 ], [ 135.306151633890863, 34.713279919033084 ], [ 135.322017587641653, 34.716429081337083 ], [ 135.322104695075723, 34.712580531566346 ], [ 135.32210522657499, 34.712075666558803 ] ] ], [ [ [ 135.303948222932263, 34.709984829136602 ], [ 135.304071166551125, 34.705699413896866 ], [ 135.293351530149039, 34.704727639768805 ], [ 135.293779754032471, 34.718325306367831 ], [ 135.303288418225975, 34.716876774643481 ], [ 135.303858859099137, 34.710484135434569 ], [ 135.303948222932263, 34.709984829136602 ] ] ], [ [ [ 135.330307951051168, 34.72210682876721 ], [ 135.340731971303512, 34.718085467970013 ], [ 135.334526445938764, 34.708209224775942 ], [ 135.339652244355648, 34.707813162447565 ], [ 135.341032826903529, 34.70328763991273 ], [ 135.334441970820308, 34.710350891880182 ], [ 135.325411802612621, 34.708545108070325 ], [ 135.324795772407015, 34.716959828833069 ], [ 135.330260609839343, 34.722111026802509 ], [ 135.330307951051168, 34.72210682876721 ] ] ], [ [ [ 134.38314561617733, 34.723571387309732 ], [ 134.377977690817829, 34.725800305739597 ], [ 134.38278438369241, 34.723552999771186 ], [ 134.385169493677267, 34.726000865347714 ], [ 134.383231088643925, 34.723619467764252 ], [ 134.38314561617733, 34.723571387309732 ] ] ], [ [ [ 134.682507977361297, 34.756405252100762 ], [ 134.675614527288644, 34.760943532418139 ], [ 134.679637496972987, 34.758333332917005 ], [ 134.682507977361297, 34.756405252100762 ] ] ], [ [ [ 134.439682048787631, 34.763919279351285 ], [ 134.438204643429572, 34.761328721043697 ], [ 134.435387223941348, 34.763294828793391 ], [ 134.439708145314739, 34.763952198135485 ], [ 134.439682048787631, 34.763919279351285 ] ] ], [ [ [ 134.701948274893084, 34.770797774597668 ], [ 134.697940337376735, 34.759964775054357 ], [ 134.68657408572551, 34.75756033324285 ], [ 134.690857471195386, 34.76019625155584 ], [ 134.692671829141659, 34.768265666827119 ], [ 134.701316913045162, 34.770936252206354 ], [ 134.701948274893084, 34.770797774597668 ] ] ], [ [ [ 134.605547691073184, 34.772211721094095 ], [ 134.606265836599164, 34.766401386614746 ], [ 134.595805913612139, 34.761798739120593 ], [ 134.602236200240554, 34.759694802173442 ], [ 134.596525187787279, 34.759502099042663 ], [ 134.593092411685461, 34.769453252165931 ], [ 134.589804889584002, 34.768115360435615 ], [ 134.604442166173044, 34.771948413988184 ], [ 134.605547691073184, 34.772211721094095 ] ] ], [ [ [ 134.663370272020529, 34.765439162387509 ], [ 134.652774331969908, 34.763278864927713 ], [ 134.662261945732325, 34.772507775213683 ], [ 134.667438611602734, 34.770199441251236 ], [ 134.664449533119523, 34.76666666683326 ], [ 134.663370272020529, 34.765439162387509 ] ] ], [ [ [ 134.38530888499713, 35.618476108285847 ], [ 134.385646939254912, 35.615861386993458 ], [ 134.385267782382357, 35.618481666995365 ], [ 134.38530888499713, 35.618476108285847 ] ] ], [ [ [ 134.645318053785218, 35.659563306001814 ], [ 134.642880310977603, 35.65897997334713 ], [ 134.645280363198253, 35.659594278653117 ], [ 134.645318053785218, 35.659563306001814 ] ] ], [ [ [ 134.636392360718901, 35.660864134871986 ], [ 134.638352244260773, 35.658468134996497 ], [ 134.636364306367682, 35.660865640337079 ], [ 134.636392360718901, 35.660864134871986 ] ] ], [ [ [ 134.502833060697299, 35.662861946421742 ], [ 134.503158326595553, 35.660277224714207 ], [ 134.502800829894454, 35.66288138706642 ], [ 134.502833060697299, 35.662861946421742 ] ] ], [ [ [ 134.672383579738494, 35.666076027186932 ], [ 134.67224486380951, 35.660543558938173 ], [ 134.672380143428995, 35.666090613291203 ], [ 134.672383579738494, 35.666076027186932 ] ] ], [ [ [ 134.944680390687495, 34.661737446026393 ], [ 134.923696965342742, 34.673398730167321 ], [ 134.909039947735437, 34.675999081192685 ], [ 134.910601244551913, 34.67339733262088 ], [ 134.89561194633427, 34.688994918780509 ], [ 134.889334720720854, 34.692837197578683 ], [ 134.886624968067849, 34.690675080790413 ], [ 134.888637587854419, 34.693192305680441 ], [ 134.885521219328893, 34.69194155915568 ], [ 134.858353022274173, 34.713778918662229 ], [ 134.846498884815787, 34.715559748083933 ], [ 134.848205253070091, 34.719592945757881 ], [ 134.845092023178381, 34.71552777538659 ], [ 134.846736977629462, 34.719015919149399 ], [ 134.84370045361311, 34.721385963691318 ], [ 134.836581530013632, 34.707368468380139 ], [ 134.82853936420031, 34.710159467585413 ], [ 134.826652438159613, 34.706426945647081 ], [ 134.831594163340014, 34.69818499094464 ], [ 134.826597522857469, 34.706367612875113 ], [ 134.808803774274793, 34.718478306228917 ], [ 134.815234474591421, 34.731319559350254 ], [ 134.81101038861857, 34.732033532021944 ], [ 134.8063787811559, 34.716465720616554 ], [ 134.810937419426409, 34.73201753218342 ], [ 134.800698559690886, 34.731722441237707 ], [ 134.799239377295521, 34.735912801734457 ], [ 134.797280531571346, 34.729832107665686 ], [ 134.787245317917154, 34.740186252393698 ], [ 134.792039182862027, 34.744736467613961 ], [ 134.789447601125971, 34.74695929673419 ], [ 134.785349805149508, 34.740571828627026 ], [ 134.769436226001062, 34.751491639727419 ], [ 134.766395383440226, 34.752602946368938 ], [ 134.763320596868084, 34.748494586056381 ], [ 134.757229247631699, 34.751841036234907 ], [ 134.760827963939391, 34.758684829341462 ], [ 134.766141297083209, 34.759857747637 ], [ 134.76108635535104, 34.762238387091941 ], [ 134.758550311247973, 34.758372585626375 ], [ 134.759532672195178, 34.763560332943086 ], [ 134.743507223679444, 34.769375414044191 ], [ 134.741294669313561, 34.766457667087707 ], [ 134.73432883280941, 34.769027252305875 ], [ 134.733116809293392, 34.765962225176622 ], [ 134.733679780397665, 34.770793134995245 ], [ 134.731211478626847, 34.767960865001953 ], [ 134.71150841807912, 34.776559026777704 ], [ 134.706689052857541, 34.776913613272711 ], [ 134.70553749705789, 34.773675640218698 ], [ 134.706331777389664, 34.776921693681288 ], [ 134.703612309360665, 34.772563802077855 ], [ 134.706236226220881, 34.776313612583181 ], [ 134.700246354685532, 34.777750305632139 ], [ 134.702837172897262, 34.772493585710436 ], [ 134.687713384665017, 34.771135279369673 ], [ 134.689405162318394, 34.777117198200187 ], [ 134.685609973821329, 34.77824655873178 ], [ 134.683468858900824, 34.772129279342835 ], [ 134.676920557837548, 34.773433945620127 ], [ 134.675664721150042, 34.769587225070438 ], [ 134.681117301722111, 34.76585913499116 ], [ 134.675580752349902, 34.76956589225216 ], [ 134.676616938620896, 34.77478916189034 ], [ 134.67369224440165, 34.776493135250064 ], [ 134.667866912827776, 34.770602054241465 ], [ 134.657927834002408, 34.773943945756571 ], [ 134.670277497008897, 34.780017775300166 ], [ 134.663358144662766, 34.784959657861975 ], [ 134.65035306114487, 34.770586387152093 ], [ 134.657994721079604, 34.787182495076138 ], [ 134.655828327115614, 34.788485000282606 ], [ 134.654328430612622, 34.78278763144408 ], [ 134.646151945655788, 34.779449721227707 ], [ 134.645572606890369, 34.766757946222299 ], [ 134.633395966250873, 34.767309387118587 ], [ 134.62882924757173, 34.763860495165773 ], [ 134.633322697584504, 34.767370972692277 ], [ 134.631946667404804, 34.777518053915117 ], [ 134.643925836708036, 34.780277774699584 ], [ 134.643920557687693, 34.783413892337308 ], [ 134.622435667671994, 34.783759559356213 ], [ 134.622440972772779, 34.780405044956922 ], [ 134.628695057930599, 34.778430613082378 ], [ 134.628626108707977, 34.773141666854485 ], [ 134.623951387746388, 34.773165278554814 ], [ 134.623884994397031, 34.76941833328948 ], [ 134.620393605880281, 34.771626107758721 ], [ 134.611394163010232, 34.767860828914195 ], [ 134.608777497383699, 34.774990000288312 ], [ 134.613264967804071, 34.777935531799415 ], [ 134.605439442376451, 34.779476946404031 ], [ 134.605175473369513, 34.774999999850138 ], [ 134.584844993601678, 34.768728892324589 ], [ 134.58643639432421, 34.76186416210146 ], [ 134.570005356961701, 34.75740853217809 ], [ 134.565228780583766, 34.761095441401551 ], [ 134.566033799720117, 34.757295946051102 ], [ 134.55832308714082, 34.76419566709643 ], [ 134.559500362651647, 34.769463892045053 ], [ 134.547884642662211, 34.773227134824481 ], [ 134.540769688670252, 34.770195414087141 ], [ 134.527515135914882, 34.782923224926947 ], [ 134.508924137439067, 34.763215945659397 ], [ 134.501967976740843, 34.761804639572517 ], [ 134.500777756388402, 34.767848640402462 ], [ 134.505364527251231, 34.766067080731261 ], [ 134.500667003979061, 34.768977161866587 ], [ 134.503450635938179, 34.772971332560985 ], [ 134.499910803640773, 34.7745258287041 ], [ 134.493040661297528, 34.771200197830922 ], [ 134.491297302128828, 34.76612255900892 ], [ 134.487413644624098, 34.769165613002713 ], [ 134.482189883056776, 34.767218864958693 ], [ 134.481186977996686, 34.759919774777813 ], [ 134.474196161024111, 34.755209640312728 ], [ 134.469096095808254, 34.766849098806915 ], [ 134.472461051336495, 34.77489369368908 ], [ 134.469681945665343, 34.784302999883607 ], [ 134.477341854642987, 34.787427667353029 ], [ 134.468029662638855, 34.79272110839247 ], [ 134.470117859651509, 34.797765305924202 ], [ 134.464951750922637, 34.803228558751016 ], [ 134.465829441575579, 34.809057558659447 ], [ 134.464580195119993, 34.804524613120464 ], [ 134.459533554130303, 34.803226413867947 ], [ 134.467878560347344, 34.79849353195101 ], [ 134.466463502288889, 34.790613108308378 ], [ 134.464446808573371, 34.786493027131542 ], [ 134.461076808747748, 34.788574748126166 ], [ 134.457278105700084, 34.785795198189874 ], [ 134.456633138908273, 34.780404973011173 ], [ 134.459751946395272, 34.767107440755865 ], [ 134.464282723668816, 34.764069000284167 ], [ 134.450681284413804, 34.753710640433781 ], [ 134.449531803350055, 34.758015197743248 ], [ 134.455454941592393, 34.76811627864339 ], [ 134.433021114832627, 34.766180918714497 ], [ 134.429790389414961, 34.762509081229155 ], [ 134.432575720193427, 34.756610640168958 ], [ 134.425855771826491, 34.754359558846602 ], [ 134.434339104566106, 34.747601640203584 ], [ 134.426325524603385, 34.744205197611848 ], [ 134.413976082830004, 34.728898748078791 ], [ 134.408783113150207, 34.726107107656958 ], [ 134.405098495399329, 34.729645558595678 ], [ 134.401883644814461, 34.727433333381668 ], [ 134.38751577183541, 34.730560667340967 ], [ 134.385279247839094, 34.726116829328248 ], [ 134.373698586120895, 34.730845387304839 ], [ 134.379941659979636, 34.736210053751051 ], [ 134.37339749669718, 34.732892387273921 ], [ 134.372338170869966, 34.739313026874754 ], [ 134.367590467226364, 34.737830107773334 ], [ 134.372358223053652, 34.739359386926196 ], [ 134.368506057108902, 34.744776134910751 ], [ 134.358828885145044, 34.751278828655074 ], [ 134.358140246375342, 34.746603828903631 ], [ 134.352497951119631, 34.745148134978479 ], [ 134.362762554848132, 34.746329640000965 ], [ 134.363947587910957, 34.739461774741187 ], [ 134.342079027325326, 34.735323252066507 ], [ 134.344659637332484, 34.73847310774778 ], [ 134.341724448924197, 34.735830225084896 ], [ 134.339740414988228, 34.739155694080068 ], [ 134.321729442359924, 34.721946108226348 ], [ 134.323762502837326, 34.73225249535642 ], [ 134.313026939441784, 34.738397224752191 ], [ 134.321530558188783, 34.761709162148179 ], [ 134.334831388258067, 34.76912749523774 ], [ 134.315827781726853, 34.781040828771268 ], [ 134.319380829561737, 34.787266387433874 ], [ 134.31602027171823, 34.791990278828337 ], [ 134.317098885305427, 34.801951107757475 ], [ 134.310836939173441, 34.802682494901262 ], [ 134.306913891363024, 34.811528332666455 ], [ 134.287931388322932, 34.821559440915507 ], [ 134.287445551171345, 34.828798054386766 ], [ 134.263821114652728, 34.826682775189965 ], [ 134.261781659995677, 34.835768892020781 ], [ 134.265311388409941, 34.840448332624476 ], [ 134.252737781623409, 34.851898613330377 ], [ 134.258975278786124, 34.870313612683105 ], [ 134.267062218246792, 34.87538777472605 ], [ 134.262838885006545, 34.884307495394637 ], [ 134.269979727782243, 34.883603891906148 ], [ 134.268721114887626, 34.887849441098865 ], [ 134.273481945935146, 34.892587495016926 ], [ 134.289148054139446, 34.897691108058268 ], [ 134.288420558362191, 34.900368054342266 ], [ 134.294938885021566, 34.904077495180331 ], [ 134.2928447210071, 34.911447495105847 ], [ 134.284019170148667, 34.916966108399208 ], [ 134.284491659562491, 34.921034721375349 ], [ 134.274799441940786, 34.924280279311517 ], [ 134.274826393723174, 34.931137775388095 ], [ 134.267354163363962, 34.936474999921359 ], [ 134.262679169907869, 34.937657225300768 ], [ 134.258849169553628, 34.934042494765379 ], [ 134.254094163414948, 34.937656666821795 ], [ 134.254326394447617, 34.946218333209572 ], [ 134.276972775972922, 34.963203612856489 ], [ 134.273344721082026, 34.967417495121367 ], [ 134.27696832702668, 34.976759441195327 ], [ 134.269648885187962, 34.978564721384828 ], [ 134.270884994347057, 34.983767224777637 ], [ 134.286681388235593, 34.99611222479939 ], [ 134.2652558372871, 35.005305837594392 ], [ 134.263400558389094, 35.01134694620464 ], [ 134.268568612351601, 35.012628892009786 ], [ 134.264358611560738, 35.016560837712518 ], [ 134.268622503325901, 35.018030278674473 ], [ 134.268209999591818, 35.022081107557142 ], [ 134.275521945581431, 35.023472224763395 ], [ 134.2815908297531, 35.037232225287028 ], [ 134.292547224374971, 35.037538332927795 ], [ 134.297348612148767, 35.043104171420453 ], [ 134.305305279415165, 35.040169170970501 ], [ 134.30775000006247, 35.045912505058141 ], [ 134.316873891117211, 35.043528892444499 ], [ 134.314540271816099, 35.060904440987201 ], [ 134.321731115098942, 35.068803054317527 ], [ 134.318923891224699, 35.083281945905128 ], [ 134.332840829740576, 35.086153332810113 ], [ 134.337179441677904, 35.091362224986767 ], [ 134.340426393563234, 35.088713892432224 ], [ 134.350347496739687, 35.091036945598603 ], [ 134.355077782313856, 35.099181667400103 ], [ 134.352951945975633, 35.113465558988423 ], [ 134.360747496999466, 35.120218891988316 ], [ 134.35620944241191, 35.124416667395337 ], [ 134.367393333135851, 35.14696138685855 ], [ 134.374936109014243, 35.150976107961071 ], [ 134.394320000167909, 35.152738333107663 ], [ 134.407021388026692, 35.147330558558508 ], [ 134.411632217552892, 35.151962505065626 ], [ 134.413128053616788, 35.158822225165636 ], [ 134.406140557840558, 35.165504721265904 ], [ 134.412633332962059, 35.177649721057833 ], [ 134.412068611777045, 35.185457224971003 ], [ 134.382992503001674, 35.194438891841457 ], [ 134.379896109318111, 35.210262504610967 ], [ 134.382516938805793, 35.221724441429899 ], [ 134.396939442001667, 35.227471108404984 ], [ 134.40281444942741, 35.241024441125091 ], [ 134.422846938835278, 35.23716638731895 ], [ 134.434965836704009, 35.229194999949357 ], [ 134.447766108619135, 35.237920000307838 ], [ 134.463472217768754, 35.236823054040769 ], [ 134.461767223678521, 35.244029171409181 ], [ 134.477458611825568, 35.24947944072369 ], [ 134.486393060691285, 35.262737505331643 ], [ 134.490013061253876, 35.261401387064438 ], [ 134.515408054238378, 35.277674441422391 ], [ 134.509274162572638, 35.294028054351259 ], [ 134.514802217848114, 35.307672224893338 ], [ 134.503428327355437, 35.31850777491394 ], [ 134.501920558187294, 35.326543333408154 ], [ 134.513881946095012, 35.35359027936795 ], [ 134.504165278604773, 35.359760559402332 ], [ 134.502867781722784, 35.365961386708705 ], [ 134.489052775964865, 35.367866945802973 ], [ 134.472301945978074, 35.378249721347629 ], [ 134.473830000254338, 35.391315558566248 ], [ 134.480480271847114, 35.403139441032408 ], [ 134.481433891361007, 35.410498333431406 ], [ 134.476666393639221, 35.414342775099044 ], [ 134.475882218089964, 35.423550278822347 ], [ 134.480093605635489, 35.427038332652955 ], [ 134.46273472063092, 35.436799441041444 ], [ 134.452258326560582, 35.43645138722178 ], [ 134.439999170425494, 35.442928891854933 ], [ 134.438181946339796, 35.461229440786099 ], [ 134.433659441929763, 35.466407505102325 ], [ 134.43814083023517, 35.476073054228095 ], [ 134.427432776201726, 35.496565000074725 ], [ 134.430876393630683, 35.502469170715699 ], [ 134.427632217952578, 35.508654721238429 ], [ 134.412702218332811, 35.51490444108714 ], [ 134.425600557719576, 35.54180638665548 ], [ 134.420933332607319, 35.544736666563949 ], [ 134.425076666654945, 35.551860837707522 ], [ 134.421799170195641, 35.562549441203828 ], [ 134.410037497432654, 35.562821666886464 ], [ 134.405040272390693, 35.570497775352123 ], [ 134.408303606326399, 35.589065000249605 ], [ 134.393131946282324, 35.598140559039621 ], [ 134.392948884783323, 35.601457224571334 ], [ 134.371522776255233, 35.608570279195078 ], [ 134.369944436386731, 35.614584730101285 ], [ 134.381915278867041, 35.611634999655564 ], [ 134.38742944231501, 35.61373750488201 ], [ 134.386529999759773, 35.617687224785641 ], [ 134.393932502982693, 35.619975000246143 ], [ 134.405351388355939, 35.615697775132276 ], [ 134.411310271951606, 35.619890838091749 ], [ 134.415443061448173, 35.618020278812878 ], [ 134.419913333233808, 35.624686107777677 ], [ 134.433429389954426, 35.620682585932627 ], [ 134.43579053210749, 35.623521721350414 ], [ 134.43200693856943, 35.624962775211941 ], [ 134.434489169939297, 35.628172225367962 ], [ 134.431958885094559, 35.629819721303136 ], [ 134.438671387974296, 35.635775837684832 ], [ 134.442714747087962, 35.63315002685232 ], [ 134.441149999572872, 35.628508613182021 ], [ 134.444152775630187, 35.627595838177456 ], [ 134.442924111958291, 35.631337413590813 ], [ 134.445695446587706, 35.628636918558982 ], [ 134.442927639099366, 35.632366999737314 ], [ 134.452676497822154, 35.62876835987197 ], [ 134.461347781674817, 35.640081666635638 ], [ 134.472202503442873, 35.638749721222723 ], [ 134.473695836693537, 35.642352774960671 ], [ 134.47717444944135, 35.639870558879238 ], [ 134.479387224141192, 35.646483333239303 ], [ 134.495639728091078, 35.656457224821111 ], [ 134.502613606332943, 35.655616945965335 ], [ 134.504869169876315, 35.661233892030566 ], [ 134.513149170397924, 35.658233613390621 ], [ 134.518906524016984, 35.661295504583904 ], [ 134.517151336065353, 35.66629910761776 ], [ 134.519597328354052, 35.662387386768557 ], [ 134.523154189314482, 35.66695341386901 ], [ 134.532441024933405, 35.665436612809458 ], [ 134.538769974155002, 35.670394306352193 ], [ 134.55988814492207, 35.650496306059722 ], [ 134.563938586196855, 35.656773225004372 ], [ 134.569833113407526, 35.657723919023681 ], [ 134.576951724942205, 35.652275505010607 ], [ 134.57822469461405, 35.660944305835073 ], [ 134.587558974866852, 35.659796054144635 ], [ 134.590618755351329, 35.655499640196297 ], [ 134.59835021978688, 35.658596441272778 ], [ 134.606590363254668, 35.655873586396922 ], [ 134.606685888343122, 35.648848999881466 ], [ 134.614379831264273, 35.648398170639098 ], [ 134.612776161091006, 35.64370872058106 ], [ 134.616300142837417, 35.639275332690488 ], [ 134.627409974390844, 35.641484558665525 ], [ 134.62775674397858, 35.646415054011584 ], [ 134.629506834572794, 35.642050612645733 ], [ 134.630951284274374, 35.647482197645331 ], [ 134.626355382594852, 35.646715387105473 ], [ 134.627422114339197, 35.649821945826204 ], [ 134.637198105608149, 35.655582332858444 ], [ 134.63378625223379, 35.647548838308296 ], [ 134.639022309332177, 35.6498569996009 ], [ 134.638031413818794, 35.653798720934276 ], [ 134.642213502351296, 35.650205720717508 ], [ 134.647126588621177, 35.660054000391881 ], [ 134.656134059739088, 35.665230532263308 ], [ 134.666060194622332, 35.665258027236234 ], [ 134.664829689138855, 35.655623919308482 ], [ 134.657774137166712, 35.658159198088583 ], [ 134.663206393959967, 35.648145837960101 ], [ 134.66863102540151, 35.65788455862554 ], [ 134.671540505789721, 35.656797081320292 ], [ 134.674461996623904, 35.660930054278651 ], [ 134.678708301247184, 35.65496725233686 ], [ 134.682052866446725, 35.657761748106225 ], [ 134.686511971350455, 35.655686918616425 ], [ 134.688260220133088, 35.665455891576187 ], [ 134.696266887007255, 35.662408359857977 ], [ 134.692144253554488, 35.659593972883613 ], [ 134.694704838357666, 35.654688081190045 ], [ 134.704789196364345, 35.652942559151825 ], [ 134.71078002567765, 35.660040251556438 ], [ 134.707586887425009, 35.666914000181009 ], [ 134.718453384915847, 35.664466999752278 ], [ 134.725560584053824, 35.666973504723501 ], [ 134.734187302002397, 35.657954774992902 ], [ 134.735930362596264, 35.661060973085512 ], [ 134.743895498778329, 35.65954583757042 ], [ 134.742460466777175, 35.664470440558432 ], [ 134.745757250097085, 35.666185441405048 ], [ 134.748888833353021, 35.659800225200286 ], [ 134.752138054227885, 35.664111864670872 ], [ 134.757620752195976, 35.66120222510267 ], [ 134.760866200414853, 35.662471666734064 ], [ 134.756552970043572, 35.663387973376302 ], [ 134.763595965681361, 35.674710413654736 ], [ 134.761048859017706, 35.664160386692572 ], [ 134.7633162783236, 35.66638080203245 ], [ 134.761833255800184, 35.663486252188818 ], [ 134.765206614593694, 35.660688440619083 ], [ 134.783790610048641, 35.660647586217181 ], [ 134.784393554219264, 35.66664397334074 ], [ 134.799601504605789, 35.670272468000064 ], [ 134.798694668724011, 35.667037387165749 ], [ 134.814890661075196, 35.66350300026329 ], [ 134.822450142759976, 35.65913044071732 ], [ 134.821375888186708, 35.656237197588666 ], [ 134.839228366096336, 35.65575055914104 ], [ 134.833558690081531, 35.648786134572504 ], [ 134.839458106006873, 35.650249891819101 ], [ 134.835494642663662, 35.647251559312053 ], [ 134.840650532396239, 35.642441027231655 ], [ 134.852330506247881, 35.659614721142532 ], [ 134.866907638876455, 35.658724531711812 ], [ 134.864101114674781, 35.651658332665988 ], [ 134.867688611939911, 35.649679171256821 ], [ 134.865789727613901, 35.638336107725252 ], [ 134.871259169575069, 35.636445559215247 ], [ 134.873877223754903, 35.620928612565478 ], [ 134.866378611783603, 35.613434441446373 ], [ 134.865356938771811, 35.599012774619894 ], [ 134.853726666852253, 35.589079721252176 ], [ 134.862594448974733, 35.587051386712176 ], [ 134.86895472068386, 35.579769171410192 ], [ 134.867757497310663, 35.576138891596599 ], [ 134.875763333211353, 35.573951666636162 ], [ 134.881051659806303, 35.564033613060872 ], [ 134.900875550566298, 35.556063332756651 ], [ 134.90305444870387, 35.549442504967658 ], [ 134.914568611852019, 35.545308612902204 ], [ 134.919291945666828, 35.538121107902839 ], [ 134.915129170075147, 35.527708053983531 ], [ 134.923150830446502, 35.521690000393278 ], [ 134.926898612081345, 35.512527505040396 ], [ 134.954216939260391, 35.516161946017064 ], [ 134.960547781554965, 35.512928054086501 ], [ 134.971717497164832, 35.52419138732273 ], [ 134.979494994298648, 35.524065278989497 ], [ 134.993132502662888, 35.534204170985731 ], [ 135.008008339713115, 35.533632775032572 ], [ 135.030031672723567, 35.54026777523768 ], [ 135.036946666955146, 35.538568613250959 ], [ 135.036191115028032, 35.530609999851663 ], [ 135.045155836872482, 35.508693053941329 ], [ 135.032163605565984, 35.497157774711582 ], [ 135.042703891071824, 35.492268613106035 ], [ 135.040132502712936, 35.481660837977358 ], [ 135.035098884805734, 35.476630838042809 ], [ 135.040956109037211, 35.473468333396909 ], [ 135.05183472129545, 35.442538891856429 ], [ 135.047096938972572, 35.429922775016109 ], [ 135.049166939102975, 35.407742774709334 ], [ 135.030034448930792, 35.410100279104654 ], [ 135.019240558205297, 35.394122775245933 ], [ 134.991080558221256, 35.385635278645225 ], [ 134.985478326863358, 35.396213612668134 ], [ 134.970946666655436, 35.398951107607559 ], [ 134.959553332820064, 35.408966946267583 ], [ 134.946148612168827, 35.41330972116674 ], [ 134.933567496942487, 35.407070278770391 ], [ 134.923408053638809, 35.394282504733837 ], [ 134.927174994430516, 35.379554721273394 ], [ 134.918927497206255, 35.364514721077569 ], [ 134.923466393559238, 35.354238053843176 ], [ 134.918867223743405, 35.350124999968841 ], [ 134.917148612118808, 35.340291945816716 ], [ 134.925583061309339, 35.336678054348795 ], [ 134.928050272202313, 35.330439171330738 ], [ 134.924760830048285, 35.326719170653234 ], [ 134.926319442388376, 35.322013891627876 ], [ 134.921247497174363, 35.317216945605594 ], [ 134.924699999905101, 35.311659999609333 ], [ 134.943317496905024, 35.308311945939579 ], [ 134.96005333339474, 35.297912505058093 ], [ 134.99285888482973, 35.289053612734108 ], [ 134.999116667100566, 35.290938332737937 ], [ 134.999877782233966, 35.28733110794434 ], [ 135.011726939246955, 35.281119720798529 ], [ 135.010851388081164, 35.269581945950108 ], [ 135.03747000044018, 35.260688613189018 ], [ 135.04229055816279, 35.264129720610185 ], [ 135.049593061270798, 35.261962775361837 ], [ 135.056789170084244, 35.264602774798277 ], [ 135.055821945626349, 35.259211386796096 ], [ 135.067874720841701, 35.23735110806723 ], [ 135.08289972843977, 35.246379721347125 ], [ 135.093346109435515, 35.259780000246849 ], [ 135.098904449380939, 35.258820000043045 ], [ 135.108770272130414, 35.266280279311502 ], [ 135.128674448966763, 35.260716946330035 ], [ 135.137763890591145, 35.265249720997872 ], [ 135.1572536058693, 35.261229999664806 ], [ 135.161978612423127, 35.257818333349462 ], [ 135.166858340140379, 35.240344720932171 ], [ 135.161981115236358, 35.231241107790936 ], [ 135.154777782168935, 35.226501667118271 ], [ 135.163067223773396, 35.22009055943181 ], [ 135.17096666717805, 35.220266946162667 ], [ 135.175131388003251, 35.214600837758496 ], [ 135.182311945739798, 35.215924171263566 ], [ 135.188835006430509, 35.206828613349899 ], [ 135.197057782190996, 35.203017505053879 ], [ 135.199103890931838, 35.193581945850156 ], [ 135.186713060559327, 35.190223891719256 ], [ 135.190140000060978, 35.183186107652773 ], [ 135.186866666563446, 35.173166107829672 ], [ 135.194860557668676, 35.171293332621246 ], [ 135.205961946386765, 35.160820838011318 ], [ 135.228010271556855, 35.165333612656127 ], [ 135.232189441789387, 35.177504171180601 ], [ 135.273985005803411, 35.177262775156976 ], [ 135.28343250260798, 35.171453054015274 ], [ 135.289784163308582, 35.171753612839041 ], [ 135.291966394333713, 35.160494440765888 ], [ 135.283392775955917, 35.150885837611384 ], [ 135.278376109370015, 35.151023054370512 ], [ 135.287770830359591, 35.142643053733991 ], [ 135.340458339980501, 35.150092774961649 ], [ 135.340843605947725, 35.145535838208446 ], [ 135.337421115392203, 35.144015000092224 ], [ 135.342208612237755, 35.135993053736513 ], [ 135.354711672605617, 35.136655279417653 ], [ 135.360028612030874, 35.132080558570976 ], [ 135.391203891346549, 35.126484440804347 ], [ 135.385914721187532, 35.120311387260756 ], [ 135.393365551279203, 35.111507775363577 ], [ 135.389172502708902, 35.108333612806064 ], [ 135.388026109017801, 35.097125279408147 ], [ 135.397319169743923, 35.095850000277323 ], [ 135.404281388275535, 35.088993053686522 ], [ 135.400057496556315, 35.085816107727226 ], [ 135.399686394011951, 35.076163332571809 ], [ 135.376613606133105, 35.066024440575518 ], [ 135.377381673025866, 35.061020558751864 ], [ 135.3687288846304, 35.054889721183713 ], [ 135.371245551041397, 35.045288891769019 ], [ 135.350028053751771, 35.05119138697296 ], [ 135.348824448789401, 35.04593638655507 ], [ 135.338086939260847, 35.043603892305839 ], [ 135.330203891396536, 35.035223612879463 ], [ 135.336484720593489, 35.032718613373333 ], [ 135.339802775577709, 35.025877225053932 ], [ 135.35469749659228, 35.024790279248066 ], [ 135.352562775851538, 34.990388891634097 ], [ 135.359532776216724, 34.982515559145781 ], [ 135.349592503091571, 34.97897833308366 ], [ 135.346481388405437, 34.964496107709238 ], [ 135.35424805410446, 34.962617225204838 ], [ 135.360384721078049, 34.954469720900931 ], [ 135.382632218202389, 34.955991387292727 ], [ 135.392351946085455, 34.941365828869948 ], [ 135.395956667166502, 34.944439440927511 ], [ 135.410690000343266, 34.94267499985142 ], [ 135.409100272359751, 34.945494441015683 ], [ 135.412118884578945, 34.943003613026349 ], [ 135.410284720863274, 34.939961945787218 ], [ 135.417455005644115, 34.9417741624477 ], [ 135.418484721292884, 34.933894441175596 ], [ 135.441656939116456, 34.939394999679564 ], [ 135.452541673059841, 34.92978777518573 ], [ 135.468311115165875, 34.927398612855768 ], [ 135.463596109073251, 34.918305558654652 ], [ 135.439302775702572, 34.920504440627496 ], [ 135.418600830064292, 34.908691386898056 ], [ 135.427204448926204, 34.906045828752042 ], [ 135.432442775913387, 34.895988891973843 ], [ 135.430741945684304, 34.892430558823264 ], [ 135.443579169842906, 34.898938892216165 ], [ 135.445890271918529, 34.896872224973265 ], [ 135.434012776368604, 34.872212495210533 ], [ 135.431358340115366, 34.856415279341718 ], [ 135.416878339663754, 34.852224720994116 ], [ 135.424329999829638, 34.837122774596423 ], [ 135.423336667153535, 34.828572495424396 ], [ 135.415990557718146, 34.817692775201465 ], [ 135.423691387647523, 34.80207444078286 ], [ 135.428636939443209, 34.803181107821899 ], [ 135.442787496645678, 34.79117444084784 ], [ 135.444696667417361, 34.768529161891365 ], [ 135.450408884962144, 34.76632249538693 ], [ 135.451920558087295, 34.758183612883499 ], [ 135.45628888542376, 34.760347495040889 ], [ 135.456665006185176, 34.751668054337301 ], [ 135.459937223624024, 34.751000000149929 ], [ 135.460295006309593, 34.733135558559241 ], [ 135.447369170151092, 34.733351386857066 ], [ 135.446516939305411, 34.718661667202241 ], [ 135.406353449651988, 34.697598386556365 ], [ 135.391967950860362, 34.680036910375179 ], [ 135.376181114966585, 34.676569441126844 ], [ 135.373836394434079, 34.678582774975155 ], [ 135.392833864891031, 34.688220802148351 ], [ 135.401048663664938, 34.699113774780926 ], [ 135.392339753976557, 34.701291278969393 ], [ 135.393850946863722, 34.69695182886386 ], [ 135.389306719329738, 34.691915693754311 ], [ 135.38521922238931, 34.69276216174444 ], [ 135.385312360676949, 34.696413305829481 ], [ 135.381656809014544, 34.691113801560732 ], [ 135.377608170880421, 34.692660945746127 ], [ 135.375290362560236, 34.687341495413762 ], [ 135.377682218359723, 34.684869829279251 ], [ 135.371230830038826, 34.680771946068489 ], [ 135.368503748349326, 34.683160153318454 ], [ 135.373754527349661, 34.69301789206213 ], [ 135.368491335906469, 34.696312251709116 ], [ 135.369953060685248, 34.694057413918586 ], [ 135.365219169729016, 34.693851945810707 ], [ 135.36885538326942, 34.692678495116525 ], [ 135.363235927196342, 34.688462063273676 ], [ 135.353904694745893, 34.696816161636605 ], [ 135.363823294209737, 34.705286622379788 ], [ 135.338948975414951, 34.722307775083777 ], [ 135.337470311006086, 34.72710902706001 ], [ 135.334683943309415, 34.721757693962445 ], [ 135.322350998699676, 34.725819305716414 ], [ 135.323882048617747, 34.718021134967444 ], [ 135.306154812094974, 34.714482801839893 ], [ 135.305333748153998, 34.718611693674802 ], [ 135.291842892235763, 34.72070261293527 ], [ 135.291223721597589, 34.714823108000076 ], [ 135.281733230004647, 34.712440251716316 ], [ 135.28678243765944, 34.71189661333807 ], [ 135.287979636750947, 34.7039858285832 ], [ 135.271872969561969, 34.702229333017328 ], [ 135.267914812218919, 34.706967775442536 ], [ 135.268195382710815, 34.701838494850733 ], [ 135.227988170717595, 34.700046666720368 ], [ 135.23495422755559, 34.698542027192843 ], [ 135.238310609846849, 34.693269999910626 ], [ 135.224019753908578, 34.691697467863889 ], [ 135.218903216710146, 34.695493468448888 ], [ 135.214496498214885, 34.692750666610038 ], [ 135.218184617026509, 34.690018494757794 ], [ 135.207498637751996, 34.684285667449672 ], [ 135.201832437616986, 34.685003161866462 ], [ 135.202394863732025, 34.678637387205697 ], [ 135.200756057046419, 34.683767414234808 ], [ 135.199591388232079, 34.680099360197346 ], [ 135.197754552630613, 34.683111026952361 ], [ 135.195821387946808, 34.679710053576173 ], [ 135.195291051440904, 34.682879386774346 ], [ 135.19313741885685, 34.679422332574632 ], [ 135.193163256379194, 34.685595801605018 ], [ 135.190146004834332, 34.685519585860277 ], [ 135.188760636094571, 34.678908108322616 ], [ 135.184378053604405, 34.682043494811467 ], [ 135.186019000676424, 34.677982559347697 ], [ 135.182077004150528, 34.676817666602062 ], [ 135.18695752327119, 34.676861666832508 ], [ 135.188745615617677, 34.67086577523537 ], [ 135.17707197119455, 34.668057413718714 ], [ 135.187377587605624, 34.666883053809954 ], [ 135.182714475093007, 34.661658224747327 ], [ 135.177412969832744, 34.663844748236613 ], [ 135.180667419365932, 34.655433801928496 ], [ 135.184271751040569, 34.659294026698035 ], [ 135.187609299729502, 34.652775639784011 ], [ 135.183357886057706, 34.649501387179328 ], [ 135.151284773073826, 34.646089360235862 ], [ 135.149301893867346, 34.649017999780938 ], [ 135.146174642645747, 34.64772602743426 ], [ 135.15052505818494, 34.645669946111184 ], [ 135.136559273891407, 34.641032252036837 ], [ 135.129934228282082, 34.642414613443691 ], [ 135.131556108827453, 34.639524332681844 ], [ 135.127457223771898, 34.642524972849287 ], [ 135.110300920950749, 34.641069585592959 ], [ 135.074621140753152, 34.630899441256247 ], [ 135.074519467899222, 34.628320774684084 ], [ 135.057955370444006, 34.627401711619768 ], [ 135.056593891295165, 34.624272640170261 ], [ 135.05351654974902, 34.625077946190288 ], [ 135.057293606115081, 34.627225973300085 ], [ 135.051650336893545, 34.624437801563317 ], [ 135.038364085734088, 34.627460440946663 ], [ 135.018615161560547, 34.643176784381126 ], [ 134.991317951362475, 34.64160902683517 ], [ 134.994791362431442, 34.644924278632629 ], [ 134.988704695065735, 34.645675279090881 ], [ 134.990482776159297, 34.641212360162342 ], [ 134.981948521107483, 34.640120441105523 ], [ 134.963760194977112, 34.647157693672682 ], [ 134.966246640570034, 34.643948891927892 ], [ 134.94472868967739, 34.661721081063092 ], [ 134.944680390687495, 34.661737446026393 ] ] ] ] } }
]
}
