{
"type": "FeatureCollection",
"name": "31_tottori_forecast",
"crs": { "type": "name", "properties": { "name": "urn:ogc:def:crs:OGC:1.3:CRS84" } },
"features": [
{ "type": "Feature", "properties": { "code": "310000", "name": "鳥取県", "PrefCode": "31", "regioncode": "310000" }, "geometry": { "type": "MultiPolygon", "coordinates": [ [ [ [ 133.934964772906028, 35.515284440624498 ], [ 133.933679363811621, 35.518841837580794 ], [ 133.93495014273492, 35.515302053846767 ], [ 133.934964772906028, 35.515284440624498 ] ] ], [ [ [ 134.184908301277119, 35.545640135384019 ], [ 134.183734916233448, 35.54331913536987 ], [ 134.184887639353178, 35.545655639696065 ], [ 134.184908301277119, 35.545640135384019 ] ] ], [ [ [ 133.274786860625227, 35.548717279079199 ], [ 133.260747302246273, 35.536131999991881 ], [ 133.266907081796489, 35.52178522510809 ], [ 133.260632943555606, 35.536165667011971 ], [ 133.274657587577622, 35.548718135233798 ], [ 133.274786860625227, 35.548717279079199 ] ] ], [ [ [ 134.189796277576193, 35.549179694287488 ], [ 134.183244357641001, 35.54699369420365 ], [ 134.189821413627442, 35.549189918679872 ], [ 134.189796277576193, 35.549179694287488 ] ] ], [ [ [ 134.37000250291328, 35.614329721039837 ], [ 134.371522776255233, 35.608570279195078 ], [ 134.392948884783323, 35.601457224571334 ], [ 134.393131946282324, 35.598140559039621 ], [ 134.408303606326399, 35.589065000249605 ], [ 134.405040272390693, 35.570497775352123 ], [ 134.410037497432654, 35.562821666886464 ], [ 134.421799170195641, 35.562549441203828 ], [ 134.425076666654945, 35.551860837707522 ], [ 134.420933332607319, 35.544736666563949 ], [ 134.425600557719576, 35.54180638665548 ], [ 134.412702218332811, 35.51490444108714 ], [ 134.427632217952578, 35.508654721238429 ], [ 134.430876393630683, 35.502469170715699 ], [ 134.427432776201726, 35.496565000074725 ], [ 134.43814083023517, 35.476073054228095 ], [ 134.433659441929763, 35.466407505102325 ], [ 134.438181946339796, 35.461229440786099 ], [ 134.439999170425494, 35.442928891854933 ], [ 134.452258326560582, 35.43645138722178 ], [ 134.46273472063092, 35.436799441041444 ], [ 134.480093605635489, 35.427038332652955 ], [ 134.475882218089964, 35.423550278822347 ], [ 134.476666393639221, 35.414342775099044 ], [ 134.481433891361007, 35.410498333431406 ], [ 134.480480271847114, 35.403139441032408 ], [ 134.473830000254338, 35.391315558566248 ], [ 134.472301945978074, 35.378249721347629 ], [ 134.489052775964865, 35.367866945802973 ], [ 134.502867781722784, 35.365961386708705 ], [ 134.504165278604773, 35.359760559402332 ], [ 134.513881946095012, 35.35359027936795 ], [ 134.501920558187294, 35.326543333408154 ], [ 134.503428327355437, 35.31850777491394 ], [ 134.514802217848114, 35.307672224893338 ], [ 134.509274162572638, 35.294028054351259 ], [ 134.515370830399547, 35.277308332813334 ], [ 134.490013061253876, 35.261401387064438 ], [ 134.486393060691285, 35.262737505331643 ], [ 134.477458611825568, 35.24947944072369 ], [ 134.461767223678521, 35.244029171409181 ], [ 134.463472217768754, 35.236823054040769 ], [ 134.447766108619135, 35.237920000307838 ], [ 134.434965836704009, 35.229194999949357 ], [ 134.422846938835278, 35.23716638731895 ], [ 134.40281444942741, 35.241024441125091 ], [ 134.398001660048635, 35.250253333424666 ], [ 134.390308326867853, 35.252310278996219 ], [ 134.372959728308842, 35.24580166681352 ], [ 134.374821387896759, 35.237672225392942 ], [ 134.368899999735277, 35.231719440999427 ], [ 134.336654721438322, 35.219602775247949 ], [ 134.335014993846926, 35.213171386950023 ], [ 134.321217496989902, 35.201817224885076 ], [ 134.29899610898326, 35.201860279028722 ], [ 134.278460830203244, 35.196870837619088 ], [ 134.270463606210569, 35.201353612679156 ], [ 134.267973333102873, 35.208418891718509 ], [ 134.260471659839254, 35.210976107661281 ], [ 134.254099169940787, 35.208292504595477 ], [ 134.249758885264441, 35.200680559160503 ], [ 134.227825279413196, 35.197227224556798 ], [ 134.221795550824027, 35.190451386922007 ], [ 134.193473891407052, 35.189123054085712 ], [ 134.18993666714357, 35.175865279059451 ], [ 134.172447782439235, 35.169743333088377 ], [ 134.167401115369216, 35.172017775200231 ], [ 134.168893605955191, 35.18016694594786 ], [ 134.165554449278488, 35.187271946243357 ], [ 134.152948054109515, 35.196284440974239 ], [ 134.16418416306874, 35.227975558825051 ], [ 134.158246393756144, 35.234563054141688 ], [ 134.143968612161757, 35.231492224586532 ], [ 134.137339999841174, 35.238652224720454 ], [ 134.14552000024787, 35.242960559182507 ], [ 134.143043332983439, 35.250723332615735 ], [ 134.150578884607853, 35.257956387377419 ], [ 134.137698885095574, 35.269346107736737 ], [ 134.141292218061494, 35.274730559267937 ], [ 134.139797223762912, 35.278822505154551 ], [ 134.134299999945142, 35.283191387372653 ], [ 134.127125278808649, 35.280148891857948 ], [ 134.11570805358383, 35.283546386656496 ], [ 134.09775944174487, 35.305697505235742 ], [ 134.08642250259652, 35.30741166701489 ], [ 134.084040272240827, 35.302781666640669 ], [ 134.07515888517446, 35.302613053649566 ], [ 134.070216393771602, 35.297273613186746 ], [ 134.062198612176303, 35.303042774904213 ], [ 134.052045837345531, 35.298090837921904 ], [ 134.028241114635762, 35.30782027938244 ], [ 134.021694994428458, 35.30556889229058 ], [ 134.008118884578948, 35.308174441397398 ], [ 133.999418326894329, 35.314801945753231 ], [ 134.004180558186249, 35.325324440870304 ], [ 134.015509169612528, 35.334078054058978 ], [ 134.010821660291413, 35.340396107994025 ], [ 134.015844721057078, 35.346120279327465 ], [ 134.01480583681996, 35.350391387252785 ], [ 133.997667782142457, 35.352900279024709 ], [ 133.979688884734287, 35.343375559234744 ], [ 133.96963277623172, 35.347834441106613 ], [ 133.95570333264277, 35.342020837591633 ], [ 133.945321388071648, 35.332615558561258 ], [ 133.934100000114995, 35.335126945951856 ], [ 133.928007223654504, 35.324521386752622 ], [ 133.931943333218328, 35.316333054127199 ], [ 133.925221659951717, 35.306898891570654 ], [ 133.908168326806845, 35.307201946013038 ], [ 133.898040830120294, 35.304265558808538 ], [ 133.886049727712816, 35.294247774914936 ], [ 133.862139441681961, 35.292504440927246 ], [ 133.860960829778492, 35.286880278701972 ], [ 133.866343333378154, 35.284887224565807 ], [ 133.863463061171387, 35.277095278924037 ], [ 133.865943332918505, 35.272258892234163 ], [ 133.853366939133025, 35.265859440660734 ], [ 133.843765837223714, 35.253693612570203 ], [ 133.844573333092967, 35.249494441415379 ], [ 133.832075550846071, 35.248832505315931 ], [ 133.818022502636495, 35.252711667109793 ], [ 133.818153605804355, 35.259236108259813 ], [ 133.8074974966122, 35.270416666995629 ], [ 133.809279169598085, 35.276916946060282 ], [ 133.801478053569326, 35.284653891863684 ], [ 133.800006938969091, 35.292648891832926 ], [ 133.789559441914776, 35.293533892175446 ], [ 133.789741388254583, 35.297583333404191 ], [ 133.783573060648337, 35.294765278994475 ], [ 133.762338326952317, 35.311086667415793 ], [ 133.756960272298784, 35.308197775207191 ], [ 133.750692503056598, 35.311396386733918 ], [ 133.745245278846596, 35.319512775394344 ], [ 133.742308611952922, 35.316523332685733 ], [ 133.737586109111703, 35.318981946060035 ], [ 133.728901660083579, 35.316724440880307 ], [ 133.69710916975248, 35.327144441163057 ], [ 133.691239728230926, 35.320140279150621 ], [ 133.678351115011992, 35.318941667224237 ], [ 133.674096109447987, 35.323324720959135 ], [ 133.663520557927427, 35.325164440686422 ], [ 133.649628327385471, 35.336215279411647 ], [ 133.632836393884531, 35.339824170649024 ], [ 133.62219138772241, 35.336709440688196 ], [ 133.596799441640997, 35.345020558651925 ], [ 133.588366109408526, 35.336963613380078 ], [ 133.592396109093215, 35.330630279064167 ], [ 133.57678639377707, 35.314413613097827 ], [ 133.577552776239713, 35.297261108113673 ], [ 133.570463890895894, 35.286912774804762 ], [ 133.572267781632831, 35.281214440993722 ], [ 133.568690829818024, 35.277119720698579 ], [ 133.571915551361712, 35.272569440727182 ], [ 133.56686972785576, 35.266266386584505 ], [ 133.568131115158849, 35.256844721007099 ], [ 133.562414162683581, 35.254403053558121 ], [ 133.560769442056198, 35.246745559260205 ], [ 133.55491000009647, 35.241809999831673 ], [ 133.543911115205901, 35.243198892115231 ], [ 133.534830829579164, 35.236716945730507 ], [ 133.516748611759112, 35.240664721299879 ], [ 133.505541114730704, 35.228172504957172 ], [ 133.52160111519936, 35.210428891779998 ], [ 133.52303221806244, 35.196450838035787 ], [ 133.529105551180351, 35.187233612641137 ], [ 133.526192218096412, 35.182925837557434 ], [ 133.519319170043673, 35.182822224865845 ], [ 133.516174448591983, 35.190718053895125 ], [ 133.507973890582662, 35.193115838025562 ], [ 133.500598611636633, 35.192551946015556 ], [ 133.496039441866856, 35.186666667432803 ], [ 133.489742503114144, 35.187680558610964 ], [ 133.482562217872101, 35.182412505432808 ], [ 133.474709169592529, 35.181991108303066 ], [ 133.46754888527289, 35.175287505114341 ], [ 133.460009728266414, 35.177848892112706 ], [ 133.456515279356722, 35.17310861327195 ], [ 133.447556394112326, 35.171296107929095 ], [ 133.428335279349767, 35.177392505060141 ], [ 133.422179728411834, 35.176113332764146 ], [ 133.41557333294304, 35.184724171383436 ], [ 133.407439170081716, 35.185882224784905 ], [ 133.3964625029422, 35.180859441010455 ], [ 133.39438527855782, 35.176072505341892 ], [ 133.396946667354882, 35.172461107694005 ], [ 133.393216938710793, 35.167690000093501 ], [ 133.398047781979585, 35.164758613119545 ], [ 133.40487693861985, 35.143286107667791 ], [ 133.4112241629648, 35.13875250472438 ], [ 133.411825837292668, 35.121146108306277 ], [ 133.403362776171207, 35.114320837636626 ], [ 133.37295221827037, 35.112979441248285 ], [ 133.354873890917361, 35.100771107600565 ], [ 133.338222502566509, 35.10656277485225 ], [ 133.325516939155477, 35.093469171065465 ], [ 133.313065551134287, 35.09814277506905 ], [ 133.310436393924533, 35.096210837959859 ], [ 133.298854448873726, 35.103918892143213 ], [ 133.293135551164823, 35.101595838077515 ], [ 133.287743605583046, 35.094093054151188 ], [ 133.290823890610113, 35.070943892246873 ], [ 133.284264993734496, 35.065413053569614 ], [ 133.2769119460296, 35.066109171101402 ], [ 133.26913917033653, 35.057678332688965 ], [ 133.249577224209588, 35.079035559443582 ], [ 133.232344720932133, 35.077415838170452 ], [ 133.233428885135027, 35.069892504735378 ], [ 133.230073061322742, 35.068023333110375 ], [ 133.210920000057968, 35.07421444144336 ], [ 133.178253332725149, 35.067217775280142 ], [ 133.167839442436389, 35.067574441007707 ], [ 133.161040271891125, 35.074175278666246 ], [ 133.142139441681934, 35.064725279048446 ], [ 133.136221388206536, 35.069679171156849 ], [ 133.142256939006643, 35.081175837994579 ], [ 133.136672775927877, 35.090725279248318 ], [ 133.145585837116755, 35.105337505221769 ], [ 133.14022277596041, 35.118059721379097 ], [ 133.146624721353874, 35.123621666706583 ], [ 133.145141660159538, 35.131274721051568 ], [ 133.148450558246736, 35.139982774585405 ], [ 133.157455279237865, 35.148905838034068 ], [ 133.183912217774719, 35.156727505370156 ], [ 133.194899728040127, 35.169832505365889 ], [ 133.189355836602658, 35.184582225089684 ], [ 133.182084163153718, 35.188146107956584 ], [ 133.18465832682034, 35.195371666868994 ], [ 133.182028612030877, 35.20135972087445 ], [ 133.168819441763844, 35.209353891668798 ], [ 133.152742502564479, 35.203811946364283 ], [ 133.152572776212764, 35.218987504969448 ], [ 133.181623891029858, 35.234439999906101 ], [ 133.212022503235971, 35.241696946057289 ], [ 133.222616108646548, 35.249053332945039 ], [ 133.232229999814649, 35.246576386890808 ], [ 133.243356939171463, 35.250412505332918 ], [ 133.253282502985144, 35.260027505365144 ], [ 133.275661114968557, 35.257856387262507 ], [ 133.282037223738939, 35.262380837805495 ], [ 133.291728327100714, 35.260741945684288 ], [ 133.310564720885168, 35.267986667350897 ], [ 133.307412502684883, 35.28170055873386 ], [ 133.29950111538426, 35.291881666705592 ], [ 133.306950830316623, 35.303370000425218 ], [ 133.29252472083931, 35.32064333292351 ], [ 133.298559169969735, 35.325103613241197 ], [ 133.295574448701927, 35.328868053917631 ], [ 133.296046394025893, 35.349370279015204 ], [ 133.307664993644607, 35.365821945926143 ], [ 133.315973606097145, 35.365489999863655 ], [ 133.31850306086767, 35.373339171165867 ], [ 133.324505279195364, 35.374033332672241 ], [ 133.313566666868269, 35.387345558950415 ], [ 133.321230272059438, 35.395747504843541 ], [ 133.321614162963328, 35.407681386986496 ], [ 133.308690000443221, 35.43087666702462 ], [ 133.272021660271434, 35.446012505272961 ], [ 133.2224997282799, 35.480223613429075 ], [ 133.198124448684439, 35.528731945622837 ], [ 133.201021114632795, 35.535242504837754 ], [ 133.218987782160525, 35.546530278949263 ], [ 133.233836939023604, 35.549378332943775 ], [ 133.249857497025914, 35.546365170616184 ], [ 133.271828366286172, 35.552337559330965 ], [ 133.250369052989413, 35.5372075046227 ], [ 133.249545524906125, 35.531216694195109 ], [ 133.24454924774966, 35.535121558613071 ], [ 133.246289078877908, 35.527692171056913 ], [ 133.255776886893841, 35.528284053566267 ], [ 133.260584968321723, 35.519732586389807 ], [ 133.251518365879974, 35.514261306214337 ], [ 133.274324111768351, 35.49059464023054 ], [ 133.294040921151691, 35.477472134931133 ], [ 133.322366719248748, 35.466241278911923 ], [ 133.402041504811677, 35.452786198024683 ], [ 133.427118494822707, 35.46181341375808 ], [ 133.427203773935048, 35.464966414368575 ], [ 133.42324641968662, 35.464255225098611 ], [ 133.428372581429585, 35.465739360083433 ], [ 133.434252502750837, 35.477545837970126 ], [ 133.431044137177196, 35.480362252016391 ], [ 133.442756938981574, 35.487375559234749 ], [ 133.44735444864898, 35.494897505015899 ], [ 133.472577250239965, 35.498931918573248 ], [ 133.497747497249293, 35.515798612715855 ], [ 133.519644968340685, 35.52079980196936 ], [ 133.531103890632153, 35.519526666822287 ], [ 133.536111115235826, 35.52403472092567 ], [ 133.546085836891962, 35.521476666814749 ], [ 133.556894448620028, 35.524138332717939 ], [ 133.565997392665622, 35.529733945964892 ], [ 133.563866056972984, 35.530681801723802 ], [ 133.593657782380774, 35.531274999941331 ], [ 133.591120558367152, 35.531335000010301 ], [ 133.594190271863567, 35.52698555933614 ], [ 133.606701114964494, 35.522470837659057 ], [ 133.650537249694366, 35.515684027395992 ], [ 133.658200946616489, 35.512006532275677 ], [ 133.655604306193823, 35.511966134729391 ], [ 133.657071154410346, 35.509129567775403 ], [ 133.662446199932219, 35.511560775209659 ], [ 133.66142447475977, 35.508868107876935 ], [ 133.668787004017076, 35.506599666941156 ], [ 133.7048599219479, 35.508339918952174 ], [ 133.724570389312134, 35.502864054032898 ], [ 133.780826005016138, 35.500589558861122 ], [ 133.868231088593916, 35.505252999626293 ], [ 133.87573494181413, 35.509381747569648 ], [ 133.875217523170249, 35.506554198117783 ], [ 133.906229442434892, 35.510617891802326 ], [ 133.907951413926639, 35.507651279283152 ], [ 133.926379273584644, 35.508855838426257 ], [ 133.936886498213426, 35.512868559436527 ], [ 133.936659053372637, 35.516680864730176 ], [ 133.939310362683159, 35.514448586433161 ], [ 133.939538028757056, 35.518441613189964 ], [ 133.948702386605873, 35.51953022543961 ], [ 133.951442282735229, 35.516375053865715 ], [ 133.9595673282696, 35.518842441025868 ], [ 133.95972033712394, 35.525434531878204 ], [ 133.971076782567479, 35.521482224625004 ], [ 133.982534228172199, 35.525449666568932 ], [ 133.983914915940659, 35.522405694367365 ], [ 133.991509222072978, 35.525445053946157 ], [ 133.995121115247343, 35.523207332952097 ], [ 134.001289584946448, 35.526645081405434 ], [ 134.002630117086255, 35.530687360433376 ], [ 133.999350363328631, 35.530046972989453 ], [ 134.0075661351691, 35.537891171040769 ], [ 134.019711336409159, 35.52389658595871 ], [ 134.017820856247567, 35.52164291908548 ], [ 134.020675641667594, 35.52363377527854 ], [ 134.021749999662802, 35.519703081432112 ], [ 134.033756252049443, 35.518485251892912 ], [ 134.1615927755862, 35.532176748358324 ], [ 134.177846641109682, 35.535947504973421 ], [ 134.17801511020923, 35.540146945924846 ], [ 134.183772528579425, 35.541597081140424 ], [ 134.179259857356556, 35.538133026617913 ], [ 134.186707367151371, 35.538980694303632 ], [ 134.196103061207396, 35.532712026638762 ], [ 134.194460078070165, 35.537196198345953 ], [ 134.187289299561598, 35.53978653182304 ], [ 134.187295550749127, 35.543395000379007 ], [ 134.191677912006071, 35.540974135148247 ], [ 134.191621335656123, 35.547052667246874 ], [ 134.194579676211106, 35.539941540769519 ], [ 134.195910052307113, 35.542868973424447 ], [ 134.209330388786498, 35.541869802349538 ], [ 134.269398495044584, 35.559007278762977 ], [ 134.277264357764011, 35.572686171229861 ], [ 134.289773554206249, 35.574406891764681 ], [ 134.285866277806576, 35.579086026598873 ], [ 134.287754383757829, 35.581313107713811 ], [ 134.289655499301944, 35.577521585752606 ], [ 134.289470894566193, 35.581187000279897 ], [ 134.296754008290918, 35.580141026687102 ], [ 134.291998885240446, 35.584626891817663 ], [ 134.285724746999563, 35.582457414078476 ], [ 134.293636808791803, 35.589266532024908 ], [ 134.310425252923096, 35.591781279282657 ], [ 134.316590077669957, 35.596464360341997 ], [ 134.319143021833042, 35.596028054251349 ], [ 134.312853501587938, 35.593246972769634 ], [ 134.335106588898043, 35.592382360057911 ], [ 134.340722166195064, 35.598126892042501 ], [ 134.337387977373282, 35.600541801962663 ], [ 134.340699585117818, 35.602592197771742 ], [ 134.339740752233979, 35.608253666573489 ], [ 134.345438327017291, 35.609125413606989 ], [ 134.347374773327147, 35.606467360280533 ], [ 134.344600246104505, 35.604541441434435 ], [ 134.349476160696327, 35.60076108095916 ], [ 134.365949027325769, 35.601902891705151 ], [ 134.371034721375395, 35.605992027210334 ], [ 134.369959169979779, 35.614457774606649 ], [ 134.37000250291328, 35.614329721039837 ] ] ] ] } }
]
}
