{
"type": "FeatureCollection",
"name": "37_kagawa_forecast",
"crs": { "type": "name", "properties": { "name": "urn:ogc:def:crs:OGC:1.3:CRS84" } },
"features": [
{ "type": "Feature", "properties": { "code": "370000", "name": "香川県", "PrefCode": "37", "regioncode": "370000" }, "geometry": { "type": "MultiPolygon", "coordinates": [ [ [ [ 133.448499442095681, 34.110286387406916 ], [ 133.448513606417919, 34.106547278833887 ], [ 133.448400558039339, 34.110330559407828 ], [ 133.448499442095681, 34.110286387406916 ] ] ], [ [ [ 133.52716547340799, 34.136606108285321 ], [ 133.535952088118393, 34.131152495291474 ], [ 133.540770661037186, 34.132816251868576 ], [ 133.541829532706856, 34.128672585971117 ], [ 133.532000895125293, 34.123949162224108 ], [ 133.525747951206995, 34.133573332643266 ], [ 133.527099636738853, 34.136620558591972 ], [ 133.52716547340799, 34.136606108285321 ] ] ], [ [ [ 133.452967223658561, 34.155885026972442 ], [ 133.456429441765408, 34.153454198152758 ], [ 133.452903605616939, 34.155885026972442 ], [ 133.452967223658561, 34.155885026972442 ] ] ], [ [ [ 133.633333333166888, 34.194788802061623 ], [ 133.636485304952885, 34.194266919183008 ], [ 133.630981388380405, 34.192531108024241 ], [ 133.633406109004795, 34.194812107992448 ], [ 133.633333333166888, 34.194788802061623 ] ] ], [ [ [ 133.627977782248877, 34.203436386979718 ], [ 133.629774448731837, 34.195901386639719 ], [ 133.621908612092852, 34.201253333074931 ], [ 133.628036031337842, 34.203837107796346 ], [ 133.627977782248877, 34.203436386979718 ] ] ], [ [ [ 133.630391607586716, 34.204933027037612 ], [ 133.62826822280033, 34.203847333087992 ], [ 133.630341336383594, 34.204990440656388 ], [ 133.630391607586716, 34.204933027037612 ] ] ], [ [ [ 133.609459727784269, 34.220995279408669 ], [ 133.60899221791658, 34.216196387253547 ], [ 133.609405550825613, 34.220944440733433 ], [ 133.609459727784269, 34.220995279408669 ] ] ], [ [ [ 133.606477172983205, 34.229003774604564 ], [ 133.604322192315408, 34.232014251556507 ], [ 133.606424112083118, 34.229489775432853 ], [ 133.606477172983205, 34.229003774604564 ] ] ], [ [ [ 133.67509555121876, 34.240031053790176 ], [ 133.675678715700201, 34.237561027119739 ], [ 133.675051140897494, 34.240050387415522 ], [ 133.67509555121876, 34.240031053790176 ] ] ], [ [ [ 133.701645057873179, 34.259432252396607 ], [ 133.702233916861815, 34.255960080593297 ], [ 133.701621698882377, 34.259433224563736 ], [ 133.701645057873179, 34.259432252396607 ] ] ], [ [ [ 133.674846939035092, 34.274428612990164 ], [ 133.684283891288601, 34.270291666827006 ], [ 133.680879442032733, 34.267412495390374 ], [ 133.671395837448017, 34.268589440850064 ], [ 133.670190830442493, 34.271968333172083 ], [ 133.674711115325749, 34.274434161807164 ], [ 133.674846939035092, 34.274428612990164 ] ] ], [ [ [ 134.307821659841807, 34.282415000152184 ], [ 134.308696497845176, 34.279934224784711 ], [ 134.307882775969347, 34.282584161729744 ], [ 134.307821659841807, 34.282415000152184 ] ] ], [ [ [ 133.626704449250951, 34.287016946175186 ], [ 133.630953060635306, 34.2856530541452 ], [ 133.628598053657356, 34.278344720732321 ], [ 133.635285550887488, 34.272670000420248 ], [ 133.641324162979799, 34.272580829042056 ], [ 133.647544448917301, 34.281093333090894 ], [ 133.656334162691564, 34.28121749529123 ], [ 133.652301115204409, 34.275495558773059 ], [ 133.655011115170851, 34.270497494663687 ], [ 133.651077224234541, 34.267610278791381 ], [ 133.641263332836616, 34.271887494911994 ], [ 133.63361221832929, 34.269733613215749 ], [ 133.620278884962659, 34.255838612761806 ], [ 133.617808326792897, 34.265800278959773 ], [ 133.627172218123405, 34.271451946050547 ], [ 133.628000830074257, 34.275978892212152 ], [ 133.620800558299152, 34.281336945943337 ], [ 133.62662306060588, 34.287048053724732 ], [ 133.626704449250951, 34.287016946175186 ] ] ], [ [ [ 133.622873891317113, 34.301682224954789 ], [ 133.620209727996667, 34.300062775276899 ], [ 133.622839441886754, 34.301698613300402 ], [ 133.622873891317113, 34.301682224954789 ] ] ], [ [ [ 134.273557223687021, 34.323314000340872 ], [ 134.275149663126513, 34.321587468387008 ], [ 134.27354530497189, 34.323319306340977 ], [ 134.273557223687021, 34.323314000340872 ] ] ], [ [ [ 133.664329999929578, 34.325539162302562 ], [ 133.683571608443003, 34.313510225416621 ], [ 133.680134449045681, 34.305817494781593 ], [ 133.669962218281853, 34.308749441133841 ], [ 133.662417223775947, 34.320988054055476 ], [ 133.664194162730496, 34.325556108227886 ], [ 133.664329999929578, 34.325539162302562 ] ] ], [ [ [ 133.646584993702504, 34.334281387376166 ], [ 133.638260000098967, 34.335760559002665 ], [ 133.642596394308271, 34.337565829299649 ], [ 133.646656109391984, 34.334357225405654 ], [ 133.646584993702504, 34.334281387376166 ] ] ], [ [ [ 133.621324994353017, 34.354391946031512 ], [ 133.631746082815539, 34.338890494700649 ], [ 133.626324721308947, 34.330739161982763 ], [ 133.619956109287045, 34.333542775079081 ], [ 133.617357224156649, 34.350929441040932 ], [ 133.621080557721598, 34.354594720669866 ], [ 133.621324994353017, 34.354391946031512 ] ] ], [ [ [ 133.999914553014264, 34.358333332817097 ], [ 133.992995357150107, 34.358066441013477 ], [ 133.993142166078201, 34.362881081196974 ], [ 133.999992554812593, 34.358694495154907 ], [ 133.999914553014264, 34.358333332817097 ] ] ], [ [ [ 133.77966972777574, 34.365502667014539 ], [ 133.785474721181458, 34.364042224668992 ], [ 133.786634111874832, 34.357679135383819 ], [ 133.774164941558865, 34.357050829432296 ], [ 133.779741855202474, 34.366529467960618 ], [ 133.77966972777574, 34.365502667014539 ] ] ], [ [ [ 134.061079415782501, 34.366768306312338 ], [ 134.055124279661868, 34.361061946052018 ], [ 134.060999441770832, 34.366824639845277 ], [ 134.061079415782501, 34.366768306312338 ] ] ], [ [ [ 133.852480558331195, 34.373793134745426 ], [ 133.854813864668131, 34.370674945991993 ], [ 133.849986978416382, 34.372938386697228 ], [ 133.852454085887416, 34.373795802134623 ], [ 133.852480558331195, 34.373793134745426 ] ] ], [ [ [ 133.649462412360549, 34.38328405441564 ], [ 133.654097912089014, 34.37628955921582 ], [ 133.651984383872332, 34.373161891608049 ], [ 133.64225143955241, 34.377865107588718 ], [ 133.649424616552892, 34.383333332767165 ], [ 133.649462412360549, 34.38328405441564 ] ] ], [ [ [ 134.12165144006201, 34.38195961294582 ], [ 134.122715668093633, 34.385067892069628 ], [ 134.121662361428889, 34.381963972859126 ], [ 134.12165144006201, 34.38195961294582 ] ] ], [ [ [ 133.829464033838121, 34.394957251875724 ], [ 133.831597393005381, 34.386937640159999 ], [ 133.827354668583098, 34.391032748062912 ], [ 133.829365615630763, 34.395014413684294 ], [ 133.829464033838121, 34.394957251875724 ] ] ], [ [ [ 133.820477716573464, 34.39536916205725 ], [ 133.824561166564649, 34.390193414394616 ], [ 133.823923281034695, 34.382008586427162 ], [ 133.815664941583805, 34.38394086527876 ], [ 133.812346329019988, 34.390331107794452 ], [ 133.820463917375946, 34.395370639643374 ], [ 133.820477716573464, 34.39536916205725 ] ] ], [ [ [ 133.922562606579049, 34.396508333293013 ], [ 133.924410725974326, 34.391860829413815 ], [ 133.921151751052548, 34.39361453168533 ], [ 133.922537276274397, 34.396509414278114 ], [ 133.922562606579049, 34.396508333293013 ] ] ], [ [ [ 133.811867056019878, 34.397160559412328 ], [ 133.811098365896896, 34.393741080686368 ], [ 133.811804890383428, 34.397171468188731 ], [ 133.811867056019878, 34.397160559412328 ] ] ], [ [ [ 134.17545085617212, 34.395744945572858 ], [ 134.175816912620462, 34.39012461266077 ], [ 134.172414577670679, 34.392947332753238 ], [ 134.173679389592166, 34.39785908083195 ], [ 134.17543985656414, 34.395782414027224 ], [ 134.17545085617212, 34.395744945572858 ] ] ], [ [ [ 134.136397327774489, 34.400254945809138 ], [ 134.159610635622357, 34.389040333344781 ], [ 134.163763086996937, 34.382407585941394 ], [ 134.164138327322007, 34.375369252389135 ], [ 134.157152113978896, 34.365511332881738 ], [ 134.159376226431732, 34.351181027282621 ], [ 134.156738754989647, 34.342819441164352 ], [ 134.156041310058527, 34.345500413713182 ], [ 134.153277885865805, 34.343511413720819 ], [ 134.164914162558603, 34.326443667141575 ], [ 134.177256419648074, 34.324539108093404 ], [ 134.181203087252698, 34.325952225414937 ], [ 134.178626134788374, 34.326602026962007 ], [ 134.179260388855937, 34.333092918903162 ], [ 134.190525745566788, 34.331173720690686 ], [ 134.184881166932428, 34.333523468433384 ], [ 134.187401698629515, 34.344854413600387 ], [ 134.183068638207146, 34.347183306064778 ], [ 134.182756614825962, 34.352803747794781 ], [ 134.190046083160269, 34.349753892228421 ], [ 134.192211504957072, 34.343886386947247 ], [ 134.198901854836777, 34.346781468290203 ], [ 134.203024112372987, 34.342928197977983 ], [ 134.211027419380002, 34.347095891961885 ], [ 134.213586445658052, 34.350767305866498 ], [ 134.204327173360412, 34.366810161659657 ], [ 134.210906251922097, 34.369397891599476 ], [ 134.216729104964315, 34.361819197697855 ], [ 134.218756588745691, 34.349055054247401 ], [ 134.233682970392806, 34.337212359762646 ], [ 134.238456886576159, 34.337874440652968 ], [ 134.235095031910305, 34.338676108016045 ], [ 134.241331141419096, 34.340782748325239 ], [ 134.250228521129429, 34.3515932252472 ], [ 134.257149805219456, 34.346430774960368 ], [ 134.258198106257623, 34.336825467821143 ], [ 134.266294085703521, 34.336217721270884 ], [ 134.261827588372626, 34.3293818017288 ], [ 134.265504942299344, 34.319008693896137 ], [ 134.246370389082244, 34.306944802160956 ], [ 134.252312244014888, 34.296733666725402 ], [ 134.248900505753795, 34.299593829191906 ], [ 134.247385720074931, 34.296947387012381 ], [ 134.250155551037892, 34.297872586150959 ], [ 134.258802995661767, 34.284631197671672 ], [ 134.268247522904971, 34.28295063996012 ], [ 134.270932866158887, 34.290218720617531 ], [ 134.278328054296367, 34.280669999720772 ], [ 134.289167496582763, 34.274871612734785 ], [ 134.296070440798303, 34.274022414402964 ], [ 134.305828274755186, 34.278647494586266 ], [ 134.333531051316982, 34.258715251707542 ], [ 134.341791725407916, 34.257248333343966 ], [ 134.343215110289179, 34.252333414255702 ], [ 134.342587612828083, 34.255986559332314 ], [ 134.348001750980075, 34.252175081414919 ], [ 134.356024837676159, 34.253921586412162 ], [ 134.369977523344119, 34.250034613106948 ], [ 134.377883385210112, 34.255033946159756 ], [ 134.375389558881125, 34.259458613324398 ], [ 134.378119196443777, 34.261824494904545 ], [ 134.390200830004346, 34.254970532264281 ], [ 134.39877749708387, 34.242314559269573 ], [ 134.396894721414355, 34.237837279067207 ], [ 134.412084162853944, 34.235053774811888 ], [ 134.404525331378977, 34.230601946322793 ], [ 134.411381504552878, 34.224522198340821 ], [ 134.40601769066393, 34.227491053769143 ], [ 134.408037392611618, 34.224618585879114 ], [ 134.430318327428949, 34.210035134613804 ], [ 134.440206692584866, 34.207853882950417 ], [ 134.439060557898529, 34.191076945644568 ], [ 134.429195836818508, 34.183193333005988 ], [ 134.433888054090517, 34.17805444135945 ], [ 134.433208885182012, 34.168220279242519 ], [ 134.42519360639983, 34.165708053683773 ], [ 134.41941416273346, 34.157804441022165 ], [ 134.412931945652872, 34.1568827753199 ], [ 134.402498885415298, 34.16788638704719 ], [ 134.393651659996181, 34.163549161864353 ], [ 134.385487224156122, 34.165096666677869 ], [ 134.382973333052973, 34.172234440966747 ], [ 134.375658326670532, 34.171785828553197 ], [ 134.363190272413249, 34.18178694621065 ], [ 134.351285279192325, 34.185506107820686 ], [ 134.344193332556301, 34.172379721047321 ], [ 134.314563060636829, 34.177256107783194 ], [ 134.308495279033991, 34.17088110787688 ], [ 134.297905550600717, 34.168638613281416 ], [ 134.292233060607373, 34.17914277481924 ], [ 134.277248327348502, 34.176464162091463 ], [ 134.266076667404377, 34.183212775449306 ], [ 134.247427782266413, 34.178730000389237 ], [ 134.220879999612407, 34.179921108372525 ], [ 134.20459027182369, 34.172648612943192 ], [ 134.198479442372445, 34.175498053692252 ], [ 134.195064162581048, 34.171874161763185 ], [ 134.173745550916465, 34.177001667093293 ], [ 134.158060557848557, 34.167505559234201 ], [ 134.146316108901374, 34.165285000002825 ], [ 134.135239727631415, 34.151577494705691 ], [ 134.139313891223196, 34.134082224814847 ], [ 134.122311115265802, 34.118773053933353 ], [ 134.094484448998173, 34.114590558907196 ], [ 134.079556393712664, 34.121136946213142 ], [ 134.070917497144819, 34.112713332954002 ], [ 134.061504993860467, 34.111005559059379 ], [ 134.051110000126414, 34.117950278582555 ], [ 134.042168884586431, 34.110261108363488 ], [ 134.040040272040983, 34.100864999719988 ], [ 134.025632218252326, 34.09196000005403 ], [ 134.026257497085908, 34.08508833335992 ], [ 134.010020830197163, 34.086687225435185 ], [ 134.00234389075797, 34.081131667092791 ], [ 134.00150416318661, 34.075225278723678 ], [ 133.993934163031213, 34.072617494801591 ], [ 133.977889689357767, 34.075837162155381 ], [ 133.973048029043412, 34.073021251729415 ], [ 133.968813061273863, 34.081493333050958 ], [ 133.959124720629461, 34.082494999744483 ], [ 133.956478053619321, 34.088099161946843 ], [ 133.944366109308589, 34.093250278977223 ], [ 133.944430829918929, 34.101753892328304 ], [ 133.937668054037545, 34.107821946425759 ], [ 133.939654721188504, 34.115054162119918 ], [ 133.931966667028178, 34.116010829436277 ], [ 133.921982218304834, 34.114262225421442 ], [ 133.903093606284983, 34.100070559308904 ], [ 133.892854721368394, 34.108196945732516 ], [ 133.867084449387903, 34.100152775330344 ], [ 133.864329170354949, 34.104610559130037 ], [ 133.85853917044642, 34.10527444136244 ], [ 133.841726666752379, 34.09488444066443 ], [ 133.833716938585894, 34.097668053737721 ], [ 133.821770557665218, 34.091708612562456 ], [ 133.823577223710004, 34.086092494772856 ], [ 133.81769111505298, 34.072237224568312 ], [ 133.797828054321258, 34.069759720934428 ], [ 133.790131659848271, 34.075585558826504 ], [ 133.791841114575845, 34.078121666781556 ], [ 133.778469169716459, 34.07945972128914 ], [ 133.772574994140768, 34.072625279333238 ], [ 133.764280557701682, 34.070722775235936 ], [ 133.748572218233335, 34.05353082868487 ], [ 133.728994162550634, 34.044159721194205 ], [ 133.723071946113464, 34.036462775436803 ], [ 133.722027781956626, 34.022912774704821 ], [ 133.709168326557119, 34.015376386710955 ], [ 133.700633333161818, 34.017919441029449 ], [ 133.691651945980539, 34.012765558583737 ], [ 133.679548611779069, 34.012519999598339 ], [ 133.678232218342259, 34.018188054135464 ], [ 133.665203060872614, 34.027239162157684 ], [ 133.656779442217498, 34.030031108349021 ], [ 133.639459999679275, 34.025932225092163 ], [ 133.626877781884218, 34.037767224977529 ], [ 133.613745278821625, 34.032242775084057 ], [ 133.604171387699466, 34.035903053583127 ], [ 133.598868054117474, 34.042694161706265 ], [ 133.622754162774413, 34.049394801628864 ], [ 133.63119625170566, 34.060148359559207 ], [ 133.633826912581981, 34.071367531586361 ], [ 133.630509221823218, 34.081427919063287 ], [ 133.636772114041946, 34.07802158572764 ], [ 133.632281894393941, 34.083754892374429 ], [ 133.638221946185922, 34.090678081228532 ], [ 133.633144228223614, 34.094768802238491 ], [ 133.639127249622902, 34.092979333029859 ], [ 133.634670635841189, 34.09480905409464 ], [ 133.637116200052674, 34.113449161849417 ], [ 133.627971414149556, 34.118953531680177 ], [ 133.632940895106344, 34.119346946404505 ], [ 133.631672438232499, 34.123832054305922 ], [ 133.63915591371449, 34.124791081443334 ], [ 133.630956445683523, 34.124568161991135 ], [ 133.638630635895197, 34.127313694171676 ], [ 133.633563385142224, 34.127441225232417 ], [ 133.639879974081623, 34.131291865027606 ], [ 133.642672476953294, 34.148915720883849 ], [ 133.639044941870679, 34.155998802003182 ], [ 133.645493722157653, 34.155621225239429 ], [ 133.641976109409939, 34.156021865117054 ], [ 133.645716200042671, 34.159039532148768 ], [ 133.647663722402967, 34.171617918831942 ], [ 133.645073411408816, 34.181806919253972 ], [ 133.64929160772158, 34.18607422484564 ], [ 133.648625227172602, 34.193188532225008 ], [ 133.643592438440351, 34.191508720950765 ], [ 133.637985837276688, 34.199948666797582 ], [ 133.63447255476467, 34.199999531553203 ], [ 133.638924189000136, 34.204325721155158 ], [ 133.634568560090997, 34.202423414009388 ], [ 133.634625382855234, 34.210285360181274 ], [ 133.625995357200054, 34.213885081031719 ], [ 133.623206472300922, 34.211792613138641 ], [ 133.618146393641268, 34.220480829426776 ], [ 133.609748054029524, 34.222606946353551 ], [ 133.605705278575783, 34.233481667245201 ], [ 133.583514721127585, 34.243577774894447 ], [ 133.573040829870479, 34.243052774965633 ], [ 133.579338612187257, 34.250894999904347 ], [ 133.573555551447612, 34.252058612914709 ], [ 133.574494720654911, 34.257983333064431 ], [ 133.556986939395756, 34.261443053753965 ], [ 133.559905279005534, 34.264475000221125 ], [ 133.572228885055097, 34.2655663868793 ], [ 133.580874863783947, 34.260643864922486 ], [ 133.591557781766255, 34.260632494793867 ], [ 133.588646393916065, 34.259082495260998 ], [ 133.59100165989878, 34.255521108012772 ], [ 133.613355357064165, 34.250077694230242 ], [ 133.618280272116976, 34.244470558869239 ], [ 133.617061115178331, 34.236568054172437 ], [ 133.622311594704342, 34.235561621971328 ], [ 133.634232606649562, 34.239511585591231 ], [ 133.646576887213655, 34.233220162380633 ], [ 133.654716031419753, 34.233688252311026 ], [ 133.657775551100826, 34.238809332884443 ], [ 133.66706228329781, 34.240756332738613 ], [ 133.672852865967002, 34.246959640375167 ], [ 133.67238316535088, 34.240577305598208 ], [ 133.675065576814973, 34.240494360226592 ], [ 133.67032486360165, 34.240539532273658 ], [ 133.667006615263176, 34.234368828658546 ], [ 133.671738365832994, 34.226553306390031 ], [ 133.675352633217472, 34.237185161765865 ], [ 133.678503060867683, 34.236322441227742 ], [ 133.674418054149896, 34.224466693982777 ], [ 133.671028559720298, 34.223243278754353 ], [ 133.67400189377247, 34.221990945825553 ], [ 133.681576549718102, 34.233985134706245 ], [ 133.688054059747174, 34.233333333066923 ], [ 133.688120506156451, 34.237154865404761 ], [ 133.701888974696544, 34.236059603567924 ], [ 133.730854669207702, 34.261410946158264 ], [ 133.735958391966278, 34.261623494628623 ], [ 133.737865550954439, 34.263802747998454 ], [ 133.73011238677725, 34.273456972861084 ], [ 133.736371803116299, 34.282603532227256 ], [ 133.743647522615106, 34.271727054060364 ], [ 133.741694060232703, 34.275932613099656 ], [ 133.74789033696959, 34.27621130580718 ], [ 133.740399416000287, 34.281937747928794 ], [ 133.74680219236734, 34.285368135431156 ], [ 133.751706161310381, 34.278729973209749 ], [ 133.760812139668587, 34.28706643227008 ], [ 133.76330166004368, 34.283733757007326 ], [ 133.766992969649891, 34.288681198278709 ], [ 133.772648625233955, 34.288418161868719 ], [ 133.76187741900776, 34.299917999715944 ], [ 133.768440531905071, 34.304918000065697 ], [ 133.777532477242062, 34.289277332782717 ], [ 133.77533775643235, 34.2964979463232 ], [ 133.783311724856276, 34.30000944098299 ], [ 133.772141504726733, 34.305976027271868 ], [ 133.78274591369302, 34.310760559052596 ], [ 133.789881245423203, 34.298916946360066 ], [ 133.787906614798544, 34.29456494621536 ], [ 133.792940777694753, 34.293986720810551 ], [ 133.791566692748688, 34.299696865418071 ], [ 133.796684811854675, 34.301714667098281 ], [ 133.788940077922348, 34.308068333286997 ], [ 133.792508079684239, 34.309960828829219 ], [ 133.796970921271054, 34.305995000269093 ], [ 133.815247496974507, 34.317305829400539 ], [ 133.813710441383819, 34.319515080556585 ], [ 133.816498612221267, 34.316867278602103 ], [ 133.820690142735998, 34.318752468052026 ], [ 133.81924902682124, 34.320999387311929 ], [ 133.823346550303086, 34.323776000062423 ], [ 133.827168560181008, 34.32009744104414 ], [ 133.827550726185109, 34.326317684713445 ], [ 133.821918470061405, 34.324759441095409 ], [ 133.82215919609007, 34.347222865442916 ], [ 133.819291310245831, 34.353185134986063 ], [ 133.822837497152818, 34.348502559345661 ], [ 133.824306004618506, 34.352585865445405 ], [ 133.840676847658415, 34.360588658040172 ], [ 133.840615616417608, 34.355943720826133 ], [ 133.829391581756113, 34.347648224985619 ], [ 133.828918975430383, 34.342146197888781 ], [ 133.847002528743815, 34.355343269576281 ], [ 133.847781025074255, 34.351702440715144 ], [ 133.847857859552619, 34.357771279021335 ], [ 133.853724773079875, 34.360507864746239 ], [ 133.859413631633856, 34.354233251663288 ], [ 133.857618106390532, 34.34580437826952 ], [ 133.848692244251765, 34.339204359893358 ], [ 133.838458053796217, 34.338656224904923 ], [ 133.842405836560147, 34.334920027437363 ], [ 133.830837782437811, 34.33145108060296 ], [ 133.834068949422544, 34.331835774601359 ], [ 133.836577108246956, 34.323721558703028 ], [ 133.850535745628235, 34.330210134889853 ], [ 133.848013605943265, 34.324875774697318 ], [ 133.854849843845273, 34.328244422841919 ], [ 133.857760738867114, 34.326227819957978 ], [ 133.859320558097352, 34.331465108228201 ], [ 133.865943683654109, 34.327649936795183 ], [ 133.861990467186388, 34.331886332688157 ], [ 133.867897301619223, 34.33743815344809 ], [ 133.873814942305785, 34.338664423124669 ], [ 133.878393995186798, 34.344768999589689 ], [ 133.884199558762703, 34.341687198305635 ], [ 133.882038495080565, 34.344027612884076 ], [ 133.890543022142765, 34.351692531984838 ], [ 133.889845396447981, 34.35759030574809 ], [ 133.889756886970872, 34.352563332931538 ], [ 133.894278637749039, 34.354064531652853 ], [ 133.891660856063709, 34.356732865129686 ], [ 133.894945110028857, 34.354586946030793 ], [ 133.890592918328593, 34.359648828730485 ], [ 133.892714942440648, 34.364470251600892 ], [ 133.88804858607341, 34.375158532240505 ], [ 133.894224629862833, 34.382575802331473 ], [ 133.90045805399609, 34.377696613308103 ], [ 133.907432451146747, 34.378319053881285 ], [ 133.909606667413868, 34.382036945648565 ], [ 133.917555304633652, 34.376854360440461 ], [ 133.929735383381285, 34.389528586075414 ], [ 133.938331310341709, 34.381491306278804 ], [ 133.939228223104124, 34.375204612602829 ], [ 133.945314967811555, 34.375430801989978 ], [ 133.944025057610361, 34.379467891929721 ], [ 133.948518833177673, 34.381084828901805 ], [ 133.959206445621021, 34.377628666829537 ], [ 133.965506445666051, 34.362426440627758 ], [ 133.976483476131534, 34.373263468234541 ], [ 133.992683865268191, 34.356662000351093 ], [ 134.000442023380742, 34.355447332828192 ], [ 134.000400584419481, 34.351359333166727 ], [ 134.003407523438568, 34.359243251574867 ], [ 134.018051724807265, 34.357025080942776 ], [ 134.009578975289514, 34.356132946278478 ], [ 134.015285887733626, 34.354367360365416 ], [ 134.014488754752279, 34.351717332588862 ], [ 134.019182802144655, 34.352928053886615 ], [ 134.019133138883262, 34.356440278795901 ], [ 134.033245473100123, 34.353407360161611 ], [ 134.029405616176291, 34.348518224636393 ], [ 134.03778557724263, 34.34941886508858 ], [ 134.033737029940085, 34.352857000250424 ], [ 134.042891530319935, 34.352527973387339 ], [ 134.051729248106426, 34.361540864719188 ], [ 134.047292826802618, 34.355509558719234 ], [ 134.057368301306155, 34.351874918992394 ], [ 134.056389105073208, 34.348140279150641 ], [ 134.059749105337005, 34.351320612856057 ], [ 134.059752826731597, 34.347742667290333 ], [ 134.063972697582017, 34.35359305397634 ], [ 134.054962672389479, 34.35633466691138 ], [ 134.058804383715369, 34.360475134819694 ], [ 134.056753333199822, 34.356535134788714 ], [ 134.064166160639843, 34.357625613131574 ], [ 134.063341660389369, 34.362576774898287 ], [ 134.069543566882203, 34.364579873562377 ], [ 134.069482762819348, 34.351336117168103 ], [ 134.074658859418946, 34.351263774803442 ], [ 134.074998520765234, 34.361781586251254 ], [ 134.079828495288893, 34.361451278753577 ], [ 134.078671802561757, 34.349999999800218 ], [ 134.085660635629893, 34.351737802057983 ], [ 134.091689169919277, 34.365524359561618 ], [ 134.091640441053528, 34.384818359879432 ], [ 134.108083385439954, 34.372263054296582 ], [ 134.114058974841896, 34.361037333406273 ], [ 134.118021660271438, 34.362030999730905 ], [ 134.115287716754779, 34.358901467828503 ], [ 134.122345615957443, 34.360670386629067 ], [ 134.116388807097792, 34.376195973065762 ], [ 134.12403306067722, 34.379579135368829 ], [ 134.124998275150347, 34.387431919247717 ], [ 134.129022633387876, 34.387074559243558 ], [ 134.126162387284353, 34.391767531946073 ], [ 134.122464721269921, 34.388172558616759 ], [ 134.119418418025589, 34.397056134632976 ], [ 134.127113864613193, 34.396024251617973 ], [ 134.136382944017669, 34.400261946131934 ], [ 134.136397327774489, 34.400254945809138 ] ] ], [ [ [ 133.710496939082532, 34.399096666677849 ], [ 133.71889299621489, 34.396403865346144 ], [ 133.71774610879595, 34.392571107670562 ], [ 133.730579947906335, 34.370529972580243 ], [ 133.722601893862361, 34.362460972795702 ], [ 133.711925279228353, 34.363346667414817 ], [ 133.709070245595399, 34.353350414190288 ], [ 133.699527223702489, 34.351631108289041 ], [ 133.684445887967399, 34.361709558649238 ], [ 133.688766809340791, 34.365749693693488 ], [ 133.691251387941293, 34.379570829230431 ], [ 133.697337691081657, 34.37866025216897 ], [ 133.699583333304304, 34.38681566690957 ], [ 133.709150311337908, 34.387249053800872 ], [ 133.710313605988176, 34.399158612879717 ], [ 133.710496939082532, 34.399096666677849 ] ] ], [ [ [ 133.777662776416037, 34.401003054047749 ], [ 133.790395279018981, 34.395462494598519 ], [ 133.795174720636965, 34.387980558755828 ], [ 133.788849728432297, 34.387329721189758 ], [ 133.788799441940796, 34.383800559348401 ], [ 133.783680116843925, 34.387031053640271 ], [ 133.787632529317875, 34.383420360161551 ], [ 133.772774863968834, 34.377842108326718 ], [ 133.76450055795442, 34.369035278655247 ], [ 133.755220558082328, 34.370013332749181 ], [ 133.760255837037334, 34.378781666940426 ], [ 133.752734448835781, 34.388221666996401 ], [ 133.752707497053393, 34.398607494840064 ], [ 133.761461854880736, 34.389992612868866 ], [ 133.7775841630787, 34.400998053817204 ], [ 133.777662776416037, 34.401003054047749 ] ] ], [ [ [ 133.783965279274298, 34.407234162426732 ], [ 133.78946472082032, 34.403611667144787 ], [ 133.779175837195226, 34.401381945620358 ], [ 133.783927496956494, 34.407288054300295 ], [ 133.783965279274298, 34.407234162426732 ] ] ], [ [ [ 133.812070726383013, 34.408684440634488 ], [ 133.811291776794178, 34.404268441135684 ], [ 133.807874552668522, 34.404633162090818 ], [ 133.811992723685307, 34.408701278641161 ], [ 133.812070726383013, 34.408684440634488 ] ] ], [ [ [ 134.05383832737698, 34.409223225371591 ], [ 134.057049663411249, 34.398263864785577 ], [ 134.054653216572774, 34.389695612662422 ], [ 134.048747859726063, 34.389550224663196 ], [ 134.03786185504066, 34.379412224794407 ], [ 134.03729513556209, 34.386920107876733 ], [ 134.053832140041322, 34.409223252351239 ], [ 134.05383832737698, 34.409223225371591 ] ] ], [ [ [ 133.671749494043979, 34.410822107554282 ], [ 133.676041659594944, 34.409299495075686 ], [ 133.671202191827774, 34.398781775358714 ], [ 133.67730141372931, 34.400198359566673 ], [ 133.678005771748985, 34.394879919172979 ], [ 133.666130271794714, 34.382628613219993 ], [ 133.661195551433593, 34.391264720990137 ], [ 133.661779170072691, 34.398354332986116 ], [ 133.650848884568404, 34.40864333262374 ], [ 133.65917083036959, 34.40649110837802 ], [ 133.671668716038425, 34.410836973347671 ], [ 133.671749494043979, 34.410822107554282 ] ] ], [ [ [ 134.136767664995773, 34.412338973364967 ], [ 134.137994137019859, 34.409903027402834 ], [ 134.133977056096342, 34.409850613115339 ], [ 134.136736472010625, 34.412343108447772 ], [ 134.136767664995773, 34.412338973364967 ] ] ], [ [ [ 134.121023994761572, 34.412624748233611 ], [ 134.122587690969226, 34.410198891765504 ], [ 134.119713969424197, 34.410028918999444 ], [ 134.120980440594963, 34.412617134573168 ], [ 134.121023994761572, 34.412624748233611 ] ] ], [ [ [ 134.105399467611392, 34.414604531973623 ], [ 134.111832166221575, 34.404808440856925 ], [ 134.100610026431582, 34.400303892310831 ], [ 134.10572189435004, 34.406060720725748 ], [ 134.105398715778165, 34.4146061624445 ], [ 134.105399467611392, 34.414604531973623 ] ] ], [ [ [ 133.780236497616329, 34.415174586138278 ], [ 133.783945836830981, 34.412310586264596 ], [ 133.775016861239237, 34.414073774585063 ], [ 133.780190246382858, 34.415176613210178 ], [ 133.780236497616329, 34.415174586138278 ] ] ], [ [ [ 133.836813554402056, 34.415813108388306 ], [ 133.840214357806417, 34.413261864843264 ], [ 133.836778145395101, 34.415826467817283 ], [ 133.836813554402056, 34.415813108388306 ] ] ], [ [ [ 133.9250000004497, 34.418826640337215 ], [ 133.92009827531524, 34.418501494948089 ], [ 133.92376055840316, 34.418860278579018 ], [ 133.9250000004497, 34.418826640337215 ] ] ], [ [ [ 134.126240168748836, 34.421153973377216 ], [ 134.126642802423476, 34.416106891719721 ], [ 134.122571659654454, 34.416270829135499 ], [ 134.126299856753008, 34.421190531717741 ], [ 134.126240168748836, 34.421153973377216 ] ] ], [ [ [ 134.289521854649934, 34.426372053927196 ], [ 134.287127133610397, 34.425838559002329 ], [ 134.289508715554803, 34.426384666918921 ], [ 134.289521854649934, 34.426372053927196 ] ] ], [ [ [ 133.804600389096777, 34.4273651078135 ], [ 133.809148638399051, 34.420782946375937 ], [ 133.806191751148503, 34.414790721314773 ], [ 133.810241971190067, 34.414670640237887 ], [ 133.806868392062711, 34.412708801569977 ], [ 133.795602476872887, 34.425286306018279 ], [ 133.804586719401641, 34.427376306171652 ], [ 133.804600389096777, 34.4273651078135 ] ] ], [ [ [ 134.062604059829596, 34.433223946328098 ], [ 134.064964449249942, 34.422121386692709 ], [ 134.055109805073471, 34.416282945701425 ], [ 134.05298202260235, 34.422835198385769 ], [ 134.057553333219857, 34.431653532184839 ], [ 134.062485473425909, 34.433259305872298 ], [ 134.062604059829596, 34.433223946328098 ] ] ], [ [ [ 134.347125811307251, 34.440528972933805 ], [ 134.350207912065571, 34.437460252288872 ], [ 134.347091946436194, 34.440536585694929 ], [ 134.347125811307251, 34.440528972933805 ] ] ], [ [ [ 134.013633605606515, 34.442290829358342 ], [ 134.010109999776773, 34.435870829175485 ], [ 134.004297497031871, 34.438198891565662 ], [ 134.004192217896616, 34.440770558714348 ], [ 134.013476913129125, 34.442359532166734 ], [ 134.013633605606515, 34.442290829358342 ] ] ], [ [ [ 134.325347198214672, 34.447317802174894 ], [ 134.31973961139397, 34.445832305616477 ], [ 134.32529044110106, 34.447423387079709 ], [ 134.325347198214672, 34.447317802174894 ] ] ], [ [ [ 134.016810271876579, 34.450919999758241 ], [ 134.014233671047123, 34.450654558561098 ], [ 134.016770830309611, 34.451011108276077 ], [ 134.016810271876579, 34.450919999758241 ] ] ], [ [ [ 133.972197444856306, 34.453706612969881 ], [ 133.970460051790042, 34.456787945707163 ], [ 133.971431970708977, 34.454087054074364 ], [ 133.972197444856306, 34.453706612969881 ] ] ], [ [ [ 133.965471114900083, 34.461836387139613 ], [ 133.967652503260524, 34.454473613266714 ], [ 133.956694720984615, 34.456146945824969 ], [ 133.956446108800947, 34.460632224597532 ], [ 133.961540000170885, 34.458708332823335 ], [ 133.965425836733061, 34.461846946079731 ], [ 133.965471114900083, 34.461836387139613 ] ] ], [ [ [ 134.189467782212432, 34.472822224666004 ], [ 134.185035279254748, 34.46683055898319 ], [ 134.188575837305166, 34.473149999672785 ], [ 134.189467782212432, 34.472822224666004 ] ] ], [ [ [ 134.004351945585881, 34.473180000156958 ], [ 134.004157224376513, 34.469182494776362 ], [ 134.010073606012156, 34.470159440905547 ], [ 134.001577224109724, 34.46060361266666 ], [ 133.998418326644469, 34.469658612954674 ], [ 134.004323891234662, 34.473197224872081 ], [ 134.004351945585881, 34.473180000156958 ] ] ], [ [ [ 133.953702502968213, 34.477819440714654 ], [ 133.958729727594914, 34.46846638711412 ], [ 133.95073333277719, 34.473455279037921 ], [ 133.953641946218909, 34.477814721072548 ], [ 133.953702502968213, 34.477819440714654 ] ] ], [ [ [ 134.301033255980087, 34.474170973012065 ], [ 134.297583579818365, 34.475356828954546 ], [ 134.298994072918163, 34.477867558940773 ], [ 134.301146614624599, 34.474185801933288 ], [ 134.301033255980087, 34.474170973012065 ] ] ], [ [ [ 133.995938053998088, 34.477762494743388 ], [ 134.000185551122399, 34.475757225115899 ], [ 133.997531140949491, 34.470581640230591 ], [ 133.991751946395311, 34.47699194572175 ], [ 133.995903890552199, 34.4778241621554 ], [ 133.995938053998088, 34.477762494743388 ] ] ], [ [ [ 133.969814994166654, 34.477985279297229 ], [ 133.972428885384829, 34.473050828732823 ], [ 133.982532775767027, 34.476861107853892 ], [ 133.98312555130326, 34.471974440967756 ], [ 133.999405278630775, 34.461007494600267 ], [ 134.001943061123484, 34.45092638674339 ], [ 134.011089442423895, 34.454376667249448 ], [ 134.012176393625737, 34.451119721198211 ], [ 134.001349442023184, 34.443244440778358 ], [ 133.99471389143298, 34.446508891672067 ], [ 133.991559727999061, 34.442381107801907 ], [ 133.987335551194747, 34.446694721284416 ], [ 133.981607224094205, 34.44759110794331 ], [ 133.984328755168008, 34.445701865248907 ], [ 133.981748885302864, 34.444965279124403 ], [ 133.97330527921531, 34.452498613020623 ], [ 133.975311946389297, 34.456259720809499 ], [ 133.965474162702549, 34.470182495026165 ], [ 133.964955836642616, 34.475591107743469 ], [ 133.969779999747288, 34.478114721417285 ], [ 133.969814994166654, 34.477985279297229 ] ] ], [ [ [ 133.972343891357582, 34.480511946169429 ], [ 133.977535279129938, 34.478311386960968 ], [ 133.972845837165664, 34.473800559348376 ], [ 133.972324993903385, 34.480540279310503 ], [ 133.972343891357582, 34.480511946169429 ] ] ], [ [ [ 134.127074994115787, 34.482220559131576 ], [ 134.125550830306679, 34.476193333355695 ], [ 134.116868884991163, 34.472166666558451 ], [ 134.108366667387827, 34.474454441119633 ], [ 134.109517224040701, 34.479200278669964 ], [ 134.126992502901771, 34.482272774668843 ], [ 134.127074994115787, 34.482220559131576 ] ] ], [ [ [ 133.994083061084439, 34.486820279332505 ], [ 133.989230830138808, 34.479508613032124 ], [ 133.990195550883982, 34.485176666669872 ], [ 133.994079442212524, 34.486871666594197 ], [ 133.994083061084439, 34.486820279332505 ] ] ], [ [ [ 133.979055279077897, 34.495097494653692 ], [ 133.980731115348703, 34.492103891681325 ], [ 133.985438053623284, 34.493285829277625 ], [ 133.981762776231221, 34.487806946233661 ], [ 133.976776394315266, 34.491873053698498 ], [ 133.979036109129197, 34.495118892223161 ], [ 133.979055279077897, 34.495097494653692 ] ] ], [ [ [ 133.976144553128734, 34.497573973060469 ], [ 133.97313000044926, 34.495768891621083 ], [ 133.976074643430138, 34.497603531977461 ], [ 133.976144553128734, 34.497573973060469 ] ] ], [ [ [ 134.085540272165872, 34.499444721196994 ], [ 134.093525057635361, 34.490451891941291 ], [ 134.103840830090348, 34.492064720810276 ], [ 134.104575551020957, 34.486741387205313 ], [ 134.102700829679634, 34.479090000203371 ], [ 134.091434162656583, 34.471124999818926 ], [ 134.085009727916713, 34.459921666651667 ], [ 134.078107224368978, 34.460374162337757 ], [ 134.065135550665218, 34.470693333330701 ], [ 134.043915278967006, 34.475099720875448 ], [ 134.042458611975462, 34.479358613309387 ], [ 134.03774805392959, 34.477621945996077 ], [ 134.035974422681534, 34.481200081318775 ], [ 134.041302776302132, 34.483272774918703 ], [ 134.043191660167054, 34.489431387148841 ], [ 134.058664577808031, 34.488928360355601 ], [ 134.057410000171444, 34.48671194609949 ], [ 134.069068948773065, 34.498025081092692 ], [ 134.085522218275855, 34.49945889181447 ], [ 134.085540272165872, 34.499444721196994 ] ] ], [ [ [ 133.971836667428306, 34.502109162407976 ], [ 133.971434449240519, 34.495772225407904 ], [ 133.970550271777711, 34.501723332565803 ], [ 133.971836667428306, 34.502109162407976 ] ] ], [ [ [ 133.977953605974221, 34.504204721270924 ], [ 133.979109441647438, 34.500911667439539 ], [ 133.974186031160457, 34.498199919190995 ], [ 133.973448884758341, 34.50204444089826 ], [ 133.977910829721054, 34.504231946447248 ], [ 133.977953605974221, 34.504204721270924 ] ] ], [ [ [ 134.023844448762361, 34.506333054127197 ], [ 134.020259441719872, 34.478312225129116 ], [ 134.010960830378053, 34.487255559296671 ], [ 134.007558053861203, 34.498035828890465 ], [ 134.016576666679839, 34.495895829129267 ], [ 134.02385944225955, 34.506348053919623 ], [ 134.023844448762361, 34.506333054127197 ] ] ], [ [ [ 133.97362693883224, 34.512516108131933 ], [ 133.976371659824281, 34.506466667302902 ], [ 133.969315551171803, 34.50383582926014 ], [ 133.96911832714909, 34.510293332971003 ], [ 133.973340830315124, 34.512521666841508 ], [ 133.97362693883224, 34.512516108131933 ] ] ], [ [ [ 134.151185278577827, 34.520706666579429 ], [ 134.152791946191428, 34.518384721377856 ], [ 134.149489999863704, 34.516073891796736 ], [ 134.144903060827687, 34.517300558973659 ], [ 134.144963890970871, 34.520516108331776 ], [ 134.151103605746925, 34.520757495362147 ], [ 134.151185278577827, 34.520706666579429 ] ] ], [ [ [ 134.164692217971492, 34.522104440567546 ], [ 134.163173554416062, 34.51631049533313 ], [ 134.155848884818283, 34.517764440976237 ], [ 134.164603605971706, 34.522160828959159 ], [ 134.164692217971492, 34.522104440567546 ] ] ], [ [ [ 134.162386108931855, 34.530667224812646 ], [ 134.158655551112815, 34.528711387320698 ], [ 134.162345278811586, 34.530740559129526 ], [ 134.162386108931855, 34.530667224812646 ] ] ], [ [ [ 134.346822139929827, 34.564794946029963 ], [ 134.351530026089904, 34.563018945967656 ], [ 134.346001478885228, 34.560458559015331 ], [ 134.347395383090543, 34.55580555937911 ], [ 134.35629783407785, 34.560951332637956 ], [ 134.366914331731095, 34.561245224787342 ], [ 134.362860725741939, 34.557586892421227 ], [ 134.354666693213403, 34.557526135123112 ], [ 134.347780532145862, 34.550840747702409 ], [ 134.348437781878147, 34.544177559147101 ], [ 134.343558275394116, 34.545024494784684 ], [ 134.344897976560446, 34.540701360179696 ], [ 134.351628418217047, 34.538334332863201 ], [ 134.362210194844693, 34.541614135184261 ], [ 134.355313865142875, 34.539114775326652 ], [ 134.360145720148921, 34.533666414373556 ], [ 134.35461834026421, 34.523409323581461 ], [ 134.356385356998658, 34.511060747855254 ], [ 134.347336225686377, 34.501040972862654 ], [ 134.351955304693661, 34.491722026950015 ], [ 134.342756743828772, 34.488338693775745 ], [ 134.343946394010914, 34.482571774967482 ], [ 134.353847977402324, 34.47630600042163 ], [ 134.348800363346186, 34.4598381619017 ], [ 134.33548869015101, 34.448108252294048 ], [ 134.3404066669342, 34.43783633258073 ], [ 134.33779413728962, 34.432901468328168 ], [ 134.332854915821827, 34.435528801712906 ], [ 134.329987134298904, 34.445792828975925 ], [ 134.319631996719295, 34.458011135205766 ], [ 134.31400805392866, 34.454479612644036 ], [ 134.301805642316594, 34.457259586161001 ], [ 134.298263450198078, 34.450271891634543 ], [ 134.284146693115417, 34.441868720864818 ], [ 134.278259390158837, 34.446855892385599 ], [ 134.286724448674477, 34.447578027304189 ], [ 134.284249196043675, 34.460797558660431 ], [ 134.296334163390952, 34.463343306448508 ], [ 134.30131089468216, 34.45964286512617 ], [ 134.307801750650356, 34.46310072062181 ], [ 134.316661089038121, 34.459642494605475 ], [ 134.314793968766708, 34.462715162374877 ], [ 134.318182191554911, 34.466366694067744 ], [ 134.314996640882327, 34.470443721100878 ], [ 134.31781224374015, 34.471270162088388 ], [ 134.310211582098873, 34.477462667068494 ], [ 134.296053216982386, 34.479688892028776 ], [ 134.282822243551777, 34.470948559128772 ], [ 134.267784526734545, 34.46813094628618 ], [ 134.259595551093867, 34.454767413685261 ], [ 134.262606082904426, 34.449208613286942 ], [ 134.24663533115563, 34.430026279089532 ], [ 134.251267587928851, 34.424410225151803 ], [ 134.23556625238075, 34.414783080674681 ], [ 134.231172698161572, 34.415438440931382 ], [ 134.224557497430624, 34.425237891915231 ], [ 134.232870077692041, 34.428260972865644 ], [ 134.23265691318602, 34.432273162376589 ], [ 134.237768910606746, 34.430307640085573 ], [ 134.237306886603619, 34.43729891930974 ], [ 134.223473747815319, 34.438403413586741 ], [ 134.234872438012644, 34.44423244137414 ], [ 134.239157951278457, 34.450194387161275 ], [ 134.237716393796632, 34.455575918593809 ], [ 134.242947613441629, 34.458820864990969 ], [ 134.24088213959908, 34.463220468050224 ], [ 134.236338326652572, 34.463101892438431 ], [ 134.236143449860378, 34.470533081336669 ], [ 134.229272918110723, 34.469023640328771 ], [ 134.233456226123963, 34.476451413601922 ], [ 134.228386420397101, 34.480649748387236 ], [ 134.216306977584964, 34.473204135262677 ], [ 134.209557445120026, 34.482822495162054 ], [ 134.20195160788046, 34.48016825226307 ], [ 134.194430026324767, 34.484756224620128 ], [ 134.191514331621192, 34.479638252103712 ], [ 134.188842749793139, 34.483363333051443 ], [ 134.188341581898499, 34.479687441422357 ], [ 134.191623994951442, 34.479261026974882 ], [ 134.188729442409908, 34.474475558999927 ], [ 134.187238365558187, 34.479397829146535 ], [ 134.18215411222252, 34.475032892254205 ], [ 134.1757785862128, 34.476630892201968 ], [ 134.170970117177262, 34.473634666806504 ], [ 134.168159170109675, 34.464657224950997 ], [ 134.151448885157947, 34.459755559171754 ], [ 134.148742387151515, 34.467248865143063 ], [ 134.140908755234932, 34.469572332896917 ], [ 134.14499344988792, 34.479574332789298 ], [ 134.157052503270506, 34.49294972115274 ], [ 134.16671946792917, 34.493756440907077 ], [ 134.180964086123709, 34.487477279053223 ], [ 134.165316497658296, 34.50015025193261 ], [ 134.164948885382842, 34.507122225410399 ], [ 134.155953332979948, 34.504907775273637 ], [ 134.1663936957126, 34.51305282892497 ], [ 134.163500895050333, 34.515851386932013 ], [ 134.167160856088685, 34.51392561287679 ], [ 134.16519316463291, 34.518998360286162 ], [ 134.171604695000724, 34.528877494800611 ], [ 134.177998495234419, 34.51813480157989 ], [ 134.186838560251431, 34.515822161663493 ], [ 134.193243721620547, 34.521568774679281 ], [ 134.208698884845717, 34.520995559397591 ], [ 134.222284033781193, 34.529311918610233 ], [ 134.228601945623382, 34.526844440618504 ], [ 134.238939468182025, 34.52960053173922 ], [ 134.241165720121899, 34.535026468097101 ], [ 134.256313060699199, 34.543084441293956 ], [ 134.255777782418818, 34.547281386626764 ], [ 134.264373060968069, 34.55327472055194 ], [ 134.269642776093292, 34.552925558767583 ], [ 134.268161115143357, 34.549545278791641 ], [ 134.271644720927156, 34.547627774901969 ], [ 134.295221114762739, 34.546715559275697 ], [ 134.305057223911831, 34.54935027879236 ], [ 134.313452503130634, 34.55869833306167 ], [ 134.329093333190826, 34.563925000338543 ], [ 134.346824642743172, 34.564805639868439 ], [ 134.346822139929827, 34.564794946029963 ] ] ] ] } }
]
}
