{
"type": "FeatureCollection",
"name": "41_saga_forecast",
"crs": { "type": "name", "properties": { "name": "urn:ogc:def:crs:OGC:1.3:CRS84" } },
"features": [
{ "type": "Feature", "properties": { "code": "410000", "name": "佐賀県", "PrefCode": "41", "regioncode": "410000" }, "geometry": { "type": "MultiPolygon", "coordinates": [ [ [ [ 130.223975837415082, 32.958272775268426 ], [ 130.224963605985636, 32.955749999762759 ], [ 130.219344994376002, 32.955022225195592 ], [ 130.218106666589506, 32.950524441349955 ], [ 130.212558222783855, 32.954697495293203 ], [ 130.216968002571321, 32.959175198176922 ], [ 130.223950699565194, 32.95833333291705 ], [ 130.223975837415082, 32.958272775268426 ] ] ], [ [ [ 129.866480829726584, 33.40281638696672 ], [ 129.860140829635611, 33.399432775002595 ], [ 129.866306109439506, 33.403120829063084 ], [ 129.866480829726584, 33.40281638696672 ] ] ], [ [ [ 129.856876667424331, 33.404889720883943 ], [ 129.858844721306923, 33.402121666981373 ], [ 129.856802776427003, 33.404895278694198 ], [ 129.856876667424331, 33.404889720883943 ] ] ], [ [ [ 129.846130000099492, 33.454959161935847 ], [ 129.847057782091042, 33.451802224992718 ], [ 129.846069728435282, 33.454981666570689 ], [ 129.846130000099492, 33.454959161935847 ] ] ], [ [ [ 129.839532996250796, 33.455912829113799 ], [ 129.838120441005572, 33.453654694408669 ], [ 129.839462386879745, 33.455946667005151 ], [ 129.839532996250796, 33.455912829113799 ] ] ], [ [ [ 129.844671660368931, 33.455793332596272 ], [ 129.842842775673603, 33.454107774654119 ], [ 129.844745551366145, 33.45583861256199 ], [ 129.844671660368931, 33.455793332596272 ] ] ], [ [ [ 129.848671114580384, 33.456610828926671 ], [ 129.845847782049532, 33.455376387110618 ], [ 129.84861055783108, 33.456650278587517 ], [ 129.848671114580384, 33.456610828926671 ] ] ], [ [ [ 129.978904280108509, 33.456609333354095 ], [ 129.976170830319575, 33.457829162086227 ], [ 129.978912970257397, 33.45672019817863 ], [ 129.978904280108509, 33.456609333354095 ] ] ], [ [ [ 129.975108832606566, 33.45811553230601 ], [ 129.972216549953828, 33.457895333303043 ], [ 129.975000000249906, 33.458128864755338 ], [ 129.975108832606566, 33.45811553230601 ] ] ], [ [ [ 129.978052775914989, 33.467526585883263 ], [ 129.978272918260586, 33.464208279088837 ], [ 129.975242309085388, 33.464953135378948 ], [ 129.978076277898026, 33.467552559203284 ], [ 129.978052775914989, 33.467526585883263 ] ] ], [ [ [ 129.969873502160453, 33.472281440935774 ], [ 129.973256524169301, 33.470191161992602 ], [ 129.969885226621955, 33.472296531559721 ], [ 129.969873502160453, 33.472281440935774 ] ] ], [ [ [ 129.848179572129652, 33.472893477252228 ], [ 129.849282775879487, 33.468443333193306 ], [ 129.847969092100016, 33.473061333014186 ], [ 129.848179572129652, 33.472893477252228 ] ] ], [ [ [ 129.99166666718304, 33.48034449530229 ], [ 129.994239416216146, 33.47285241420758 ], [ 129.985579830744655, 33.471779891728659 ], [ 129.985695187682836, 33.478919532110751 ], [ 129.991646693240341, 33.480374225090486 ], [ 129.99166666718304, 33.48034449530229 ] ] ], [ [ [ 129.956977664687543, 33.488220864801121 ], [ 129.960679390241694, 33.484902198277894 ], [ 129.956861751069027, 33.488147559262529 ], [ 129.956977664687543, 33.488220864801121 ] ] ], [ [ [ 129.774851660176068, 33.495229721274654 ], [ 129.780631335867497, 33.488805828826003 ], [ 129.773917496595232, 33.488244999906897 ], [ 129.774791115117978, 33.495252225010233 ], [ 129.774851660176068, 33.495229721274654 ] ] ], [ [ [ 129.973756200088587, 33.54356644123834 ], [ 129.977681245293297, 33.539930919276571 ], [ 129.977478054268886, 33.533011585816098 ], [ 129.973958495388274, 33.52779791913872 ], [ 129.967140414798337, 33.527082720691055 ], [ 129.964395162306914, 33.529981080962159 ], [ 129.970134112199617, 33.536244494787638 ], [ 129.966931088598926, 33.537716306362483 ], [ 129.971774695046179, 33.539211440955285 ], [ 129.96385114081761, 33.538297333155469 ], [ 129.97373374761446, 33.543574829215061 ], [ 129.973756200088587, 33.54356644123834 ] ] ], [ [ [ 129.865627029563825, 33.549999999600345 ], [ 129.861283256417209, 33.549824639895292 ], [ 129.866383721831312, 33.550064107772414 ], [ 129.865627029563825, 33.549999999600345 ] ] ], [ [ [ 129.893010920917277, 33.553684225246855 ], [ 129.895597665200171, 33.552715999843542 ], [ 129.892968028651694, 33.553626495066737 ], [ 129.893010920917277, 33.553684225246855 ] ] ], [ [ [ 129.849493605745351, 33.556655829003375 ], [ 129.860802826888971, 33.549771161709771 ], [ 129.859557275747761, 33.545141000356921 ], [ 129.85641492940556, 33.546627189393348 ], [ 129.858853333214824, 33.54339861335535 ], [ 129.869374721266468, 33.537143054208627 ], [ 129.87829450129027, 33.538162396177711 ], [ 129.880642361355967, 33.528229251978473 ], [ 129.874353606433829, 33.515969720825979 ], [ 129.878797224112645, 33.522629721284659 ], [ 129.886645162444324, 33.52221914389844 ], [ 129.882075279050923, 33.523720559356377 ], [ 129.88276688738199, 33.540563441249844 ], [ 129.890600661391431, 33.541790108426824 ], [ 129.891451479402349, 33.536991279224196 ], [ 129.894571698824848, 33.537856945941371 ], [ 129.890120532236892, 33.545665386948087 ], [ 129.895072244388643, 33.55108730603439 ], [ 129.903650246062057, 33.545068252397982 ], [ 129.909211362214705, 33.549370865373191 ], [ 129.911639441806869, 33.543461162103029 ], [ 129.917861089317853, 33.541764585667124 ], [ 129.928303695858972, 33.545831864948639 ], [ 129.928108858636961, 33.550640027315467 ], [ 129.933028715902537, 33.549415945689418 ], [ 129.929510895411568, 33.53683655896009 ], [ 129.945940725883816, 33.528372972634656 ], [ 129.957612335141221, 33.529407639950648 ], [ 129.956562361363922, 33.518227360004687 ], [ 129.969300389401496, 33.511407639950676 ], [ 129.961300506113503, 33.50383666672883 ], [ 129.953355693710364, 33.503512468325823 ], [ 129.944040972812672, 33.493314694117885 ], [ 129.945535771958362, 33.484395666826629 ], [ 129.93734208836679, 33.480080054151244 ], [ 129.947711529663479, 33.472441081390855 ], [ 129.95014533074243, 33.478466999552438 ], [ 129.955813060624337, 33.468777198409043 ], [ 129.953722386878667, 33.474630891902166 ], [ 129.956632412256113, 33.47618322517576 ], [ 129.958286030775753, 33.470689306366467 ], [ 129.960908470049958, 33.473051107722483 ], [ 129.956839169991781, 33.479555135161434 ], [ 129.960022088348751, 33.483533440915608 ], [ 129.965216640835365, 33.48317846771215 ], [ 129.970967250438321, 33.474857612788639 ], [ 129.967045226955747, 33.469999585712344 ], [ 129.959970246030139, 33.468714558829902 ], [ 129.964407588239624, 33.463308000164147 ], [ 129.961301219275924, 33.461444387248719 ], [ 129.958617445338859, 33.465035224595965 ], [ 129.960739274298135, 33.460691586347707 ], [ 129.969257756140564, 33.461394161911073 ], [ 129.96178202292208, 33.458398747704109 ], [ 129.970725383169906, 33.45477555904489 ], [ 129.978823449942297, 33.456374279349575 ], [ 129.99890985730417, 33.446785748163791 ], [ 130.020359779879982, 33.446388639923839 ], [ 130.035223502162921, 33.451229748054459 ], [ 130.041166524415644, 33.455962693823324 ], [ 130.036043528286314, 33.460529306382455 ], [ 130.03902632860229, 33.470014467693602 ], [ 130.044924993593668, 33.467437224748153 ], [ 130.068069169656496, 33.472504161637801 ], [ 130.073554721173537, 33.469153613248693 ], [ 130.090561141183798, 33.468560747780316 ], [ 130.100923606439324, 33.470867224642745 ], [ 130.106926394037941, 33.477828613100087 ], [ 130.129558884634889, 33.475626387447846 ], [ 130.138966393983992, 33.470397774937396 ], [ 130.150741945984123, 33.477620000062984 ], [ 130.176051659856284, 33.465916667220483 ], [ 130.186232218342298, 33.468248333194083 ], [ 130.188788884799237, 33.474892494792869 ], [ 130.198488326675033, 33.477298612940672 ], [ 130.198665836659075, 33.481200279369432 ], [ 130.226802217748173, 33.476695279363696 ], [ 130.233314448802844, 33.478922775066053 ], [ 130.249918326869306, 33.470497224667213 ], [ 130.262634449220513, 33.478004999830944 ], [ 130.274969441586563, 33.47968166707534 ], [ 130.296923605939696, 33.462850559106073 ], [ 130.311025278693705, 33.462051945840699 ], [ 130.313831659903258, 33.458020278812853 ], [ 130.319994162600551, 33.458702224827846 ], [ 130.334846394245801, 33.450495278934 ], [ 130.336444163067767, 33.445149440694195 ], [ 130.345428053961541, 33.445021387127383 ], [ 130.35578693901607, 33.433239720636664 ], [ 130.368811387635446, 33.436280829396821 ], [ 130.378218885293336, 33.424959161636025 ], [ 130.396719170053757, 33.42743027918408 ], [ 130.404766108569106, 33.416241387330217 ], [ 130.416808885122009, 33.410448891802957 ], [ 130.407703890622088, 33.402056108202885 ], [ 130.410970829939856, 33.395040279285524 ], [ 130.418697781577407, 33.401074721221448 ], [ 130.428471946323384, 33.396879161743982 ], [ 130.43724444887232, 33.399527774886963 ], [ 130.44221389115819, 33.41563361290099 ], [ 130.458080558071401, 33.419781386901548 ], [ 130.459864993774545, 33.427098891600622 ], [ 130.476593332616289, 33.438463892294862 ], [ 130.480250000337264, 33.436117495426117 ], [ 130.503535836709602, 33.446925829263648 ], [ 130.509383890554204, 33.443667494659223 ], [ 130.512460271624263, 33.449446946419471 ], [ 130.535735836839422, 33.439777774824506 ], [ 130.541064162581051, 33.421222775310866 ], [ 130.542004448746411, 33.36682749539267 ], [ 130.535978612423037, 33.342961946136938 ], [ 130.532802776227186, 33.346131107564588 ], [ 130.526090272448187, 33.340107774953879 ], [ 130.508836666578986, 33.343293054031278 ], [ 130.505497223917814, 33.330687225435156 ], [ 130.499455837417031, 33.325575558964943 ], [ 130.4870511152169, 33.332709162198114 ], [ 130.479561946126978, 33.330552774990622 ], [ 130.476991946321277, 33.326003333187316 ], [ 130.489394993983865, 33.31592889200482 ], [ 130.484091115412753, 33.305351108367006 ], [ 130.456023606204553, 33.301422494652456 ], [ 130.455366666738314, 33.294696667417327 ], [ 130.467976667289463, 33.287283053969816 ], [ 130.453381388140656, 33.28320944076313 ], [ 130.448725551143298, 33.278407495409624 ], [ 130.449746394080876, 33.265097225156865 ], [ 130.442458326890346, 33.264026666797292 ], [ 130.436230000114506, 33.269793892274379 ], [ 130.438495279033987, 33.289376558781214 ], [ 130.430975279385734, 33.292333053927337 ], [ 130.426635837374079, 33.289423053731014 ], [ 130.430346939259948, 33.285028054301335 ], [ 130.429565279114399, 33.274011666805052 ], [ 130.418061945602403, 33.269395278569277 ], [ 130.419509442207072, 33.261603054137709 ], [ 130.413387782220411, 33.251331108344004 ], [ 130.4020963937337, 33.248651107962303 ], [ 130.400785279317233, 33.258081107557132 ], [ 130.394116109370998, 33.260628892309569 ], [ 130.389164449379905, 33.257841386970483 ], [ 130.390759727979116, 33.247020279162598 ], [ 130.385390830222718, 33.240540000120973 ], [ 130.373296393913506, 33.244264440751408 ], [ 130.369836394434174, 33.238080278781865 ], [ 130.379048327318515, 33.229178612902729 ], [ 130.378385837236692, 33.221305559204268 ], [ 130.339586394296703, 33.204470828765807 ], [ 130.340554993817932, 33.188445829011869 ], [ 130.353120000387776, 33.180462225251574 ], [ 130.355784098957088, 33.140356946016311 ], [ 130.287814577980498, 33.146918612803802 ], [ 130.283966030907663, 33.156056829159411 ], [ 130.285731802980422, 33.161697000216463 ], [ 130.278320363194325, 33.164091694276294 ], [ 130.278584475193384, 33.168888532379924 ], [ 130.259989533190492, 33.179993558855699 ], [ 130.25141272401811, 33.190232081345528 ], [ 130.255382917887459, 33.197323586414427 ], [ 130.259113190621292, 33.197165134863155 ], [ 130.253896692878129, 33.202429440566277 ], [ 130.24642972804952, 33.202901197931965 ], [ 130.247334331814045, 33.191985360036369 ], [ 130.23120639386002, 33.192141946393747 ], [ 130.232404410435265, 33.183768532391923 ], [ 130.223105422277513, 33.165064224734238 ], [ 130.19007255460474, 33.146078666697179 ], [ 130.191727173170534, 33.140419585595453 ], [ 130.169957612653775, 33.130236080930445 ], [ 130.171270194763792, 33.128029559216827 ], [ 130.168821115102446, 33.129736252126406 ], [ 130.149355720190442, 33.112390802093898 ], [ 130.12605863779595, 33.117184559120176 ], [ 130.127656886855902, 33.103579000070852 ], [ 130.131996938607926, 33.104281107986822 ], [ 130.137706718989989, 33.096779387059144 ], [ 130.129105693772772, 33.091848225315402 ], [ 130.14065891088012, 33.094375829281148 ], [ 130.145822672378472, 33.086649467598875 ], [ 130.142649467598858, 33.080712558937478 ], [ 130.14617944242741, 33.07686777462817 ], [ 130.144718327389, 33.072992225410928 ], [ 130.158941660429377, 33.060862774897203 ], [ 130.158083605574006, 33.057194162380767 ], [ 130.161909389906441, 33.058387134658574 ], [ 130.161121115247283, 33.055159162065706 ], [ 130.170802672305513, 33.051957359744392 ], [ 130.171211776602263, 33.035826305639546 ], [ 130.176419999683276, 33.030231667257681 ], [ 130.182258520714186, 33.030502495393876 ], [ 130.177676393950492, 33.030185559016388 ], [ 130.182734720730878, 33.024771667278685 ], [ 130.178944721321841, 33.023389721358626 ], [ 130.182289728088563, 33.017820558971664 ], [ 130.179185836757028, 33.01789666679781 ], [ 130.185262995590847, 33.019700667252039 ], [ 130.181242217554313, 33.015106973408137 ], [ 130.187884994197134, 33.011673054268101 ], [ 130.189900440552947, 33.00039822499815 ], [ 130.186836938673878, 32.999873892366281 ], [ 130.192468885430799, 32.999510279375954 ], [ 130.193778884687845, 32.995389440969973 ], [ 130.191203333367184, 32.990154721163492 ], [ 130.205091388357005, 32.990906945599136 ], [ 130.210946108875874, 32.985454721158533 ], [ 130.207326109212659, 32.981793892274368 ], [ 130.209282775879501, 32.979050279247019 ], [ 130.215159662888141, 32.979925585797218 ], [ 130.214487275767283, 32.982514108039709 ], [ 130.22434241187284, 32.97307855872856 ], [ 130.224921283890239, 32.960775639784003 ], [ 130.221930830343581, 32.963264161911582 ], [ 130.211871309813205, 32.955132027021477 ], [ 130.212572165872871, 32.958041494819156 ], [ 130.150091945686768, 32.962590558907209 ], [ 130.143910558125867, 32.971710278906301 ], [ 130.131341387694988, 32.968294721224481 ], [ 130.103026108967811, 32.974739999551389 ], [ 130.088682218209897, 32.974031667427539 ], [ 130.076047782179444, 32.987568612701352 ], [ 130.061226938672348, 32.985851108142185 ], [ 130.05128333265975, 32.992606945754005 ], [ 130.044625279233287, 33.00400555860972 ], [ 130.028013890928378, 33.012445559315154 ], [ 130.027969170340953, 33.020023054420449 ], [ 130.015300558274248, 33.01741082874679 ], [ 130.008347781724865, 33.019678613177518 ], [ 129.993590829653158, 33.038782774705339 ], [ 129.996393606379911, 33.044506107870632 ], [ 129.994326394147834, 33.047914999777447 ], [ 129.982461388382376, 33.057304440847304 ], [ 129.939592775786082, 33.072886386897267 ], [ 129.933334721020628, 33.088104999646077 ], [ 129.922356667126564, 33.090493332801145 ], [ 129.926620557992464, 33.107641946418767 ], [ 129.938732503202573, 33.112721386582791 ], [ 129.951385550702639, 33.109986107572865 ], [ 129.956664721299944, 33.118042774954176 ], [ 129.956284720863209, 33.128627495062915 ], [ 129.948913333283713, 33.133875828806481 ], [ 129.941534720550976, 33.15757944073863 ], [ 129.943316394436124, 33.164488612759328 ], [ 129.917445278776654, 33.160015278782168 ], [ 129.91209000035326, 33.162335829135259 ], [ 129.905842776123336, 33.158057495157323 ], [ 129.895386667161006, 33.159825279013489 ], [ 129.887914163408027, 33.156174721286391 ], [ 129.885393060641263, 33.16193472071086 ], [ 129.858022217551365, 33.170790558937199 ], [ 129.851564721035061, 33.177295829239199 ], [ 129.837800558449089, 33.173254721128501 ], [ 129.820791388311932, 33.181995278859063 ], [ 129.815687223986288, 33.18815805405103 ], [ 129.816740557630737, 33.197735829345106 ], [ 129.810058326830358, 33.201796387093623 ], [ 129.806896666647958, 33.211169440717185 ], [ 129.813080000341756, 33.220942775388835 ], [ 129.809893061115986, 33.230195828874457 ], [ 129.813624449009126, 33.233167224887552 ], [ 129.814451659816314, 33.242265279319213 ], [ 129.790491946146517, 33.257732224562574 ], [ 129.768249728042633, 33.28578944102992 ], [ 129.758967496952437, 33.290851107892365 ], [ 129.776616666925747, 33.33299444064096 ], [ 129.789358884904686, 33.340477495240293 ], [ 129.796556446123191, 33.334078720856326 ], [ 129.799775719573859, 33.334371532020612 ], [ 129.794199415670505, 33.337250467834849 ], [ 129.804147470629346, 33.338361162038041 ], [ 129.811138560096538, 33.332727693628215 ], [ 129.808760311039578, 33.330033640440206 ], [ 129.81097683501298, 33.332708252084217 ], [ 129.807184967712146, 33.335772198228426 ], [ 129.802748690299836, 33.331305162203535 ], [ 129.808619169639087, 33.32664691862044 ], [ 129.807653606228996, 33.322848414322891 ], [ 129.818305109992934, 33.321159134986146 ], [ 129.810614553019263, 33.320159945924843 ], [ 129.812350232877066, 33.314400738803101 ], [ 129.817836913043152, 33.314953332630239 ], [ 129.817870195153432, 33.320382081168191 ], [ 129.820476550052831, 33.316039693876803 ], [ 129.813174772697721, 33.31157444120754 ], [ 129.813701050563054, 33.308728333345982 ], [ 129.821389441969245, 33.310510251846722 ], [ 129.836817198355106, 33.286718613373353 ], [ 129.842379442257538, 33.286738027038382 ], [ 129.844063138603019, 33.293177332967616 ], [ 129.853620245677803, 33.291589694109121 ], [ 129.846546718956006, 33.301605162248507 ], [ 129.831137082110672, 33.304170721201899 ], [ 129.827772140072284, 33.311953332780149 ], [ 129.835880168634958, 33.311555026643191 ], [ 129.839384279860724, 33.317487197676087 ], [ 129.8358123867323, 33.317177667215617 ], [ 129.836056614721087, 33.322906586070133 ], [ 129.842235914056232, 33.317214441393389 ], [ 129.841802243878533, 33.323396864973404 ], [ 129.849242917926404, 33.329537864880592 ], [ 129.841031725433822, 33.332376386960732 ], [ 129.836504280148461, 33.330324305822103 ], [ 129.837984423042712, 33.327848197936021 ], [ 129.833530699682115, 33.328509865138244 ], [ 129.827569494036993, 33.337163667069603 ], [ 129.832842335205669, 33.339423306340564 ], [ 129.8356974713613, 33.334443225074835 ], [ 129.842700921110691, 33.341311198253266 ], [ 129.848642049391174, 33.336665829364563 ], [ 129.843949389652721, 33.342188973442433 ], [ 129.84775491585674, 33.343722278860128 ], [ 129.842220895378091, 33.346937134840971 ], [ 129.84387275032725, 33.351658721272997 ], [ 129.845074526967892, 33.348236639909032 ], [ 129.85052092110368, 33.348072585581406 ], [ 129.850989974208005, 33.351711667059817 ], [ 129.845235913906322, 33.354176278912178 ], [ 129.847941855232534, 33.356880586170178 ], [ 129.850905304836033, 33.354361360288578 ], [ 129.850909727701833, 33.360206946393532 ], [ 129.846794136840003, 33.36260177535172 ], [ 129.858417108063122, 33.367853558894694 ], [ 129.857854527264635, 33.373022747801599 ], [ 129.863016030565404, 33.37616055886275 ], [ 129.868857886282512, 33.372778973071206 ], [ 129.864639389596164, 33.377742441160763 ], [ 129.86755710777436, 33.38339930633299 ], [ 129.864742606586105, 33.384991892361995 ], [ 129.865550220266528, 33.388636973217785 ], [ 129.870968417958238, 33.388227802371262 ], [ 129.86476325591957, 33.393472135031061 ], [ 129.871825356754925, 33.393630440892196 ], [ 129.865768611632234, 33.398671945853664 ], [ 129.868676394100362, 33.399872774608923 ], [ 129.866574163167115, 33.404151387376658 ], [ 129.870588249348316, 33.405014613333776 ], [ 129.86665472083871, 33.405081387096402 ], [ 129.867789104983217, 33.408256720571273 ], [ 129.863861115398208, 33.406135558908943 ], [ 129.866674720861738, 33.409512225408946 ], [ 129.863888327084737, 33.408222225275551 ], [ 129.862806666594452, 33.412353892418253 ], [ 129.859007173042642, 33.411467532300833 ], [ 129.861403061402257, 33.405932494688955 ], [ 129.853807133792202, 33.403153720867579 ], [ 129.8378261090877, 33.407759161656031 ], [ 129.838302775852526, 33.411169720905946 ], [ 129.833151945705822, 33.41397666688971 ], [ 129.82368055841107, 33.411935278690237 ], [ 129.823577497003953, 33.420887467582588 ], [ 129.831611776662271, 33.422044594682347 ], [ 129.818944967736115, 33.424261449606263 ], [ 129.820027911558896, 33.426957946252287 ], [ 129.813897496672212, 33.428542495040176 ], [ 129.81459639400839, 33.433074999911355 ], [ 129.802754721153519, 33.436117495426117 ], [ 129.801322775625636, 33.440937224873096 ], [ 129.796223332740624, 33.440899161966797 ], [ 129.797352776009916, 33.443554162094983 ], [ 129.789361218645354, 33.442012467801192 ], [ 129.789680310697804, 33.451355009226347 ], [ 129.786171114705212, 33.448174440797857 ], [ 129.782971802606653, 33.451268314581114 ], [ 129.790044993881452, 33.458999720560712 ], [ 129.798783890564209, 33.457229720775047 ], [ 129.798789078753089, 33.452942532072257 ], [ 129.808043644898362, 33.45823810810225 ], [ 129.806430557923932, 33.46198500030755 ], [ 129.798353606333876, 33.46371805414492 ], [ 129.793721659826815, 33.472044162008501 ], [ 129.804118053805155, 33.477593333365689 ], [ 129.806581115226322, 33.485760000423738 ], [ 129.813024720814269, 33.479402774718324 ], [ 129.820167223738395, 33.483832225376943 ], [ 129.826461945662345, 33.47944833257452 ], [ 129.826519001350903, 33.47468849527786 ], [ 129.823551387886255, 33.474313054403979 ], [ 129.826032218112459, 33.468416946185187 ], [ 129.839266394028868, 33.462213892157422 ], [ 129.835000271945091, 33.442301946077976 ], [ 129.838796108853444, 33.450635000305056 ], [ 129.844612776358645, 33.444139440882566 ], [ 129.849516407156557, 33.444828765834927 ], [ 129.852650414984737, 33.448582197910184 ], [ 129.848691659592532, 33.449834720595902 ], [ 129.853175279115931, 33.456165559293197 ], [ 129.858957497190772, 33.454083054089722 ], [ 129.857217911577436, 33.464794467990373 ], [ 129.852567393170716, 33.46863158557926 ], [ 129.857360220298006, 33.469065693726861 ], [ 129.850056394287208, 33.475191891692475 ], [ 129.840644162598096, 33.469813053729524 ], [ 129.83171666729038, 33.475060828994117 ], [ 129.845499169750951, 33.479618054429693 ], [ 129.834647224190121, 33.489413891937602 ], [ 129.841623748237453, 33.491271973123105 ], [ 129.829637496773103, 33.505209441362695 ], [ 129.836437497392694, 33.513731694062471 ], [ 129.828110000076549, 33.518248612783282 ], [ 129.845423450432008, 33.51724549458396 ], [ 129.851101205955956, 33.511388702926354 ], [ 129.850762411556161, 33.506605333069729 ], [ 129.857518780667306, 33.505895224784865 ], [ 129.857553087105316, 33.512895251714554 ], [ 129.848828054371324, 33.515616666775827 ], [ 129.848831659753387, 33.521955000422963 ], [ 129.839871946233416, 33.522381108201614 ], [ 129.846970830239684, 33.525194441170584 ], [ 129.856971115124907, 33.519336946243129 ], [ 129.852380829711592, 33.526045558655653 ], [ 129.856425837282586, 33.533298613440309 ], [ 129.848794163419939, 33.536773054233095 ], [ 129.851458885219472, 33.541559441315201 ], [ 129.846600271785178, 33.542455559076814 ], [ 129.851392217576858, 33.553636946088261 ], [ 129.845846394395608, 33.556035829190193 ], [ 129.849439728260904, 33.556667225212323 ], [ 129.849493605745351, 33.556655829003375 ] ] ], [ [ [ 129.88189236144342, 33.567754413635328 ], [ 129.890065083636728, 33.559053414383641 ], [ 129.888266328928012, 33.556067161570297 ], [ 129.893687197606141, 33.554461000275012 ], [ 129.880669027153999, 33.547073108337315 ], [ 129.881212438003672, 33.544216386676965 ], [ 129.86833994783035, 33.546626801785521 ], [ 129.876397419205546, 33.549736667313425 ], [ 129.873896719358186, 33.559546919155025 ], [ 129.881890466571804, 33.567759721434072 ], [ 129.88189236144342, 33.567754413635328 ] ] ], [ [ [ 129.760658611805525, 33.582670278610522 ], [ 129.768908326757924, 33.582072775338361 ], [ 129.773517782120052, 33.575392774856709 ], [ 129.771095227063142, 33.568832054156019 ], [ 129.765959662908131, 33.568927081020036 ], [ 129.765562528587907, 33.565435134923575 ], [ 129.761037223688959, 33.567335279199824 ], [ 129.764919416198154, 33.564956162297108 ], [ 129.762926666932231, 33.563689441114889 ], [ 129.755666109103686, 33.563711945749731 ], [ 129.739711946249372, 33.573402225332472 ], [ 129.744886394391642, 33.576006946163659 ], [ 129.742107223969242, 33.579022774981127 ], [ 129.746353060945125, 33.58216861339082 ], [ 129.753963606135585, 33.577810828806776 ], [ 129.760517223990746, 33.582692775151486 ], [ 129.760658611805525, 33.582670278610522 ] ] ], [ [ [ 129.845632775732042, 33.592012224684481 ], [ 129.847801388323433, 33.590315559215753 ], [ 129.844770557915012, 33.585095558613205 ], [ 129.83535749705095, 33.585151946105498 ], [ 129.836560557923463, 33.589458613224451 ], [ 129.845538327132203, 33.5920402790357 ], [ 129.845632775732042, 33.592012224684481 ] ] ], [ [ [ 129.898394422764454, 33.604162441443577 ], [ 129.903363087136881, 33.602413386868363 ], [ 129.901482529195391, 33.591916305693019 ], [ 129.898837665326027, 33.595485278722663 ], [ 129.894842049421072, 33.59300627861694 ], [ 129.898770921241066, 33.592633161591209 ], [ 129.89336747063237, 33.592964414276366 ], [ 129.893955279212832, 33.601252198430245 ], [ 129.898378223276495, 33.604164467616158 ], [ 129.898394422764454, 33.604162441443577 ] ] ], [ [ [ 129.862954448588994, 33.617674161633317 ], [ 129.864874163012246, 33.614562224966733 ], [ 129.858876667024674, 33.609288613079059 ], [ 129.863298326856352, 33.608626107708744 ], [ 129.859526393928036, 33.603073332768133 ], [ 129.862308327067694, 33.596771107800464 ], [ 129.868383891403482, 33.596342495409885 ], [ 129.864274358375042, 33.586352162422429 ], [ 129.857787951352975, 33.587618774786677 ], [ 129.860424500990007, 33.586129946240078 ], [ 129.857448807116839, 33.587766640418181 ], [ 129.858570557585267, 33.592205828935903 ], [ 129.848136667273479, 33.599369440747125 ], [ 129.851953333379697, 33.599390278938301 ], [ 129.85240027215491, 33.607002495069139 ], [ 129.859701387608993, 33.612820278633023 ], [ 129.855936108764467, 33.616738333407397 ], [ 129.862954448588994, 33.617724720619435 ], [ 129.862954448588994, 33.617674161633317 ] ] ] ] } }
]
}
