{
"type": "FeatureCollection",
"name": "44_oita_forecast",
"crs": { "type": "name", "properties": { "name": "urn:ogc:def:crs:OGC:1.3:CRS84" } },
"features": [
{ "type": "Feature", "properties": { "code": "440000", "name": "大分県", "PrefCode": "44", "regioncode": "440000" }, "geometry": { "type": "MultiPolygon", "coordinates": [ [ [ [ 131.934926160913619, 32.718974747686502 ], [ 131.932550856237071, 32.717812161701943 ], [ 131.934867471156963, 32.719003892016076 ], [ 131.934926160913619, 32.718974747686502 ] ] ], [ [ [ 131.927089105278014, 32.726968494900177 ], [ 131.933048029343126, 32.720165054373808 ], [ 131.925907755838352, 32.714452531958841 ], [ 131.921407613070983, 32.72015810801031 ], [ 131.926604384184998, 32.723669386832796 ], [ 131.920953138876371, 32.726282585572903 ], [ 131.927067613279746, 32.726995945806323 ], [ 131.927089105278014, 32.726968494900177 ] ] ], [ [ [ 131.908567664865927, 32.780840945853015 ], [ 131.923245746394173, 32.77527316212678 ], [ 131.923817781765251, 32.770086386977255 ], [ 131.910558326805358, 32.769150829447256 ], [ 131.907691946426212, 32.771206387364941 ], [ 131.911036393814584, 32.775497224617254 ], [ 131.908507562274281, 32.780797333230396 ], [ 131.908567664865927, 32.780840945853015 ] ] ], [ [ [ 132.032934163281084, 32.881472865080696 ], [ 132.035162775941444, 32.880167775222674 ], [ 132.030685836582165, 32.878635828680615 ], [ 132.032858521303751, 32.881514027050741 ], [ 132.032934163281084, 32.881472865080696 ] ] ], [ [ [ 132.024762801761995, 32.88935125175891 ], [ 132.022607497338186, 32.888135279319727 ], [ 132.02476836586743, 32.889388829031304 ], [ 132.024762801761995, 32.88935125175891 ] ] ], [ [ [ 132.046168249265406, 32.920033027202521 ], [ 132.049464993914398, 32.913889162055227 ], [ 132.04608697843139, 32.920039306269018 ], [ 132.046168249265406, 32.920033027202521 ] ] ], [ [ [ 132.046974059805052, 32.923351333097571 ], [ 132.045784163208623, 32.920135279219835 ], [ 132.046916394376126, 32.923379441408144 ], [ 132.046974059805052, 32.923351333097571 ] ] ], [ [ [ 131.957161115193344, 32.97125305368553 ], [ 131.958063060561813, 32.964832774712818 ], [ 131.953788885049107, 32.964995828994347 ], [ 131.95308778167589, 32.971146108106439 ], [ 131.957234721105579, 32.971269999610854 ], [ 131.957161115193344, 32.97125305368553 ] ] ], [ [ [ 132.074999999650345, 32.97747822474031 ], [ 132.0803528022401, 32.974232252216723 ], [ 132.077968053782683, 32.968061946101955 ], [ 132.080918054025005, 32.960143053958802 ], [ 132.077307223849402, 32.961460828754298 ], [ 132.07198499371259, 32.952708053733772 ], [ 132.067011387565572, 32.962967775042841 ], [ 132.060281388375415, 32.964017225414693 ], [ 132.073525032354382, 32.967858532045682 ], [ 132.074953606323902, 32.977516945950356 ], [ 132.074999999650345, 32.97747822474031 ] ] ], [ [ [ 132.07295555105793, 32.980734441441371 ], [ 132.075072776387628, 32.979303891661345 ], [ 132.070585836567147, 32.979916107842143 ], [ 132.072962217732197, 32.980751387366695 ], [ 132.07295555105793, 32.980734441441371 ] ] ], [ [ [ 132.070318612014376, 32.985402225032715 ], [ 132.066009442082191, 32.983989721048829 ], [ 132.070343891057746, 32.985431667037858 ], [ 132.070318612014376, 32.985402225032715 ] ] ], [ [ [ 131.954921192658958, 32.995875531730462 ], [ 131.957785811266262, 32.994422999821609 ], [ 131.954827781876702, 32.99590361306133 ], [ 131.954921192658958, 32.995875531730462 ] ] ], [ [ [ 131.912050168980159, 33.014968865420826 ], [ 131.91131194608954, 33.006558613389359 ], [ 131.908076394010436, 33.012320558946669 ], [ 131.911955551307756, 33.014946108076458 ], [ 131.912050168980159, 33.014968865420826 ] ] ], [ [ [ 131.935281724971674, 33.016057558609475 ], [ 131.943437781828266, 33.016134721340393 ], [ 131.943996393918496, 33.013127495437629 ], [ 131.941035278955042, 33.010147775299629 ], [ 131.937421945966094, 33.012281945655332 ], [ 131.926314163068241, 32.99664082871135 ], [ 131.940448611614215, 32.99895582934812 ], [ 131.944916666570975, 32.993931945702798 ], [ 131.930862218116886, 32.990113613152801 ], [ 131.924524720839258, 32.980370278965268 ], [ 131.920729000842812, 32.983019802222145 ], [ 131.915469883328569, 32.981126080903948 ], [ 131.910288469936972, 32.985172135285893 ], [ 131.911283890838945, 32.990866666763338 ], [ 131.924744721092111, 32.999845559225207 ], [ 131.924803087092869, 33.00660680176253 ], [ 131.91733133607238, 33.003962640263694 ], [ 131.921008300592689, 33.007306774687947 ], [ 131.919653891014377, 33.01282222506569 ], [ 131.92405905278315, 33.010308387022519 ], [ 131.924837223559052, 33.014163613360097 ], [ 131.935095279323718, 33.016134440751898 ], [ 131.935281724971674, 33.016057558609475 ] ] ], [ [ [ 131.934268611707125, 33.047915134675804 ], [ 131.93094891096348, 33.049133666585476 ], [ 131.933333332966981, 33.048283279349903 ], [ 131.934268611707125, 33.047915134675804 ] ] ], [ [ [ 131.884907172727935, 33.084959829432648 ], [ 131.883411828593125, 33.087664613331299 ], [ 131.884565615610768, 33.08562444101517 ], [ 131.884907172727935, 33.084959829432648 ] ] ], [ [ [ 131.894303113198134, 33.105603532277257 ], [ 131.895922802095697, 33.101650973213907 ], [ 131.89316594025604, 33.100366666688387 ], [ 131.894269364339721, 33.105632693693906 ], [ 131.894303113198134, 33.105603532277257 ] ] ], [ [ [ 132.010981088906192, 33.111479558634755 ], [ 132.016662633273995, 33.106723440934104 ], [ 132.003645772234677, 33.097100080804125 ], [ 132.007025252713333, 33.104180721163402 ], [ 132.004187717189438, 33.102931918972956 ], [ 132.00414693922994, 33.109120558666916 ], [ 132.010438444278861, 33.111098026652655 ], [ 132.010981088906192, 33.111479558634755 ] ] ], [ [ [ 131.81148627806931, 33.129834828614491 ], [ 131.808186472128, 33.129709305739937 ], [ 131.81143869044331, 33.129832720603645 ], [ 131.81148627806931, 33.129834828614491 ] ] ], [ [ [ 131.860813333268766, 33.143689999893638 ], [ 131.861988170717609, 33.140221224829702 ], [ 131.856879442332456, 33.14026138675365 ], [ 131.860707419212076, 33.143694748314033 ], [ 131.860813333268766, 33.143689999893638 ] ] ], [ [ [ 131.979434136875966, 33.161153279100574 ], [ 131.979439363735764, 33.15628146811531 ], [ 131.970212826760644, 33.155670440838207 ], [ 131.979375719613813, 33.161159306356979 ], [ 131.979434136875966, 33.161153279100574 ] ] ], [ [ [ 131.992213864678206, 33.171316801729063 ], [ 131.987727003998089, 33.164564198079347 ], [ 131.980048781226287, 33.162571919158779 ], [ 131.983301050802879, 33.170374775375649 ], [ 131.992196939437235, 33.171323134754914 ], [ 131.992213864678206, 33.171316801729063 ] ] ], [ [ [ 131.836804163181682, 33.178438333362465 ], [ 131.838414162783465, 33.175244440578524 ], [ 131.836770558214766, 33.17844944088904 ], [ 131.836804163181682, 33.178438333362465 ] ] ], [ [ [ 131.893692049048923, 33.239319252281746 ], [ 131.895579532669331, 33.235681613315876 ], [ 131.889017081673046, 33.236864360302036 ], [ 131.893674552738503, 33.239319108390191 ], [ 131.893692049048923, 33.239319252281746 ] ] ], [ [ [ 131.548602892209715, 33.257538999825044 ], [ 131.545803359337583, 33.257552774740816 ], [ 131.548602048645648, 33.257591495051486 ], [ 131.548602892209715, 33.257538999825044 ] ] ], [ [ [ 131.776181284039126, 33.253573081332661 ], [ 131.770715810786101, 33.258063972774153 ], [ 131.776168197104653, 33.253584134899938 ], [ 131.776181284039126, 33.253573081332661 ] ] ], [ [ [ 131.739494694824316, 33.259728080986179 ], [ 131.766481232422962, 33.256522649001113 ], [ 131.739497392790554, 33.259730612577755 ], [ 131.739494694824316, 33.259728080986179 ] ] ], [ [ [ 131.765795409430666, 33.258333333216797 ], [ 131.767160052394615, 33.26101192795818 ], [ 131.765818625429233, 33.258379811079465 ], [ 131.765795409430666, 33.258333333216797 ] ] ], [ [ [ 131.731395926580831, 33.264820072088696 ], [ 131.734702671691025, 33.263265342121883 ], [ 131.727929416009829, 33.266842251668606 ], [ 131.731065174818013, 33.2650198465887 ], [ 131.731395926580831, 33.264820072088696 ] ] ], [ [ [ 131.956472166157596, 33.279296225240671 ], [ 131.956616056785606, 33.275392747577314 ], [ 131.945737056020334, 33.270692865383467 ], [ 131.937319947557626, 33.277250612925513 ], [ 131.956458144827593, 33.27930897313064 ], [ 131.956472166157596, 33.279296225240671 ] ] ], [ [ [ 131.507568249075462, 33.307907972674855 ], [ 131.508675965623411, 33.299196990948417 ], [ 131.507744812073497, 33.308333333116877 ], [ 131.507568249075462, 33.307907972674855 ] ] ], [ [ [ 131.732948755380789, 33.499638829268633 ], [ 131.734219299581127, 33.502209440613228 ], [ 131.732890142965744, 33.499999999700265 ], [ 131.732948755380789, 33.499638829268633 ] ] ], [ [ [ 131.425589909446785, 33.571088440579103 ], [ 131.422709830594272, 33.573395458833431 ], [ 131.425000000049977, 33.571746396279195 ], [ 131.425589909446785, 33.571088440579103 ] ] ], [ [ [ 131.363976886624073, 33.578721162151965 ], [ 131.363111945659853, 33.581079946282557 ], [ 131.363969585028372, 33.578752251715116 ], [ 131.363976886624073, 33.578721162151965 ] ] ], [ [ [ 131.249568949047784, 33.61711108081181 ], [ 131.24560274996702, 33.615493919009225 ], [ 131.249723138711943, 33.617149667123499 ], [ 131.249568949047784, 33.61711108081181 ] ] ], [ [ [ 131.543661114868655, 33.684141107925825 ], [ 131.544961659552996, 33.681842494735406 ], [ 131.543573606336963, 33.68413527941965 ], [ 131.543661114868655, 33.684141107925825 ] ] ], [ [ [ 131.609431582101934, 33.683282559342672 ], [ 131.607345862721445, 33.684777586016821 ], [ 131.609478417894707, 33.683333333266773 ], [ 131.609431582101934, 33.683282559342672 ] ] ], [ [ [ 131.585584449163093, 33.692608054118466 ], [ 131.593874642600781, 33.686919828687223 ], [ 131.598266200324929, 33.687949494873351 ], [ 131.596955576938399, 33.685829774824299 ], [ 131.602259856607134, 33.688734468121254 ], [ 131.601745188090035, 33.685582892036905 ], [ 131.603073138714421, 33.688264945570836 ], [ 131.607516108881327, 33.686903333322221 ], [ 131.607235187653828, 33.678634864807236 ], [ 131.616211776952014, 33.674970468312495 ], [ 131.615729196245525, 33.67922064002056 ], [ 131.619597782012079, 33.680857495177293 ], [ 131.624552775789994, 33.674351667295639 ], [ 131.630197497416589, 33.6743200003678 ], [ 131.630442503318932, 33.682153054020262 ], [ 131.636127781671803, 33.682146945824968 ], [ 131.639210026321734, 33.676564864676834 ], [ 131.643797108349986, 33.676893081250739 ], [ 131.642836860832517, 33.672799973440078 ], [ 131.648563606025618, 33.674644721276934 ], [ 131.652049104882394, 33.671052532248609 ], [ 131.649563332881598, 33.672514053780617 ], [ 131.646208054058548, 33.667136667323405 ], [ 131.651641077074146, 33.660594810801911 ], [ 131.661276108605534, 33.670319162099702 ], [ 131.66577027178073, 33.66842666655748 ], [ 131.666524162660039, 33.660056386692929 ], [ 131.671361997258487, 33.658010721317794 ], [ 131.679399727615419, 33.643907495434632 ], [ 131.684028417677382, 33.639618224801268 ], [ 131.690166977723948, 33.642237747574029 ], [ 131.6931117771868, 33.63997541393428 ], [ 131.703871660049117, 33.608686667156007 ], [ 131.709630350060706, 33.604070314893193 ], [ 131.718311504872077, 33.604654386790571 ], [ 131.714188806668176, 33.604582973425522 ], [ 131.718587224420958, 33.604036387069641 ], [ 131.716169442066189, 33.601735000370013 ], [ 131.724065745937537, 33.590300161922983 ], [ 131.733778443820142, 33.582798919434651 ], [ 131.734360830388027, 33.567053640313304 ], [ 131.739383139320466, 33.571354225317293 ], [ 131.73608717258503, 33.564452495186572 ], [ 131.739259299976766, 33.566849108399708 ], [ 131.741298663802354, 33.562844027130211 ], [ 131.74085269809359, 33.546396134673955 ], [ 131.745091607591689, 33.542615134780704 ], [ 131.742385161745915, 33.536983829240398 ], [ 131.738602970250895, 33.537468107866914 ], [ 131.741028326695982, 33.535939720841498 ], [ 131.730372918075773, 33.507253720882545 ], [ 131.73226211400538, 33.500683333369182 ], [ 131.729062218246781, 33.500917225449655 ], [ 131.732063476248527, 33.499841027441505 ], [ 131.729333502339273, 33.499331467972922 ], [ 131.732420660884827, 33.488084053636214 ], [ 131.734577275620836, 33.493987612738181 ], [ 131.738930272214361, 33.493944161993511 ], [ 131.739555551047943, 33.466343613167282 ], [ 131.734370751708866, 33.464936613034297 ], [ 131.733696977833347, 33.47061633267765 ], [ 131.73116692591293, 33.465779829075927 ], [ 131.725264669029343, 33.464156568071189 ], [ 131.731422087859187, 33.465154963930502 ], [ 131.724901996729841, 33.4613725862759 ], [ 131.720606615203224, 33.447558225331875 ], [ 131.711277782143952, 33.438655559406584 ], [ 131.701496108958281, 33.405990829213465 ], [ 131.691757808276293, 33.404727162128893 ], [ 131.677208884682386, 33.410963892169946 ], [ 131.661156393552801, 33.409208054008559 ], [ 131.668843139199566, 33.410481982357624 ], [ 131.673687755585547, 33.417367612825103 ], [ 131.657056549820027, 33.423303766055994 ], [ 131.653472827009409, 33.419816053967793 ], [ 131.646785551012385, 33.420323485640381 ], [ 131.651962283432681, 33.414466333354653 ], [ 131.650523839403718, 33.418332802117163 ], [ 131.635576393835549, 33.423393891614865 ], [ 131.62845778230087, 33.420605081359497 ], [ 131.634796641152093, 33.419708333173105 ], [ 131.634624162874843, 33.415812774939639 ], [ 131.627118911208868, 33.411013053609565 ], [ 131.642422023357767, 33.408004919391544 ], [ 131.634272776167791, 33.407830828629869 ], [ 131.640169441966236, 33.406346198118626 ], [ 131.637431387648462, 33.403010955291393 ], [ 131.643295965636412, 33.406130946286169 ], [ 131.639242970286887, 33.402762225296499 ], [ 131.641533333096959, 33.400182440867013 ], [ 131.635728029425081, 33.399277972900165 ], [ 131.645931388422923, 33.393336386864803 ], [ 131.650065551184298, 33.384058891604639 ], [ 131.643401387763902, 33.374950000342267 ], [ 131.622870830424517, 33.374653892263382 ], [ 131.605299027328329, 33.369423865119359 ], [ 131.597134280322848, 33.371665278729665 ], [ 131.59566736735519, 33.363519000201734 ], [ 131.599016641404887, 33.359416721104822 ], [ 131.596941284013155, 33.349649332750573 ], [ 131.593022671659014, 33.34715541379137 ], [ 131.588747613011947, 33.34652469405944 ], [ 131.583216938910709, 33.353907585766535 ], [ 131.580696809210394, 33.352663495124261 ], [ 131.586911945629822, 33.345389198352848 ], [ 131.556103579816408, 33.353238440701546 ], [ 131.556999000603469, 33.34984055919449 ], [ 131.549723671410334, 33.350116134851817 ], [ 131.54335586338243, 33.354746494954838 ], [ 131.536547665442413, 33.364562107655217 ], [ 131.538929053133415, 33.36544472119698 ], [ 131.52988697790181, 33.367274134693616 ], [ 131.498834111604992, 33.360262440859003 ], [ 131.496088378875697, 33.326379918898169 ], [ 131.502581803307635, 33.322011559186137 ], [ 131.500101413749348, 33.319144405390034 ], [ 131.504245784715295, 33.310135829005333 ], [ 131.503427392660114, 33.297883207344171 ], [ 131.506508196596087, 33.299566080810052 ], [ 131.504297094635263, 33.290054449753086 ], [ 131.510450401764729, 33.270542243329942 ], [ 131.539132606584644, 33.257562386694815 ], [ 131.551747444588955, 33.258675946138055 ], [ 131.579703995443083, 33.248601000435883 ], [ 131.585725772226624, 33.251393495213676 ], [ 131.582280220355983, 33.249070747816802 ], [ 131.589269532762842, 33.245649919208461 ], [ 131.594031478969669, 33.247056027213944 ], [ 131.587293917380407, 33.251359613255602 ], [ 131.593309468157486, 33.25021789244181 ], [ 131.598268196819845, 33.252436413809505 ], [ 131.597488470216831, 33.255554305786632 ], [ 131.601710077658026, 33.24963774788381 ], [ 131.608106615428028, 33.253572639765537 ], [ 131.601717327992333, 33.253089559035971 ], [ 131.599202192227494, 33.256571946238353 ], [ 131.614303190739747, 33.262091829374469 ], [ 131.624063281095573, 33.260159712400878 ], [ 131.62465849469379, 33.264310467654013 ], [ 131.65847966310605, 33.273180224687678 ], [ 131.659249221974051, 33.277350774918375 ], [ 131.658697173136147, 33.27324166726919 ], [ 131.668710894792071, 33.258315035610451 ], [ 131.672377925400951, 33.260190631092826 ], [ 131.668090000153484, 33.276243613252177 ], [ 131.663750946648975, 33.278044829405417 ], [ 131.66860961134455, 33.275447865226852 ], [ 131.676875914292054, 33.279506413889919 ], [ 131.679557003752734, 33.268095081023205 ], [ 131.68484603091963, 33.266241278812004 ], [ 131.679424111833328, 33.280055441005857 ], [ 131.6919147732483, 33.279427775371573 ], [ 131.71549236138344, 33.268867945799116 ], [ 131.709673916817906, 33.26179472124943 ], [ 131.71279661477206, 33.259810892358871 ], [ 131.718528391671953, 33.266471945923627 ], [ 131.734443086878969, 33.256689440865046 ], [ 131.734706304052793, 33.250963999688906 ], [ 131.743207911915647, 33.248966251990964 ], [ 131.744211335884529, 33.25295541436094 ], [ 131.746574383700931, 33.248412026793631 ], [ 131.751273527551348, 33.24829219842627 ], [ 131.746771245296827, 33.243835892212701 ], [ 131.759439247623277, 33.240227467723514 ], [ 131.754503061367245, 33.241513586382951 ], [ 131.754588949320578, 33.252347360242538 ], [ 131.766182438069109, 33.252277278773477 ], [ 131.769549780398165, 33.244978333383415 ], [ 131.772916614610153, 33.244893801607702 ], [ 131.774657392724521, 33.252424774783606 ], [ 131.779329727784784, 33.254660467806389 ], [ 131.779689052807612, 33.247737054121785 ], [ 131.771382827155776, 33.241081999934408 ], [ 131.779283306579373, 33.247085053732292 ], [ 131.805988171117292, 33.242003135036725 ], [ 131.840823333230333, 33.248447306298203 ], [ 131.842178832786999, 33.251828667259247 ], [ 131.856378885077561, 33.255694440845843 ], [ 131.865335136207591, 33.249762413704502 ], [ 131.8744181063106, 33.249528467664675 ], [ 131.867776614799027, 33.259477162041435 ], [ 131.891976523897483, 33.268649531950416 ], [ 131.902685227241477, 33.267803467755868 ], [ 131.9038322441628, 33.262637252007607 ], [ 131.893460636399368, 33.25232658590329 ], [ 131.892016328790646, 33.245298829277601 ], [ 131.875773191279791, 33.244552667171888 ], [ 131.878849727932675, 33.243083306249616 ], [ 131.871116938795808, 33.232984586069847 ], [ 131.874203696243626, 33.228576918789827 ], [ 131.877107976751745, 33.229844666997849 ], [ 131.876795357120045, 33.22393394569508 ], [ 131.860712750393191, 33.204543359988122 ], [ 131.869193942746278, 33.201354468334102 ], [ 131.86211002615687, 33.194248774661276 ], [ 131.857018663680492, 33.19572241365853 ], [ 131.84891949433927, 33.188033224553749 ], [ 131.840125706636172, 33.187169324105071 ], [ 131.83280797710654, 33.181087495091901 ], [ 131.834046355255168, 33.176676198148073 ], [ 131.823376667199454, 33.166261108163667 ], [ 131.82099939030968, 33.157839918577451 ], [ 131.821692387193934, 33.15426891937517 ], [ 131.825750441229957, 33.154468306267347 ], [ 131.828887912347341, 33.161474468372091 ], [ 131.828560467391753, 33.150114892388444 ], [ 131.819100920571145, 33.146789197663395 ], [ 131.810914500803619, 33.136007440590959 ], [ 131.809856523959525, 33.138792495277471 ], [ 131.807625939985201, 33.130290224614214 ], [ 131.798367367360129, 33.127154305726663 ], [ 131.813194864051752, 33.12737944110836 ], [ 131.809170661396934, 33.121139279254407 ], [ 131.814525499152523, 33.121872359821623 ], [ 131.814811530327916, 33.127466892083476 ], [ 131.815004033809146, 33.122703613081342 ], [ 131.825990246352831, 33.121061360193664 ], [ 131.831203696293642, 33.12658719774106 ], [ 131.838868106378072, 33.123690225123823 ], [ 131.835560467341793, 33.118564972595436 ], [ 131.843438053623345, 33.114300278635028 ], [ 131.856464773030893, 33.120451000213563 ], [ 131.861680725784936, 33.128028972858885 ], [ 131.86715082964713, 33.125352225325003 ], [ 131.865518170727114, 33.128322197711327 ], [ 131.869893891390007, 33.131410278961255 ], [ 131.877892113630196, 33.130734225304309 ], [ 131.874573671038206, 33.123671108235101 ], [ 131.883333333066957, 33.121761468017382 ], [ 131.886293332871105, 33.127752495181539 ], [ 131.889484721043118, 33.124344999921846 ], [ 131.896588080075844, 33.127328721143613 ], [ 131.898205668157175, 33.135520865095884 ], [ 131.900932218347293, 33.134775559144771 ], [ 131.901341193141661, 33.127362279345789 ], [ 131.915527367094342, 33.125060747855287 ], [ 131.897393280875235, 33.116252413618042 ], [ 131.900994812060958, 33.110152224945296 ], [ 131.893939053244821, 33.10702222539544 ], [ 131.880288171062261, 33.109348359639114 ], [ 131.875783891413562, 33.104158972858386 ], [ 131.880638366167773, 33.103231829385493 ], [ 131.868258637925919, 33.096125775084488 ], [ 131.869256057121447, 33.090505532104658 ], [ 131.851485771851003, 33.089537080971581 ], [ 131.857283864758642, 33.084604467722045 ], [ 131.868140636081534, 33.08343889239103 ], [ 131.861622528856628, 33.083021640236552 ], [ 131.858902282914073, 33.077414135254173 ], [ 131.874642801923869, 33.078605558899483 ], [ 131.885753086735576, 33.072853747802299 ], [ 131.888724331662615, 33.075097918734002 ], [ 131.881229558897076, 33.077984225391731 ], [ 131.885009053325234, 33.084342693960195 ], [ 131.901936939138523, 33.075279440593761 ], [ 131.911017197785554, 33.08261889234808 ], [ 131.913810388638581, 33.073808972606059 ], [ 131.909956744208444, 33.068137613060458 ], [ 131.912450194620874, 33.066541829042251 ], [ 131.917656640641553, 33.067048865013135 ], [ 131.915601919992696, 33.068336251716687 ], [ 131.919716498217895, 33.071132919348827 ], [ 131.921549830959975, 33.066718775151401 ], [ 131.929286445812863, 33.067386359892623 ], [ 131.923746252387673, 33.074368467830595 ], [ 131.92787527912094, 33.0767685857017 ], [ 131.932679221868625, 33.074526792577444 ], [ 131.93492021999225, 33.083275332690505 ], [ 131.928884993847419, 33.091763332911512 ], [ 131.940688716211298, 33.096880026592032 ], [ 131.936660168931667, 33.082639801585628 ], [ 131.942336160885134, 33.081239693856844 ], [ 131.939431388447929, 33.076423053581095 ], [ 131.943705642201735, 33.073439828785126 ], [ 131.942967781737821, 33.069456108212876 ], [ 131.95342408585293, 33.066219828582291 ], [ 131.952415694029128, 33.070752918912149 ], [ 131.966286355231205, 33.073398108336107 ], [ 131.969053800292727, 33.071808305708771 ], [ 131.966237250448785, 33.064613224820505 ], [ 131.974007976586904, 33.062133107756779 ], [ 131.975829689188913, 33.067147278724008 ], [ 131.980615837051346, 33.065401666753587 ], [ 131.989578469770663, 33.069093918849319 ], [ 131.984796135033662, 33.079275161719409 ], [ 131.989220920908792, 33.085295225294487 ], [ 131.986087029992518, 33.087799946010762 ], [ 131.987714668896956, 33.090819559175372 ], [ 132.002795161967242, 33.096315559015864 ], [ 131.995594188720929, 33.079800495296695 ], [ 132.001397834042905, 33.076574919397046 ], [ 132.005914162808381, 33.061364162226369 ], [ 132.017986108871924, 33.059625000193648 ], [ 132.002577782338903, 33.054318613413329 ], [ 131.997006939119046, 33.056886107707783 ], [ 131.988010946947725, 33.053677252003638 ], [ 131.984618611559767, 33.04792453169182 ], [ 131.975710000216395, 33.0461955589779 ], [ 131.958030610324499, 33.051754864795214 ], [ 131.950530337305281, 33.049409162203119 ], [ 131.943275745579285, 33.053917414157411 ], [ 131.936751659661468, 33.048374162137918 ], [ 131.929730700111804, 33.052597251661894 ], [ 131.927400000010039, 33.04419444062097 ], [ 131.920775279055988, 33.043405828716061 ], [ 131.919889999923612, 33.029091135347642 ], [ 131.922795278679246, 33.026373892241395 ], [ 131.90107111503994, 33.010151946355279 ], [ 131.908243060868585, 32.99929305443095 ], [ 131.901671659819272, 32.99206138732319 ], [ 131.903107496713687, 32.996797774797528 ], [ 131.89856364509626, 33.00675722506594 ], [ 131.896749689146873, 32.995387946296717 ], [ 131.893531244871156, 32.996519946338481 ], [ 131.88969494206799, 32.991112332768012 ], [ 131.897860169311457, 32.989715585805698 ], [ 131.896645161844845, 32.980261116557358 ], [ 131.905870311166041, 32.981723414204282 ], [ 131.903109104701457, 32.977526306094205 ], [ 131.913443411284447, 32.976983414153267 ], [ 131.9147789108182, 32.970584891579563 ], [ 131.918061387722901, 32.975815999708686 ], [ 131.927178171435571, 32.974081161616368 ], [ 131.923832243763059, 32.96480564036807 ], [ 131.93548778213551, 32.961917494596776 ], [ 131.937654993583124, 32.952374162437707 ], [ 131.948893891340049, 32.959375279345693 ], [ 131.959606109234642, 32.945571667098818 ], [ 131.964800894645691, 32.948828694089002 ], [ 131.961154993608147, 32.948622558684178 ], [ 131.963846667189955, 32.950623891979092 ], [ 131.960660829633639, 32.960473892056541 ], [ 131.968414617041049, 32.952937306211766 ], [ 131.975159169959738, 32.963650829022583 ], [ 131.971852632593027, 32.946529413601581 ], [ 131.978849053241333, 32.946751585717152 ], [ 131.975840558395134, 32.94285569383527 ], [ 131.982345550806599, 32.939270559089096 ], [ 131.993223890570107, 32.94743166743757 ], [ 131.98968389099889, 32.954023054120682 ], [ 131.995874721441282, 32.9530544411096 ], [ 132.003294449379382, 32.958881386966482 ], [ 132.004743606132593, 32.95517500022612 ], [ 131.99745610911225, 32.949202224802889 ], [ 132.000613061343756, 32.944285278642724 ], [ 131.996861581696749, 32.938140532159878 ], [ 132.001652218075492, 32.937319162449455 ], [ 132.003446939324817, 32.932367495263748 ], [ 132.006725279348188, 32.935831387008932 ], [ 132.011066666593479, 32.932919440679711 ], [ 132.011783606128574, 32.936204162292313 ], [ 132.022738612197259, 32.940331946162416 ], [ 132.033944720672366, 32.939690278983221 ], [ 132.034250557617156, 32.947727494928017 ], [ 132.030896108868433, 32.950061386723689 ], [ 132.033334721320443, 32.954041386800611 ], [ 132.044036719319251, 32.947084162204362 ], [ 132.050652776204743, 32.948708053633823 ], [ 132.050845551281213, 32.953839161648034 ], [ 132.058387471005062, 32.945618829345563 ], [ 132.067043191190351, 32.944874640352396 ], [ 132.070342335230634, 32.948660494786054 ], [ 132.075403332997439, 32.944056667381346 ], [ 132.078821388096685, 32.945427225186336 ], [ 132.085348611749055, 32.933135558559229 ], [ 132.076398494894647, 32.931292972692574 ], [ 132.070513695650561, 32.93611110764158 ], [ 132.063351192703408, 32.934460640346344 ], [ 132.054228326875887, 32.939899440606723 ], [ 132.051992309197772, 32.936104000299451 ], [ 132.047543605852752, 32.937544721411825 ], [ 132.049700000254916, 32.931687224685732 ], [ 132.04481282705035, 32.926172332786962 ], [ 132.038601387743938, 32.928234161677267 ], [ 132.040961387757875, 32.933895000054235 ], [ 132.038067497117368, 32.935877224554304 ], [ 132.026079921850965, 32.935439108128378 ], [ 132.023993696152274, 32.931245224987208 ], [ 132.016552218110405, 32.930047774984871 ], [ 132.017466446419462, 32.923480919109181 ], [ 132.008631556101477, 32.925132667039009 ], [ 132.009708884557426, 32.90581694629509 ], [ 131.995945278651789, 32.911664585552217 ], [ 131.994438274806612, 32.921470721196897 ], [ 131.990300790848892, 32.920865495446321 ], [ 131.989757860237091, 32.924127802356224 ], [ 131.986958366035878, 32.919277891661409 ], [ 131.97681360596323, 32.922691999636129 ], [ 131.978222866092437, 32.917895306323373 ], [ 131.984080414979189, 32.916161999776534 ], [ 131.984191894040691, 32.900307999814402 ], [ 131.988036161239961, 32.89836591925183 ], [ 131.984757224066698, 32.894016667435324 ], [ 131.986279727727265, 32.889346667015104 ], [ 131.989415446965381, 32.892123586434423 ], [ 131.99337306111795, 32.89031416216892 ], [ 131.992063605950761, 32.893760748259979 ], [ 131.99495566826954, 32.893628865379867 ], [ 131.991835447048288, 32.894568027392609 ], [ 131.995640830260186, 32.895375559234708 ], [ 131.995585162225552, 32.899656801620154 ], [ 132.003351388156148, 32.891673892136453 ], [ 132.011757782096083, 32.89347082931539 ], [ 132.015614552569559, 32.890573107562943 ], [ 132.001029999634852, 32.885788054175407 ], [ 132.001003606331437, 32.878522225420397 ], [ 131.986645278756669, 32.870284162084488 ], [ 131.984617419058736, 32.862757279025232 ], [ 131.974423332970559, 32.867516108181917 ], [ 131.97274888525294, 32.864609440873039 ], [ 131.977289299661493, 32.8642758922187 ], [ 131.975371388378903, 32.85686500011974 ], [ 131.96162138831653, 32.846844720607407 ], [ 131.953487782135539, 32.855844999846909 ], [ 131.949678105560224, 32.854936198047142 ], [ 131.956649078991859, 32.841266198076653 ], [ 131.942397172691471, 32.836774197771035 ], [ 131.944772775942965, 32.8339500000925 ], [ 131.957781219327899, 32.836502386675875 ], [ 131.962811336174241, 32.818779413838911 ], [ 131.967894163185179, 32.822063612945442 ], [ 131.967240558405138, 32.832791945791712 ], [ 131.963199999780272, 32.838299829273751 ], [ 131.966797496607228, 32.838182224929767 ], [ 131.973680000131935, 32.827807494720162 ], [ 131.977559170019731, 32.828517495086373 ], [ 131.977525940070109, 32.824965441002348 ], [ 131.981970895040831, 32.825000000149942 ], [ 131.987212776148795, 32.832512225159121 ], [ 131.975998053967032, 32.84073416185214 ], [ 131.98012894859221, 32.84475836001036 ], [ 131.974758054340782, 32.844552774990632 ], [ 131.986059169894816, 32.846288613129047 ], [ 132.01044111526528, 32.834742224574029 ], [ 132.007974449361427, 32.82663138742862 ], [ 131.973853332765202, 32.806938053948102 ], [ 131.971794994143693, 32.802586386552548 ], [ 131.976993332776146, 32.79951416214891 ], [ 131.976766939242907, 32.79537972059768 ], [ 131.971195837018286, 32.791704721096039 ], [ 131.963203332667717, 32.794312225329008 ], [ 131.962721218709362, 32.800322747996461 ], [ 131.966569235182078, 32.800224622068697 ], [ 131.963329610972778, 32.805609865003305 ], [ 131.94721805416998, 32.806263333086406 ], [ 131.948682750308762, 32.796875440649103 ], [ 131.936663332746662, 32.784472775198481 ], [ 131.92974022033502, 32.785228134670717 ], [ 131.927479559434232, 32.792661251715458 ], [ 131.922063306976156, 32.793961774816125 ], [ 131.922968053732802, 32.797132224972245 ], [ 131.926811414415283, 32.796547135042317 ], [ 131.925272335350087, 32.801085251683048 ], [ 131.917452335357098, 32.79637422509046 ], [ 131.920197782102036, 32.785255278908039 ], [ 131.907414253764841, 32.793874748321002 ], [ 131.902711946099544, 32.784933333306753 ], [ 131.896385550952459, 32.787152774680862 ], [ 131.900514449082607, 32.794238613121536 ], [ 131.896076641024251, 32.79612674785119 ], [ 131.899654279921151, 32.80222169437576 ], [ 131.89470405974464, 32.800635305574929 ], [ 131.894857302422679, 32.805213198330478 ], [ 131.88998038868408, 32.804808918896526 ], [ 131.884886056646224, 32.791092612833893 ], [ 131.897037497382712, 32.779557775171213 ], [ 131.892405836859893, 32.773318332774863 ], [ 131.896504449420831, 32.764908332553546 ], [ 131.892618326874299, 32.764879720622673 ], [ 131.880268223200005, 32.790982532218152 ], [ 131.874698300885939, 32.790420667280046 ], [ 131.872922192005603, 32.786209161923352 ], [ 131.87564775563942, 32.788028720648981 ], [ 131.877199830807626, 32.779886667136054 ], [ 131.868590000328368, 32.773722333419016 ], [ 131.87985333266522, 32.765521666591667 ], [ 131.879709338615157, 32.762289135335379 ], [ 131.877630026004908, 32.755526468271967 ], [ 131.871667471376782, 32.751825586281825 ], [ 131.880353333239782, 32.748281666565731 ], [ 131.88465177695798, 32.750379134689354 ], [ 131.885968326876878, 32.747021999665606 ], [ 131.873544449117048, 32.740448054434239 ], [ 131.847009169737476, 32.735929999869654 ], [ 131.844150830196668, 32.747421946165957 ], [ 131.849805278890585, 32.755958332610987 ], [ 131.844209441712451, 32.77664055881479 ], [ 131.860078053859183, 32.806070558909198 ], [ 131.85879693902757, 32.821436666768818 ], [ 131.855276666984651, 32.823234162426729 ], [ 131.847970830089821, 32.817771945618858 ], [ 131.834499727780326, 32.819697775432019 ], [ 131.824427782216389, 32.829927224661731 ], [ 131.806660558238264, 32.822150278812387 ], [ 131.798151659571545, 32.824891108437953 ], [ 131.793900557964434, 32.821945279251281 ], [ 131.787799169596042, 32.827931108334042 ], [ 131.787272218138469, 32.833645000416482 ], [ 131.766811115440646, 32.838979721237195 ], [ 131.735728054406195, 32.831101667308133 ], [ 131.72947861244802, 32.799736945803431 ], [ 131.71589111538276, 32.788063054066754 ], [ 131.711141945844133, 32.77237833259403 ], [ 131.695598884680862, 32.77476222489679 ], [ 131.668858612035365, 32.766593332916045 ], [ 131.624512503249434, 32.774630558753358 ], [ 131.60108805437028, 32.772178333263525 ], [ 131.592511945769729, 32.775314162218876 ], [ 131.56836055779354, 32.754080828767258 ], [ 131.536616939320311, 32.758703053603085 ], [ 131.511286393552268, 32.770331107794448 ], [ 131.508744993986397, 32.784113053574629 ], [ 131.517465550794554, 32.800804162282304 ], [ 131.501799441690991, 32.810650828572932 ], [ 131.502479441573087, 32.8146822249048 ], [ 131.493163890601181, 32.815934440921751 ], [ 131.485999728404749, 32.821626667436817 ], [ 131.475255551302666, 32.837242495444855 ], [ 131.464510557616222, 32.831023053970796 ], [ 131.436970272360213, 32.828626108008507 ], [ 131.431271388164078, 32.818369162007286 ], [ 131.421209169667463, 32.811916108141929 ], [ 131.400223060745702, 32.813488332620523 ], [ 131.378284994257115, 32.809470829015595 ], [ 131.366360830188228, 32.803578613062598 ], [ 131.356435837443996, 32.805026946036776 ], [ 131.348636109069275, 32.810682224804907 ], [ 131.349736109433934, 32.82462889220966 ], [ 131.343811659980133, 32.831100559343383 ], [ 131.327610830175786, 32.833271386965009 ], [ 131.326446939274888, 32.838939161812903 ], [ 131.314405551275286, 32.850802494839343 ], [ 131.294242217704209, 32.857119721398078 ], [ 131.286833332892115, 32.865597775117294 ], [ 131.273438054222879, 32.870996387373452 ], [ 131.273392776055857, 32.881677225223825 ], [ 131.264168053912613, 32.879126666962179 ], [ 131.257386939056005, 32.88743110835901 ], [ 131.25322165975183, 32.898040279235545 ], [ 131.252980830301112, 32.924511945969584 ], [ 131.245803061362267, 32.939675000400996 ], [ 131.252630271869634, 32.946458054195887 ], [ 131.24678944227901, 32.95289833319157 ], [ 131.252988884629417, 32.956067494619219 ], [ 131.245981115436166, 32.960002224622997 ], [ 131.248578885407255, 32.964001386554799 ], [ 131.256115837276184, 32.963502225047705 ], [ 131.263214721282452, 32.977152224995223 ], [ 131.24712499372356, 32.982529721169726 ], [ 131.247302502808338, 32.995871107965286 ], [ 131.223625278783629, 33.0171641617967 ], [ 131.226538611867454, 33.019059721329143 ], [ 131.216724162889818, 33.053457224771137 ], [ 131.20426763884052, 33.061593359845745 ], [ 131.193301115154441, 33.077545558580709 ], [ 131.185759727829236, 33.073900000184892 ], [ 131.174548326843819, 33.083083892207924 ], [ 131.173184085876869, 33.104842305627926 ], [ 131.163585836617131, 33.11648916194531 ], [ 131.166928612165748, 33.128737494739653 ], [ 131.161217223795916, 33.140766667247931 ], [ 131.145298885435295, 33.150683891648328 ], [ 131.14893082989397, 33.1519549997235 ], [ 131.147841115075494, 33.155028054201409 ], [ 131.133871114760154, 33.160059720579682 ], [ 131.130852503440337, 33.166117224730215 ], [ 131.119886939330854, 33.168704441157104 ], [ 131.1170719462134, 33.178632774882715 ], [ 131.103891387877297, 33.187040828971135 ], [ 131.094689441964192, 33.185165559043355 ], [ 131.060347224345037, 33.195121667431067 ], [ 131.042218327214073, 33.194589441449637 ], [ 131.015543061163385, 33.177452775325378 ], [ 130.992217782324815, 33.18320305397782 ], [ 130.993297224187586, 33.177881667405074 ], [ 130.988950557921953, 33.17601389242725 ], [ 130.982057782340803, 33.157419721143242 ], [ 130.984402217788215, 33.142401107724993 ], [ 130.980604720731321, 33.143856387062669 ], [ 130.978332217557863, 33.140900278624997 ], [ 130.994609169577529, 33.129295278554309 ], [ 130.993512217914599, 33.120155829228167 ], [ 131.008981388080656, 33.108585828972878 ], [ 131.024050271802707, 33.087542224594017 ], [ 131.01449778184724, 33.079755558872023 ], [ 131.010781945930148, 33.070948053809673 ], [ 131.017743332588793, 33.063690828868687 ], [ 131.012644449082131, 33.054383333124349 ], [ 131.014535836659547, 33.047566107789692 ], [ 131.004863890656111, 33.039801667013364 ], [ 131.00329389110027, 33.032820279432428 ], [ 130.990851114986981, 33.023820000192927 ], [ 130.97027221818837, 33.023761386878562 ], [ 130.959685551047414, 33.035859720849487 ], [ 130.956981660175529, 33.047131945682793 ], [ 130.946819728447736, 33.052832775112506 ], [ 130.915851387631506, 33.053484720643382 ], [ 130.908001945633373, 33.064173333132885 ], [ 130.897191387772409, 33.065418332989736 ], [ 130.896794448604965, 33.072917495346189 ], [ 130.890642503049094, 33.075771667428569 ], [ 130.886196666742876, 33.087454720558981 ], [ 130.87673555060519, 33.091925279228292 ], [ 130.867309169882333, 33.090293613159758 ], [ 130.86336389083101, 33.095312224979239 ], [ 130.845744993836433, 33.092176946408983 ], [ 130.839807782103549, 33.100229440936005 ], [ 130.840149727727862, 33.105095829009372 ], [ 130.853322218245808, 33.109139162042766 ], [ 130.861647496934552, 33.11752582935361 ], [ 130.859458611825517, 33.121365000094727 ], [ 130.86622499398834, 33.126845558575724 ], [ 130.870727496576819, 33.146582775374839 ], [ 130.879646394365636, 33.152985279247275 ], [ 130.873591946111446, 33.16842610817838 ], [ 130.877966666728298, 33.174344161653778 ], [ 130.885718327239033, 33.176291945716798 ], [ 130.887496667337359, 33.186479440673679 ], [ 130.869599170265587, 33.193866387423896 ], [ 130.863677497018898, 33.193060828694342 ], [ 130.836489170438881, 33.210598891925372 ], [ 130.844897497021975, 33.222816386966713 ], [ 130.858016939230424, 33.22571444056905 ], [ 130.85940416327162, 33.229520559426305 ], [ 130.826261660147566, 33.236762494993229 ], [ 130.824851659876231, 33.253421107598115 ], [ 130.828703061397277, 33.257458053646303 ], [ 130.844528884700367, 33.257349721312664 ], [ 130.848739169676946, 33.2610286130801 ], [ 130.868047497094381, 33.264078054058984 ], [ 130.86747111529985, 33.268044441098141 ], [ 130.860617497099838, 33.26677555884504 ], [ 130.85207416339199, 33.277469161672514 ], [ 130.866348327013725, 33.292111666919936 ], [ 130.861490272058518, 33.302045559355122 ], [ 130.862148885163037, 33.309568891890876 ], [ 130.854288326645019, 33.32338916228008 ], [ 130.857298612041404, 33.326901387189309 ], [ 130.849483891068758, 33.337589441199782 ], [ 130.845028885274928, 33.338697494993426 ], [ 130.843982775884456, 33.333454441169579 ], [ 130.835348053969597, 33.343545559380118 ], [ 130.861157781906172, 33.361657495297209 ], [ 130.859719169704022, 33.372961666747585 ], [ 130.86268138813557, 33.376893613349637 ], [ 130.878579728271916, 33.376313332993959 ], [ 130.88622277586046, 33.379507494675181 ], [ 130.886673061012971, 33.402119162369502 ], [ 130.892011945694776, 33.406520278987728 ], [ 130.891070271875606, 33.427875558710127 ], [ 130.897652775954953, 33.438836386989692 ], [ 130.894920829832472, 33.446154999653572 ], [ 130.9279397283359, 33.458997224942038 ], [ 130.942418326744473, 33.485642495005209 ], [ 130.961586939086033, 33.493582495136081 ], [ 130.962606109284593, 33.49769082936831 ], [ 130.976766939442768, 33.50709694566757 ], [ 131.001956394172339, 33.512206387215031 ], [ 131.015157781706307, 33.509067495168836 ], [ 131.025662502622481, 33.512885000342521 ], [ 131.029586108911872, 33.518859161621037 ], [ 131.035813060624264, 33.51908166738508 ], [ 131.044137496648204, 33.510029721194712 ], [ 131.065158611680658, 33.509989161770477 ], [ 131.075700558234189, 33.505297494883507 ], [ 131.093569727560975, 33.507391945781706 ], [ 131.099422776240203, 33.504635558784059 ], [ 131.107590271573827, 33.507627775001879 ], [ 131.128013606342961, 33.501583332604753 ], [ 131.133625278783597, 33.505773333372701 ], [ 131.176855279447636, 33.506938054347756 ], [ 131.168384720678432, 33.515225558812517 ], [ 131.169805550585806, 33.522991107553651 ], [ 131.166274721401351, 33.527357495052399 ], [ 131.188516393616737, 33.547786946110705 ], [ 131.189800558049342, 33.562256667311374 ], [ 131.174551114742258, 33.576046386831365 ], [ 131.172342217919095, 33.583033333121875 ], [ 131.178379728341838, 33.596817494831555 ], [ 131.177915551361707, 33.604824721084071 ], [ 131.187959079248117, 33.619735081308988 ], [ 131.189195719906593, 33.614790999904756 ], [ 131.188807977206466, 33.6197004142428 ], [ 131.204554384077596, 33.617078946236404 ], [ 131.216640441403342, 33.609016224619097 ], [ 131.213857976764302, 33.605151918726108 ], [ 131.221183410785898, 33.606372198018562 ], [ 131.232938003186405, 33.601404531893706 ], [ 131.238531608247172, 33.601158278631715 ], [ 131.238761478559468, 33.608992999627276 ], [ 131.245343605822768, 33.6152526129178 ], [ 131.239376200251513, 33.606316279073098 ], [ 131.246679079276191, 33.611481251958253 ], [ 131.253117393253206, 33.606875224811802 ], [ 131.254060220003225, 33.612406279326365 ], [ 131.25766902670432, 33.612623640068989 ], [ 131.254734136870979, 33.616142612591545 ], [ 131.258645253375789, 33.603470279130136 ], [ 131.255734746861094, 33.598952559113343 ], [ 131.268073385078765, 33.592642946215051 ], [ 131.267056251844565, 33.589011494584838 ], [ 131.273025668299965, 33.58769094628019 ], [ 131.273451724817278, 33.583406891714731 ], [ 131.278810660783392, 33.580847054248181 ], [ 131.329617497349659, 33.582160891811782 ], [ 131.334789053272289, 33.580932197562902 ], [ 131.335294358048259, 33.576887135133234 ], [ 131.338265057986064, 33.58013477499992 ], [ 131.3350354989891, 33.576402774668395 ], [ 131.340789883046682, 33.571049972977903 ], [ 131.364566977683921, 33.579052829424597 ], [ 131.364337173022136, 33.57659177529024 ], [ 131.371520025828545, 33.578204414402251 ], [ 131.372327833762597, 33.575651026873459 ], [ 131.372482581006352, 33.581242252328138 ], [ 131.379292139620588, 33.5762937210784 ], [ 131.400658495393259, 33.573746558656808 ], [ 131.403461750559359, 33.574443467592005 ], [ 131.401658444381724, 33.579236640058923 ], [ 131.403427834427134, 33.572792162128621 ], [ 131.412749856920414, 33.573615306201475 ], [ 131.409265616215293, 33.579350666899813 ], [ 131.412937781953133, 33.573648973221566 ], [ 131.420129441820336, 33.573548494667364 ], [ 131.421333087252265, 33.568926224865436 ], [ 131.431127445375409, 33.568244467708098 ], [ 131.434526782884745, 33.57034572107824 ], [ 131.424639494217331, 33.579001053655759 ], [ 131.423073061372747, 33.59488838698951 ], [ 131.42350775587829, 33.582132829366628 ], [ 131.430583138800898, 33.574073161846968 ], [ 131.424516446277039, 33.582165197765733 ], [ 131.424004500907017, 33.593063559135999 ], [ 131.462251751117492, 33.61919180176028 ], [ 131.469721970592559, 33.614501694297815 ], [ 131.464376278042891, 33.61936741417486 ], [ 131.46793418941138, 33.615913441052498 ], [ 131.471923411136572, 33.617973640371247 ], [ 131.475091919656393, 33.630580027446342 ], [ 131.478664280432213, 33.632870559328921 ], [ 131.475633995012913, 33.63470008074421 ], [ 131.479716393696663, 33.63225980184842 ], [ 131.475960362580736, 33.635066801791538 ], [ 131.479509948025793, 33.633150225102838 ], [ 131.484306381434408, 33.636991422915912 ], [ 131.479256589220313, 33.638704892217049 ], [ 131.485898417977637, 33.644134108402454 ], [ 131.48519741892585, 33.647791946141467 ], [ 131.494582607101734, 33.64367644071524 ], [ 131.497792943989225, 33.645576441099934 ], [ 131.495123022309713, 33.654501494748217 ], [ 131.504975654702776, 33.656537576947642 ], [ 131.496878832592074, 33.663788666713629 ], [ 131.499891996718361, 33.671280108390363 ], [ 131.506842361285976, 33.670552748410671 ], [ 131.506720778341332, 33.674885252152706 ], [ 131.516829468405263, 33.669483666737904 ], [ 131.521527081609634, 33.675759829352671 ], [ 131.525629831051901, 33.674014080685311 ], [ 131.524791504624318, 33.676414586164299 ], [ 131.528616666625908, 33.672363829227379 ], [ 131.52216369639757, 33.684201667373088 ], [ 131.534214332125771, 33.676627053695597 ], [ 131.537552801720494, 33.679940026611007 ], [ 131.544012309120831, 33.677196532294204 ], [ 131.551166666908216, 33.682603612566709 ], [ 131.555600920845905, 33.681151306387733 ], [ 131.555451946350331, 33.685786666721356 ], [ 131.560468910611803, 33.686880027391396 ], [ 131.567830000054528, 33.679102801852878 ], [ 131.566339623774638, 33.674738667155793 ], [ 131.575509882974757, 33.675066720952486 ], [ 131.573550726085159, 33.686753865098865 ], [ 131.585478612448014, 33.692585829172742 ], [ 131.585584449163093, 33.692608054118466 ] ] ], [ [ [ 131.671540271666231, 33.738790000258348 ], [ 131.683845473090173, 33.738136360404781 ], [ 131.681030116646639, 33.737545306171 ], [ 131.685074162842398, 33.73349333335068 ], [ 131.695562723840681, 33.734506468199015 ], [ 131.701564086013832, 33.730202802117674 ], [ 131.693408780990467, 33.729014532394785 ], [ 131.690170271940588, 33.732378306213889 ], [ 131.66700291765062, 33.717027774612177 ], [ 131.657669078964886, 33.721394865380773 ], [ 131.650558716012029, 33.719826053829365 ], [ 131.652886303560081, 33.722321387422141 ], [ 131.648810660583536, 33.718561332739341 ], [ 131.651383476166529, 33.722193135105158 ], [ 131.643986472297911, 33.720851720730366 ], [ 131.64729082970814, 33.718323802001919 ], [ 131.643918248828186, 33.720807162020947 ], [ 131.631038106323558, 33.718585386906113 ], [ 131.640106225921613, 33.728094495364701 ], [ 131.640507223729401, 33.724956053878827 ], [ 131.642719727733265, 33.733012494630998 ], [ 131.648899779801013, 33.731238829208678 ], [ 131.647869339298609, 33.728689639715128 ], [ 131.654926718693218, 33.730164640285977 ], [ 131.667278054438725, 33.740133054097214 ], [ 131.671421387586975, 33.738802775128022 ], [ 131.671540271666231, 33.738790000258348 ] ] ] ] } }
]
}
