{
"type": "FeatureCollection",
"name": "10_gunma_region",
"crs": { "type": "name", "properties": { "name": "urn:ogc:def:crs:OGC:1.3:CRS84" } },
"features": [
{ "type": "Feature", "properties": { "regioncode": "1020100", "regionname": "群馬県前橋市", "name": "前橋市", "namekana": "まえばしし", "PrefCode": "10" }, "geometry": { "type": "Polygon", "coordinates": [ [ [ 139.1726990268387, 36.562202774838227 ], [ 139.193883528002516, 36.558458053596325 ], [ 139.195229584677691, 36.543708054183412 ], [ 139.190070895355575, 36.53783197386656 ], [ 139.192584772968985, 36.528887531734256 ], [ 139.188684189323908, 36.526066135443841 ], [ 139.211085576638084, 36.476525585687284 ], [ 139.21089080416732, 36.460430865092405 ], [ 139.215761336316632, 36.446765027184313 ], [ 139.212201023758325, 36.441715585705765 ], [ 139.217226886811432, 36.442909468097525 ], [ 139.219666278076375, 36.42579141434237 ], [ 139.224662969820315, 36.426220306422067 ], [ 139.229947665852137, 36.414636973717393 ], [ 139.225476834688266, 36.414841973278499 ], [ 139.226544578169865, 36.403796694162168 ], [ 139.217405913951779, 36.401660027288472 ], [ 139.216110052037379, 36.395303639751205 ], [ 139.207058339670652, 36.390779198201471 ], [ 139.202974384260528, 36.375220053562657 ], [ 139.191631556351354, 36.37294033332978 ], [ 139.186979000980159, 36.359842278798169 ], [ 139.165779467648349, 36.345035613103107 ], [ 139.166566666718381, 36.337558666699181 ], [ 139.151174695256032, 36.342190613206299 ], [ 139.141680219666455, 36.334503387321547 ], [ 139.11998905305245, 36.334227558954751 ], [ 139.126448494802275, 36.327368945920171 ], [ 139.108751802853476, 36.327085892400078 ], [ 139.10792399489651, 36.321267559350417 ], [ 139.111594501385184, 36.316602052842541 ], [ 139.105435356756402, 36.316500054434016 ], [ 139.078254553005308, 36.331641413620389 ], [ 139.071258469602753, 36.35173836013729 ], [ 139.063239857033864, 36.352724467660096 ], [ 139.062575694213024, 36.356143359128794 ], [ 139.055526252234813, 36.355726973920753 ], [ 139.057680972998583, 36.35349669391735 ], [ 139.055212607376006, 36.351374468357108 ], [ 139.044685667809404, 36.351393918894303 ], [ 139.044635383116542, 36.356229468315348 ], [ 139.049462917779465, 36.35924308120326 ], [ 139.04473260702423, 36.35917336036232 ], [ 139.0442965239655, 36.363903359952133 ], [ 139.034638716203858, 36.371079748431669 ], [ 139.035705135883404, 36.378853359594927 ], [ 139.030858443862144, 36.374595585917632 ], [ 139.022875668377424, 36.376467252261932 ], [ 139.027452892037445, 36.379441973068651 ], [ 139.027561245055495, 36.386432802631816 ], [ 139.020511803077284, 36.391476413805492 ], [ 139.023106005437853, 36.394881693135687 ], [ 139.03051350169676, 36.394362531605623 ], [ 139.02634686081899, 36.402813918627487 ], [ 139.028243838582398, 36.406635864653481 ], [ 139.017452995659255, 36.41229864017015 ], [ 139.014786861024845, 36.405330026559511 ], [ 139.007195031625429, 36.406786504693514 ], [ 139.002431607832477, 36.419338918955987 ], [ 139.005885552176551, 36.430328081276002 ], [ 139.003894747244885, 36.434956134617948 ], [ 139.012571141045441, 36.432713360333366 ], [ 139.023471633808867, 36.417184198192217 ], [ 139.030645005962356, 36.420617801670289 ], [ 139.030208392303507, 36.430294468215209 ], [ 139.035491698882879, 36.422918082203807 ], [ 139.033911439861072, 36.432331694352285 ], [ 139.040367664735982, 36.45114002659102 ], [ 139.049321854619961, 36.455734197974891 ], [ 139.05322219185075, 36.469199747870107 ], [ 139.063599196445807, 36.476018639648544 ], [ 139.076163721878288, 36.494043081423115 ], [ 139.100922165725478, 36.516924468389561 ], [ 139.114818560128469, 36.520635585563866 ], [ 139.118375252915598, 36.52597474813615 ], [ 139.135310532954804, 36.534205865108618 ], [ 139.15187839317332, 36.554446945969858 ], [ 139.162446446146646, 36.555401972922766 ], [ 139.172491140453872, 36.562252721386017 ], [ 139.1726990268387, 36.562202774838227 ] ] ] } },
{ "type": "Feature", "properties": { "regioncode": "1020200", "regionname": "群馬県高崎市", "name": "高崎市", "namekana": "たかさきし", "PrefCode": "10" }, "geometry": { "type": "MultiPolygon", "coordinates": [ [ [ [ 139.11569007783487, 36.283106108060508 ], [ 139.129663891275641, 36.283397558550519 ], [ 139.106980142919269, 36.260714775166775 ], [ 139.100695694850515, 36.261852000269641 ], [ 139.099381556014009, 36.26563172132694 ], [ 139.105732411821464, 36.270160892411297 ], [ 139.097396304395943, 36.278358107640599 ], [ 139.111175526129728, 36.281559278637872 ], [ 139.111267301944508, 36.284844198101325 ], [ 139.115223359370589, 36.283332837940179 ], [ 139.11569007783487, 36.283106108060508 ] ] ], [ [ [ 138.87714260734549, 36.483105053655379 ], [ 138.882956497744203, 36.479873107857713 ], [ 138.895620751696356, 36.482220027232529 ], [ 138.900163216559235, 36.474580666864313 ], [ 138.907947885786371, 36.474481171269076 ], [ 138.904730894814975, 36.464425892840723 ], [ 138.899960051615153, 36.463718386294545 ], [ 138.901923644860403, 36.457785306047072 ], [ 138.924880557791539, 36.448008919076415 ], [ 138.950579947906363, 36.426755865291 ], [ 138.9583246692481, 36.426925305658358 ], [ 138.957015720399227, 36.418758919188804 ], [ 138.962861555616314, 36.412130305968901 ], [ 138.966248248657848, 36.418813080859024 ], [ 138.975261283881196, 36.412580865414668 ], [ 138.978594916022644, 36.416065026979481 ], [ 138.981646834633807, 36.413394467680575 ], [ 138.982018249242856, 36.418049468308368 ], [ 138.985984085896916, 36.416671413754784 ], [ 138.988336886837942, 36.420580864715191 ], [ 138.983158300914965, 36.426448918582764 ], [ 139.003373280752385, 36.419119747878142 ], [ 139.009745446894954, 36.405435586283318 ], [ 139.016322697134797, 36.40642169380618 ], [ 139.01573077775322, 36.41165141428138 ], [ 139.021519104922845, 36.411710026696426 ], [ 139.028243838582398, 36.406635864653481 ], [ 139.026838521081004, 36.400903081412139 ], [ 139.03061075168489, 36.397606414104757 ], [ 139.03051350169676, 36.394362531605623 ], [ 139.023106005437853, 36.394881693135687 ], [ 139.020542361141111, 36.391568080802358 ], [ 139.027561245055495, 36.386432802631816 ], [ 139.027452892037445, 36.379441973068651 ], [ 139.022875668377424, 36.376467252261932 ], [ 139.030858443862144, 36.374595585917632 ], [ 139.035705135883404, 36.378853359594927 ], [ 139.034638716203858, 36.371079748431669 ], [ 139.0442965239655, 36.363903359952133 ], [ 139.04473260702423, 36.35917336036232 ], [ 139.049462917779465, 36.35924308120326 ], [ 139.044635383116542, 36.356229468315348 ], [ 139.044685667809404, 36.351393918894303 ], [ 139.055212607376006, 36.351374468357108 ], [ 139.057680972998583, 36.35349669391735 ], [ 139.055526252234813, 36.355726973920753 ], [ 139.062575694213024, 36.356143359128794 ], [ 139.063239857033864, 36.352724467660096 ], [ 139.071258469602753, 36.35173836013729 ], [ 139.077589830806119, 36.332396972742174 ], [ 139.092987886182073, 36.324309505379404 ], [ 139.087635330006492, 36.312350053712066 ], [ 139.100741141190724, 36.29924810781398 ], [ 139.096444694866818, 36.288158946278372 ], [ 139.07649357971502, 36.29114227989237 ], [ 139.056093799988957, 36.284642802123699 ], [ 139.056086808659302, 36.272351134597216 ], [ 139.040703190999579, 36.270395027308723 ], [ 139.03260255486407, 36.260440305675615 ], [ 139.020103332802591, 36.257323613394078 ], [ 139.020076640924344, 36.253757775401084 ], [ 139.024278340972728, 36.255160838302118 ], [ 139.027426913321506, 36.248804439972957 ], [ 139.016721505093415, 36.232157505964153 ], [ 139.018590636248973, 36.222496108108942 ], [ 138.997283644724462, 36.22385719785143 ], [ 138.991898858645527, 36.216890801968987 ], [ 138.983314916050631, 36.215275532340002 ], [ 138.981520998795077, 36.206394666880442 ], [ 138.975834279728247, 36.201584945988543 ], [ 138.966641479021064, 36.203600252050023 ], [ 138.952633060567337, 36.198593306236148 ], [ 138.94292330706503, 36.19926080194449 ], [ 138.95301817095185, 36.218285531751917 ], [ 138.963488780582793, 36.223239973346153 ], [ 138.958350441120047, 36.228886667185975 ], [ 138.960610752184493, 36.234060278958736 ], [ 138.953401362183172, 36.247196667092567 ], [ 138.957993087411069, 36.256821108207646 ], [ 138.954845863146147, 36.259820278882842 ], [ 138.951294449379361, 36.256591945661796 ], [ 138.952468910911534, 36.263068053647828 ], [ 138.938923890625119, 36.268663918704931 ], [ 138.939972528009775, 36.274462532320058 ], [ 138.937153916919783, 36.274088080700437 ], [ 138.948578171245686, 36.284225307152269 ], [ 138.948189363748156, 36.299185306356833 ], [ 138.95381219227886, 36.305707802273332 ], [ 138.944559197249191, 36.326036135359402 ], [ 138.936593358696655, 36.333426135307946 ], [ 138.951100635585931, 36.33481446821321 ], [ 138.937350336948612, 36.339446973199301 ], [ 138.9391945272057, 36.341550865180352 ], [ 138.934591192629455, 36.349212774250191 ], [ 138.922603695604153, 36.353982774785266 ], [ 138.915303671027687, 36.350260838766758 ], [ 138.862027833917409, 36.37425469429877 ], [ 138.843121362261172, 36.370864666571151 ], [ 138.823662437971166, 36.373521864642385 ], [ 138.778636030728308, 36.390862333330062 ], [ 138.751953256237812, 36.406646251823133 ], [ 138.717349611095756, 36.415422721281629 ], [ 138.703995939561082, 36.408186640301267 ], [ 138.682746473171278, 36.416011693584835 ], [ 138.653521673186788, 36.407312611687757 ], [ 138.648387471504634, 36.407467613439678 ], [ 138.643826395172027, 36.413140946097826 ], [ 138.647189493600308, 36.424810081320231 ], [ 138.642673411249007, 36.438194532152011 ], [ 138.657669339268637, 36.453903135121664 ], [ 138.66206488998273, 36.453664505412632 ], [ 138.670400506378314, 36.462629224559123 ], [ 138.681778585913094, 36.465371720628468 ], [ 138.688176135420349, 36.473932001160961 ], [ 138.697673086843565, 36.473040306265148 ], [ 138.722760389380483, 36.482275027070898 ], [ 138.734667327834927, 36.47684444121802 ], [ 138.774448274668202, 36.478130837767992 ], [ 138.77379518789769, 36.464969693996238 ], [ 138.780794112258491, 36.468644973186997 ], [ 138.780022476855834, 36.473419134885205 ], [ 138.791589170304064, 36.476758892309078 ], [ 138.826786251984004, 36.473010559389877 ], [ 138.85074691263992, 36.477181412692119 ], [ 138.860564475070532, 36.473458359715607 ], [ 138.865509493568311, 36.481178386573333 ], [ 138.876955382884717, 36.483172278877646 ], [ 138.87714260734549, 36.483105053655379 ] ] ] ] } },
{ "type": "Feature", "properties": { "regioncode": "1020300", "regionname": "群馬県桐生市", "name": "桐生市", "namekana": "きりゅうし", "PrefCode": "10" }, "geometry": { "type": "MultiPolygon", "coordinates": [ [ [ [ 139.443057860831686, 36.555966999877171 ], [ 139.451100636385377, 36.549707025958526 ], [ 139.439046445637018, 36.55068533276193 ], [ 139.437830830228677, 36.535995054628131 ], [ 139.434485524887123, 36.533742001092548 ], [ 139.442848340378646, 36.531583109273129 ], [ 139.430261025226173, 36.513209774611482 ], [ 139.421726808845165, 36.509004774950483 ], [ 139.423967638795602, 36.506328666834577 ], [ 139.419029274381614, 36.502278108647829 ], [ 139.417920079348278, 36.494711170684013 ], [ 139.422568690292906, 36.493662559379686 ], [ 139.421677588050329, 36.490406440704703 ], [ 139.42808119359222, 36.490417836913707 ], [ 139.425910894772073, 36.484595054018598 ], [ 139.42965977987501, 36.48194617107896 ], [ 139.430985576623129, 36.471470586398482 ], [ 139.438026446263507, 36.474914747917353 ], [ 139.436474720931642, 36.465975306015594 ], [ 139.42964219183375, 36.461501972937754 ], [ 139.431173022317239, 36.457569198060071 ], [ 139.420616328680694, 36.456994505192313 ], [ 139.414741050559087, 36.461856440722215 ], [ 139.408237691316458, 36.457968667020396 ], [ 139.411786005120121, 36.449788946302874 ], [ 139.405003191444166, 36.445028974107913 ], [ 139.402526472019076, 36.436815359741104 ], [ 139.394480609992229, 36.434369801824971 ], [ 139.391815005957824, 36.424377027178139 ], [ 139.378485188041054, 36.414369838197501 ], [ 139.375459274226159, 36.400309027040009 ], [ 139.361025227332448, 36.385234278838936 ], [ 139.367795278729204, 36.375813197820889 ], [ 139.368937173112158, 36.363564305648254 ], [ 139.363804644169022, 36.361586801689612 ], [ 139.359008249431213, 36.364410720578348 ], [ 139.350704032864883, 36.358526278365105 ], [ 139.34148066060402, 36.36053241403971 ], [ 139.327563722088144, 36.37456853161251 ], [ 139.31365394307511, 36.377577171249527 ], [ 139.315465720866428, 36.396791053664231 ], [ 139.286011751141473, 36.409624134646151 ], [ 139.28349289218329, 36.413826639587796 ], [ 139.288129559231834, 36.41266830559789 ], [ 139.288860973355327, 36.417753026580954 ], [ 139.290782087123716, 36.414653585994245 ], [ 139.290589585441126, 36.41813997338113 ], [ 139.295060440886687, 36.417376919309447 ], [ 139.28383933891439, 36.42835053235126 ], [ 139.292041335839031, 36.431367198437499 ], [ 139.290302724191406, 36.435584694178374 ], [ 139.294320000267817, 36.44575050468211 ], [ 139.300675331101729, 36.447406613424505 ], [ 139.304883475691895, 36.45983797264438 ], [ 139.317957134314383, 36.462859081381566 ], [ 139.322156354931849, 36.467171559020301 ], [ 139.320282192069612, 36.471345999718153 ], [ 139.331562023368747, 36.47899374806309 ], [ 139.334729882578131, 36.491738720665467 ], [ 139.358972775673124, 36.500223972558331 ], [ 139.35950311307829, 36.51209894640931 ], [ 139.375495084330737, 36.514906720668648 ], [ 139.378127613098968, 36.521099505337929 ], [ 139.384704553072766, 36.519745333180651 ], [ 139.386469027423686, 36.524968666670702 ], [ 139.407835161963249, 36.526520332647294 ], [ 139.429088079951043, 36.552666441203371 ], [ 139.442785357258458, 36.556084775092359 ], [ 139.443057860831686, 36.555966999877171 ] ] ], [ [ [ 139.297725084445119, 36.59515208110372 ], [ 139.300735356351652, 36.593094306357216 ], [ 139.299629494205874, 36.584182945786381 ], [ 139.319057561857107, 36.560624559076189 ], [ 139.314960558183316, 36.544121531883263 ], [ 139.296968223105068, 36.534155171224199 ], [ 139.290190895293676, 36.518942693650445 ], [ 139.283054746079756, 36.518615469028703 ], [ 139.279973605797295, 36.514196586303456 ], [ 139.304467561728643, 36.502286558677781 ], [ 139.297206082994421, 36.490334919421059 ], [ 139.28300185515161, 36.4929771707599 ], [ 139.26329946819601, 36.479055802183552 ], [ 139.251286693026486, 36.480493747088815 ], [ 139.248953021564716, 36.484187748365969 ], [ 139.237586004590526, 36.48252055907659 ], [ 139.231800997717983, 36.486580838035309 ], [ 139.236347912426254, 36.475318333074654 ], [ 139.239573216730605, 36.474570278795397 ], [ 139.236366226220412, 36.468898332891797 ], [ 139.264402969621415, 36.451844972767333 ], [ 139.264644033795207, 36.44014913487473 ], [ 139.260188170947345, 36.437838333172579 ], [ 139.267875109948477, 36.430596359834169 ], [ 139.273961166674553, 36.412900532133904 ], [ 139.266778080044446, 36.41384972068812 ], [ 139.24560769104221, 36.405550559211008 ], [ 139.23608788604713, 36.39275197262549 ], [ 139.232096226259955, 36.397598640365004 ], [ 139.234150440590383, 36.404703918551036 ], [ 139.22480070009226, 36.405529468310363 ], [ 139.225476834688266, 36.414841973278499 ], [ 139.228902114041375, 36.412994198323645 ], [ 139.229586588949928, 36.418784747718007 ], [ 139.224604915884242, 36.426271135204786 ], [ 139.219666278076375, 36.42579141434237 ], [ 139.217226886811432, 36.442909468097525 ], [ 139.212201023758325, 36.441715585705765 ], [ 139.215761336316632, 36.446765027184313 ], [ 139.21089080416732, 36.460430865092405 ], [ 139.211085576638084, 36.476525585687284 ], [ 139.188684189323908, 36.526066135443841 ], [ 139.192584772968985, 36.528887531734256 ], [ 139.190070895355575, 36.53783197386656 ], [ 139.195229584677691, 36.543708054183412 ], [ 139.193706615168253, 36.56165861305459 ], [ 139.189469662594888, 36.566555560091103 ], [ 139.195504720566419, 36.571226108198402 ], [ 139.229772750412167, 36.577263305657084 ], [ 139.242275940282525, 36.588331918583208 ], [ 139.255216030695351, 36.588516053872866 ], [ 139.260307471412716, 36.592092440913461 ], [ 139.274541167341113, 36.591594107681999 ], [ 139.280451167387582, 36.587334081202926 ], [ 139.297662865748748, 36.595172639605664 ], [ 139.297725084445119, 36.59515208110372 ] ] ] ] } },
{ "type": "Feature", "properties": { "regioncode": "1020400", "regionname": "群馬県伊勢崎市", "name": "伊勢崎市", "namekana": "いせさきし", "PrefCode": "10" }, "geometry": { "type": "Polygon", "coordinates": [ [ [ 139.254297197857454, 36.407854170833389 ], [ 139.250127108079596, 36.39520222500272 ], [ 139.267641050594079, 36.392445558315899 ], [ 139.266295162991469, 36.378309170831642 ], [ 139.273147951117153, 36.367163334020688 ], [ 139.271649559179878, 36.360302225367434 ], [ 139.267159558966569, 36.36096138705841 ], [ 139.268949248509102, 36.352599999690312 ], [ 139.264589494409734, 36.347547505013381 ], [ 139.265554448978719, 36.337536666583958 ], [ 139.261758029309703, 36.330350279441916 ], [ 139.269047755749398, 36.324207224583802 ], [ 139.267446523638228, 36.302643613312171 ], [ 139.257713448916547, 36.303064441171102 ], [ 139.255762308583712, 36.295036413599632 ], [ 139.275863969346801, 36.280086386977246 ], [ 139.268755279132847, 36.264685026592758 ], [ 139.27164968868226, 36.256459468329865 ], [ 139.280249442257968, 36.256649171322238 ], [ 139.282813579383287, 36.253470000440245 ], [ 139.272649390357174, 36.249241414259927 ], [ 139.266843799801563, 36.250520585656545 ], [ 139.265718495212468, 36.242478918966981 ], [ 139.237473994929019, 36.24620474815066 ], [ 139.22400403385916, 36.258301693568342 ], [ 139.211634527311617, 36.256247559277483 ], [ 139.210765668001272, 36.26152533322761 ], [ 139.198001751179959, 36.26224755897772 ], [ 139.171367561663715, 36.27372172118055 ], [ 139.154332088155456, 36.302831441218075 ], [ 139.140751505078015, 36.307735054029592 ], [ 139.144041803386585, 36.308612278833664 ], [ 139.137755694269913, 36.317962558924989 ], [ 139.1362507516709, 36.331444775056355 ], [ 139.136178520822114, 36.334343387137665 ], [ 139.141680219666455, 36.334503387321547 ], [ 139.151174695256032, 36.342190613206299 ], [ 139.166566666718381, 36.337558666699181 ], [ 139.165779467648349, 36.345035613103107 ], [ 139.186979000980159, 36.359842278798169 ], [ 139.191631556351354, 36.37294033332978 ], [ 139.202974384260528, 36.375220053562657 ], [ 139.207058339670652, 36.390779198201471 ], [ 139.216110052037379, 36.395303639751205 ], [ 139.217405913951779, 36.401660027288472 ], [ 139.234150440590383, 36.404703918551036 ], [ 139.232096226259955, 36.397598640365004 ], [ 139.23608788604713, 36.39275197262549 ], [ 139.24560769104221, 36.405550559211008 ], [ 139.254098301095837, 36.407910559225002 ], [ 139.254297197857454, 36.407854170833389 ] ] ] } },
{ "type": "Feature", "properties": { "regioncode": "1020500", "regionname": "群馬県太田市", "name": "太田市", "namekana": "おおたし", "PrefCode": "10" }, "geometry": { "type": "Polygon", "coordinates": [ [ [ 139.316519805444727, 36.376796890664025 ], [ 139.327563722088144, 36.37456853161251 ], [ 139.341357055983394, 36.360616306397446 ], [ 139.350704032864883, 36.358526278365105 ], [ 139.358826860671115, 36.364345440589659 ], [ 139.36433907888545, 36.361636802196699 ], [ 139.370346355000379, 36.366081802133522 ], [ 139.388016641055174, 36.355047332868196 ], [ 139.393455810037722, 36.347754000147063 ], [ 139.419365550679686, 36.335451467910957 ], [ 139.42670858623228, 36.324707027307511 ], [ 139.421713553737618, 36.322472305552537 ], [ 139.419047471263866, 36.327077865051479 ], [ 139.414836615217723, 36.325186467581489 ], [ 139.418198559815778, 36.32141702667451 ], [ 139.416733217064348, 36.313699838077127 ], [ 139.429163217408586, 36.306178413902728 ], [ 139.426715447160177, 36.303950107911191 ], [ 139.431444616675776, 36.30123705384699 ], [ 139.430486523933951, 36.295584000001668 ], [ 139.435509857194234, 36.291984000361367 ], [ 139.437105446958867, 36.297009000964692 ], [ 139.443532943890318, 36.293693693409296 ], [ 139.443649299075901, 36.288360945701129 ], [ 139.434785668224094, 36.287650386855944 ], [ 139.430216445832343, 36.282613197740943 ], [ 139.434886394091905, 36.267669306293499 ], [ 139.413904384279931, 36.270888774897116 ], [ 139.405962724000574, 36.276451278703576 ], [ 139.398656004870759, 36.269551558557623 ], [ 139.402528755397839, 36.264544612743748 ], [ 139.388460389035799, 36.267334081302863 ], [ 139.382442528799743, 36.252539945861884 ], [ 139.385271088190279, 36.244577441096055 ], [ 139.382918833137751, 36.237869108372706 ], [ 139.376452437829812, 36.244626892117424 ], [ 139.350995472563113, 36.254373586172107 ], [ 139.340248716205338, 36.24386413482199 ], [ 139.322266226005581, 36.236594775328683 ], [ 139.30837658910832, 36.237631135168783 ], [ 139.298482087878142, 36.243275026721165 ], [ 139.272649390357174, 36.249241414259927 ], [ 139.28281358028255, 36.253320559196482 ], [ 139.280249442257968, 36.256649171322238 ], [ 139.27164968868226, 36.256459468329865 ], [ 139.268755279132847, 36.264685026592758 ], [ 139.275863969346801, 36.280086386977246 ], [ 139.255762308583712, 36.295036413599632 ], [ 139.257713448916547, 36.303064441171102 ], [ 139.267446523638228, 36.302643613312171 ], [ 139.269047755749398, 36.324207224583802 ], [ 139.261758029309703, 36.330350279441916 ], [ 139.265554448978719, 36.337536666583958 ], [ 139.264589494409734, 36.347547505013381 ], [ 139.268949248509102, 36.352599999690312 ], [ 139.267159558966569, 36.36096138705841 ], [ 139.271649559179878, 36.360302225367434 ], [ 139.273082386942633, 36.368684720723309 ], [ 139.279233256010002, 36.368955000273104 ], [ 139.279607691441925, 36.373236918948692 ], [ 139.296731362362493, 36.371747747760423 ], [ 139.311652282426962, 36.37873438738211 ], [ 139.316392308558306, 36.376836891609287 ], [ 139.316519805444727, 36.376796890664025 ] ] ] } },
{ "type": "Feature", "properties": { "regioncode": "1020600", "regionname": "群馬県沼田市", "name": "沼田市", "namekana": "ぬまたし", "PrefCode": "10" }, "geometry": { "type": "Polygon", "coordinates": [ [ [ 139.114298884186269, 36.796859359971563 ], [ 139.121140026091439, 36.794321027093758 ], [ 139.116399662714343, 36.778992694357385 ], [ 139.09278727621188, 36.758737720769261 ], [ 139.084389948337503, 36.739926892012534 ], [ 139.08402700444276, 36.704482171215261 ], [ 139.079860336585284, 36.701347999710492 ], [ 139.082165551698949, 36.690172720894395 ], [ 139.087865577134721, 36.689784667028789 ], [ 139.077234332398575, 36.664224386746127 ], [ 139.073492087889576, 36.662716333392098 ], [ 139.093035252574964, 36.674121054443162 ], [ 139.09570994785588, 36.669220775418523 ], [ 139.106443891572439, 36.672606586225015 ], [ 139.110162309443126, 36.687682694201044 ], [ 139.138157666043526, 36.689356559157943 ], [ 139.145695719581909, 36.684861279024858 ], [ 139.160656394177295, 36.697114054470092 ], [ 139.173476419701046, 36.697937360420894 ], [ 139.177344811214084, 36.707754027126725 ], [ 139.199676305017533, 36.7184289995987 ], [ 139.208667950765403, 36.7096323331657 ], [ 139.208653554418106, 36.718579000220757 ], [ 139.232220116864937, 36.742855918266059 ], [ 139.243825109741124, 36.741893134660472 ], [ 139.252918197217127, 36.746001441013732 ], [ 139.272930051680646, 36.741328640104712 ], [ 139.302339104765906, 36.762920026937763 ], [ 139.331475615607246, 36.769058080665957 ], [ 139.332870661052198, 36.774066135343901 ], [ 139.346748521327299, 36.77672169395106 ], [ 139.353056860785614, 36.773608919116384 ], [ 139.354513748111003, 36.769276386596005 ], [ 139.350783410625922, 36.763535000439958 ], [ 139.355279222258332, 36.760246359581856 ], [ 139.355915524981583, 36.750565774690813 ], [ 139.372485862832377, 36.746451612851729 ], [ 139.364771479220508, 36.730458801632437 ], [ 139.36693422823214, 36.724589332231972 ], [ 139.356342309050433, 36.707097612864573 ], [ 139.337065887780568, 36.692638108861672 ], [ 139.339314552624614, 36.678426504779452 ], [ 139.334930116631654, 36.674513747911192 ], [ 139.334522114004471, 36.665691279029375 ], [ 139.326701855006718, 36.657112413107427 ], [ 139.329088054070553, 36.635162748062442 ], [ 139.305615888062903, 36.616077305923 ], [ 139.297899533136956, 36.595179863859698 ], [ 139.280451167387582, 36.587334081202926 ], [ 139.274541167341113, 36.591594107681999 ], [ 139.260307471412716, 36.592092440913461 ], [ 139.255216030695351, 36.588516053872866 ], [ 139.242275940282525, 36.588331918583208 ], [ 139.236065331050213, 36.5805013596501 ], [ 139.223978833956039, 36.574924134841012 ], [ 139.19085885884931, 36.568719441349174 ], [ 139.193439922114749, 36.559428333051187 ], [ 139.16910455263303, 36.561721385733392 ], [ 139.161718781296827, 36.569573612931947 ], [ 139.162894669153729, 36.578786386682452 ], [ 139.159040000395748, 36.588859135340897 ], [ 139.146323644220843, 36.601934973020661 ], [ 139.142952916843683, 36.621917441236974 ], [ 139.128931828740974, 36.63495466742404 ], [ 139.124568521420201, 36.645701612639357 ], [ 139.128388003303826, 36.647054360270545 ], [ 139.127805810989457, 36.652499359557851 ], [ 139.116993864575306, 36.658984081250424 ], [ 139.094204357744957, 36.65755522489377 ], [ 139.073077587660578, 36.648123585834867 ], [ 139.065781166667534, 36.64157469391705 ], [ 139.060901387689, 36.629018305550403 ], [ 139.046645771685121, 36.621787197820993 ], [ 139.042924059597681, 36.609913613422577 ], [ 139.056868754789321, 36.584253054235091 ], [ 139.036899273682593, 36.589784721187982 ], [ 139.008991946321316, 36.581616386786891 ], [ 138.991081919894782, 36.594587251100791 ], [ 138.986464746550837, 36.625358331921518 ], [ 138.991860635659918, 36.63344083682523 ], [ 138.985398145208251, 36.645558892029271 ], [ 138.99107652396242, 36.652465000059749 ], [ 138.997807366716643, 36.65074944073416 ], [ 139.010053476386929, 36.660420134881349 ], [ 139.014573281032199, 36.659236639659241 ], [ 139.017087495891246, 36.667959693884825 ], [ 139.02351613496171, 36.670681081067073 ], [ 139.023551724732329, 36.679369134577939 ], [ 139.03034619991729, 36.683631640487874 ], [ 139.026275914202188, 36.687503586121636 ], [ 139.028724553195616, 36.692645801662479 ], [ 139.023515965889146, 36.704986919310954 ], [ 139.02651518782568, 36.711824134776066 ], [ 139.01798741868447, 36.719735801765864 ], [ 139.022363865100374, 36.728476080706628 ], [ 139.029033892100529, 36.728754973063587 ], [ 139.023886938931128, 36.734470802285728 ], [ 139.03323172506407, 36.741796080724612 ], [ 139.025284500679277, 36.746592197571886 ], [ 139.029629558957026, 36.756520801993474 ], [ 139.024744060290232, 36.770604413662795 ], [ 139.037514668966878, 36.773349414344068 ], [ 139.037960246168495, 36.781719413620067 ], [ 139.045418054099969, 36.782938027368118 ], [ 139.052654501104371, 36.791625251704033 ], [ 139.056530078200581, 36.789487466973071 ], [ 139.059258418041622, 36.793329135131557 ], [ 139.064912335236158, 36.793014694372687 ], [ 139.069810389338045, 36.789034134917472 ], [ 139.074328755068109, 36.793145251652106 ], [ 139.080370414962772, 36.790203026948177 ], [ 139.114094449399431, 36.796900198185654 ], [ 139.114298884186269, 36.796859359971563 ] ] ] } },
{ "type": "Feature", "properties": { "regioncode": "1020700", "regionname": "群馬県館林市", "name": "館林市", "namekana": "たてばやしし", "PrefCode": "10" }, "geometry": { "type": "Polygon", "coordinates": [ [ [ 139.528022283301766, 36.283530559287954 ], [ 139.534586719101867, 36.279022251575725 ], [ 139.539247302720923, 36.280757505154781 ], [ 139.544029804731736, 36.275783666982704 ], [ 139.548592049283684, 36.280759468374811 ], [ 139.553268469963996, 36.27945672125071 ], [ 139.555915136074759, 36.276615054241404 ], [ 139.553587885772345, 36.273784802326816 ], [ 139.561270117721847, 36.267129838071639 ], [ 139.589751050670543, 36.268624864745789 ], [ 139.625618054429765, 36.252726892432179 ], [ 139.621693865379598, 36.24931550490669 ], [ 139.616177756698221, 36.251950225322673 ], [ 139.603846304063723, 36.24910494573669 ], [ 139.600226057086957, 36.255793801842515 ], [ 139.597067134440749, 36.251332170743126 ], [ 139.593437690996666, 36.25459994553114 ], [ 139.593242672111728, 36.249515774933116 ], [ 139.575941192631944, 36.242468865445858 ], [ 139.574222283331778, 36.238742225073679 ], [ 139.579886161417335, 36.23255669433604 ], [ 139.580969169991249, 36.218479558684749 ], [ 139.574211673130321, 36.221875360059869 ], [ 139.561283553593171, 36.216524838150804 ], [ 139.537942087857118, 36.221516441530582 ], [ 139.532467613289782, 36.217041999588673 ], [ 139.507218054169925, 36.216401945793223 ], [ 139.501161050941846, 36.210468333147105 ], [ 139.45952007768949, 36.215399973330136 ], [ 139.463043190690769, 36.224591053634242 ], [ 139.473135472623994, 36.224588558914888 ], [ 139.476419052997016, 36.219252748115878 ], [ 139.480446614619609, 36.225992720787474 ], [ 139.49603972755142, 36.228901333329929 ], [ 139.491618080310218, 36.23902602682972 ], [ 139.499370078066704, 36.241288802036649 ], [ 139.503768976057472, 36.236502170338952 ], [ 139.497547587551139, 36.243144640312948 ], [ 139.479006938519433, 36.241676864895453 ], [ 139.4890826072766, 36.255475973337525 ], [ 139.495402917610591, 36.256984586069848 ], [ 139.48816846979912, 36.260817639622417 ], [ 139.495271828831847, 36.261504000409332 ], [ 139.503221672941891, 36.281066441163375 ], [ 139.512598610737314, 36.278235333094187 ], [ 139.527894227936372, 36.283667776047082 ], [ 139.528022283301766, 36.283530559287954 ] ] ] } },
{ "type": "Feature", "properties": { "regioncode": "1020800", "regionname": "群馬県渋川市", "name": "渋川市", "namekana": "しぶかわし", "PrefCode": "10" }, "geometry": { "type": "Polygon", "coordinates": [ [ [ 138.998705278625721, 36.588782505008624 ], [ 139.009176107691246, 36.581596107974065 ], [ 139.036899273682593, 36.589784721187982 ], [ 139.055035966136984, 36.584034170940299 ], [ 139.063855720864922, 36.58701944079462 ], [ 139.070131828621015, 36.579789441029959 ], [ 139.076717664688545, 36.582179440628749 ], [ 139.073089364282851, 36.58655741409342 ], [ 139.095434332628429, 36.578983612503748 ], [ 139.108468520905603, 36.580459721039347 ], [ 139.120915447390075, 36.573795000039297 ], [ 139.132387107678937, 36.578436667318385 ], [ 139.156031581992011, 36.57707277438908 ], [ 139.1693439953292, 36.561696107589341 ], [ 139.162446446146646, 36.555401972922766 ], [ 139.15187839317332, 36.554446945969858 ], [ 139.135477755594025, 36.534347252024133 ], [ 139.118375252915598, 36.52597474813615 ], [ 139.114818560128469, 36.520635585563866 ], [ 139.100922165725478, 36.516924468389561 ], [ 139.076163721878288, 36.494043081423115 ], [ 139.062474474617375, 36.474878079859536 ], [ 139.05322219185075, 36.469199747870107 ], [ 139.049321854619961, 36.455734197974891 ], [ 139.041216549204478, 36.45191086519435 ], [ 139.040418807382139, 36.455509198390871 ], [ 139.027084086361583, 36.46049058637152 ], [ 139.028996251875583, 36.451115306026622 ], [ 139.024387885592546, 36.448385585726271 ], [ 139.018635938697685, 36.450787531919104 ], [ 139.014722334668022, 36.460846000242782 ], [ 139.008295965486468, 36.460101973127621 ], [ 139.005982114183325, 36.463572251858011 ], [ 138.993704033614335, 36.46085225232963 ], [ 138.960457367413596, 36.474194747989259 ], [ 138.949922048863527, 36.471015864890319 ], [ 138.933141505276353, 36.471965053444535 ], [ 138.92220396943776, 36.465912278828682 ], [ 138.915953138926284, 36.466390332347999 ], [ 138.907292049788339, 36.474822278725242 ], [ 138.900163216559235, 36.474580666864313 ], [ 138.896881556238895, 36.48182097285968 ], [ 138.877670610110613, 36.482073891896619 ], [ 138.891894864056781, 36.501790332557846 ], [ 138.917979363656741, 36.514535053350073 ], [ 138.922560466991968, 36.513447558957751 ], [ 138.941094424168455, 36.530407838351096 ], [ 138.945313358824478, 36.544768387251338 ], [ 138.952591698947799, 36.546354197788048 ], [ 138.94409418929547, 36.55032422618217 ], [ 138.936829442424937, 36.546506441319252 ], [ 138.926367755867318, 36.551554505036449 ], [ 138.913884669442041, 36.549513946011871 ], [ 138.909703800390162, 36.555722279059978 ], [ 138.900840998713193, 36.555337558981194 ], [ 138.896458782247123, 36.561961440867833 ], [ 138.902658248879106, 36.563464774579757 ], [ 138.90425046708549, 36.573113667361895 ], [ 138.897914915940646, 36.575884504666192 ], [ 138.896592412509904, 36.583297000256437 ], [ 138.9024924381755, 36.586635054364308 ], [ 138.916701361378841, 36.583816721164794 ], [ 138.927665032415348, 36.587595891836997 ], [ 138.934583943194525, 36.585603945665639 ], [ 138.936991725088092, 36.580912559367164 ], [ 138.945570078396486, 36.585891134268479 ], [ 138.966687366928454, 36.580323640123936 ], [ 138.996286938691355, 36.591841387070417 ], [ 138.99866693872832, 36.588849170852598 ], [ 138.998705278625721, 36.588782505008624 ] ] ] } },
{ "type": "Feature", "properties": { "regioncode": "1020900", "regionname": "群馬県藤岡市", "name": "藤岡市", "namekana": "ふじおかし", "PrefCode": "10" }, "geometry": { "type": "Polygon", "coordinates": [ [ [ 139.082005811419094, 36.291180054116239 ], [ 139.101892528817189, 36.287279387733633 ], [ 139.111374695385962, 36.281727720757772 ], [ 139.096609921910385, 36.277127279300544 ], [ 139.105732411821464, 36.270160892411297 ], [ 139.099381556014009, 36.26563172132694 ], [ 139.100318469721628, 36.262167279196603 ], [ 139.111195135846856, 36.258497000236446 ], [ 139.080741283683324, 36.213592801866355 ], [ 139.063418663840366, 36.196285530752675 ], [ 139.064528080106925, 36.187219973323181 ], [ 139.056385836836967, 36.180519667049055 ], [ 139.058332724275829, 36.164735747656664 ], [ 139.063764669004286, 36.159079919402814 ], [ 139.062158559869658, 36.152936558775195 ], [ 139.048177665167145, 36.15228625180913 ], [ 139.04272208715463, 36.148027360274511 ], [ 139.041860077980232, 36.127937027371956 ], [ 139.032291997377797, 36.127187838148245 ], [ 139.024710310532441, 36.134099531867946 ], [ 139.019856135252553, 36.131045332576093 ], [ 139.015408611818089, 36.134112027048445 ], [ 139.004856641420929, 36.133412027143379 ], [ 139.006732191937203, 36.129550332881593 ], [ 139.00195800415861, 36.125329505152592 ], [ 138.993539079065272, 36.124878387227852 ], [ 138.985690700065788, 36.115571413989642 ], [ 138.978722048683608, 36.116002252202236 ], [ 138.969730389445999, 36.124445919443701 ], [ 138.959618145261288, 36.123992305900231 ], [ 138.95874119295172, 36.129121504653767 ], [ 138.96334732801688, 36.13234150385739 ], [ 138.959182607191678, 36.145049586269465 ], [ 138.922815550697123, 36.152202170593739 ], [ 138.875620245777782, 36.140403613036369 ], [ 138.864584163128711, 36.151697532215394 ], [ 138.858813060674265, 36.147145612779866 ], [ 138.8383886116452, 36.142735359948972 ], [ 138.821179973676863, 36.144586467791328 ], [ 138.810054358122215, 36.141456468241472 ], [ 138.826686938951184, 36.157973972720697 ], [ 138.844329999829711, 36.160129802348536 ], [ 138.861594747399749, 36.16869005410274 ], [ 138.884933332607261, 36.168614747572576 ], [ 138.902128949291637, 36.180782775404793 ], [ 138.911678197191122, 36.192818612788813 ], [ 138.966641479021064, 36.203600252050023 ], [ 138.975834279728247, 36.201584945988543 ], [ 138.981520998795077, 36.206394666880442 ], [ 138.983314916050631, 36.215275532340002 ], [ 138.991898858645527, 36.216890801968987 ], [ 138.997283644724462, 36.22385719785143 ], [ 139.018590636248973, 36.222496108108942 ], [ 139.016721505093415, 36.232157505964153 ], [ 139.027426913321506, 36.248804439972957 ], [ 139.024278340972728, 36.255160838302118 ], [ 139.020076640924344, 36.253757775401084 ], [ 139.020103332802591, 36.257323613394078 ], [ 139.03260255486407, 36.260440305675615 ], [ 139.040703190999579, 36.270395027308723 ], [ 139.056086808659302, 36.272351134597216 ], [ 139.056501582282294, 36.284905585824163 ], [ 139.081172477128234, 36.291190053678065 ], [ 139.082005811419094, 36.291180054116239 ] ] ] } },
{ "type": "Feature", "properties": { "regioncode": "1021000", "regionname": "群馬県富岡市", "name": "富岡市", "namekana": "とみおかし", "PrefCode": "10" }, "geometry": { "type": "Polygon", "coordinates": [ [ [ 138.923989299966252, 36.307603639696254 ], [ 138.928537639200727, 36.303422251735583 ], [ 138.940514916330358, 36.305323918564056 ], [ 138.949656303695519, 36.301487252434811 ], [ 138.948578171245686, 36.284225307152269 ], [ 138.93714780872449, 36.274236693668513 ], [ 138.939972528009775, 36.274462532320058 ], [ 138.938923890625119, 36.268663918704931 ], [ 138.94413641966014, 36.267953919238039 ], [ 138.921967665375519, 36.260033360651107 ], [ 138.916308949398513, 36.243644198421066 ], [ 138.909515031793376, 36.241512531777971 ], [ 138.906381970951315, 36.246750305682099 ], [ 138.900514942310792, 36.226197251801807 ], [ 138.881078197101147, 36.224907559236499 ], [ 138.877009274758279, 36.217462558550267 ], [ 138.880401504925544, 36.213867837930422 ], [ 138.877154526959885, 36.203551441346008 ], [ 138.858549222068973, 36.203179774926696 ], [ 138.857972282694732, 36.198186720940498 ], [ 138.850498948867425, 36.195211440755429 ], [ 138.848542802008751, 36.187576171403236 ], [ 138.832740584110752, 36.178553134819367 ], [ 138.828672243629171, 36.18273841414657 ], [ 138.833364189305939, 36.196509252400119 ], [ 138.82963089484997, 36.211951468085829 ], [ 138.831035357096084, 36.221061468212213 ], [ 138.841902334824908, 36.233066198046629 ], [ 138.840527055579173, 36.238647027338516 ], [ 138.818673164734832, 36.237112279408223 ], [ 138.815922581062296, 36.232527558100401 ], [ 138.797877004320412, 36.226360892441278 ], [ 138.783223942830773, 36.227005891608655 ], [ 138.77592092081386, 36.242920054417027 ], [ 138.770074279804248, 36.246172000237664 ], [ 138.770495940435353, 36.251424747853889 ], [ 138.752734060228704, 36.26741363982768 ], [ 138.753867716821787, 36.283693893258601 ], [ 138.739851608265212, 36.29063219791766 ], [ 138.75608808000095, 36.303012440571706 ], [ 138.777508392398431, 36.303628837700728 ], [ 138.81300005241053, 36.293976082330403 ], [ 138.835192581172691, 36.279477449724595 ], [ 138.85766555092448, 36.276345053481464 ], [ 138.878145135589648, 36.287795585997571 ], [ 138.902211607779577, 36.289271973322968 ], [ 138.901286640665944, 36.296146694114668 ], [ 138.913063968827146, 36.305182251959423 ], [ 138.923470699613176, 36.30792086475617 ], [ 138.923989299966252, 36.307603639696254 ] ] ] } },
{ "type": "Feature", "properties": { "regioncode": "1021100", "regionname": "群馬県安中市", "name": "安中市", "namekana": "あんなかし", "PrefCode": "10" }, "geometry": { "type": "Polygon", "coordinates": [ [ [ 138.684888144772117, 36.414077802248812 ], [ 138.703995939561082, 36.408186640301267 ], [ 138.720101828836391, 36.414786054332978 ], [ 138.751953256237812, 36.406646251823133 ], [ 138.778636030728308, 36.390862333330062 ], [ 138.823662437971166, 36.373521864642385 ], [ 138.843121362261172, 36.370864666571151 ], [ 138.862027833917409, 36.37425469429877 ], [ 138.915303671027687, 36.350260838766758 ], [ 138.926439532558447, 36.35291389186267 ], [ 138.934591192629455, 36.349212774250191 ], [ 138.9391945272057, 36.341550865180352 ], [ 138.937350336948612, 36.339446973199301 ], [ 138.950939532833218, 36.335151972985216 ], [ 138.950254501244331, 36.332751694135425 ], [ 138.936593358696655, 36.333426135307946 ], [ 138.944559197249191, 36.326036135359402 ], [ 138.95381219227886, 36.305707802273332 ], [ 138.949504642925035, 36.301453080895044 ], [ 138.919607328115717, 36.307415306371354 ], [ 138.901286640665944, 36.296146694114668 ], [ 138.902211607779577, 36.289271973322968 ], [ 138.878145135589648, 36.287795585997571 ], [ 138.85766555092448, 36.276345053481464 ], [ 138.835192581172691, 36.279477449724595 ], [ 138.812849495108139, 36.294028865339897 ], [ 138.765033384583148, 36.304557440773351 ], [ 138.749842503328978, 36.300449387129561 ], [ 138.737489662118264, 36.287559172218096 ], [ 138.713097134425311, 36.286141972873793 ], [ 138.705177912230965, 36.279831171071748 ], [ 138.695459027012589, 36.283453694232662 ], [ 138.694427108024684, 36.287472027012484 ], [ 138.68136233470409, 36.279893172132233 ], [ 138.674337366875989, 36.288292613413432 ], [ 138.665767861097947, 36.28287653182656 ], [ 138.657230078005796, 36.286897108414848 ], [ 138.654335422042209, 36.295635170526737 ], [ 138.658414306175359, 36.300357387383599 ], [ 138.653451803058374, 36.303043774750449 ], [ 138.64780769207141, 36.314772413616026 ], [ 138.653305772043836, 36.324260171269941 ], [ 138.650080609832344, 36.352483253299567 ], [ 138.657163476013693, 36.368901531980157 ], [ 138.649558780913026, 36.379237639905227 ], [ 138.65218744529443, 36.3953934406548 ], [ 138.648187471274809, 36.406545945938717 ], [ 138.684602308749618, 36.414238360012348 ], [ 138.684888144772117, 36.414077802248812 ] ] ] } },
{ "type": "Feature", "properties": { "regioncode": "1021200", "regionname": "群馬県みどり市", "name": "みどり市", "namekana": "みどりし", "PrefCode": "10" }, "geometry": { "type": "Polygon", "coordinates": [ [ [ 139.326683332569814, 36.633382225309504 ], [ 139.330693645195652, 36.627066107614837 ], [ 139.345689494074918, 36.625870000300324 ], [ 139.352288417976183, 36.615090279292986 ], [ 139.386688833423023, 36.611983333863805 ], [ 139.39789888542532, 36.602082252294167 ], [ 139.40654725005561, 36.604785865275517 ], [ 139.403726420338103, 36.608822531634587 ], [ 139.427765939846267, 36.600972279347275 ], [ 139.445443553577206, 36.60746786574947 ], [ 139.452759416114191, 36.603570081693988 ], [ 139.4652419710402, 36.606581504732731 ], [ 139.471445888417065, 36.602890667270515 ], [ 139.473840025796562, 36.590456226074025 ], [ 139.483529468110532, 36.581882053713855 ], [ 139.473909144091749, 36.573132054001121 ], [ 139.472517418943767, 36.565156748285347 ], [ 139.465442115161522, 36.563443693571628 ], [ 139.460757885667931, 36.553246747639321 ], [ 139.451966199680442, 36.549620360091581 ], [ 139.442785357258458, 36.556084775092359 ], [ 139.434861166309815, 36.555796721341665 ], [ 139.415555499087077, 36.539210612979446 ], [ 139.407835161963249, 36.526520332647294 ], [ 139.386469027423686, 36.524968666670702 ], [ 139.384704553072766, 36.519745333180651 ], [ 139.378127613098968, 36.521099505337929 ], [ 139.375495084330737, 36.514906720668648 ], [ 139.36266175063929, 36.514277838251701 ], [ 139.357609220888889, 36.507592279060475 ], [ 139.358859442209564, 36.50012841419499 ], [ 139.334314033366013, 36.491380667284034 ], [ 139.331562023368747, 36.47899374806309 ], [ 139.320282192069612, 36.471345999718153 ], [ 139.322156354931849, 36.467171559020301 ], [ 139.317957134314383, 36.462859081381566 ], [ 139.30478902619268, 36.459754081185963 ], [ 139.300722555401649, 36.447469666691802 ], [ 139.293989170264013, 36.445110225156839 ], [ 139.290302724191406, 36.435584694178374 ], [ 139.292041335839031, 36.431367198437499 ], [ 139.28383933891439, 36.42835053235126 ], [ 139.295060440886687, 36.417376919309447 ], [ 139.290589585441126, 36.41813997338113 ], [ 139.290782087123716, 36.414653585994245 ], [ 139.288860973355327, 36.417753026580954 ], [ 139.290279857129804, 36.413455251958339 ], [ 139.286998470203343, 36.41627358605723 ], [ 139.288260660601054, 36.412853585724463 ], [ 139.285039273743564, 36.415051919110851 ], [ 139.28447313882441, 36.411481359677055 ], [ 139.315465720866428, 36.396791053664231 ], [ 139.316031192985179, 36.382057440798292 ], [ 139.31365394307511, 36.377577171249527 ], [ 139.298096393833589, 36.372102468254354 ], [ 139.279728249159461, 36.373256918072343 ], [ 139.279233256010002, 36.368955000273104 ], [ 139.273082386942633, 36.368684720723309 ], [ 139.266634889988268, 36.376821666986416 ], [ 139.267641050594079, 36.392445558315899 ], [ 139.249979338675644, 36.395787504689622 ], [ 139.255755253402299, 36.407821946325839 ], [ 139.266583917314051, 36.413796945772503 ], [ 139.273961166674553, 36.412900532133904 ], [ 139.267875109948477, 36.430596359834169 ], [ 139.260188170947345, 36.437838333172579 ], [ 139.264644033795207, 36.44014913487473 ], [ 139.264402969621415, 36.451844972767333 ], [ 139.236366226220412, 36.468898332891797 ], [ 139.239573216730605, 36.474570278795397 ], [ 139.236347912426254, 36.475318333074654 ], [ 139.231800997717983, 36.486580838035309 ], [ 139.237586004590526, 36.48252055907659 ], [ 139.249125058274899, 36.484164278758499 ], [ 139.251286693026486, 36.480493747088815 ], [ 139.262349999952562, 36.478929135371345 ], [ 139.28300185515161, 36.4929771707599 ], [ 139.293551051140184, 36.489419360115448 ], [ 139.298029415025553, 36.491216306287583 ], [ 139.304467561728643, 36.502286558677781 ], [ 139.279997497186855, 36.514351865046592 ], [ 139.283054746079756, 36.518615469028703 ], [ 139.290190895293676, 36.518942693650445 ], [ 139.296968223105068, 36.534155171224199 ], [ 139.314960558183316, 36.544121531883263 ], [ 139.31916394266193, 36.563286775364418 ], [ 139.308893086846524, 36.57013263960971 ], [ 139.306522283276763, 36.579284585914934 ], [ 139.299629494205874, 36.584182945786381 ], [ 139.298223696466493, 36.599538748314615 ], [ 139.305615888062903, 36.616077305923 ], [ 139.326540000420778, 36.633396386933782 ], [ 139.326683332569814, 36.633382225309504 ] ] ] } },
{ "type": "Feature", "properties": { "regioncode": "1034400", "regionname": "群馬県榛東村", "name": "榛東村", "namekana": "しんとうむら", "PrefCode": "10" }, "geometry": { "type": "Polygon", "coordinates": [ [ [ 138.920320077709448, 36.465938108257149 ], [ 138.929614838154293, 36.470073108287352 ], [ 138.936865914430427, 36.463715027326714 ], [ 138.963972309174778, 36.455016693665527 ], [ 138.968248418230019, 36.454659197863748 ], [ 138.966689804990551, 36.458439468406766 ], [ 138.976203165443849, 36.459031973247022 ], [ 138.992772969996622, 36.451376801897936 ], [ 138.993678663739388, 36.440519467599415 ], [ 138.990161114843659, 36.433795027118833 ], [ 139.001901673323573, 36.42988141409603 ], [ 139.002431607832477, 36.419338918955987 ], [ 138.983158300914965, 36.426448918582764 ], [ 138.988336886837942, 36.420580864715191 ], [ 138.985984085896916, 36.416671413754784 ], [ 138.982018249242856, 36.418049468308368 ], [ 138.981646834633807, 36.413394467680575 ], [ 138.978594916022644, 36.416065026979481 ], [ 138.975261283881196, 36.412580865414668 ], [ 138.966248248657848, 36.418813080859024 ], [ 138.962861555616314, 36.412130305968901 ], [ 138.957015720399227, 36.418758919188804 ], [ 138.958395498953223, 36.426869467651841 ], [ 138.950579947906363, 36.426755865291 ], [ 138.924880557791539, 36.448008919076415 ], [ 138.901923644860403, 36.457785306047072 ], [ 138.899743112654619, 36.462296171431205 ], [ 138.909350920808379, 36.471728386955533 ], [ 138.919390635569471, 36.466063945894462 ], [ 138.920320077709448, 36.465938108257149 ] ] ] } },
{ "type": "Feature", "properties": { "regioncode": "1034500", "regionname": "群馬県吉岡町", "name": "吉岡町", "namekana": "よしおかまち", "PrefCode": "10" }, "geometry": { "type": "Polygon", "coordinates": [ [ [ 138.958338755329351, 36.473860864787127 ], [ 138.993704033614335, 36.46085225232963 ], [ 139.005982114183325, 36.463572251858011 ], [ 139.008295965486468, 36.460101973127621 ], [ 139.014722334668022, 36.460846000242782 ], [ 139.018635938697685, 36.450787531919104 ], [ 139.024467055610216, 36.448363918360201 ], [ 139.028996251875583, 36.451115306026622 ], [ 139.027084086361583, 36.46049058637152 ], [ 139.040418807382139, 36.455509198390871 ], [ 139.038389274045812, 36.439578080663921 ], [ 139.033911439861072, 36.432331694352285 ], [ 139.035525032254554, 36.422963640060004 ], [ 139.030208392303507, 36.430294468215209 ], [ 139.030645005962356, 36.420617801670289 ], [ 139.023471633808867, 36.417184198192217 ], [ 139.012507523003819, 36.432754197648137 ], [ 139.003894747244885, 36.434956134617948 ], [ 139.005885552176551, 36.430328081276002 ], [ 139.002451672606639, 36.42702586515162 ], [ 138.999354448848749, 36.431623360429796 ], [ 138.990223061045526, 36.433675865149098 ], [ 138.993678663739388, 36.440519467599415 ], [ 138.992772969996622, 36.451376801897936 ], [ 138.976203165443849, 36.459031973247022 ], [ 138.966689804990551, 36.458439468406766 ], [ 138.968248418230019, 36.454659197863748 ], [ 138.963972309174778, 36.455016693665527 ], [ 138.936865914430427, 36.463715027326714 ], [ 138.929109558559389, 36.47016033173395 ], [ 138.958333333316773, 36.473861918792579 ], [ 138.958338755329351, 36.473860864787127 ] ] ] } },
{ "type": "Feature", "properties": { "regioncode": "1036600", "regionname": "群馬県上野村", "name": "上野村", "namekana": "うえのむら", "PrefCode": "10" }, "geometry": { "type": "Polygon", "coordinates": [ [ [ 138.77224783417023, 36.129251748069748 ], [ 138.771767833618696, 36.124963973009017 ], [ 138.779862581892758, 36.123254801567896 ], [ 138.783580558196263, 36.100408134727672 ], [ 138.790639468236918, 36.101869532153216 ], [ 138.799501439839673, 36.097862558710176 ], [ 138.805359754049505, 36.083285332552123 ], [ 138.818153671354935, 36.078618360149278 ], [ 138.812290271478901, 36.064029225168667 ], [ 138.829111673065313, 36.041312504968175 ], [ 138.828394720040365, 36.037302532286105 ], [ 138.790975525100521, 36.029399801859427 ], [ 138.773547716953658, 36.038793170268661 ], [ 138.754411193321971, 36.034525972595588 ], [ 138.749184916350828, 36.016721837742693 ], [ 138.743769830313454, 36.010099892096378 ], [ 138.726585473141085, 35.994768559221654 ], [ 138.716809026815213, 35.992904386927989 ], [ 138.712550051643689, 35.985333000017988 ], [ 138.688695382386072, 35.991774666667595 ], [ 138.679583605199241, 36.011714387409086 ], [ 138.661988053705727, 36.011504386718116 ], [ 138.66133199737385, 36.016426585818351 ], [ 138.631965135982341, 36.027053801591705 ], [ 138.644191115227841, 36.049689332796504 ], [ 138.642815382723825, 36.068742333691773 ], [ 138.630339390150766, 36.08636313365173 ], [ 138.630626355721802, 36.091328135085405 ], [ 138.645183061149396, 36.098806747933111 ], [ 138.647548637859359, 36.10592063982574 ], [ 138.640180921312549, 36.117349801752027 ], [ 138.645098146262512, 36.119632027496152 ], [ 138.666208689879227, 36.117184838209766 ], [ 138.687600440707797, 36.127986224784479 ], [ 138.706334331564221, 36.122157613383195 ], [ 138.719332969640845, 36.126777053917976 ], [ 138.729309662610945, 36.125923441713496 ], [ 138.742361608001829, 36.118863440795224 ], [ 138.757066420079241, 36.129114252520765 ], [ 138.771440636875923, 36.132663694074267 ], [ 138.772247860250559, 36.129596747791709 ], [ 138.77224783417023, 36.129251748069748 ] ] ] } },
{ "type": "Feature", "properties": { "regioncode": "1036700", "regionname": "群馬県神流町", "name": "神流町", "namekana": "かんなまち", "PrefCode": "10" }, "geometry": { "type": "Polygon", "coordinates": [ [ [ 138.774762891694195, 36.138977585946861 ], [ 138.800919611350992, 36.137285918910095 ], [ 138.807593527919039, 36.140722865168129 ], [ 138.805858249158973, 36.143359802412988 ], [ 138.811406887218141, 36.140818973916566 ], [ 138.821179973676863, 36.144586467791328 ], [ 138.8383886116452, 36.142735359948972 ], [ 138.858813060674265, 36.147145612779866 ], [ 138.864584163128711, 36.151697532215394 ], [ 138.875620245777782, 36.140403613036369 ], [ 138.922815550697123, 36.152202170593739 ], [ 138.95913927515744, 36.145074305934543 ], [ 138.96334732801688, 36.13234150385739 ], [ 138.958697860018333, 36.12900983763393 ], [ 138.957905032091617, 36.10764089181373 ], [ 138.94506858584657, 36.094596170676766 ], [ 138.931490506481737, 36.088103134751918 ], [ 138.916314086326111, 36.093749027295814 ], [ 138.897858781157879, 36.090654613020035 ], [ 138.86480625160732, 36.077346919324896 ], [ 138.859177367041866, 36.069919414049764 ], [ 138.84603705606537, 36.06662500044348 ], [ 138.842939247748177, 36.055957774731553 ], [ 138.829111673065313, 36.041312504968175 ], [ 138.812290271478901, 36.064029225168667 ], [ 138.818153671354935, 36.078618360149278 ], [ 138.805359754049505, 36.083285332552123 ], [ 138.799501439839673, 36.097862558710176 ], [ 138.781049999957645, 36.103367026567071 ], [ 138.779862581892758, 36.123254801567896 ], [ 138.771767833618696, 36.124963973009017 ], [ 138.772974526852977, 36.136781197794107 ], [ 138.764142580915404, 36.143186198184537 ], [ 138.764812088407211, 36.160407027362453 ], [ 138.766371504741187, 36.148457864838633 ], [ 138.774742361071162, 36.139009919272382 ], [ 138.774762891694195, 36.138977585946861 ] ] ] } },
{ "type": "Feature", "properties": { "regioncode": "1038200", "regionname": "群馬県下仁田町", "name": "下仁田町", "namekana": "しもにたまち", "PrefCode": "10" }, "geometry": { "type": "Polygon", "coordinates": [ [ [ 138.653617638942933, 36.302967387235185 ], [ 138.658414306175359, 36.300357387383599 ], [ 138.654335422042209, 36.295635170526737 ], [ 138.657284526559692, 36.28682710788479 ], [ 138.665903968993007, 36.282849305750915 ], [ 138.674337366875989, 36.288292613413432 ], [ 138.681187328432543, 36.279893171232914 ], [ 138.694306550307147, 36.287472027012484 ], [ 138.702117082237578, 36.279979775046627 ], [ 138.713097134425311, 36.286141972873793 ], [ 138.719260752281912, 36.284594198263676 ], [ 138.740014668841923, 36.289966386639492 ], [ 138.753684668812525, 36.28391277475481 ], [ 138.752734060228704, 36.26741363982768 ], [ 138.770495940435353, 36.251424747853889 ], [ 138.770074279804248, 36.246172000237664 ], [ 138.77592092081386, 36.242920054417027 ], [ 138.783336161135026, 36.226956440587287 ], [ 138.797877004320412, 36.226360892441278 ], [ 138.815922581062296, 36.232527558100401 ], [ 138.818673164734832, 36.237112279408223 ], [ 138.840487613112941, 36.238686747695283 ], [ 138.841740389407505, 36.232680360110578 ], [ 138.831018975045708, 36.221005360409094 ], [ 138.833228910585831, 36.1946095317046 ], [ 138.823788300789488, 36.152527864569322 ], [ 138.816491920266003, 36.149679252095837 ], [ 138.810283256267326, 36.141562027065959 ], [ 138.805794358622848, 36.143340639658845 ], [ 138.807593527919039, 36.140722865168129 ], [ 138.803096278270687, 36.137644251980703 ], [ 138.774976782852264, 36.138653414523503 ], [ 138.767497885818784, 36.146156747935606 ], [ 138.765942633345958, 36.159738973175138 ], [ 138.762183747781819, 36.162628693659315 ], [ 138.76575739278951, 36.167706467379617 ], [ 138.758727664849971, 36.179697864764705 ], [ 138.76228632895095, 36.190320639685808 ], [ 138.753719078672589, 36.189030358963919 ], [ 138.749109920986143, 36.194883973316792 ], [ 138.737496550025867, 36.191747306193292 ], [ 138.736570466853664, 36.201113414352619 ], [ 138.707874086020297, 36.214629837996654 ], [ 138.690788781077458, 36.210502612605524 ], [ 138.690339299019456, 36.203097891654409 ], [ 138.681467327854989, 36.196445946423353 ], [ 138.674934280192929, 36.199711505281812 ], [ 138.664616200077603, 36.198665413877791 ], [ 138.66087425414355, 36.202455693875208 ], [ 138.642008663868751, 36.198717640207008 ], [ 138.633030920740453, 36.216315720594082 ], [ 138.622244526763552, 36.214585720854359 ], [ 138.611703449854417, 36.229617414012523 ], [ 138.612496809280401, 36.240917972886166 ], [ 138.602194033827686, 36.248773801869504 ], [ 138.605952165759959, 36.266794667040301 ], [ 138.600335524564912, 36.278399945900844 ], [ 138.607178859017154, 36.279595504628901 ], [ 138.612508910557835, 36.285655224708933 ], [ 138.644504279848661, 36.293255720874868 ], [ 138.653451803058374, 36.303043774750449 ], [ 138.653617638942933, 36.302967387235185 ] ] ] } },
{ "type": "Feature", "properties": { "regioncode": "1038300", "regionname": "群馬県南牧村", "name": "南牧村", "namekana": "なんもくむら", "PrefCode": "10" }, "geometry": { "type": "Polygon", "coordinates": [ [ [ 138.70919741862599, 36.212877892101119 ], [ 138.736570466853664, 36.201113414352619 ], [ 138.737496550025867, 36.191747306193292 ], [ 138.749109920986143, 36.194883973316792 ], [ 138.753719078672589, 36.189030358963919 ], [ 138.762336887037804, 36.190288414278939 ], [ 138.758727664849971, 36.179697864764705 ], [ 138.765747108142591, 36.167985080946778 ], [ 138.762137367045966, 36.163128973023731 ], [ 138.765236251851661, 36.158290359612465 ], [ 138.764106472235994, 36.143356467726846 ], [ 138.772974526852977, 36.136781197794107 ], [ 138.768248390750728, 36.130246197703912 ], [ 138.757066420079241, 36.129114252520765 ], [ 138.742361608001829, 36.118863440795224 ], [ 138.729309662610945, 36.125923441713496 ], [ 138.719332969640845, 36.126777053917976 ], [ 138.706334331564221, 36.122157613383195 ], [ 138.687600440707797, 36.127986224784479 ], [ 138.668921478643369, 36.117794837561746 ], [ 138.648036472405352, 36.118084531675834 ], [ 138.637568690242915, 36.123833134891299 ], [ 138.634323722262025, 36.133947026634019 ], [ 138.622478715620332, 36.131932027241305 ], [ 138.600767587654104, 36.135512332628082 ], [ 138.594297613044432, 36.144194279742294 ], [ 138.593240972592866, 36.15322677539541 ], [ 138.577274864043829, 36.168073198319519 ], [ 138.583389610941822, 36.178831278940436 ], [ 138.590581581974448, 36.17793791939954 ], [ 138.588292387383831, 36.172638747879944 ], [ 138.594490999660024, 36.165629865326082 ], [ 138.607804617189345, 36.161650946234261 ], [ 138.613166589266712, 36.168731531734863 ], [ 138.630908301277145, 36.172781775158853 ], [ 138.635901361558695, 36.170932613449395 ], [ 138.637069143826011, 36.174980107645922 ], [ 138.622797250093072, 36.19692791918817 ], [ 138.634802827088834, 36.205597080640814 ], [ 138.642008663868751, 36.198717640207008 ], [ 138.66087425414355, 36.202455693875208 ], [ 138.664616200077603, 36.198665413877791 ], [ 138.674934280192929, 36.199711505281812 ], [ 138.681621218944201, 36.196454837121109 ], [ 138.690339299019456, 36.203097891654409 ], [ 138.690788781077458, 36.210502612605524 ], [ 138.709067133841245, 36.212945666809105 ], [ 138.70919741862599, 36.212877892101119 ] ] ] } },
{ "type": "Feature", "properties": { "regioncode": "1038400", "regionname": "群馬県甘楽町", "name": "甘楽町", "namekana": "かんらまち", "PrefCode": "10" }, "geometry": { "type": "Polygon", "coordinates": [ [ [ 138.9512028021677, 36.26046972070111 ], [ 138.951294449379361, 36.256591945661796 ], [ 138.954845863146147, 36.259820278882842 ], [ 138.957993087411069, 36.256821108207646 ], [ 138.953401362183172, 36.247196667092567 ], [ 138.960610752184493, 36.234060278958736 ], [ 138.958350441120047, 36.228886667185975 ], [ 138.963474059580221, 36.223021359847905 ], [ 138.95301817095185, 36.218285531751917 ], [ 138.942807470788239, 36.198084693753685 ], [ 138.911489026597337, 36.192726107623798 ], [ 138.902128949291637, 36.180782775404793 ], [ 138.884456110061478, 36.168379198041634 ], [ 138.861594747399749, 36.16869005410274 ], [ 138.844329999829711, 36.160129802348536 ], [ 138.826686938951184, 36.157973972720697 ], [ 138.830278611768563, 36.177843414142274 ], [ 138.845220855657999, 36.184420918890339 ], [ 138.850640610076198, 36.195376719959711 ], [ 138.857972282694732, 36.198186720940498 ], [ 138.858549222068973, 36.203179774926696 ], [ 138.877154526959885, 36.203551441346008 ], [ 138.880401504925544, 36.213867837930422 ], [ 138.877009274758279, 36.217462558550267 ], [ 138.881078197101147, 36.224907559236499 ], [ 138.900613838957611, 36.226276134935745 ], [ 138.906298366376518, 36.24665169412043 ], [ 138.909515031793376, 36.241512531777971 ], [ 138.9185325807141, 36.245171973008212 ], [ 138.921967665375519, 36.260033360651107 ], [ 138.945129468150526, 36.268195585957585 ], [ 138.95123280175244, 36.261033891500972 ], [ 138.9512028021677, 36.26046972070111 ] ] ] } },
{ "type": "Feature", "properties": { "regioncode": "1042100", "regionname": "群馬県中之条町", "name": "中之条町", "namekana": "なかのじょうまち", "PrefCode": "10" }, "geometry": { "type": "Polygon", "coordinates": [ [ [ 138.729462724525206, 36.762392170762098 ], [ 138.747903890552152, 36.757896585758886 ], [ 138.767349170327975, 36.746516026793245 ], [ 138.78941953338483, 36.744873801784593 ], [ 138.797482282881106, 36.734842666555892 ], [ 138.802939948220114, 36.718773748409831 ], [ 138.813166614947363, 36.714417918951824 ], [ 138.82472795113415, 36.702472892410128 ], [ 138.820743554271644, 36.664730892117007 ], [ 138.838217755744949, 36.662957837334375 ], [ 138.871389222434686, 36.668010054120771 ], [ 138.874220610193106, 36.662905891593653 ], [ 138.893203139313528, 36.657144467643093 ], [ 138.888353087425116, 36.650352837913204 ], [ 138.888006939268848, 36.640154224637797 ], [ 138.892782438259019, 36.612382559107857 ], [ 138.905558859254029, 36.605560892021629 ], [ 138.920697497091851, 36.586229505087658 ], [ 138.916414696181391, 36.583820613430589 ], [ 138.9024924381755, 36.586635054364308 ], [ 138.896259637272465, 36.582964775404093 ], [ 138.897914915940646, 36.575884504666192 ], [ 138.90425046708549, 36.573113667361895 ], [ 138.902658248879106, 36.563464774579757 ], [ 138.896458782247123, 36.561961440867833 ], [ 138.88170538339682, 36.566646441080422 ], [ 138.863206160735785, 36.581143972916095 ], [ 138.835946082645705, 36.580550639800265 ], [ 138.820228832694511, 36.587297558835303 ], [ 138.814197134590131, 36.583916721279707 ], [ 138.806232698080635, 36.58595755909414 ], [ 138.803265161957711, 36.578465891687586 ], [ 138.795488223302982, 36.582246441020516 ], [ 138.779732334879441, 36.575704748175667 ], [ 138.737798948862519, 36.598579467568413 ], [ 138.717040272190843, 36.590090026633447 ], [ 138.698406329288673, 36.595180612994966 ], [ 138.681570168028884, 36.592351441166102 ], [ 138.678262386899746, 36.597856694131167 ], [ 138.674060415256008, 36.593576973398683 ], [ 138.684494890127098, 36.578843667201511 ], [ 138.678135422411856, 36.570136720733103 ], [ 138.649848392289528, 36.570360053873458 ], [ 138.646275304861547, 36.563944224746251 ], [ 138.631088300584679, 36.558835026915006 ], [ 138.618578003372249, 36.564431667187762 ], [ 138.616747172544024, 36.572208053658812 ], [ 138.597648495082012, 36.581468306217403 ], [ 138.593027912408274, 36.59382522495423 ], [ 138.593940414918279, 36.598954386835544 ], [ 138.608036004657947, 36.599056360063003 ], [ 138.616202088955333, 36.60647469405194 ], [ 138.618463281355389, 36.603188612664383 ], [ 138.630374189417353, 36.613934440921753 ], [ 138.623712827385134, 36.629898331742652 ], [ 138.613091725203049, 36.639122748116392 ], [ 138.601034228546837, 36.643681333326924 ], [ 138.587796136082829, 36.639881026788032 ], [ 138.568654552865382, 36.642194891581028 ], [ 138.555849415618127, 36.654310387314581 ], [ 138.536694811116718, 36.656324224783191 ], [ 138.525113164640857, 36.651260306018344 ], [ 138.534617367297756, 36.665638388101172 ], [ 138.518271946293339, 36.676208891727015 ], [ 138.519899195791368, 36.689194171274039 ], [ 138.514335641576622, 36.690785251837951 ], [ 138.537084694203372, 36.697130332199151 ], [ 138.543639143931387, 36.703834531638392 ], [ 138.559777173178077, 36.707037639775308 ], [ 138.574768520950556, 36.707234360177608 ], [ 138.584055719895673, 36.701197973008107 ], [ 138.595728560324915, 36.714535532289062 ], [ 138.610861581896529, 36.706380837905385 ], [ 138.622577782238977, 36.720508108062802 ], [ 138.630330830403523, 36.719510053945896 ], [ 138.648925084425173, 36.727119558620814 ], [ 138.676158780903052, 36.730600693966892 ], [ 138.68470383771205, 36.736421838297247 ], [ 138.712401414393867, 36.738757386644124 ], [ 138.721873747775248, 36.749690198344013 ], [ 138.721389882836888, 36.759236054000723 ], [ 138.726985772175681, 36.764152440782595 ], [ 138.729392166415437, 36.762425225343918 ], [ 138.729462724525206, 36.762392170762098 ] ] ] } },
{ "type": "Feature", "properties": { "regioncode": "1042400", "regionname": "群馬県長野原町", "name": "長野原町", "namekana": "ながのはらまち", "PrefCode": "10" }, "geometry": { "type": "Polygon", "coordinates": [ [ [ 138.608337976316648, 36.575064081042569 ], [ 138.616747172544024, 36.572208053658812 ], [ 138.618578003372249, 36.564431667187762 ], [ 138.631088300584679, 36.558835026915006 ], [ 138.646275304861547, 36.563944224746251 ], [ 138.649610337247282, 36.570290054242662 ], [ 138.674282088247878, 36.568567278756973 ], [ 138.68155457828118, 36.574998107676606 ], [ 138.691874060439545, 36.568180892234466 ], [ 138.706581894239093, 36.569244226340004 ], [ 138.714129104674498, 36.566853946152719 ], [ 138.721957444980148, 36.547979504750401 ], [ 138.722245772124779, 36.543560053653607 ], [ 138.713544085791, 36.534414225436194 ], [ 138.700262672084705, 36.534879225296038 ], [ 138.681418170911911, 36.519905640033301 ], [ 138.664149273869953, 36.523671468363602 ], [ 138.65917230875516, 36.518214838144331 ], [ 138.650390635819235, 36.521093171412758 ], [ 138.644768949427544, 36.515786774739922 ], [ 138.63982360627449, 36.504599802039309 ], [ 138.639986353887139, 36.489396198076122 ], [ 138.644661608146748, 36.483915359906007 ], [ 138.639685161940747, 36.47101480189167 ], [ 138.647395746816301, 36.466263973103935 ], [ 138.648108780595862, 36.45938119798393 ], [ 138.655196277386381, 36.45170869400107 ], [ 138.642510635757276, 36.437813413858009 ], [ 138.647189493600308, 36.424810081320231 ], [ 138.644422776989586, 36.411439277700538 ], [ 138.637151387726476, 36.417216224848971 ], [ 138.621468301221171, 36.416399305883317 ], [ 138.612621920265497, 36.422720946314655 ], [ 138.59239688690684, 36.424391505363758 ], [ 138.586861894261119, 36.420385135365734 ], [ 138.583842166882505, 36.422545108170254 ], [ 138.570938520596314, 36.419564027358035 ], [ 138.580779442017729, 36.456041440560114 ], [ 138.569040829670598, 36.455378080833839 ], [ 138.569335304580704, 36.477687468401996 ], [ 138.574840311131538, 36.488989693719418 ], [ 138.565095305104364, 36.509204359693513 ], [ 138.56273730158523, 36.530404891272781 ], [ 138.572047886500854, 36.537884080585911 ], [ 138.585107612826164, 36.521522720896883 ], [ 138.596028197343458, 36.528085802317946 ], [ 138.591848754616422, 36.544207170724405 ], [ 138.596568223145027, 36.54977774774494 ], [ 138.591015136139731, 36.561591892351998 ], [ 138.581857911713314, 36.56993046841643 ], [ 138.582564305798087, 36.57550883806249 ], [ 138.596782918297095, 36.582496359919105 ], [ 138.608333333116889, 36.575064946190366 ], [ 138.608337976316648, 36.575064081042569 ] ] ] } },
{ "type": "Feature", "properties": { "regioncode": "1042500", "regionname": "群馬県嬬恋村", "name": "嬬恋村", "namekana": "つまごいむら", "PrefCode": "10" }, "geometry": { "type": "Polygon", "coordinates": [ [ [ 138.525763968932097, 36.650456695220385 ], [ 138.527575305156233, 36.639943946056292 ], [ 138.538911582403671, 36.633380361014929 ], [ 138.534357081913868, 36.621626468286934 ], [ 138.527725160987416, 36.618918694142451 ], [ 138.538852555401149, 36.60991789149756 ], [ 138.541265550664662, 36.599004279424037 ], [ 138.559310752389365, 36.592566558999522 ], [ 138.561388494783273, 36.583059054032162 ], [ 138.587316809123536, 36.566304667226689 ], [ 138.596568223145027, 36.54977774774494 ], [ 138.591848754616422, 36.544207170724405 ], [ 138.596028197343458, 36.528085802317946 ], [ 138.58720344868027, 36.521318001024952 ], [ 138.572163995272263, 36.537874919192234 ], [ 138.562673138554601, 36.530099891596763 ], [ 138.565095305104364, 36.509204359693513 ], [ 138.574840311131538, 36.488989693719418 ], [ 138.569335304580704, 36.477687468401996 ], [ 138.569040829670598, 36.455378080833839 ], [ 138.580779442017729, 36.456041440560114 ], [ 138.580623060705761, 36.450581440581061 ], [ 138.571911051054258, 36.430930946306205 ], [ 138.570938520596314, 36.419564027358035 ], [ 138.55500797663683, 36.417773747860224 ], [ 138.54031542231894, 36.402729332892477 ], [ 138.529346808608352, 36.403042666585861 ], [ 138.50475216637949, 36.414903747709843 ], [ 138.491822750019992, 36.413075693988162 ], [ 138.488957419149642, 36.400933504577608 ], [ 138.459650000247393, 36.404750441379804 ], [ 138.456964773005893, 36.420240134974279 ], [ 138.446970362492266, 36.419314585999416 ], [ 138.400788560243882, 36.435009198215994 ], [ 138.403461115138384, 36.452048054973829 ], [ 138.39869778217701, 36.453155838071496 ], [ 138.403349196308454, 36.466870278940291 ], [ 138.397026161028521, 36.489528278807086 ], [ 138.40603180292544, 36.507364080587877 ], [ 138.403927392934861, 36.521285171273689 ], [ 138.412797133780714, 36.529328505306353 ], [ 138.412388560084082, 36.54148625208893 ], [ 138.418094694614524, 36.543338467896035 ], [ 138.428840855621047, 36.556225386792221 ], [ 138.426162243792533, 36.560393720194099 ], [ 138.428429494025977, 36.568696198370901 ], [ 138.420295083851101, 36.573964532137495 ], [ 138.427029585047421, 36.587752279444203 ], [ 138.426596030882138, 36.594528359895946 ], [ 138.431983838683323, 36.599280586230122 ], [ 138.441297445320856, 36.599689468394331 ], [ 138.438943307088039, 36.605575837854701 ], [ 138.44158333260475, 36.610669441441644 ], [ 138.454973646116969, 36.613850838145709 ], [ 138.460575667932744, 36.626472198033582 ], [ 138.458597638770129, 36.634378837813188 ], [ 138.467065447412551, 36.637207720959623 ], [ 138.473097172496523, 36.644048279204753 ], [ 138.481209105016205, 36.645247721205408 ], [ 138.490081854993718, 36.641195802344441 ], [ 138.525521219428811, 36.650904197870489 ], [ 138.525763968932097, 36.650456695220385 ] ] ] } },
{ "type": "Feature", "properties": { "regioncode": "1042600", "regionname": "群馬県草津町", "name": "草津町", "namekana": "くさつまち", "PrefCode": "10" }, "geometry": { "type": "Polygon", "coordinates": [ [ [ 138.538486445892772, 36.656100891642893 ], [ 138.559945226790887, 36.652644865368302 ], [ 138.568654552865382, 36.642194891581028 ], [ 138.575751724562451, 36.640230999760888 ], [ 138.600391167418479, 36.643744945972514 ], [ 138.613091725203049, 36.639122748116392 ], [ 138.624318663775398, 36.62930777483399 ], [ 138.630374189417353, 36.613934440921753 ], [ 138.618463281355389, 36.603188612664383 ], [ 138.616202088955333, 36.60647469405194 ], [ 138.608036004657947, 36.599056360063003 ], [ 138.593337912314837, 36.59855299962129 ], [ 138.596782918297095, 36.582496359919105 ], [ 138.584584577915962, 36.578696333069388 ], [ 138.581857911713314, 36.56993046841643 ], [ 138.584190700040836, 36.567512170750149 ], [ 138.580532362278745, 36.568341306106447 ], [ 138.561388494783273, 36.583059054032162 ], [ 138.559310752389365, 36.592566558999522 ], [ 138.541966109048758, 36.598058440844397 ], [ 138.538852555401149, 36.60991789149756 ], [ 138.527770440953191, 36.618683972887084 ], [ 138.534113191170945, 36.621355918940537 ], [ 138.539247392852985, 36.630557864853643 ], [ 138.536073280657433, 36.637118694372305 ], [ 138.527575305156233, 36.639943946056292 ], [ 138.525113164640857, 36.651260306018344 ], [ 138.538142283439697, 36.656126441382241 ], [ 138.538486445892772, 36.656100891642893 ] ] ] } },
{ "type": "Feature", "properties": { "regioncode": "1042800", "regionname": "群馬県高山村", "name": "高山村", "namekana": "たかやまむら", "PrefCode": "10" }, "geometry": { "type": "Polygon", "coordinates": [ [ [ 138.932058520984015, 36.662082775399824 ], [ 138.952154137403568, 36.653643054383508 ], [ 138.96867477422154, 36.654741945884155 ], [ 138.970094747074995, 36.64713694591336 ], [ 138.98638396944466, 36.644528054026523 ], [ 138.987027562072399, 36.637874440553048 ], [ 138.991860635659918, 36.63344083682523 ], [ 138.986464746550837, 36.625358331921518 ], [ 138.990680830356155, 36.607315838055513 ], [ 138.988858028675168, 36.597653639803696 ], [ 138.995241947158206, 36.591557505274693 ], [ 138.993438301036804, 36.589355865081188 ], [ 138.970315720394296, 36.58078502740716 ], [ 138.945570078396486, 36.585891134268479 ], [ 138.936991725088092, 36.580912559367164 ], [ 138.930885305012907, 36.58706005417821 ], [ 138.920697497091851, 36.586229505087658 ], [ 138.905558859254029, 36.605560892021629 ], [ 138.892877445337945, 36.612216171039506 ], [ 138.888006939268848, 36.640154224637797 ], [ 138.888353087425116, 36.650352837913204 ], [ 138.892953384990733, 36.65691419803187 ], [ 138.910669585033361, 36.660225305753329 ], [ 138.923614889715509, 36.65654335988819 ], [ 138.931885188350861, 36.66217722489904 ], [ 138.932058520984015, 36.662082775399824 ] ] ] } },
{ "type": "Feature", "properties": { "regioncode": "1042900", "regionname": "群馬県東吾妻町", "name": "東吾妻町", "namekana": "ひがしあがつままち", "PrefCode": "10" }, "geometry": { "type": "Polygon", "coordinates": [ [ [ 138.737798948862519, 36.598579467568413 ], [ 138.779732334879441, 36.575704748175667 ], [ 138.795488223302982, 36.582246441020516 ], [ 138.803265161957711, 36.578465891687586 ], [ 138.806232698080635, 36.58595755909414 ], [ 138.814197134590131, 36.583916721279707 ], [ 138.820228832694511, 36.587297558835303 ], [ 138.835946082645705, 36.580550639800265 ], [ 138.863397275663829, 36.581102026737199 ], [ 138.881054838110344, 36.566969775235009 ], [ 138.89632267255331, 36.563318667122815 ], [ 138.901437950700938, 36.554958667408641 ], [ 138.909703800390162, 36.555722279059978 ], [ 138.912706615118282, 36.549844775116355 ], [ 138.926367755867318, 36.551554505036449 ], [ 138.936829442424937, 36.546506441319252 ], [ 138.94409418929547, 36.55032422618217 ], [ 138.952591698947799, 36.546354197788048 ], [ 138.945313358824478, 36.544768387251338 ], [ 138.941094424168455, 36.530407838351096 ], [ 138.922560466991968, 36.513447558957751 ], [ 138.917979363656741, 36.514535053350073 ], [ 138.893125965790773, 36.502840333314793 ], [ 138.880775667862849, 36.482915332676498 ], [ 138.865792826777579, 36.481330053639113 ], [ 138.860564475070532, 36.473458359715607 ], [ 138.85074691263992, 36.477181412692119 ], [ 138.826786251984004, 36.473010559389877 ], [ 138.791768612031888, 36.476776946199152 ], [ 138.780022476855834, 36.473419134885205 ], [ 138.780794112258491, 36.468644973186997 ], [ 138.77379518789769, 36.464969693996238 ], [ 138.775655252987576, 36.477953054390014 ], [ 138.734667327834927, 36.47684444121802 ], [ 138.722760389380483, 36.482275027070898 ], [ 138.697673086843565, 36.473040306265148 ], [ 138.687366420024318, 36.473612278683788 ], [ 138.681778585913094, 36.465371720628468 ], [ 138.670304111645464, 36.462581171084253 ], [ 138.66206488998273, 36.453664505412632 ], [ 138.655196277386381, 36.45170869400107 ], [ 138.648108780595862, 36.45938119798393 ], [ 138.647395746816301, 36.466263973103935 ], [ 138.639685161940747, 36.47101480189167 ], [ 138.644661608146748, 36.483915359906007 ], [ 138.639986353887139, 36.489396198076122 ], [ 138.63982360627449, 36.504599802039309 ], [ 138.644861996883719, 36.515950107811307 ], [ 138.650390635819235, 36.521093171412758 ], [ 138.65917230875516, 36.518214838144331 ], [ 138.664149273869953, 36.523671468363602 ], [ 138.681418170911911, 36.519905640033301 ], [ 138.700262672084705, 36.534879225296038 ], [ 138.713544085791, 36.534414225436194 ], [ 138.722273839066474, 36.543671720673444 ], [ 138.713858559824757, 36.567133387096192 ], [ 138.691874060439545, 36.568180892234466 ], [ 138.681922386608903, 36.574319505340952 ], [ 138.684301555672278, 36.580121171255087 ], [ 138.674992113795042, 36.596339197895702 ], [ 138.678262386899746, 36.597856694131167 ], [ 138.681570168028884, 36.592351441166102 ], [ 138.698406329288673, 36.595180612994966 ], [ 138.717040272190843, 36.590090026633447 ], [ 138.737517276701055, 36.598577251638915 ], [ 138.737798948862519, 36.598579467568413 ] ] ] } },
{ "type": "Feature", "properties": { "regioncode": "1044300", "regionname": "群馬県片品村", "name": "片品村", "namekana": "かたしなむら", "PrefCode": "10" }, "geometry": { "type": "Polygon", "coordinates": [ [ [ 139.18648674356848, 36.95991608136211 ], [ 139.193123164702342, 36.961124135270666 ], [ 139.208106252201787, 36.955923864894487 ], [ 139.228714669246642, 36.961197748377458 ], [ 139.237952697758828, 36.946570838273601 ], [ 139.229811504897043, 36.938271945693771 ], [ 139.234970414553004, 36.937372531916878 ], [ 139.240847367212268, 36.92932113456277 ], [ 139.254894916067542, 36.932421135427091 ], [ 139.266135006325499, 36.941153639728725 ], [ 139.281710584276084, 36.931147306003425 ], [ 139.294399831287251, 36.9346642523534 ], [ 139.304454553035271, 36.925824279067285 ], [ 139.33315968876866, 36.924559027377256 ], [ 139.342386718572243, 36.92753319779888 ], [ 139.350015057748806, 36.918363505171669 ], [ 139.34939975419536, 36.913040170667387 ], [ 139.372975187554971, 36.918407413671275 ], [ 139.383302438057171, 36.911402694079129 ], [ 139.393289196239493, 36.910795505108524 ], [ 139.394154694783424, 36.903437440985158 ], [ 139.379420973099514, 36.897986586212028 ], [ 139.370631970688919, 36.889595468156358 ], [ 139.370233865100886, 36.878231027739787 ], [ 139.362409921580706, 36.877513802220221 ], [ 139.360955719630851, 36.874163802417627 ], [ 139.356146550922631, 36.877813531869037 ], [ 139.355680894557736, 36.858541305936569 ], [ 139.348526082612693, 36.852740468298009 ], [ 139.363824746714727, 36.84731519833781 ], [ 139.366357496601267, 36.841241838240308 ], [ 139.390920051918897, 36.832655972894884 ], [ 139.397756225969147, 36.834616531827521 ], [ 139.406296251970502, 36.829622332104975 ], [ 139.40298089405303, 36.822802333261109 ], [ 139.39107269834642, 36.814433441050539 ], [ 139.393701854656911, 36.809679252395654 ], [ 139.38861177731178, 36.805268135316226 ], [ 139.377648105375783, 36.804259532151718 ], [ 139.37604236136599, 36.785905052676071 ], [ 139.362365305314597, 36.780827531665295 ], [ 139.358838833345544, 36.774558080690952 ], [ 139.346616861478992, 36.776719468128988 ], [ 139.332870661052198, 36.774066135343901 ], [ 139.331475615607246, 36.769058080665957 ], [ 139.302339104765906, 36.762920026937763 ], [ 139.273064501225804, 36.741368359562216 ], [ 139.252918197217127, 36.746001441013732 ], [ 139.243825109741124, 36.741893134660472 ], [ 139.232220116864937, 36.742855918266059 ], [ 139.208653554418106, 36.718579000220757 ], [ 139.208667950765403, 36.7096323331657 ], [ 139.193206030034275, 36.722127919268132 ], [ 139.191959143399799, 36.730158467639228 ], [ 139.19509972797016, 36.733467918809481 ], [ 139.183186083271153, 36.73459125208467 ], [ 139.175805810389875, 36.74244513583443 ], [ 139.16761608291597, 36.74449958578731 ], [ 139.15851046698458, 36.740044613268367 ], [ 139.15526992186949, 36.74207627889723 ], [ 139.151688807092796, 36.747434613216853 ], [ 139.152775771784491, 36.75370989179811 ], [ 139.158933606101073, 36.758200170801274 ], [ 139.161937859744512, 36.775787387378102 ], [ 139.154423995271259, 36.785674613092965 ], [ 139.144201478915193, 36.791741559225613 ], [ 139.139100389371492, 36.803640440653851 ], [ 139.151275719698788, 36.807907080747214 ], [ 139.159088275103841, 36.814994305942491 ], [ 139.158930532218392, 36.82431208093783 ], [ 139.176102022790133, 36.836716775259049 ], [ 139.189826808560383, 36.835365667091935 ], [ 139.19815267180843, 36.841287333143953 ], [ 139.193703256200365, 36.850370919282568 ], [ 139.195429389754622, 36.856048135213314 ], [ 139.165354577551739, 36.865485639650615 ], [ 139.156813994870049, 36.862734531673368 ], [ 139.153228754903125, 36.872102585965649 ], [ 139.158013217436064, 36.879745333180608 ], [ 139.173324967573308, 36.890925304659163 ], [ 139.171379170112687, 36.900283612998408 ], [ 139.176159247551254, 36.916246386861303 ], [ 139.173244033085666, 36.928028892419491 ], [ 139.16619099921536, 36.936014721102538 ], [ 139.167346394220772, 36.952836360109984 ], [ 139.180072580884939, 36.964477468860139 ], [ 139.186215356953198, 36.960006081015877 ], [ 139.18648674356848, 36.95991608136211 ] ] ] } },
{ "type": "Feature", "properties": { "regioncode": "1044400", "regionname": "群馬県川場村", "name": "川場村", "namekana": "かわばむら", "PrefCode": "10" }, "geometry": { "type": "Polygon", "coordinates": [ [ [ 139.137941504996547, 36.80366794641867 ], [ 139.144201478915193, 36.791741559225613 ], [ 139.154423995271259, 36.785674613092965 ], [ 139.161937859744512, 36.775787387378102 ], [ 139.158933606101073, 36.758200170801274 ], [ 139.15278133589004, 36.753737107981181 ], [ 139.15275547318663, 36.744731279025359 ], [ 139.15851046698458, 36.740044613268367 ], [ 139.166858029074888, 36.744525972795486 ], [ 139.17562941556514, 36.7425243058521 ], [ 139.183186083271153, 36.73459125208467 ], [ 139.19509972797016, 36.733467918809481 ], [ 139.191985525012001, 36.72981513526031 ], [ 139.19686131010144, 36.717597919008824 ], [ 139.176734810962785, 36.707242640235734 ], [ 139.173476419701046, 36.697937360420894 ], [ 139.160656394177295, 36.697114054470092 ], [ 139.145695719581909, 36.684861279024858 ], [ 139.138157666043526, 36.689356559157943 ], [ 139.110162309443126, 36.687682694201044 ], [ 139.106443891572439, 36.672606586225015 ], [ 139.09570994785588, 36.669220775418523 ], [ 139.093035252574964, 36.674121054443162 ], [ 139.073492087889576, 36.662716333392098 ], [ 139.077234332398575, 36.664224386746127 ], [ 139.087865577134721, 36.689784667028789 ], [ 139.082165551698949, 36.690172720894395 ], [ 139.079855616043915, 36.701639945726981 ], [ 139.08402700444276, 36.704482171215261 ], [ 139.082924889771903, 36.728991332883766 ], [ 139.088194449314415, 36.749819946233572 ], [ 139.100982334866899, 36.767729387201484 ], [ 139.11634661530411, 36.778919081250649 ], [ 139.121919467609359, 36.795336865304137 ], [ 139.131977860390066, 36.805047667415977 ], [ 139.137869000753881, 36.803702108065863 ], [ 139.137941504996547, 36.80366794641867 ] ] ] } },
{ "type": "Feature", "properties": { "regioncode": "1044800", "regionname": "群馬県昭和村", "name": "昭和村", "namekana": "しょうわむら", "PrefCode": "10" }, "geometry": { "type": "Polygon", "coordinates": [ [ [ 139.118457755820828, 36.658077694130327 ], [ 139.127805810989457, 36.652499359557851 ], [ 139.128388003303826, 36.647054360270545 ], [ 139.124568521420201, 36.645701612639357 ], [ 139.128931828740974, 36.63495466742404 ], [ 139.142952916843683, 36.621917441236974 ], [ 139.146323644220843, 36.601934973020661 ], [ 139.158693605825306, 36.589347747800389 ], [ 139.162843280992661, 36.579043332883543 ], [ 139.161718781296827, 36.569573612931947 ], [ 139.156031581992011, 36.57707277438908 ], [ 139.132387107678937, 36.578436667318385 ], [ 139.120915447390075, 36.573795000039297 ], [ 139.109463799714604, 36.580218612798774 ], [ 139.095434332628429, 36.578983612503748 ], [ 139.077232412346007, 36.586146891565818 ], [ 139.072949415383277, 36.586385720924341 ], [ 139.07687360623197, 36.583847585897445 ], [ 139.075000998297469, 36.57953944119231 ], [ 139.070131828621015, 36.579789441029959 ], [ 139.063855720864922, 36.58701944079462 ], [ 139.056853191121945, 36.586920000058001 ], [ 139.050121529984722, 36.592599440911499 ], [ 139.05015128405455, 36.600226387038163 ], [ 139.042569079199666, 36.615018892008322 ], [ 139.046768002141675, 36.621909413888375 ], [ 139.061288884874216, 36.629448026805051 ], [ 139.066175058032513, 36.642087196866669 ], [ 139.094204357744957, 36.65755522489377 ], [ 139.118159974103605, 36.658332694198521 ], [ 139.118457755820828, 36.658077694130327 ] ] ] } },
{ "type": "Feature", "properties": { "regioncode": "1044900", "regionname": "群馬県みなかみ町", "name": "みなかみ町", "namekana": "みなかみまち", "PrefCode": "10" }, "geometry": { "type": "Polygon", "coordinates": [ [ [ 139.108341479076103, 37.055405506259149 ], [ 139.115209493623297, 37.047609081094265 ], [ 139.125015330693032, 37.044829639975944 ], [ 139.131906108879889, 37.025727721357327 ], [ 139.143220000202859, 37.021282694440856 ], [ 139.150693554364125, 37.009249386849774 ], [ 139.170914694557609, 37.002066586204023 ], [ 139.179446614969379, 36.990758000881101 ], [ 139.175215939663985, 36.973295801759889 ], [ 139.1803142547991, 36.964521918751586 ], [ 139.167024136554687, 36.95172219812099 ], [ 139.166250169210002, 36.935784170902821 ], [ 139.173244033085666, 36.928028892419491 ], [ 139.176159247551254, 36.916246386861303 ], [ 139.171379170112687, 36.900283612998408 ], [ 139.173324967573308, 36.890925304659163 ], [ 139.158013217436064, 36.879745333180608 ], [ 139.153244305980024, 36.871973414541515 ], [ 139.156813994870049, 36.862734531673368 ], [ 139.165354577551739, 36.865485639650615 ], [ 139.195429389754622, 36.856048135213314 ], [ 139.193703256200365, 36.850370919282568 ], [ 139.19811072562959, 36.841140945997893 ], [ 139.189826808560383, 36.835365667091935 ], [ 139.176102022790133, 36.836716775259049 ], [ 139.158930532218392, 36.82431208093783 ], [ 139.159088275103841, 36.814994305942491 ], [ 139.151275719698788, 36.807907080747214 ], [ 139.141515939609008, 36.803885720849394 ], [ 139.132150636342885, 36.805130720706245 ], [ 139.121140026091439, 36.794321027093758 ], [ 139.108714137447578, 36.796897693573726 ], [ 139.080370414962772, 36.790203026948177 ], [ 139.073973191010055, 36.793075802406406 ], [ 139.069708170595618, 36.789026080589224 ], [ 139.0593195332699, 36.793345531571049 ], [ 139.057371479410335, 36.789732197682838 ], [ 139.052732282568854, 36.791645533214819 ], [ 139.047169753581329, 36.788249415278358 ], [ 139.04516917032106, 36.782770532234338 ], [ 139.037960246168495, 36.781719413620067 ], [ 139.037441051363544, 36.773296359739277 ], [ 139.02512405982759, 36.771037198008344 ], [ 139.024244863709555, 36.765198586145914 ], [ 139.029629558957026, 36.756520801993474 ], [ 139.025284500679277, 36.746592197571886 ], [ 139.03323172506407, 36.741796080724612 ], [ 139.023886938931128, 36.734470802285728 ], [ 139.029033892100529, 36.728754973063587 ], [ 139.022363865100374, 36.728476080706628 ], [ 139.01798741868447, 36.719735801765864 ], [ 139.02651518782568, 36.711824134776066 ], [ 139.023515965889146, 36.704986919310954 ], [ 139.028724553195616, 36.692645801662479 ], [ 139.026275914202188, 36.687503586121636 ], [ 139.03034619991729, 36.683631640487874 ], [ 139.023551724732329, 36.679369134577939 ], [ 139.02351613496171, 36.670681081067073 ], [ 139.017087495891246, 36.667959693884825 ], [ 139.014573281032199, 36.659236639659241 ], [ 139.010053476386929, 36.660420134881349 ], [ 138.997807366716643, 36.65074944073416 ], [ 138.99107652396242, 36.652465000059749 ], [ 138.985230363190794, 36.644668612666408 ], [ 138.970094747074995, 36.64713694591336 ], [ 138.96867477422154, 36.654741945884155 ], [ 138.952154137403568, 36.653643054383508 ], [ 138.931475745908983, 36.662293613359623 ], [ 138.923614889715509, 36.65654335988819 ], [ 138.91018763834893, 36.660222251655625 ], [ 138.897650635768287, 36.656369198080085 ], [ 138.876247561575724, 36.661918945003379 ], [ 138.871389222434686, 36.668010054120771 ], [ 138.838217755744949, 36.662957837334375 ], [ 138.820743554271644, 36.664730892117007 ], [ 138.82472795113415, 36.702472892410128 ], [ 138.813166614947363, 36.714417918951824 ], [ 138.802939948220114, 36.718773748409831 ], [ 138.797482282881106, 36.734842666555892 ], [ 138.78941953338483, 36.744873801784593 ], [ 138.795344642941018, 36.758137134621109 ], [ 138.807407522938888, 36.764889081765773 ], [ 138.817770337131378, 36.761585748683387 ], [ 138.826923502018076, 36.772291333178543 ], [ 138.825054915851752, 36.775774667367045 ], [ 138.831763890691036, 36.793899279228413 ], [ 138.826737523118254, 36.799850666974748 ], [ 138.821744254194073, 36.817626135038154 ], [ 138.83957011756695, 36.817175559404575 ], [ 138.856445383147957, 36.811643891552421 ], [ 138.875583502176937, 36.818588837704738 ], [ 138.881891052030483, 36.825785468124934 ], [ 138.929067249953732, 36.832643775389954 ], [ 138.924970946851772, 36.846457360219063 ], [ 138.916019000776373, 36.850838198024462 ], [ 138.922114915870679, 36.861037332906619 ], [ 138.91706939004041, 36.871048693842226 ], [ 138.923149195578958, 36.883599251904002 ], [ 138.930530052120275, 36.886967026806872 ], [ 138.932277029261513, 36.893483413628701 ], [ 138.940634838227311, 36.8951581347402 ], [ 138.954685966384318, 36.895333441385276 ], [ 138.971470143232636, 36.88721319823054 ], [ 138.979531283841766, 36.891779306269996 ], [ 138.979633022346206, 36.905110694403049 ], [ 138.974396394178257, 36.913041224672838 ], [ 138.976690894769035, 36.920790666556059 ], [ 138.966657300793827, 36.931153720867599 ], [ 138.963798806569685, 36.951424559395946 ], [ 138.966554553250148, 36.979075386619854 ], [ 138.9707751363635, 36.981435385734528 ], [ 139.000268494595389, 36.979130107668368 ], [ 139.01549885878535, 36.988286225029299 ], [ 139.030616355360621, 36.983563694309112 ], [ 139.047389170174142, 36.98729286537349 ], [ 139.054230894839975, 36.998313108263403 ], [ 139.073540973237414, 37.008529748449178 ], [ 139.080683191076446, 37.008703919250536 ], [ 139.088183527947535, 37.016172504657391 ], [ 139.091194915912752, 37.019969441436615 ], [ 139.090405577355568, 37.044917197970335 ], [ 139.094623411241514, 37.056194386162019 ], [ 139.097016199638006, 37.058626332839026 ], [ 139.108333333016958, 37.055406134885288 ], [ 139.108341479076103, 37.055405506259149 ] ] ] } },
{ "type": "Feature", "properties": { "regioncode": "1046400", "regionname": "群馬県玉村町", "name": "玉村町", "namekana": "たまむらまち", "PrefCode": "10" }, "geometry": { "type": "Polygon", "coordinates": [ [ [ 139.136178520822114, 36.334343387137665 ], [ 139.137755694269913, 36.317962558924989 ], [ 139.144041803386585, 36.308612278833664 ], [ 139.140751505078015, 36.307735054029592 ], [ 139.154332088155456, 36.302831441218075 ], [ 139.171367561663715, 36.27372172118055 ], [ 139.163903385632807, 36.278911721298925 ], [ 139.135664721050148, 36.278443107963142 ], [ 139.129910272241318, 36.283411169789701 ], [ 139.111267301944508, 36.284844198101325 ], [ 139.107430466742699, 36.282471945723785 ], [ 139.095663307215887, 36.288795613227023 ], [ 139.100741141190724, 36.29924810781398 ], [ 139.087656718582707, 36.312273386507627 ], [ 139.091178145355229, 36.3233167212897 ], [ 139.111594501385184, 36.316602052842541 ], [ 139.10792399489651, 36.321267559350417 ], [ 139.108751802853476, 36.327085892400078 ], [ 139.126448494802275, 36.327368945920171 ], [ 139.11998905305245, 36.334227558954751 ], [ 139.135961855255459, 36.334339504764387 ], [ 139.136178520822114, 36.334343387137665 ] ] ] } },
{ "type": "Feature", "properties": { "regioncode": "1052100", "regionname": "群馬県板倉町", "name": "板倉町", "namekana": "いたくらまち", "PrefCode": "10" }, "geometry": { "type": "Polygon", "coordinates": [ [ [ 139.626029246952271, 36.271352945582009 ], [ 139.63308483759522, 36.270890999819812 ], [ 139.636974811938103, 36.263989332641643 ], [ 139.642697886098631, 36.266761838188359 ], [ 139.630826134518543, 36.254460747565474 ], [ 139.642061388222601, 36.242030775100261 ], [ 139.641515810905958, 36.235458586244818 ], [ 139.645494721004638, 36.240466891833648 ], [ 139.653497224017769, 36.236953838648787 ], [ 139.65410277532294, 36.231581613400806 ], [ 139.66309138765746, 36.230558837820183 ], [ 139.659632218252341, 36.228513559153498 ], [ 139.65905302157978, 36.221209135093545 ], [ 139.665356354512255, 36.223442170619705 ], [ 139.669949948531325, 36.213246080841998 ], [ 139.664425472557582, 36.207060801914508 ], [ 139.659974669295593, 36.214901360409499 ], [ 139.650781581704678, 36.21209194578671 ], [ 139.651165667761461, 36.197668640395477 ], [ 139.628719780193819, 36.195079225126165 ], [ 139.624888611620236, 36.186571748287633 ], [ 139.601064746840621, 36.205467332751255 ], [ 139.587932217697698, 36.210342053942668 ], [ 139.591556693286861, 36.216882028183079 ], [ 139.580969169991249, 36.218479558684749 ], [ 139.579917276161382, 36.232463080306957 ], [ 139.574222283331778, 36.238813892047517 ], [ 139.587498756162745, 36.249301333389894 ], [ 139.593242672111728, 36.249515774933116 ], [ 139.593437690996666, 36.25459994553114 ], [ 139.597067134440749, 36.251332170743126 ], [ 139.600226057086957, 36.255793801842515 ], [ 139.603846304063723, 36.24910494573669 ], [ 139.616177756698221, 36.251950225322673 ], [ 139.621693865379598, 36.24931550490669 ], [ 139.625618054429765, 36.252726892432179 ], [ 139.589751050670543, 36.268624864745789 ], [ 139.608602527884386, 36.268095441051798 ], [ 139.619010077952794, 36.274393747673344 ], [ 139.625657301743104, 36.271388225086582 ], [ 139.626029246952271, 36.271352945582009 ] ] ] } },
{ "type": "Feature", "properties": { "regioncode": "1052200", "regionname": "群馬県明和町", "name": "明和町", "namekana": "めいわまち", "PrefCode": "10" }, "geometry": { "type": "Polygon", "coordinates": [ [ [ 139.579595279298815, 36.218235387353275 ], [ 139.591553358600663, 36.216799802269122 ], [ 139.587932217697698, 36.210342053942668 ], [ 139.572924383553527, 36.204000721056502 ], [ 139.526379973756889, 36.19135372059776 ], [ 139.493468445312601, 36.192166134859292 ], [ 139.491187911193265, 36.203396945912402 ], [ 139.478659026792684, 36.210503865361147 ], [ 139.501161050941846, 36.210468333147105 ], [ 139.507218054169925, 36.216401945793223 ], [ 139.532467613289782, 36.217041999588673 ], [ 139.537942087857118, 36.221516441530582 ], [ 139.561964668634573, 36.216523999982655 ], [ 139.57499388995609, 36.22189953203781 ], [ 139.579456109212174, 36.218285666650274 ], [ 139.579595279298815, 36.218235387353275 ] ] ] } },
{ "type": "Feature", "properties": { "regioncode": "1052300", "regionname": "群馬県千代田町", "name": "千代田町", "namekana": "ちよだまち", "PrefCode": "10" }, "geometry": { "type": "Polygon", "coordinates": [ [ [ 139.43160871596956, 36.241666027165479 ], [ 139.440218755091564, 36.235907413596294 ], [ 139.441506783011732, 36.230949108514608 ], [ 139.449040389402512, 36.229000224580773 ], [ 139.451749300290089, 36.232918801861274 ], [ 139.455120726440441, 36.232137693000197 ], [ 139.454915422009208, 36.228250225067882 ], [ 139.463384889900794, 36.227650225277728 ], [ 139.45952007768949, 36.215399973330136 ], [ 139.483914577595783, 36.209723892343789 ], [ 139.491187911193265, 36.203396945912402 ], [ 139.493468445312601, 36.192166134859292 ], [ 139.456638832416274, 36.190681387436143 ], [ 139.419454916311452, 36.211209135293416 ], [ 139.415829416394558, 36.221348000310002 ], [ 139.417345006067194, 36.227752170626218 ], [ 139.409344449187074, 36.234074946002011 ], [ 139.422380363263187, 36.238297972573434 ], [ 139.42774846961629, 36.24543880095996 ], [ 139.431608054068533, 36.241666666583455 ], [ 139.43160871596956, 36.241666027165479 ] ] ] } },
{ "type": "Feature", "properties": { "regioncode": "1052400", "regionname": "群馬県大泉町", "name": "大泉町", "namekana": "おおいずみまち", "PrefCode": "10" }, "geometry": { "type": "Polygon", "coordinates": [ [ [ 139.413673554391039, 36.271054332891197 ], [ 139.434886394091905, 36.267669306293499 ], [ 139.436981362100255, 36.263087946651467 ], [ 139.430768250054712, 36.255931279405047 ], [ 139.426753994801061, 36.241099081057769 ], [ 139.409344449187074, 36.234074946002011 ], [ 139.417345006067194, 36.227752170626218 ], [ 139.416866329317713, 36.217958027441057 ], [ 139.390074643330195, 36.229214415213164 ], [ 139.382918833137751, 36.237869108372706 ], [ 139.385271088190279, 36.244577441096055 ], [ 139.382442528799743, 36.252539945861884 ], [ 139.388460389035799, 36.267334081302863 ], [ 139.402528755397839, 36.264544612743748 ], [ 139.398656004870759, 36.269551558557623 ], [ 139.405962724000574, 36.276451278703576 ], [ 139.413595772027293, 36.271121837802639 ], [ 139.413673554391039, 36.271054332891197 ] ] ] } },
{ "type": "Feature", "properties": { "regioncode": "1052500", "regionname": "群馬県邑楽町", "name": "邑楽町", "namekana": "おうらまち", "PrefCode": "10" }, "geometry": { "type": "Polygon", "coordinates": [ [ [ 139.457065188407796, 36.28919286535853 ], [ 139.46848544704585, 36.279196198445845 ], [ 139.458497885768907, 36.276846775358422 ], [ 139.463877885655961, 36.271520946134785 ], [ 139.472125965640885, 36.270778721261024 ], [ 139.473767951429863, 36.276340081129888 ], [ 139.480910441763513, 36.271313441062489 ], [ 139.488167172976659, 36.275999801949354 ], [ 139.500317470674759, 36.275459251843074 ], [ 139.495271828831847, 36.261504000409332 ], [ 139.48816846979912, 36.260817639622417 ], [ 139.495402917610591, 36.256984586069848 ], [ 139.4890826072766, 36.255475973337525 ], [ 139.479006938519433, 36.241676864895453 ], [ 139.497547587551139, 36.243144640312948 ], [ 139.503838688804535, 36.236574946176859 ], [ 139.499370078066704, 36.241288802036649 ], [ 139.491618080310218, 36.23902602682972 ], [ 139.49603972755142, 36.228901333329929 ], [ 139.480446614619609, 36.225992720787474 ], [ 139.476419052997016, 36.219252748115878 ], [ 139.473135472623994, 36.224588558914888 ], [ 139.454915422009208, 36.228250225067882 ], [ 139.455120726440441, 36.232137693000197 ], [ 139.449866808806291, 36.233111026552706 ], [ 139.449040389402512, 36.229000224580773 ], [ 139.441366782850764, 36.231011332606954 ], [ 139.440218755091564, 36.235907413596294 ], [ 139.426619857320588, 36.246553532219764 ], [ 139.436981362100255, 36.263087946651467 ], [ 139.429716977656426, 36.279245413844819 ], [ 139.431748417555468, 36.285301505160362 ], [ 139.456565472918328, 36.28914869425688 ], [ 139.457065188407796, 36.28919286535853 ] ] ] } }
]
}
