{
"type": "FeatureCollection",
"name": "14_kanagawa_region",
"crs": { "type": "name", "properties": { "name": "urn:ogc:def:crs:OGC:1.3:CRS84" } },
"features": [
{ "type": "Feature", "properties": { "regioncode": "1413000", "regionname": "神奈川県川崎市", "name": "川崎市", "namekana": "かわさきし", "PrefCode": "14" }, "geometry": { "type": "MultiPolygon", "coordinates": [ [ [ [ 139.783135446643655, 35.49486244224795 ], [ 139.750615135879912, 35.480892693742874 ], [ 139.7819950847055, 35.494886386697431 ], [ 139.783135446643655, 35.49486244224795 ] ] ], [ [ [ 139.734057716790289, 35.49478619772492 ], [ 139.741843579417719, 35.477025135002009 ], [ 139.725328340330748, 35.469796432059752 ], [ 139.714496848051112, 35.486191820296312 ], [ 139.734067056249728, 35.494819108415186 ], [ 139.734057716790289, 35.49478619772492 ] ] ], [ [ [ 139.771203113133197, 35.506218251870905 ], [ 139.784427690585517, 35.502029467885677 ], [ 139.778341505256321, 35.50445161285171 ], [ 139.776091218934653, 35.503456225224681 ], [ 139.778676393900469, 35.499552919331791 ], [ 139.782100168687862, 35.500993170998072 ], [ 139.761561140634171, 35.491890414011436 ], [ 139.7589136714289, 35.495320892345376 ], [ 139.756113114228924, 35.494077225283775 ], [ 139.758190025649242, 35.490588026616194 ], [ 139.745610584061296, 35.48501325156036 ], [ 139.736283279849545, 35.49445366710313 ], [ 139.761188585684749, 35.505732251941936 ], [ 139.769766329252775, 35.506149890804863 ], [ 139.771203113133197, 35.506218251870905 ] ] ], [ [ [ 139.756959780069906, 35.526658892294108 ], [ 139.766032749711712, 35.513563586090697 ], [ 139.753828275054957, 35.508575413624499 ], [ 139.748515616402642, 35.518346080906952 ], [ 139.756846303614111, 35.526560108062597 ], [ 139.756959780069906, 35.526658892294108 ] ] ], [ [ [ 139.488169144290623, 35.583961053559847 ], [ 139.483748807361621, 35.571957721271872 ], [ 139.469926251795187, 35.569893251972076 ], [ 139.476385226796879, 35.581940775146734 ], [ 139.488082192439265, 35.584007721179432 ], [ 139.488169144290623, 35.583961053559847 ] ] ], [ [ [ 139.529451803358143, 35.642060107687882 ], [ 139.562510637156265, 35.632384026601585 ], [ 139.56563033677071, 35.627201837994505 ], [ 139.57654557661715, 35.621982135067526 ], [ 139.618520829672661, 35.613786359652806 ], [ 139.651051140897493, 35.592234413487461 ], [ 139.664492827282174, 35.589522441307679 ], [ 139.678789727563981, 35.562987748285991 ], [ 139.703735525374213, 35.552607694089886 ], [ 139.697761555651368, 35.543756892966314 ], [ 139.702226525034121, 35.537027413584326 ], [ 139.717302386595975, 35.538004053944007 ], [ 139.726563281270501, 35.543574864788241 ], [ 139.733647976672842, 35.540865693996636 ], [ 139.7395952527188, 35.545155945790327 ], [ 139.756853580028746, 35.54450174835705 ], [ 139.776496380603589, 35.534469999790701 ], [ 139.774464046778348, 35.532224297313519 ], [ 139.796442412787201, 35.518555468260331 ], [ 139.794213086964419, 35.516395395631037 ], [ 139.799609791758598, 35.513205180174964 ], [ 139.794111141615986, 35.516295505233415 ], [ 139.791560194847193, 35.513378440862425 ], [ 139.796078637918868, 35.51070880156999 ], [ 139.790642632751315, 35.507833559271376 ], [ 139.796474059930006, 35.506687251915196 ], [ 139.799913424464989, 35.51049575667389 ], [ 139.796510143428463, 35.506620197564132 ], [ 139.780189922327168, 35.513311441369979 ], [ 139.77625306003074, 35.509584999747972 ], [ 139.778810725634571, 35.508637641314124 ], [ 139.77533844501329, 35.509952774800752 ], [ 139.772148716090442, 35.512287531744221 ], [ 139.774711750646816, 35.514789639929973 ], [ 139.771016718746637, 35.513119306610747 ], [ 139.766938223120519, 35.518721865321879 ], [ 139.768977808179329, 35.522915693604432 ], [ 139.765306161350281, 35.521956332818547 ], [ 139.760958197363038, 35.530274026625079 ], [ 139.751727108019736, 35.533283224741069 ], [ 139.755876107796212, 35.527786467671376 ], [ 139.737863644991307, 35.51471336033336 ], [ 139.746461025256167, 35.515557053914961 ], [ 139.748771140775602, 35.506844198001374 ], [ 139.733812087657839, 35.500603802323667 ], [ 139.730310829980908, 35.515295972631066 ], [ 139.731368106253171, 35.499063612595705 ], [ 139.719836031307864, 35.494231172130924 ], [ 139.714158715552344, 35.502591027054279 ], [ 139.719167885389652, 35.506042694314942 ], [ 139.716289169909373, 35.506193251617333 ], [ 139.711206394159831, 35.503960171125073 ], [ 139.718033333071958, 35.493630837792978 ], [ 139.711456653901564, 35.490800855674991 ], [ 139.703402944390405, 35.504442440666139 ], [ 139.698875135778962, 35.502755531942285 ], [ 139.689397471216353, 35.519023306380518 ], [ 139.688695032349983, 35.526391918652166 ], [ 139.683700609595576, 35.530941640144647 ], [ 139.684914305850612, 35.539986080593224 ], [ 139.675623450262037, 35.540649414239113 ], [ 139.66645280165551, 35.53299944097148 ], [ 139.657248105615622, 35.537583054314553 ], [ 139.654168664152621, 35.541318892053255 ], [ 139.658357950858772, 35.554556108577628 ], [ 139.6484243327169, 35.55976638660951 ], [ 139.62856344924387, 35.562653332685215 ], [ 139.616482827420668, 35.560283891588369 ], [ 139.599562282773149, 35.567616665876471 ], [ 139.575694746915133, 35.568775532265079 ], [ 139.568009195568038, 35.571161359908899 ], [ 139.565314772758597, 35.57876330578199 ], [ 139.555881776622755, 35.587344386734117 ], [ 139.530868444223415, 35.592653279025683 ], [ 139.525925356570042, 35.592145775407289 ], [ 139.529155576568655, 35.582441891779922 ], [ 139.524215253431294, 35.573444666638125 ], [ 139.512787418904281, 35.567195505268387 ], [ 139.509271088589912, 35.575265774895627 ], [ 139.493955525327351, 35.582711054371714 ], [ 139.493678079979418, 35.589075775027027 ], [ 139.471059753704708, 35.601158000341513 ], [ 139.466048948899925, 35.609500504644643 ], [ 139.453516939355382, 35.604476054426414 ], [ 139.4494311412343, 35.611372170988943 ], [ 139.4530173021069, 35.618558026631661 ], [ 139.462776252122353, 35.625052747886059 ], [ 139.47546680944572, 35.619700504674597 ], [ 139.476043721840369, 35.61323966717697 ], [ 139.489287031271488, 35.604409107994002 ], [ 139.4997406608029, 35.605448531824322 ], [ 139.494677950726896, 35.617286027328362 ], [ 139.515735006265572, 35.625365170566226 ], [ 139.517272801998274, 35.630515972833905 ], [ 139.523492283042515, 35.63239402706273 ], [ 139.520986472347886, 35.637760135122164 ], [ 139.528795965561471, 35.642098441290102 ], [ 139.529451803358143, 35.642060107687882 ] ] ] ] } },
{ "type": "Feature", "properties": { "regioncode": "1420100", "regionname": "神奈川県横須賀市", "name": "横須賀市", "namekana": "よこすかし", "PrefCode": "14" }, "geometry": { "type": "MultiPolygon", "coordinates": [ [ [ [ 139.727498691311666, 35.210926946221662 ], [ 139.724317951112653, 35.210835666832622 ], [ 139.727661698828456, 35.21092769355829 ], [ 139.727498691311666, 35.210926946221662 ] ] ], [ [ [ 139.60591241192833, 35.220112135067041 ], [ 139.609235888025864, 35.21843408106804 ], [ 139.605870777814175, 35.220073278958694 ], [ 139.60591241192833, 35.220112135067041 ] ] ], [ [ [ 139.603884086381527, 35.223144693972529 ], [ 139.605807665191605, 35.220167722162728 ], [ 139.601706083069303, 35.221534278883894 ], [ 139.603830583914373, 35.223179585869218 ], [ 139.603884086381527, 35.223144693972529 ] ] ], [ [ [ 139.689838585981988, 35.272605721177115 ], [ 139.68813138765347, 35.274153359989612 ], [ 139.689881945895195, 35.272636612889414 ], [ 139.689838585981988, 35.272605721177115 ] ] ], [ [ [ 139.694934838072413, 35.287902720634122 ], [ 139.692921802798992, 35.284276387045679 ], [ 139.694933500780508, 35.287909306369443 ], [ 139.694934838072413, 35.287902720634122 ] ] ], [ [ [ 139.651842412097722, 35.307418440708545 ], [ 139.656958521218826, 35.301983585773939 ], [ 139.649715668343447, 35.294270918967811 ], [ 139.643688948885938, 35.300530224690192 ], [ 139.651797639349638, 35.307370441192973 ], [ 139.651842412097722, 35.307418440708545 ] ] ], [ [ [ 139.675230441132044, 35.31936822466389 ], [ 139.671995966440818, 35.321233171273889 ], [ 139.675105447058854, 35.319560532092908 ], [ 139.675230441132044, 35.31936822466389 ] ] ], [ [ [ 139.664044383941246, 35.324333837636573 ], [ 139.671349363782156, 35.321569532108299 ], [ 139.664051283539948, 35.324348973226563 ], [ 139.664044383941246, 35.324333837636573 ] ] ], [ [ [ 139.648992088214413, 35.327420441300376 ], [ 139.661873217275229, 35.328268080207806 ], [ 139.661224577652206, 35.322259530652843 ], [ 139.655692411575615, 35.321570504275428 ], [ 139.65606581098848, 35.31759541359753 ], [ 139.64894204903635, 35.318403612736574 ], [ 139.651209390101371, 35.315686721265251 ], [ 139.644876615163753, 35.312662305720892 ], [ 139.644028690271853, 35.308083081069412 ], [ 139.636678105810006, 35.311721134622701 ], [ 139.642283696135678, 35.303890694400081 ], [ 139.63174778223447, 35.301101081050092 ], [ 139.63352338479649, 35.295642359907049 ], [ 139.639668637597651, 35.295006666924166 ], [ 139.642741219032132, 35.299068332637489 ], [ 139.649066979257782, 35.288053027025626 ], [ 139.651543994559802, 35.291367559365426 ], [ 139.653877301796115, 35.28521661295639 ], [ 139.660803774075021, 35.28288235963322 ], [ 139.66272394265593, 35.284849278571414 ], [ 139.656973631627807, 35.292651323599785 ], [ 139.664613774406234, 35.289487891752856 ], [ 139.66542778226642, 35.292534864992092 ], [ 139.661338339193094, 35.300214532075074 ], [ 139.67396730194946, 35.300577892355875 ], [ 139.680204163291592, 35.295046837841369 ], [ 139.677425668260071, 35.292211081176504 ], [ 139.685078949234139, 35.288589135380334 ], [ 139.671996744354374, 35.286669838242517 ], [ 139.679065135947326, 35.284652918797235 ], [ 139.677320142710528, 35.280051197604735 ], [ 139.687406550272158, 35.274836386989705 ], [ 139.684589754014041, 35.273591415011822 ], [ 139.688000414887256, 35.269814693193609 ], [ 139.689232672250114, 35.272375694382845 ], [ 139.690994864121762, 35.266484224867156 ], [ 139.721080921447424, 35.26317155862057 ], [ 139.732672944301044, 35.265835197636306 ], [ 139.733079804789213, 35.261576800728847 ], [ 139.739270973376733, 35.261666892113453 ], [ 139.747010830285603, 35.253491026789504 ], [ 139.73418136188036, 35.247979748366731 ], [ 139.73640472070133, 35.246472179747343 ], [ 139.733219727608457, 35.240839946106689 ], [ 139.724439611399021, 35.239565306393843 ], [ 139.716680389388557, 35.246119721048331 ], [ 139.724495472787908, 35.236083360758528 ], [ 139.722046135021174, 35.234382999975537 ], [ 139.725243696139728, 35.236892532064758 ], [ 139.729482801689983, 35.232823359710324 ], [ 139.728769468436326, 35.223722919377281 ], [ 139.721984448723447, 35.223893640379231 ], [ 139.722373139308957, 35.227086441386234 ], [ 139.717660856363523, 35.228347000413805 ], [ 139.713391920300978, 35.223860441006593 ], [ 139.71330600536794, 35.220440304876206 ], [ 139.720057367053869, 35.221999359682741 ], [ 139.715292166200584, 35.217344360853645 ], [ 139.722763449573563, 35.218278558608631 ], [ 139.725059000572514, 35.211341505805876 ], [ 139.68986608275361, 35.208711026592653 ], [ 139.664782697663441, 35.193060189775963 ], [ 139.655006692904635, 35.204595028337963 ], [ 139.654963359071871, 35.209791946041548 ], [ 139.632864162850865, 35.205214466974098 ], [ 139.615716653600771, 35.189934143645871 ], [ 139.60939513637652, 35.190197440859265 ], [ 139.608054578156271, 35.194739946191589 ], [ 139.59889944105646, 35.194811640145133 ], [ 139.606325278988493, 35.199415386610838 ], [ 139.604932113126551, 35.205449440938992 ], [ 139.60820138798374, 35.208069559062949 ], [ 139.610899662589418, 35.205814467663629 ], [ 139.609535641956427, 35.21019133316355 ], [ 139.62305513588592, 35.207609775270953 ], [ 139.626945914222574, 35.216734802169412 ], [ 139.622730117301103, 35.215705467833118 ], [ 139.620782775704583, 35.221455252757778 ], [ 139.604225772101813, 35.223006000526539 ], [ 139.599835057941618, 35.238887386643626 ], [ 139.585914615667093, 35.251493612740092 ], [ 139.578053488777527, 35.253370541017716 ], [ 139.613243800361147, 35.25773010805807 ], [ 139.618332437891809, 35.261499252188798 ], [ 139.626859390448544, 35.25555317134183 ], [ 139.640767224228057, 35.262660305728559 ], [ 139.637762217852128, 35.264818360279151 ], [ 139.641873384948781, 35.272383891703271 ], [ 139.621120856042694, 35.281384721327868 ], [ 139.623994501145376, 35.286614667532945 ], [ 139.622103138748912, 35.294629919335364 ], [ 139.609433995182826, 35.312501747058036 ], [ 139.631602724286381, 35.325204847225962 ], [ 139.634482866091503, 35.321973441021555 ], [ 139.640732387189928, 35.330373467761376 ], [ 139.647470609780839, 35.327965026664685 ], [ 139.648992088214413, 35.327420441300376 ] ] ] ] } },
{ "type": "Feature", "properties": { "regioncode": "1420300", "regionname": "神奈川県平塚市", "name": "平塚市", "namekana": "ひらつかし", "PrefCode": "14" }, "geometry": { "type": "Polygon", "coordinates": [ [ [ 139.3549663040518, 35.403806801842507 ], [ 139.359014059950937, 35.394804892132129 ], [ 139.373469026874204, 35.394500468022216 ], [ 139.368749105087204, 35.343971414049577 ], [ 139.36956243755651, 35.340067413880092 ], [ 139.375212088367221, 35.338586946330565 ], [ 139.369352335242183, 35.329782801135423 ], [ 139.374360738857035, 35.315332604216337 ], [ 139.363703280681875, 35.311498000232575 ], [ 139.366492438075625, 35.314447027408448 ], [ 139.330042944326465, 35.312118874186751 ], [ 139.329154254065656, 35.32095355855995 ], [ 139.334069531983346, 35.323193838125178 ], [ 139.324171505410732, 35.328328802432338 ], [ 139.318863970196162, 35.322489359596318 ], [ 139.30545063583827, 35.319192170682186 ], [ 139.308879830839601, 35.321312972615658 ], [ 139.293773449884839, 35.324832197847684 ], [ 139.295747639841807, 35.331024666854944 ], [ 139.26370603100861, 35.334438585972009 ], [ 139.251507172617949, 35.328680531781174 ], [ 139.244534449105572, 35.336031306000052 ], [ 139.240327497016438, 35.335058504846188 ], [ 139.238740336597289, 35.346438748149751 ], [ 139.251191167038769, 35.354087054074341 ], [ 139.267093358072088, 35.356222891773086 ], [ 139.274798690007628, 35.372637558776375 ], [ 139.291825305193697, 35.373341945574396 ], [ 139.290385110184729, 35.381397000471225 ], [ 139.300616783437818, 35.38111061316431 ], [ 139.302763190868632, 35.38821255846284 ], [ 139.303976782802351, 35.383165332913848 ], [ 139.321595576374762, 35.369414865203908 ], [ 139.319644552953832, 35.383222613432906 ], [ 139.325037588513965, 35.378934000204026 ], [ 139.334770661436892, 35.384611251208355 ], [ 139.343878974435142, 35.380026000199791 ], [ 139.345877328276174, 35.388637667094713 ], [ 139.348500117386607, 35.387360720620791 ], [ 139.346943695794948, 35.378970440733326 ], [ 139.353371752104749, 35.381586585652485 ], [ 139.357365421876807, 35.389336863905214 ], [ 139.354986589159807, 35.40332208074949 ], [ 139.3549663040518, 35.403806801842507 ] ] ] } },
{ "type": "Feature", "properties": { "regioncode": "1420400", "regionname": "神奈川県鎌倉市", "name": "鎌倉市", "namekana": "かまくらし", "PrefCode": "14" }, "geometry": { "type": "Polygon", "coordinates": [ [ [ 139.503924670287347, 35.36726897308472 ], [ 139.521327107659999, 35.361650667244533 ], [ 139.525754578011401, 35.356793468443868 ], [ 139.529411920223993, 35.35837208080693 ], [ 139.530853994816084, 35.354106251902067 ], [ 139.542098443188706, 35.357012892231239 ], [ 139.544215422104116, 35.362995640236647 ], [ 139.546951530288993, 35.362586467591484 ], [ 139.548476743606898, 35.35543650479093 ], [ 139.557628637751463, 35.347113774780951 ], [ 139.569907497133386, 35.347246801598658 ], [ 139.573623255708753, 35.336914918688592 ], [ 139.588864357803914, 35.33638963996998 ], [ 139.59316041472141, 35.320414747742461 ], [ 139.568790947444313, 35.312858973063214 ], [ 139.551905472759472, 35.29940577535632 ], [ 139.551326900216282, 35.303878495096512 ], [ 139.539352697868821, 35.309401559134699 ], [ 139.525764422889893, 35.301626359768761 ], [ 139.501544720612401, 35.306219505026206 ], [ 139.490385706934944, 35.304746405622154 ], [ 139.492612139638595, 35.306856386912784 ], [ 139.488946589313741, 35.309339720851483 ], [ 139.502894189315498, 35.332787999966285 ], [ 139.509530830783319, 35.333462720827981 ], [ 139.516833671137078, 35.341367413575313 ], [ 139.509826719427679, 35.342858774612807 ], [ 139.511810077972768, 35.347529053822825 ], [ 139.508771776896083, 35.351709027149923 ], [ 139.504059831196287, 35.35100541376886 ], [ 139.503442087782219, 35.35537735997724 ], [ 139.495078781260759, 35.358099838037162 ], [ 139.503501335118585, 35.367317864727738 ], [ 139.503924670287347, 35.36726897308472 ] ] ] } },
{ "type": "Feature", "properties": { "regioncode": "1420500", "regionname": "神奈川県藤沢市", "name": "藤沢市", "namekana": "ふじさわし", "PrefCode": "14" }, "geometry": { "type": "MultiPolygon", "coordinates": [ [ [ [ 139.482666550620934, 35.302792532249612 ], [ 139.488036666958692, 35.298933973024475 ], [ 139.474132996140952, 35.298786081312642 ], [ 139.482690804437084, 35.302829918865712 ], [ 139.482666550620934, 35.302792532249612 ] ] ], [ [ [ 139.466977004285354, 35.424665721445933 ], [ 139.477853086750656, 35.42044686503084 ], [ 139.474858520604357, 35.40179386459522 ], [ 139.478767082135164, 35.391780278736917 ], [ 139.493252528881158, 35.376481171269063 ], [ 139.485732412320999, 35.359514000370893 ], [ 139.502615162060124, 35.355986531952965 ], [ 139.504059831196287, 35.35100541376886 ], [ 139.511119558720679, 35.349672667059963 ], [ 139.509826719427679, 35.342858774612807 ], [ 139.516767561973438, 35.342089080846449 ], [ 139.509647498033701, 35.333536054245542 ], [ 139.502894189315498, 35.332787999966285 ], [ 139.49646189450084, 35.317959415095004 ], [ 139.48301247664449, 35.304327225321231 ], [ 139.470781530443332, 35.314322973126764 ], [ 139.438044838298765, 35.31914554982734 ], [ 139.444145668188071, 35.340529278703286 ], [ 139.435711608404063, 35.359560333442687 ], [ 139.441395278769164, 35.368458080975699 ], [ 139.433591114938054, 35.367899747675267 ], [ 139.432985577122736, 35.37362725189621 ], [ 139.428446108800927, 35.370624467745017 ], [ 139.432483384900365, 35.379516946150204 ], [ 139.430695913985346, 35.384922225080686 ], [ 139.415926472129058, 35.384688027230709 ], [ 139.404125615904491, 35.377651360122229 ], [ 139.399642580940395, 35.384516081352103 ], [ 139.403119584801061, 35.390129666650864 ], [ 139.395898470338238, 35.389917999516115 ], [ 139.396841556992285, 35.396606585825339 ], [ 139.393982670663831, 35.397642414166114 ], [ 139.39549269802967, 35.401284639674429 ], [ 139.403353528142929, 35.401927135129256 ], [ 139.412916693050988, 35.419060170690386 ], [ 139.424094448599931, 35.416265441097266 ], [ 139.424909467298107, 35.419718505005051 ], [ 139.434001141039857, 35.418547387152273 ], [ 139.442543332608807, 35.413116305772917 ], [ 139.44244939032717, 35.407487171196067 ], [ 139.447697171887057, 35.407315225317461 ], [ 139.457578028603166, 35.411390504967869 ], [ 139.45684527898652, 35.416521586002432 ], [ 139.443645357347464, 35.427606838185113 ], [ 139.461083112895381, 35.422747134772521 ], [ 139.466079495272538, 35.424191838082891 ], [ 139.466033968892589, 35.429099612956804 ], [ 139.46690406027426, 35.425000000349769 ], [ 139.466977004285354, 35.424665721445933 ] ] ] ] } },
{ "type": "Feature", "properties": { "regioncode": "1420600", "regionname": "神奈川県小田原市", "name": "小田原市", "namekana": "おだわらし", "PrefCode": "14" }, "geometry": { "type": "Polygon", "coordinates": [ [ [ 139.182416807689606, 35.327388080995206 ], [ 139.189709533368386, 35.319351640266063 ], [ 139.199363917410892, 35.315449945958278 ], [ 139.203084448688401, 35.307221026928914 ], [ 139.203785551162355, 35.311252999726207 ], [ 139.213329441800397, 35.317152504684373 ], [ 139.223671919623484, 35.315913972751673 ], [ 139.232360778027555, 35.320425134912114 ], [ 139.23810435763005, 35.314813252030035 ], [ 139.238036524466111, 35.300780747933231 ], [ 139.235316252443113, 35.298817667301535 ], [ 139.237622335402534, 35.288881306227324 ], [ 139.234343995379163, 35.290299893225551 ], [ 139.23404680901308, 35.286517153144132 ], [ 139.206596808495988, 35.276511865330349 ], [ 139.157860195991361, 35.243132026621765 ], [ 139.146623086985983, 35.23964499981696 ], [ 139.146973086938488, 35.236198667334691 ], [ 139.150497301609221, 35.238566558899606 ], [ 139.14423747068281, 35.23368938705562 ], [ 139.141910078287538, 35.225636972568282 ], [ 139.142681283814227, 35.20870936014893 ], [ 139.138245965978626, 35.199325171119824 ], [ 139.14027869010954, 35.189052081388525 ], [ 139.13719762626954, 35.178816017645147 ], [ 139.131318638444441, 35.177979279420242 ], [ 139.078319558700741, 35.196126135113104 ], [ 139.076724306181859, 35.200180027086617 ], [ 139.081515446181015, 35.202370027354903 ], [ 139.084896328702712, 35.214625891971366 ], [ 139.100708637893376, 35.225079838963438 ], [ 139.115652801835381, 35.227548225270425 ], [ 139.114125331219157, 35.232436000121368 ], [ 139.121216743657897, 35.239558279091341 ], [ 139.100038418138524, 35.239652892267202 ], [ 139.09189703012396, 35.24345563956615 ], [ 139.083545057758329, 35.233918386824143 ], [ 139.072514526624218, 35.242066946032764 ], [ 139.067128664056668, 35.241214413914122 ], [ 139.058965641950863, 35.247131053655266 ], [ 139.068943164095799, 35.255126387272981 ], [ 139.06490063595561, 35.256463865315197 ], [ 139.06005036283409, 35.271822748021464 ], [ 139.121606303887916, 35.281540000071004 ], [ 139.121290751567017, 35.286804170875826 ], [ 139.130786861224692, 35.288209748281304 ], [ 139.130426860810985, 35.294303333232278 ], [ 139.137618520678302, 35.288945026791623 ], [ 139.134273256705455, 35.291901135229239 ], [ 139.13370800312191, 35.310590837896882 ], [ 139.130139663215004, 35.317384134969927 ], [ 139.13554466875155, 35.318874441102651 ], [ 139.136216615204717, 35.322560837712558 ], [ 139.143064384213972, 35.323490838331566 ], [ 139.148641582942787, 35.313620586420996 ], [ 139.15536350172431, 35.313332531770982 ], [ 139.163789053022469, 35.319178640382006 ], [ 139.165624864296092, 35.316451973279982 ], [ 139.170463773584402, 35.326853945753044 ], [ 139.1803173673527, 35.329920586266098 ], [ 139.182333748104043, 35.327587531739255 ], [ 139.182416807689606, 35.327388080995206 ] ] ] } },
{ "type": "Feature", "properties": { "regioncode": "1420700", "regionname": "神奈川県茅ヶ崎市", "name": "茅ヶ崎市", "namekana": "ちがさきし", "PrefCode": "14" }, "geometry": { "type": "Polygon", "coordinates": [ [ [ 139.430941479265925, 35.3838755599092 ], [ 139.432483384900365, 35.379516946150204 ], [ 139.428446108800927, 35.370624467745017 ], [ 139.432985577122736, 35.37362725189621 ], [ 139.433591114938054, 35.367899747675267 ], [ 139.441439170181638, 35.368245892234199 ], [ 139.435711608404063, 35.359560333442687 ], [ 139.444145668188071, 35.340529278703286 ], [ 139.438044838298765, 35.31914554982734 ], [ 139.414864189330956, 35.314959252467588 ], [ 139.402816913469792, 35.318127054120282 ], [ 139.399107082326054, 35.313842333157197 ], [ 139.397112751152576, 35.316101306030475 ], [ 139.39892418900024, 35.312593278257225 ], [ 139.394067003689315, 35.316374667556886 ], [ 139.374360738857035, 35.315332604216337 ], [ 139.369437859869436, 35.323265586038019 ], [ 139.371258197407997, 35.335239441247268 ], [ 139.375212088367221, 35.338586946330565 ], [ 139.36952500597431, 35.340115360335687 ], [ 139.370331310241795, 35.351088863660209 ], [ 139.395238249245836, 35.352081413926157 ], [ 139.393967197828033, 35.36316750517625 ], [ 139.401279728376835, 35.369001386604737 ], [ 139.406510362563267, 35.379836918638944 ], [ 139.415926472129058, 35.384688027230709 ], [ 139.430944527967654, 35.383956107688277 ], [ 139.430941479265925, 35.3838755599092 ] ] ] } },
{ "type": "Feature", "properties": { "regioncode": "1420800", "regionname": "神奈川県逗子市", "name": "逗子市", "namekana": "ずしし", "PrefCode": "14" }, "geometry": { "type": "Polygon", "coordinates": [ [ [ 139.593458197338009, 35.320197801587312 ], [ 139.596222334693039, 35.316421441296541 ], [ 139.60363344982386, 35.317008107738047 ], [ 139.618251193138121, 35.302570414093395 ], [ 139.623844228028815, 35.288382721185712 ], [ 139.620971413899724, 35.284259693829881 ], [ 139.622871114810209, 35.27603889208126 ], [ 139.597976056749644, 35.277024774773565 ], [ 139.596458300610152, 35.28081002666147 ], [ 139.611257781621362, 35.286228027401592 ], [ 139.60918474717846, 35.290524134681107 ], [ 139.589405550925449, 35.291341892714229 ], [ 139.574234423280018, 35.282412468360803 ], [ 139.569686121817085, 35.285022062618168 ], [ 139.573423449732445, 35.287204441132133 ], [ 139.571046523578275, 35.293220892130535 ], [ 139.557681284064074, 35.291776559340803 ], [ 139.556458832908902, 35.296315999783587 ], [ 139.550203982427888, 35.296219035779927 ], [ 139.556591750908638, 35.30507483803342 ], [ 139.567778975419401, 35.309271197907492 ], [ 139.568790947444313, 35.312858973063214 ], [ 139.593372802213139, 35.320259972619681 ], [ 139.593458197338009, 35.320197801587312 ] ] ] } },
{ "type": "Feature", "properties": { "regioncode": "1421000", "regionname": "神奈川県三浦市", "name": "三浦市", "namekana": "みうらし", "PrefCode": "14" }, "geometry": { "type": "MultiPolygon", "coordinates": [ [ [ [ 139.609771245446723, 35.137860864687184 ], [ 139.624002697566539, 35.136225720940331 ], [ 139.630233061306853, 35.129187667077247 ], [ 139.610187302402096, 35.132808280078109 ], [ 139.609742477033706, 35.137870278790388 ], [ 139.609771245446723, 35.137860864687184 ] ] ], [ [ [ 139.607242088351768, 35.13946063989664 ], [ 139.609341829062259, 35.137762081355049 ], [ 139.607049208953867, 35.139434386887501 ], [ 139.607242088351768, 35.13946063989664 ] ] ], [ [ [ 139.655640856140622, 35.208166387268989 ], [ 139.655006692904635, 35.204595028337963 ], [ 139.664782697663441, 35.193060189775963 ], [ 139.656248300518769, 35.184527918628589 ], [ 139.655317781890176, 35.1746094135936 ], [ 139.660155667749905, 35.17151502719679 ], [ 139.663365421876733, 35.159403865296213 ], [ 139.679375252765794, 35.156924386751086 ], [ 139.68194527865171, 35.151031134779089 ], [ 139.681296692988099, 35.146395332878342 ], [ 139.676285966424302, 35.144898612780821 ], [ 139.678431893617017, 35.139891837838093 ], [ 139.670949105217119, 35.142095918791654 ], [ 139.669869727206219, 35.139376666599958 ], [ 139.666234643214239, 35.146600720946594 ], [ 139.661804086389566, 35.144624135195727 ], [ 139.664525422310476, 35.139612387002103 ], [ 139.660059882757423, 35.140674387413128 ], [ 139.657068585646812, 35.137303359662383 ], [ 139.651475810660145, 35.142332504341653 ], [ 139.646106420075284, 35.137697802311777 ], [ 139.639771218766782, 35.137931224946101 ], [ 139.637904720826214, 35.142101332710411 ], [ 139.625544864004382, 35.137501749206422 ], [ 139.621460440946635, 35.139145054300855 ], [ 139.623554383727878, 35.143075333559864 ], [ 139.619441388309497, 35.138701693928112 ], [ 139.611842022591304, 35.142186747620372 ], [ 139.609116913115145, 35.139847333088028 ], [ 139.604385900888701, 35.146087774631155 ], [ 139.607796938577962, 35.142877918880913 ], [ 139.61730510994289, 35.147597197652601 ], [ 139.607070752213531, 35.155948080939254 ], [ 139.619539662625357, 35.155480802197303 ], [ 139.614070219764926, 35.157488467618748 ], [ 139.619586225923626, 35.158460640146473 ], [ 139.616038223285386, 35.160207918560673 ], [ 139.611090117415074, 35.157578053584359 ], [ 139.610479532604359, 35.163246838370924 ], [ 139.630125162446348, 35.163592386679341 ], [ 139.616824540120547, 35.165300279284509 ], [ 139.620069390290155, 35.174673224989419 ], [ 139.613932282648761, 35.183097251936658 ], [ 139.620176108340843, 35.183729837761859 ], [ 139.616257418644977, 35.185369837847816 ], [ 139.616690777657368, 35.19150119792198 ], [ 139.621209144286695, 35.197456747730769 ], [ 139.630115811295695, 35.199793946333614 ], [ 139.632864162850865, 35.205214466974098 ], [ 139.655617951307477, 35.20833333291705 ], [ 139.655640856140622, 35.208166387268989 ] ] ] ] } },
{ "type": "Feature", "properties": { "regioncode": "1421100", "regionname": "神奈川県秦野市", "name": "秦野市", "namekana": "はだのし", "PrefCode": "14" }, "geometry": { "type": "Polygon", "coordinates": [ [ [ 139.216294111783895, 35.461194467950406 ], [ 139.229021285004364, 35.456829198308924 ], [ 139.229965382496516, 35.43826730639114 ], [ 139.234909728301432, 35.425217837733101 ], [ 139.258294112383396, 35.397724360390953 ], [ 139.250854942002093, 35.39121661335605 ], [ 139.252212671877373, 35.382097774692625 ], [ 139.280303476224503, 35.386103053812917 ], [ 139.290849273675121, 35.381201441093708 ], [ 139.29188891064473, 35.37342886415081 ], [ 139.274882022987072, 35.372696171191421 ], [ 139.267093358072088, 35.356222891773086 ], [ 139.217578223156579, 35.351711198113378 ], [ 139.210991894260587, 35.360164251579022 ], [ 139.205457199290436, 35.361272864750958 ], [ 139.198936355428486, 35.35475841416951 ], [ 139.186770804329171, 35.353399802059243 ], [ 139.179823280719916, 35.346020612861025 ], [ 139.170007808313812, 35.359264774849521 ], [ 139.158655577093327, 35.356862000381057 ], [ 139.158009805408255, 35.364491972726398 ], [ 139.14469267242896, 35.379175801821873 ], [ 139.144506860803062, 35.38839080229377 ], [ 139.152639144081263, 35.395364441315962 ], [ 139.145297782166949, 35.409689108165878 ], [ 139.148460311094595, 35.420344387283706 ], [ 139.141448366349096, 35.435140171182013 ], [ 139.141397523177261, 35.444152081353536 ], [ 139.154751724412563, 35.445160197984819 ], [ 139.163388417641386, 35.454025468300756 ], [ 139.176673748794542, 35.451487225355208 ], [ 139.178977951271463, 35.447430585952816 ], [ 139.196327173060695, 35.449392305910237 ], [ 139.20366050582777, 35.459911414180453 ], [ 139.216103281041683, 35.461230865312245 ], [ 139.216294111783895, 35.461194467950406 ] ] ] } },
{ "type": "Feature", "properties": { "regioncode": "1421200", "regionname": "神奈川県厚木市", "name": "厚木市", "namekana": "あつぎし", "PrefCode": "14" }, "geometry": { "type": "Polygon", "coordinates": [ [ [ 139.376416667295416, 35.506048747651619 ], [ 139.37373652392148, 35.488049639779092 ], [ 139.380019728227921, 35.465579440838553 ], [ 139.370653773852609, 35.448601135434103 ], [ 139.375235382606888, 35.437201170897367 ], [ 139.369224384197992, 35.408340973157465 ], [ 139.373469026874204, 35.394500468022216 ], [ 139.359014059950937, 35.394804892132129 ], [ 139.3549663040518, 35.403806801842507 ], [ 139.354991803429016, 35.393317387387583 ], [ 139.347902970245968, 35.405315386695804 ], [ 139.346801361893426, 35.415909802395504 ], [ 139.326363385262084, 35.428031414418285 ], [ 139.322172555319185, 35.428385305737322 ], [ 139.321723086751149, 35.424293640439203 ], [ 139.315361141403628, 35.421419468333852 ], [ 139.303089248170295, 35.428283053720008 ], [ 139.298277912096069, 35.436040801741683 ], [ 139.254938948673612, 35.447942197674308 ], [ 139.230900661236547, 35.441537279122201 ], [ 139.228300999091857, 35.452226441097423 ], [ 139.245442114162302, 35.462831082088826 ], [ 139.253156497774171, 35.459703586251578 ], [ 139.295371413859698, 35.463205504930158 ], [ 139.298729559721437, 35.4779226943769 ], [ 139.290609053065396, 35.481817972921192 ], [ 139.283320804211826, 35.491987946386644 ], [ 139.283290855888367, 35.497398224648407 ], [ 139.275981505342315, 35.507354054246264 ], [ 139.278178755045587, 35.512986251914072 ], [ 139.285090973070055, 35.512662638969687 ], [ 139.295761855425326, 35.520759559106409 ], [ 139.307414086091285, 35.522699802354055 ], [ 139.315603191234345, 35.513710919323501 ], [ 139.315810661233058, 35.508471197487836 ], [ 139.347685498886676, 35.498916801868972 ], [ 139.346628365606648, 35.506647054018401 ], [ 139.350265032405332, 35.509063721213806 ], [ 139.347360388571133, 35.517088693788253 ], [ 139.354553994571233, 35.519225080972774 ], [ 139.351026810339135, 35.523674802350286 ], [ 139.354505136203102, 35.527467026681961 ], [ 139.375390051609656, 35.517199558612788 ], [ 139.376451388321016, 35.506426801955399 ], [ 139.376416667295416, 35.506048747651619 ] ] ] } },
{ "type": "Feature", "properties": { "regioncode": "1421300", "regionname": "神奈川県大和市", "name": "大和市", "namekana": "やまとし", "PrefCode": "14" }, "geometry": { "type": "Polygon", "coordinates": [ [ [ 139.461120972554909, 35.519280467519593 ], [ 139.4682678335937, 35.506205531859848 ], [ 139.464782502910225, 35.497437224648252 ], [ 139.470779143642631, 35.49211889217321 ], [ 139.470045965948657, 35.478291134927986 ], [ 139.474507613235801, 35.469863386586098 ], [ 139.472058392380973, 35.462572586355805 ], [ 139.480665227218537, 35.448617612812654 ], [ 139.473153747747347, 35.435772108595984 ], [ 139.472775616101899, 35.424147134582654 ], [ 139.467320336664216, 35.423645467564313 ], [ 139.465458418071648, 35.429084891954233 ], [ 139.466079495272538, 35.424191838082891 ], [ 139.461083112895381, 35.422747134772521 ], [ 139.447804254163088, 35.427971278551695 ], [ 139.45421639427127, 35.456832585155723 ], [ 139.450979532779229, 35.467820332842166 ], [ 139.436489494094985, 35.467328080826348 ], [ 139.434900389341578, 35.477301946327827 ], [ 139.438835422416901, 35.47992083777649 ], [ 139.429239468226911, 35.507372973284134 ], [ 139.455766251711225, 35.520467694028923 ], [ 139.460818196902324, 35.519379359669756 ], [ 139.461120972554909, 35.519280467519593 ] ] ] } },
{ "type": "Feature", "properties": { "regioncode": "1421400", "regionname": "神奈川県伊勢原市", "name": "伊勢原市", "namekana": "いせはらし", "PrefCode": "14" }, "geometry": { "type": "Polygon", "coordinates": [ [ [ 139.255411996566409, 35.447749695092398 ], [ 139.298277912096069, 35.436040801741683 ], [ 139.303089248170295, 35.428283053720008 ], [ 139.315361141403628, 35.421419468333852 ], [ 139.321723086751149, 35.424293640439203 ], [ 139.322172555319185, 35.428385305737322 ], [ 139.326363385262084, 35.428031414418285 ], [ 139.346801361893426, 35.415909802395504 ], [ 139.348101581922492, 35.40478427857164 ], [ 139.357375966427753, 35.391068504907651 ], [ 139.354862580743543, 35.382931865313367 ], [ 139.346943695794948, 35.378970440733326 ], [ 139.348500117386607, 35.387360720620791 ], [ 139.345877328276174, 35.388637667094713 ], [ 139.343878974435142, 35.380026000199791 ], [ 139.334770661436892, 35.384611251208355 ], [ 139.325037588513965, 35.378934000204026 ], [ 139.319644552953832, 35.383222613432906 ], [ 139.321595576374762, 35.369414865203908 ], [ 139.303976782802351, 35.383165332913848 ], [ 139.302763190868632, 35.38821255846284 ], [ 139.300616783437818, 35.38111061316431 ], [ 139.289256782974235, 35.381180612795106 ], [ 139.275975693923215, 35.386391387252786 ], [ 139.252212671877373, 35.382097774692625 ], [ 139.250854942002093, 35.39121661335605 ], [ 139.258294112383396, 35.397724360390953 ], [ 139.254756939381309, 35.405179919118041 ], [ 139.238741582158355, 35.417826693846905 ], [ 139.229947886186096, 35.438489802262609 ], [ 139.240290635604424, 35.441741972913746 ], [ 139.243099533117061, 35.447050278847371 ], [ 139.255226719137795, 35.447831081039624 ], [ 139.255411996566409, 35.447749695092398 ] ] ] } },
{ "type": "Feature", "properties": { "regioncode": "1421500", "regionname": "神奈川県海老名市", "name": "海老名市", "namekana": "えびなし", "PrefCode": "14" }, "geometry": { "type": "Polygon", "coordinates": [ [ [ 139.43651783443056, 35.469209198146018 ], [ 139.421170337141461, 35.467924468039826 ], [ 139.414440829880505, 35.460704198040332 ], [ 139.415931361742992, 35.457570054414532 ], [ 139.408746641044672, 35.456287837913465 ], [ 139.407004358364475, 35.449155053962613 ], [ 139.40263518836332, 35.448241721378395 ], [ 139.410272023435141, 35.429886224769518 ], [ 139.403353528142929, 35.401927135129256 ], [ 139.371806303618087, 35.400677386851953 ], [ 139.36934858596851, 35.411137360201053 ], [ 139.375235382606888, 35.437201170897367 ], [ 139.370653773852609, 35.448601135434103 ], [ 139.378469104565625, 35.458275559069875 ], [ 139.379552244440561, 35.470208306268376 ], [ 139.40276730236917, 35.473769171010474 ], [ 139.421533671341876, 35.468571134550245 ], [ 139.43462788576835, 35.477389170673746 ], [ 139.436509531889442, 35.469310027435881 ], [ 139.43651783443056, 35.469209198146018 ] ] ] } },
{ "type": "Feature", "properties": { "regioncode": "1421600", "regionname": "神奈川県座間市", "name": "座間市", "namekana": "ざまし", "PrefCode": "14" }, "geometry": { "type": "Polygon", "coordinates": [ [ [ 139.429701970669498, 35.506041892119697 ], [ 139.43800124456186, 35.479238612971642 ], [ 139.421533671341876, 35.468571134550245 ], [ 139.40276730236917, 35.473769171010474 ], [ 139.379552244440561, 35.470208306268376 ], [ 139.373967664076531, 35.491823802126817 ], [ 139.387656004820883, 35.490956585877768 ], [ 139.392347445078599, 35.496429640415613 ], [ 139.406847197340312, 35.499310468403451 ], [ 139.420501478960205, 35.515424919224699 ], [ 139.429429467995647, 35.506844639568499 ], [ 139.429701970669498, 35.506041892119697 ] ] ] } },
{ "type": "Feature", "properties": { "regioncode": "1421700", "regionname": "神奈川県南足柄市", "name": "南足柄市", "namekana": "みなみあしがらし", "PrefCode": "14" }, "geometry": { "type": "Polygon", "coordinates": [ [ [ 139.109657522676571, 35.352253170947108 ], [ 139.112505862655553, 35.352172359666724 ], [ 139.106960920809911, 35.343872198143458 ], [ 139.114572308665174, 35.338673801954428 ], [ 139.121659143554666, 35.319660224639733 ], [ 139.130655499052068, 35.317675251811465 ], [ 139.134273256705455, 35.291901135229239 ], [ 139.137475187629889, 35.288833080981931 ], [ 139.130426860810985, 35.294303333232278 ], [ 139.130786861224692, 35.288209748281304 ], [ 139.121290751567017, 35.286804170875826 ], [ 139.121606303887916, 35.281540000071004 ], [ 139.118379637110593, 35.280106918699403 ], [ 139.06005036283409, 35.271822748021464 ], [ 139.049180856211592, 35.281724135360605 ], [ 139.030261581806599, 35.274093865339694 ], [ 139.010960052364567, 35.282275559169761 ], [ 139.004612244359691, 35.289898026672631 ], [ 139.009632866163884, 35.313648531954243 ], [ 139.018528494894213, 35.329845721303059 ], [ 139.031602192187506, 35.332324612590867 ], [ 139.029963022175821, 35.33649627888019 ], [ 139.036683605464077, 35.341986802748806 ], [ 139.049148146070138, 35.344878775135442 ], [ 139.049311219237438, 35.34876933313825 ], [ 139.055801557196219, 35.351502693894247 ], [ 139.066292412364987, 35.347119945928796 ], [ 139.091059442039636, 35.350540865368714 ], [ 139.095719170403413, 35.346102559085864 ], [ 139.10927224411887, 35.352240108294438 ], [ 139.109657522676571, 35.352253170947108 ] ] ] } },
{ "type": "Feature", "properties": { "regioncode": "1421800", "regionname": "神奈川県綾瀬市", "name": "綾瀬市", "namekana": "あやせし", "PrefCode": "14" }, "geometry": { "type": "Polygon", "coordinates": [ [ [ 139.422163087056902, 35.465925304809048 ], [ 139.450979532779229, 35.467820332842166 ], [ 139.454553307289416, 35.452313134843337 ], [ 139.449645187975079, 35.44571150488207 ], [ 139.447804254163088, 35.427971278551695 ], [ 139.443640364311477, 35.427542387371318 ], [ 139.456499754060474, 35.417347413652294 ], [ 139.457578028603166, 35.411390504967869 ], [ 139.442630219708917, 35.407379387448827 ], [ 139.442543332608807, 35.413116305772917 ], [ 139.434001141039857, 35.418547387152273 ], [ 139.424909467298107, 35.419718505005051 ], [ 139.424094448599931, 35.416265441097266 ], [ 139.412916693050988, 35.419060170690386 ], [ 139.406948274843103, 35.407679081124741 ], [ 139.410249248104378, 35.430244279050271 ], [ 139.402551310394756, 35.448034225299295 ], [ 139.422138910582362, 35.466024748243569 ], [ 139.422163087056902, 35.465925304809048 ] ] ] } },
{ "type": "Feature", "properties": { "regioncode": "1430100", "regionname": "神奈川県葉山町", "name": "葉山町", "namekana": "はやままち", "PrefCode": "14" }, "geometry": { "type": "Polygon", "coordinates": [ [ [ 139.603706133931041, 35.291919386970164 ], [ 139.611510271681709, 35.286602198432774 ], [ 139.596458300610152, 35.28081002666147 ], [ 139.597976056749644, 35.277024774773565 ], [ 139.619718613323357, 35.275697531915625 ], [ 139.627549195638949, 35.279019441394155 ], [ 139.641950337238313, 35.272293332671211 ], [ 139.637762217852128, 35.264818360279151 ], [ 139.640767224228057, 35.262660305728559 ], [ 139.626859390448544, 35.25555317134183 ], [ 139.618332437891809, 35.261499252188798 ], [ 139.613243800361147, 35.25773010805807 ], [ 139.576590778341824, 35.253081783997175 ], [ 139.579784696306774, 35.256353198341458 ], [ 139.5755086124326, 35.264648108723293 ], [ 139.56738089501232, 35.26729494570526 ], [ 139.570663969067027, 35.269237946274245 ], [ 139.571025357134545, 35.276240919382985 ], [ 139.564756226318877, 35.28452413498087 ], [ 139.574360531613252, 35.282404973410848 ], [ 139.589405550925449, 35.291341892714229 ], [ 139.603477833834972, 35.291947197605111 ], [ 139.603706133931041, 35.291919386970164 ] ] ] } },
{ "type": "Feature", "properties": { "regioncode": "1432100", "regionname": "神奈川県寒川町", "name": "寒川町", "namekana": "さむかわまち", "PrefCode": "14" }, "geometry": { "type": "Polygon", "coordinates": [ [ [ 139.395002386750775, 35.399939919391841 ], [ 139.395898470338238, 35.389917999516115 ], [ 139.403140973377276, 35.390082999930542 ], [ 139.399642580940395, 35.384516081352103 ], [ 139.405157834366605, 35.377221639766901 ], [ 139.393967197828033, 35.36316750517625 ], [ 139.39535936364382, 35.35222946841526 ], [ 139.370438248626328, 35.351164413906645 ], [ 139.371918300689117, 35.361100531264583 ], [ 139.368640271831168, 35.363231640327967 ], [ 139.374656226403772, 35.388300468092154 ], [ 139.371806303618087, 35.400677386851953 ], [ 139.395026329401617, 35.400000000399757 ], [ 139.395002386750775, 35.399939919391841 ] ] ] } },
{ "type": "Feature", "properties": { "regioncode": "1434100", "regionname": "神奈川県大磯町", "name": "大磯町", "namekana": "おおいそまち", "PrefCode": "14" }, "geometry": { "type": "Polygon", "coordinates": [ [ [ 139.266394643298213, 35.334008027448533 ], [ 139.295747639841807, 35.331024666854944 ], [ 139.293773449884839, 35.324832197847684 ], [ 139.308879830839601, 35.321312972615658 ], [ 139.30545063583827, 35.319192170682186 ], [ 139.318863970196162, 35.322489359596318 ], [ 139.324171505410732, 35.328328802432338 ], [ 139.334069531983346, 35.323193838125178 ], [ 139.329154254065656, 35.32095355855995 ], [ 139.330042944326465, 35.312118874186751 ], [ 139.316834772306947, 35.306049720218482 ], [ 139.320472217918564, 35.304854441179543 ], [ 139.269274772512858, 35.297288008634723 ], [ 139.264613165465335, 35.314807613280777 ], [ 139.258026523605281, 35.315057305550283 ], [ 139.250850505646326, 35.328805532149659 ], [ 139.266338806191015, 35.334011918815065 ], [ 139.266394643298213, 35.334008027448533 ] ] ] } },
{ "type": "Feature", "properties": { "regioncode": "1434200", "regionname": "神奈川県二宮町", "name": "二宮町", "namekana": "にのみやまち", "PrefCode": "14" }, "geometry": { "type": "Polygon", "coordinates": [ [ [ 139.250850505646326, 35.328805532149659 ], [ 139.258026523605281, 35.315057305550283 ], [ 139.264613165465335, 35.314807613280777 ], [ 139.269274772512858, 35.297288008634723 ], [ 139.23404680901308, 35.286517153144132 ], [ 139.234258171277702, 35.290253505295084 ], [ 139.237622335402534, 35.288881306227324 ], [ 139.235316252443113, 35.298817667301535 ], [ 139.238036524466111, 35.300780747933231 ], [ 139.23810435763005, 35.314813252030035 ], [ 139.232929948158699, 35.319820721249357 ], [ 139.245216887949027, 35.328871892224072 ], [ 139.250792724204871, 35.328815802407405 ], [ 139.250850505646326, 35.328805532149659 ] ] ] } },
{ "type": "Feature", "properties": { "regioncode": "1436100", "regionname": "神奈川県中井町", "name": "中井町", "namekana": "なかいまち", "PrefCode": "14" }, "geometry": { "type": "Polygon", "coordinates": [ [ [ 139.206390804392186, 35.36132591935575 ], [ 139.217578223156579, 35.351711198113378 ], [ 139.251191167038769, 35.354087054074341 ], [ 139.238740336597289, 35.346438748149751 ], [ 139.240327497016438, 35.335058504846188 ], [ 139.244534449105572, 35.336031306000052 ], [ 139.249271335703611, 35.329849946318006 ], [ 139.223671919623484, 35.315913972751673 ], [ 139.213329441800397, 35.317152504684373 ], [ 139.203785551162355, 35.311252999726207 ], [ 139.203084448688401, 35.307221026928914 ], [ 139.199363917410892, 35.315449945958278 ], [ 139.187664838361684, 35.321926080923959 ], [ 139.193742892020964, 35.329019999773209 ], [ 139.189895445718321, 35.339046170744211 ], [ 139.196846005438829, 35.342640612574257 ], [ 139.186065810488799, 35.351025892231178 ], [ 139.199070245595408, 35.354825359702659 ], [ 139.20066691274792, 35.359597026681513 ], [ 139.206247197949892, 35.361230081303233 ], [ 139.206390804392186, 35.36132591935575 ] ] ] } },
{ "type": "Feature", "properties": { "regioncode": "1436200", "regionname": "神奈川県大井町", "name": "大井町", "namekana": "おおいまち", "PrefCode": "14" }, "geometry": { "type": "Polygon", "coordinates": [ [ [ 139.171015914153145, 35.358333332617235 ], [ 139.179661336201775, 35.346087278704999 ], [ 139.186967197378294, 35.353442865196143 ], [ 139.187816329160341, 35.346769505308487 ], [ 139.196749339110738, 35.342840055224428 ], [ 139.189695447287136, 35.338563386790895 ], [ 139.193742892020964, 35.329019999773209 ], [ 139.187250946973677, 35.323108333283017 ], [ 139.180574306359176, 35.329866413803984 ], [ 139.170463773584402, 35.326853945753044 ], [ 139.165624864296092, 35.316451973279982 ], [ 139.163789053022469, 35.319178640382006 ], [ 139.15536350172431, 35.313332531770982 ], [ 139.148641582942787, 35.313620586420996 ], [ 139.135594162940379, 35.336721918781564 ], [ 139.159436640988247, 35.34613005405879 ], [ 139.162356939321398, 35.349617559302999 ], [ 139.160325576763967, 35.356478945846732 ], [ 139.171015810731092, 35.358333667165084 ], [ 139.171015914153145, 35.358333332617235 ] ] ] } },
{ "type": "Feature", "properties": { "regioncode": "1436300", "regionname": "神奈川県松田町", "name": "松田町", "namekana": "まつだまち", "PrefCode": "14" }, "geometry": { "type": "Polygon", "coordinates": [ [ [ 139.131670311135963, 35.445318413913697 ], [ 139.141397523177261, 35.444152081353536 ], [ 139.141448366349096, 35.435140171182013 ], [ 139.148337808143424, 35.421042171259273 ], [ 139.145297782166949, 35.409689108165878 ], [ 139.152644423101719, 35.395200279069684 ], [ 139.144506860803062, 35.38839080229377 ], [ 139.14469267242896, 35.379175801821873 ], [ 139.162704189147121, 35.35476005363364 ], [ 139.159436640988247, 35.34613005405879 ], [ 139.149611387555524, 35.344495585702759 ], [ 139.13699250260197, 35.336683053680019 ], [ 139.129947523059855, 35.346323278796319 ], [ 139.114486978291438, 35.35197125237147 ], [ 139.123962865793715, 35.365442387056589 ], [ 139.124192891688608, 35.373791558933362 ], [ 139.128964034362752, 35.375260169821047 ], [ 139.098924616777708, 35.392198054296841 ], [ 139.100273839066517, 35.406375837574899 ], [ 139.106118274938467, 35.409310865004443 ], [ 139.100880532510587, 35.418349440973998 ], [ 139.105331089358401, 35.426516973179844 ], [ 139.11461360643284, 35.429993108295378 ], [ 139.127639753871563, 35.441292864973775 ], [ 139.12704669325035, 35.444425360142304 ], [ 139.13161114114132, 35.445349802051794 ], [ 139.131670311135963, 35.445318413913697 ] ] ] } },
{ "type": "Feature", "properties": { "regioncode": "1436400", "regionname": "神奈川県山北町", "name": "山北町", "namekana": "やまきたまち", "PrefCode": "14" }, "geometry": { "type": "Polygon", "coordinates": [ [ [ 139.05225455280538, 35.510126054373984 ], [ 139.066038222585917, 35.509408225409345 ], [ 139.07495658887558, 35.49562991918549 ], [ 139.087727717360281, 35.492626027069548 ], [ 139.102491114873146, 35.478926891762683 ], [ 139.126458079776626, 35.478020000122967 ], [ 139.130176718880534, 35.484748892247637 ], [ 139.139103385912563, 35.48638055921549 ], [ 139.146670052281138, 35.483214468073299 ], [ 139.149942243639657, 35.476915585885649 ], [ 139.158097833748116, 35.478298108271133 ], [ 139.165228392776157, 35.468614838903761 ], [ 139.165322580572706, 35.456904081258415 ], [ 139.154644228448433, 35.445122693557494 ], [ 139.128868080297707, 35.445640918893332 ], [ 139.127639753871563, 35.441292864973775 ], [ 139.105331089358401, 35.426516973179844 ], [ 139.101682191779787, 35.420061108033735 ], [ 139.106118274938467, 35.409310865004443 ], [ 139.100273839066517, 35.406375837574899 ], [ 139.099831283586923, 35.390383612713606 ], [ 139.121008197170681, 35.381634026689028 ], [ 139.129627367109379, 35.374162414164118 ], [ 139.124587639208244, 35.374422107794089 ], [ 139.123962865793715, 35.365442387056589 ], [ 139.114486978291438, 35.35197125237147 ], [ 139.102622801701045, 35.351143973215869 ], [ 139.095719170403413, 35.346102559085864 ], [ 139.091059442039636, 35.350540865368714 ], [ 139.068882139699099, 35.347052198200458 ], [ 139.053437912229924, 35.351151306287818 ], [ 139.049148146070138, 35.344878775135442 ], [ 139.030181362280132, 35.336758504101738 ], [ 139.031602192187506, 35.332324612590867 ], [ 139.018528494894213, 35.329845721303059 ], [ 139.010590143220611, 35.338411279057311 ], [ 139.008622387013588, 35.347093774757923 ], [ 139.013353306609929, 35.358669892201817 ], [ 139.006839106039934, 35.361385720674548 ], [ 139.005915862926827, 35.375384612609821 ], [ 138.998617496700149, 35.384040467693467 ], [ 138.999909558979084, 35.401651585552258 ], [ 138.97182046694104, 35.405176053831894 ], [ 138.9379419199837, 35.399131080834763 ], [ 138.916402917760479, 35.400613613227733 ], [ 138.915817108372948, 35.405531667352591 ], [ 138.918066303816886, 35.411339170766155 ], [ 138.930169780111328, 35.42087055902914 ], [ 138.927403747884682, 35.437644721027084 ], [ 138.937369663379286, 35.448867504731595 ], [ 138.958727302023476, 35.462086107987545 ], [ 138.973463476158599, 35.466545026731637 ], [ 138.978769338634152, 35.46374169422387 ], [ 138.98882158185063, 35.473640585944338 ], [ 139.007873022422132, 35.474497801732241 ], [ 139.014593022050349, 35.479831170871876 ], [ 139.027549442352893, 35.480967802422185 ], [ 139.030620272807369, 35.488701999897444 ], [ 139.04370089488043, 35.498941946913362 ], [ 139.046019222109521, 35.509663053707015 ], [ 139.052122336276852, 35.510261891573066 ], [ 139.05225455280538, 35.510126054373984 ] ] ] } },
{ "type": "Feature", "properties": { "regioncode": "1436600", "regionname": "神奈川県開成町", "name": "開成町", "namekana": "かいせいまち", "PrefCode": "14" }, "geometry": { "type": "Polygon", "coordinates": [ [ [ 139.122668080367703, 35.34930769429468 ], [ 139.1312872503064, 35.345062720668068 ], [ 139.143064384213972, 35.323490838331566 ], [ 139.136216615204717, 35.322560837712558 ], [ 139.13554466875155, 35.318874441102651 ], [ 139.121659143554666, 35.319660224639733 ], [ 139.114572308665174, 35.338673801954428 ], [ 139.106590363254668, 35.344747054133279 ], [ 139.112481971265993, 35.352201532774586 ], [ 139.122544747342317, 35.34935380163671 ], [ 139.122668080367703, 35.34930769429468 ] ] ] } },
{ "type": "Feature", "properties": { "regioncode": "1438200", "regionname": "神奈川県箱根町", "name": "箱根町", "namekana": "はこねまち", "PrefCode": "14" }, "geometry": { "type": "Polygon", "coordinates": [ [ [ 139.005409754156858, 35.289401081095093 ], [ 139.010960052364567, 35.282275559169761 ], [ 139.030261581806599, 35.274093865339694 ], [ 139.043985550992488, 35.281493585160888 ], [ 139.05227505824746, 35.279624414435204 ], [ 139.06005036283409, 35.271822748021464 ], [ 139.06490063595561, 35.256463865315197 ], [ 139.068943164095799, 35.255126387272981 ], [ 139.058913696210197, 35.247716613031344 ], [ 139.067128664056668, 35.241214413914122 ], [ 139.072514526624218, 35.242066946032764 ], [ 139.083545057758329, 35.233918386824143 ], [ 139.09189703012396, 35.24345563956615 ], [ 139.100038418138524, 35.239652892267202 ], [ 139.120791751038496, 35.239871333095607 ], [ 139.12046172502869, 35.236738558237903 ], [ 139.114125331219157, 35.232436000121368 ], [ 139.115652801835381, 35.227548225270425 ], [ 139.101886419722518, 35.225501774787119 ], [ 139.088482750378716, 35.217987838368117 ], [ 139.079782088372781, 35.200661972871785 ], [ 139.07426457764825, 35.201164747854875 ], [ 139.051701920307437, 35.187726135352932 ], [ 139.041999300227644, 35.177591134723116 ], [ 139.024991140928478, 35.176066999692353 ], [ 139.021487276117, 35.182104775415098 ], [ 139.009336082694176, 35.183245333405466 ], [ 138.98767769097276, 35.200881197908984 ], [ 138.988352749979526, 35.211346468264935 ], [ 138.982281607610162, 35.217584801797216 ], [ 138.983524423013819, 35.222903973339726 ], [ 138.976074110931563, 35.235552838093042 ], [ 138.978739688885639, 35.239393385696246 ], [ 138.974395253837997, 35.248143945686593 ], [ 138.975471113701019, 35.263752802150179 ], [ 138.996191893840887, 35.287814414403726 ], [ 139.004939754066413, 35.289559413935876 ], [ 139.005409754156858, 35.289401081095093 ] ] ] } },
{ "type": "Feature", "properties": { "regioncode": "1438300", "regionname": "神奈川県真鶴町", "name": "真鶴町", "namekana": "まなづるまち", "PrefCode": "14" }, "geometry": { "type": "Polygon", "coordinates": [ [ [ 139.104422309142365, 35.186649504770855 ], [ 139.13719762626954, 35.178816017645147 ], [ 139.145360856118714, 35.16843908139856 ], [ 139.140163333171358, 35.162380694113779 ], [ 139.145708028602712, 35.152336440474414 ], [ 139.141653384795973, 35.152195224430102 ], [ 139.150470271585846, 35.146783000035498 ], [ 139.157682244440139, 35.147277837602189 ], [ 139.161807250304378, 35.141581504782664 ], [ 139.151445058442732, 35.140330081068441 ], [ 139.137695811112849, 35.148108413672389 ], [ 139.126710505985102, 35.159312000448494 ], [ 139.128981634095226, 35.166099252278741 ], [ 139.104210363217703, 35.186734225404223 ], [ 139.104422309142365, 35.186649504770855 ] ] ] } },
{ "type": "Feature", "properties": { "regioncode": "1438400", "regionname": "神奈川県湯河原町", "name": "湯河原町", "namekana": "ゆがわらまち", "PrefCode": "14" }, "geometry": { "type": "Polygon", "coordinates": [ [ [ 139.079081777302235, 35.195789748198365 ], [ 139.090951219423346, 35.193410332720703 ], [ 139.112481167272108, 35.180744225265812 ], [ 139.128981634095226, 35.166099252278741 ], [ 139.126710505985102, 35.159312000448494 ], [ 139.137357639043898, 35.148573386552584 ], [ 139.123037807848618, 35.150430305814041 ], [ 139.112125382880208, 35.141379467588422 ], [ 139.089958418246511, 35.140187774146511 ], [ 139.048227496601726, 35.149702774963146 ], [ 139.028619882901353, 35.150511135080876 ], [ 139.031225771951881, 35.156986135102102 ], [ 139.026278560007654, 35.16025697298096 ], [ 139.029481946035048, 35.1651903056881 ], [ 139.026535303861237, 35.175426442276546 ], [ 139.041999300227644, 35.177591134723116 ], [ 139.051701920307437, 35.187726135352932 ], [ 139.07426457764825, 35.201164747854875 ], [ 139.07888510995997, 35.195862253340351 ], [ 139.079081777302235, 35.195789748198365 ] ] ] } },
{ "type": "Feature", "properties": { "regioncode": "1440100", "regionname": "神奈川県愛川町", "name": "愛川町", "namekana": "あいかわまち", "PrefCode": "14" }, "geometry": { "type": "Polygon", "coordinates": [ [ [ 139.290797886413429, 35.55554091927803 ], [ 139.303161750614322, 35.551509531939416 ], [ 139.316985279247319, 35.538165332963786 ], [ 139.325400271605304, 35.544007837991387 ], [ 139.354505136203102, 35.527467026681961 ], [ 139.351026810339135, 35.523674802350286 ], [ 139.354553994571233, 35.519225080972774 ], [ 139.347360388571133, 35.517088693788253 ], [ 139.350265032405332, 35.509063721213806 ], [ 139.346628365606648, 35.506647054018401 ], [ 139.34771189398873, 35.498933198308521 ], [ 139.315810661233058, 35.508471197487836 ], [ 139.315603191234345, 35.513710919323501 ], [ 139.307346304188627, 35.522709252430104 ], [ 139.296264086318615, 35.520978440602619 ], [ 139.285090973070055, 35.512662638969687 ], [ 139.278178755045587, 35.512986251914072 ], [ 139.275862606873829, 35.507242666915602 ], [ 139.270614254244492, 35.507017332783732 ], [ 139.247364423129738, 35.528899891316996 ], [ 139.245570584115285, 35.534656801570179 ], [ 139.2497887156768, 35.546909586008667 ], [ 139.262259584812, 35.550151251678983 ], [ 139.278879532864266, 35.546009000415097 ], [ 139.281337056260213, 35.552137053682145 ], [ 139.29056511039164, 35.555548414227985 ], [ 139.290797886413429, 35.55554091927803 ] ] ] } },
{ "type": "Feature", "properties": { "regioncode": "1440200", "regionname": "神奈川県清川村", "name": "清川村", "namekana": "きよかわむら", "PrefCode": "14" }, "geometry": { "type": "Polygon", "coordinates": [ [ [ 139.247956200418344, 35.542535135188416 ], [ 139.247399145054601, 35.528847109206765 ], [ 139.261524916042163, 35.51829155770929 ], [ 139.264256938606877, 35.510867774728069 ], [ 139.276350389259164, 35.507029026668306 ], [ 139.290609053065396, 35.481817972921192 ], [ 139.298729559721437, 35.4779226943769 ], [ 139.295046135370967, 35.462823838049758 ], [ 139.253156497774171, 35.459703586251578 ], [ 139.245675446864425, 35.46287441412295 ], [ 139.22967072592337, 35.452144775461079 ], [ 139.229021285004364, 35.456829198308924 ], [ 139.223309636730392, 35.459119748177898 ], [ 139.20553466869012, 35.460534747780457 ], [ 139.196849948066756, 35.449577306347635 ], [ 139.178977951271463, 35.447430585952816 ], [ 139.176673748794542, 35.451487225355208 ], [ 139.163577859830411, 35.453792972867461 ], [ 139.166241479061114, 35.465349306125631 ], [ 139.16283391635227, 35.474549224966836 ], [ 139.166702581259187, 35.483086170790216 ], [ 139.192099195721426, 35.506234560176836 ], [ 139.199539779836982, 35.506933197609044 ], [ 139.209372334865407, 35.515486801574696 ], [ 139.210842087892161, 35.520623197602561 ], [ 139.215549338231426, 35.521204027443957 ], [ 139.214707419012257, 35.525624026227888 ], [ 139.223030506053078, 35.527913468132112 ], [ 139.217569947595052, 35.532443748080539 ], [ 139.219524967603206, 35.534237080776734 ], [ 139.229633890591685, 35.53646374820346 ], [ 139.232566083358165, 35.531897080785711 ], [ 139.247737301835059, 35.542564864976612 ], [ 139.247956200418344, 35.542535135188416 ] ] ] } },
{ "type": "Feature", "properties": { "regioncode": "1410012", "regionname": "気象庁予報警報規程別表第四の二に示す「横浜市南部」の区域", "name": "横浜市南部", "namekana": "よこはましなんぶ", "PrefCode": "14" }, "geometry": { "type": "MultiPolygon", "coordinates": [ [ [ [ 139.634301750725285, 35.330393108055546 ], [ 139.639192672304034, 35.328947332753273 ], [ 139.633576328784557, 35.323093774158394 ], [ 139.629542387371316, 35.328801864714364 ], [ 139.634176977885318, 35.330542251623683 ], [ 139.634301750725285, 35.330393108055546 ] ] ], [ [ [ 139.648806588653201, 35.335393387195097 ], [ 139.646048223147091, 35.334333305937378 ], [ 139.64880325486638, 35.335836612669596 ], [ 139.648806588653201, 35.335393387195097 ] ] ], [ [ [ 139.645792866047941, 35.338693505201149 ], [ 139.649690078134654, 35.335417891922248 ], [ 139.642901505200371, 35.334500107693884 ], [ 139.644753358580715, 35.338690801839107 ], [ 139.645792866047941, 35.338693505201149 ] ] ], [ [ [ 139.652598884930626, 35.379000080589321 ], [ 139.648277418568114, 35.375527612909082 ], [ 139.65291516210516, 35.379260973015562 ], [ 139.652598884930626, 35.379000080589321 ] ] ], [ [ [ 139.656380363263224, 35.38006097303554 ], [ 139.653366808831265, 35.378698278902505 ], [ 139.65841330682872, 35.381794440561009 ], [ 139.656519662852247, 35.3801805316063 ], [ 139.656380363263224, 35.38006097303554 ] ] ], [ [ [ 139.65443963707969, 35.384878865167536 ], [ 139.658327249802824, 35.382959586016113 ], [ 139.653991414072607, 35.385243080703674 ], [ 139.65443963707969, 35.384878865167536 ] ] ], [ [ [ 139.692138119178935, 35.410081252148132 ], [ 139.685436445935352, 35.404682486107902 ], [ 139.689212061587455, 35.398832423177851 ], [ 139.695039583909761, 35.407536559264827 ], [ 139.692093671086127, 35.410024756737187 ], [ 139.695190999165334, 35.407585306117028 ], [ 139.682371893647996, 35.39315905364748 ], [ 139.677949753578332, 35.39532383782489 ], [ 139.685381646645737, 35.395741269843768 ], [ 139.681608405203747, 35.398877170744868 ], [ 139.685373100388347, 35.40190943197473 ], [ 139.682250441104998, 35.404502027246792 ], [ 139.676381919589971, 35.399762252026335 ], [ 139.67126282741765, 35.401747169995929 ], [ 139.680188910789639, 35.410188441443495 ], [ 139.684172750072435, 35.408976775857582 ], [ 139.688877612711735, 35.412793918604507 ], [ 139.691668248590872, 35.410470666687957 ], [ 139.692138119178935, 35.410081252148132 ] ] ], [ [ [ 139.555385811306223, 35.496817946091369 ], [ 139.561041829316991, 35.492104225129935 ], [ 139.567822606028471, 35.497263107806248 ], [ 139.582781893869424, 35.47132702692079 ], [ 139.597139584724118, 35.483575586344273 ], [ 139.602427912218445, 35.476264865231371 ], [ 139.59927328113713, 35.468047721025584 ], [ 139.614681633750479, 35.47203210799546 ], [ 139.616391387952262, 35.468672864960809 ], [ 139.6321869778468, 35.467095080873321 ], [ 139.633658715677257, 35.463023305880938 ], [ 139.638808365913405, 35.462848386843632 ], [ 139.639376667299416, 35.458476134865805 ], [ 139.635063332606819, 35.455501306140434 ], [ 139.646977860439961, 35.456998171028829 ], [ 139.644651166817994, 35.448477557793126 ], [ 139.649680998579242, 35.453256892391721 ], [ 139.646225811372119, 35.447602027311746 ], [ 139.651855772426075, 35.445125198169421 ], [ 139.657144111611501, 35.451334134662659 ], [ 139.661599468141048, 35.447350414090408 ], [ 139.665801971284054, 35.449484251696902 ], [ 139.656977147077782, 35.444339784253714 ], [ 139.660280777835737, 35.44125880225198 ], [ 139.663179805403729, 35.443552945811859 ], [ 139.660354383747858, 35.444648748141276 ], [ 139.664066860697176, 35.44284138692052 ], [ 139.673121050695954, 35.45089674758691 ], [ 139.668989728892939, 35.439335837678811 ], [ 139.675296835380664, 35.445713135352946 ], [ 139.681293217108305, 35.441242026298539 ], [ 139.675346109235647, 35.43158835991494 ], [ 139.678306199871258, 35.430379531690107 ], [ 139.685383995674897, 35.442041693569365 ], [ 139.69060321656525, 35.439273720605797 ], [ 139.686865252829193, 35.427274775210776 ], [ 139.686861115048487, 35.430110864624737 ], [ 139.681332632594945, 35.425114748446958 ], [ 139.679259753734755, 35.427582694086141 ], [ 139.680541245382187, 35.421960252263887 ], [ 139.675185940878578, 35.423526613162721 ], [ 139.679860751772367, 35.41878644134124 ], [ 139.678005811019375, 35.4161909997149 ], [ 139.68171683556352, 35.418995504938664 ], [ 139.68022038885988, 35.415513332674209 ], [ 139.683333903836683, 35.416780368619186 ], [ 139.669110142718978, 35.402587170961226 ], [ 139.666612917851921, 35.404095135282319 ], [ 139.66922924713208, 35.406516747849707 ], [ 139.658766004747349, 35.407892667412739 ], [ 139.652578689754819, 35.413019196978382 ], [ 139.648262282978067, 35.412473775244564 ], [ 139.650420610023161, 35.409800251780268 ], [ 139.642908663803837, 35.411798973443922 ], [ 139.634587638908442, 35.407797919338577 ], [ 139.629348170681624, 35.413181864551461 ], [ 139.631295226293673, 35.410272386861209 ], [ 139.627716860744613, 35.409140667407939 ], [ 139.630786497798681, 35.404981359602118 ], [ 139.641988053905607, 35.406969387427353 ], [ 139.645481581909507, 35.402979278970577 ], [ 139.626023306930165, 35.401636801597192 ], [ 139.621983592768629, 35.395347332613369 ], [ 139.624427522911901, 35.391713413243451 ], [ 139.631673553991391, 35.395928999723594 ], [ 139.629886394241794, 35.393947504573703 ], [ 139.636235863294473, 35.395037838125802 ], [ 139.633846718950963, 35.39384225241804 ], [ 139.638537523388095, 35.390903972140677 ], [ 139.62742933939262, 35.386207081091982 ], [ 139.628592892148276, 35.384160135082197 ], [ 139.632612776258725, 35.382190198019259 ], [ 139.64568069990446, 35.390539225105215 ], [ 139.653232943845296, 35.387261837463882 ], [ 139.647893086996419, 35.379680999578511 ], [ 139.643252996228853, 35.378956198170044 ], [ 139.650520752231046, 35.373077668099938 ], [ 139.658273021582772, 35.378543946246168 ], [ 139.654058079916467, 35.374767693874048 ], [ 139.65651364458904, 35.366539973640897 ], [ 139.650936057353192, 35.366416504817892 ], [ 139.65097797655244, 35.35983810794238 ], [ 139.656927419964518, 35.353493945789012 ], [ 139.656953333029946, 35.341934865102019 ], [ 139.638019532775274, 35.340297973073064 ], [ 139.633804163031755, 35.335986196905537 ], [ 139.637462204916915, 35.333120017974522 ], [ 139.629342697407651, 35.32943983837788 ], [ 139.622333554050329, 35.331944170587064 ], [ 139.630618832693017, 35.32332666709209 ], [ 139.613027911808786, 35.316982000419046 ], [ 139.609433995182826, 35.312501747058036 ], [ 139.603440117167793, 35.317120891715831 ], [ 139.596072606565599, 35.316569504778897 ], [ 139.588709883054776, 35.330047468016289 ], [ 139.588864357803914, 35.33638963996998 ], [ 139.573623255708753, 35.336914918688592 ], [ 139.569907497133386, 35.347246801598658 ], [ 139.557628637751463, 35.347113774780951 ], [ 139.548476743606898, 35.35543650479093 ], [ 139.546951530288993, 35.362586467591484 ], [ 139.544215422104116, 35.362995640236647 ], [ 139.542098443188706, 35.357012892231239 ], [ 139.530853994816084, 35.354106251902067 ], [ 139.529411920223993, 35.35837208080693 ], [ 139.525754578011401, 35.356793468443868 ], [ 139.521327107659999, 35.361650667244533 ], [ 139.502591051236095, 35.367547585752504 ], [ 139.495391283980666, 35.357711505381701 ], [ 139.485683527872538, 35.359620386571635 ], [ 139.493652503260478, 35.374983107584399 ], [ 139.485526161803023, 35.382820028321703 ], [ 139.484038664253035, 35.389728279436611 ], [ 139.489121946320779, 35.388396198226019 ], [ 139.496485161760916, 35.396604504794141 ], [ 139.505413943099029, 35.394273613136761 ], [ 139.511534811682282, 35.40486538662833 ], [ 139.519275693818258, 35.40527850459938 ], [ 139.519795837408083, 35.412418278081134 ], [ 139.529508559572378, 35.429300892022582 ], [ 139.525750467210401, 35.43771794472741 ], [ 139.530742995992568, 35.44187933266511 ], [ 139.526814643081366, 35.446564919235698 ], [ 139.530910830170797, 35.448464585971919 ], [ 139.536760506392284, 35.443240134624546 ], [ 139.544538974793909, 35.444938891916365 ], [ 139.546069468031533, 35.451351532047624 ], [ 139.561555031939292, 35.453356801675113 ], [ 139.56885649812898, 35.460130107718328 ], [ 139.568314578355171, 35.4641209464246 ], [ 139.557776835232858, 35.469336224687083 ], [ 139.558427367029481, 35.473848108103766 ], [ 139.563475939762839, 35.475997414049459 ], [ 139.561696200319489, 35.479895467901599 ], [ 139.566945746349234, 35.480868332907278 ], [ 139.564444916100115, 35.484620468160131 ], [ 139.556538106348626, 35.484803919065655 ], [ 139.550391167318594, 35.492048666812593 ], [ 139.555161633702483, 35.49687289197044 ], [ 139.555385811306223, 35.496817946091369 ] ] ] ] } },
{ "type": "Feature", "properties": { "regioncode": "1410011", "regionname": "気象庁予報警報規程別表第四の二に示す「横浜市北部」の区域", "name": "横浜市北部", "namekana": "よこはましほくぶ", "PrefCode": "14" }, "geometry": { "type": "MultiPolygon", "coordinates": [ [ [ [ 139.65826461741824, 35.460094505357176 ], [ 139.656441855307435, 35.462978414422366 ], [ 139.658286913410393, 35.460109945817408 ], [ 139.65826461741824, 35.460094505357176 ] ] ], [ [ [ 139.694749363692267, 35.465281332667416 ], [ 139.684692865783177, 35.458860468236082 ], [ 139.688426977722884, 35.457001171167178 ], [ 139.698060635989577, 35.461646386271752 ], [ 139.702247859651038, 35.455120694164748 ], [ 139.707183061149408, 35.456678801985163 ], [ 139.693731284371324, 35.44786241431899 ], [ 139.695488223302959, 35.449825198174381 ], [ 139.670152892242299, 35.463096972946971 ], [ 139.673109273174532, 35.4606169997748 ], [ 139.670575135634067, 35.464499305598508 ], [ 139.69239697823798, 35.472012054013135 ], [ 139.694701946038094, 35.465881414295893 ], [ 139.694749363692267, 35.465281332667416 ] ] ], [ [ [ 139.645700388761952, 35.474710972533387 ], [ 139.655961166774546, 35.470224081276399 ], [ 139.652279000575504, 35.466973026683888 ], [ 139.65554272391762, 35.464125586027023 ], [ 139.642128391312326, 35.468381134781623 ], [ 139.645606692894603, 35.474627919243119 ], [ 139.645700388761952, 35.474710972533387 ] ] ], [ [ [ 139.714608365783533, 35.486014386754618 ], [ 139.725328340330748, 35.469796432059752 ], [ 139.712707393231653, 35.464253865323656 ], [ 139.700266329427677, 35.47868505507131 ], [ 139.714602801677984, 35.486022441082866 ], [ 139.714608365783533, 35.486014386754618 ] ] ], [ [ [ 139.531520362774586, 35.592338558577694 ], [ 139.555881776622755, 35.587344386734117 ], [ 139.565314772758597, 35.57876330578199 ], [ 139.568009195568038, 35.571161359908899 ], [ 139.575694746915133, 35.568775532265079 ], [ 139.599562282773149, 35.567616665876471 ], [ 139.616482827420668, 35.560283891588369 ], [ 139.62856344924387, 35.562653332685215 ], [ 139.6484243327169, 35.55976638660951 ], [ 139.65842072623559, 35.554372774583953 ], [ 139.654446160761722, 35.539911107711475 ], [ 139.66645280165551, 35.53299944097148 ], [ 139.675623450262037, 35.540649414239113 ], [ 139.684914305850612, 35.539986080593224 ], [ 139.683700609595576, 35.530941640144647 ], [ 139.688695032349983, 35.526391918652166 ], [ 139.689397471216353, 35.519023306380518 ], [ 139.698875135778962, 35.502755531942285 ], [ 139.703402944390405, 35.504442440666139 ], [ 139.711456653901564, 35.490800855674991 ], [ 139.696300999091932, 35.484044359759423 ], [ 139.697937249904271, 35.49096808191149 ], [ 139.690615291762356, 35.492652036362415 ], [ 139.690947367327226, 35.488183466993462 ], [ 139.688071427154682, 35.495353367763755 ], [ 139.687051801899202, 35.490858586754428 ], [ 139.692800778333321, 35.481406387394941 ], [ 139.6817719837901, 35.478356360058001 ], [ 139.681774384080654, 35.472890413761661 ], [ 139.675925499262462, 35.469214774842044 ], [ 139.66773155576675, 35.468627225266289 ], [ 139.668003969407778, 35.47368522469344 ], [ 139.673140051572204, 35.475132134940111 ], [ 139.669570336601851, 35.480462666718722 ], [ 139.673959689188337, 35.484499774644917 ], [ 139.665934422535656, 35.482878467867067 ], [ 139.667851090055819, 35.47715280186037 ], [ 139.653895446517708, 35.476644052680911 ], [ 139.651451829338498, 35.481516198214024 ], [ 139.648323527708726, 35.480384467968861 ], [ 139.651678948624635, 35.476505891633622 ], [ 139.640538910642249, 35.474380055295342 ], [ 139.640293644835879, 35.467901108149647 ], [ 139.633474513837768, 35.464972332806951 ], [ 139.616360558293195, 35.468683136117875 ], [ 139.614681633750479, 35.47203210799546 ], [ 139.59927328113713, 35.468047721025584 ], [ 139.602427912218445, 35.476264865231371 ], [ 139.597139584724118, 35.483575586344273 ], [ 139.582781893869424, 35.47132702692079 ], [ 139.567822606028471, 35.497263107806248 ], [ 139.561041829316991, 35.492104225129935 ], [ 139.553378366218681, 35.498212864731954 ], [ 139.550391167318594, 35.492048666812593 ], [ 139.556538106348626, 35.484803919065655 ], [ 139.564444916100115, 35.484620468160131 ], [ 139.566945746349234, 35.480868332907278 ], [ 139.561947886385951, 35.480164224899113 ], [ 139.563419441653991, 35.475871694223372 ], [ 139.55775805379119, 35.471392225071156 ], [ 139.561446251743178, 35.465990135136678 ], [ 139.568314578355171, 35.4641209464246 ], [ 139.566389221585382, 35.455574467787528 ], [ 139.546069468031533, 35.451351532047624 ], [ 139.544538974793909, 35.444938891916365 ], [ 139.53812328056506, 35.443140135408953 ], [ 139.530910830170797, 35.448464585971919 ], [ 139.526814643081366, 35.446564919235698 ], [ 139.530742995992568, 35.44187933266511 ], [ 139.525750467210401, 35.43771794472741 ], [ 139.529508559572378, 35.429300892022582 ], [ 139.519795837408083, 35.412418278081134 ], [ 139.519275693818258, 35.40527850459938 ], [ 139.511534811682282, 35.40486538662833 ], [ 139.505413943099029, 35.394273613136761 ], [ 139.496485161760916, 35.396604504794141 ], [ 139.493558470147377, 35.391071080565951 ], [ 139.484269805307349, 35.387366972707696 ], [ 139.474858520604357, 35.40179386459522 ], [ 139.478038079993439, 35.4199346399717 ], [ 139.472745331431952, 35.423677972660357 ], [ 139.473153747747347, 35.435772108595984 ], [ 139.480665227218537, 35.448617612812654 ], [ 139.471990609579052, 35.462829802353554 ], [ 139.474507613235801, 35.469863386586098 ], [ 139.470045965948657, 35.478291134927986 ], [ 139.470709689900332, 35.492332775237458 ], [ 139.464782502910225, 35.497437224648252 ], [ 139.467722528771787, 35.502373306582911 ], [ 139.484938391893365, 35.503968891850946 ], [ 139.476972893284483, 35.511396080564737 ], [ 139.486337665051224, 35.519839135367874 ], [ 139.487797717090984, 35.527882467601842 ], [ 139.486816355290671, 35.535525505297869 ], [ 139.480332529322823, 35.543146333336665 ], [ 139.481918689695817, 35.5558396668672 ], [ 139.476485940074099, 35.562552134673354 ], [ 139.475057613418244, 35.559659081301618 ], [ 139.470244279949611, 35.560499360157394 ], [ 139.469667081570606, 35.569498251742971 ], [ 139.482036550346606, 35.571879107934535 ], [ 139.491030973200964, 35.56142577517943 ], [ 139.508371361848958, 35.575804666652118 ], [ 139.514093801088165, 35.567258838224859 ], [ 139.524215253431294, 35.573444666638125 ], [ 139.529155576568655, 35.582441891779922 ], [ 139.525925356570042, 35.592145775407289 ], [ 139.531139533163014, 35.592514108039722 ], [ 139.531520362774586, 35.592338558577694 ] ] ] ] } },
{ "type": "Feature", "properties": { "regioncode": "1415012", "regionname": "気象庁予報警報規程別表第四の二に示す「相模原東部」の区域", "name": "相模原市東部", "namekana": "さがみはらしとうぶ", "PrefCode": "14" }, "geometry": { "type": "Polygon", "coordinates": [ [ [ 139.36356564214077, 35.598520540590528 ], [ 139.384368898206162, 35.587608297285158 ], [ 139.399838418208446, 35.584392838758561 ], [ 139.401512100602986, 35.577027703265969 ], [ 139.409103748339362, 35.575221135247261 ], [ 139.416232801902311, 35.561885945679876 ], [ 139.422441193406371, 35.559435413613471 ], [ 139.433392477181087, 35.546355171054358 ], [ 139.445098715733252, 35.542072414210622 ], [ 139.458316978146058, 35.52798946803955 ], [ 139.455410972738264, 35.519827413604332 ], [ 139.429239468226911, 35.507372973284134 ], [ 139.420501478960205, 35.515424919224699 ], [ 139.406847197340312, 35.499310468403451 ], [ 139.392347445078599, 35.496429640415613 ], [ 139.387656004820883, 35.490956585877768 ], [ 139.373967664076531, 35.491823802126817 ], [ 139.375390051609656, 35.517199558612788 ], [ 139.36143455286242, 35.522202026702246 ], [ 139.322857392654555, 35.547232000156725 ], [ 139.322783332584777, 35.559037054416592 ], [ 139.336983087199769, 35.573301748177187 ], [ 139.349288910954556, 35.565540080910068 ], [ 139.353981945710302, 35.566091278989404 ], [ 139.352098145712944, 35.571132946728142 ], [ 139.347312580611174, 35.570582387167462 ], [ 139.341185005783473, 35.576119639809576 ], [ 139.341681581739635, 35.579178531763887 ], [ 139.342789247925566, 35.581982865217128 ], [ 139.346888028659691, 35.580427558784834 ], [ 139.344788885098978, 35.586130999845807 ], [ 139.352751024740087, 35.583794721249433 ], [ 139.35083058366456, 35.591937026572566 ], [ 139.356203942957677, 35.589142531702521 ], [ 139.363526718583216, 35.598549936730251 ], [ 139.36356564214077, 35.598520540590528 ] ] ] } },
{ "type": "Feature", "properties": { "regioncode": "1415011", "regionname": "気象庁予報警報規程別表第四の二に示す「相模原市西部」の区域", "name": "相模原市西部", "namekana": "さがみはらしせいぶ", "PrefCode": "14" }, "geometry": { "type": "Polygon", "coordinates": [ [ [ 139.135601140780068, 35.672337919359563 ], [ 139.147160311399261, 35.666817108123098 ], [ 139.16160367077282, 35.667906586419861 ], [ 139.168360310579942, 35.658555747849562 ], [ 139.166954720583931, 35.651065504969154 ], [ 139.179086420302156, 35.645572468394732 ], [ 139.189825057580379, 35.646534413832171 ], [ 139.198485913794002, 35.653018306349793 ], [ 139.213665940231067, 35.647782504658892 ], [ 139.21537119332595, 35.637075865259021 ], [ 139.221433969302325, 35.629466413644138 ], [ 139.219640609626481, 35.625895026834087 ], [ 139.225905642231623, 35.623477278653525 ], [ 139.238637562073905, 35.606976747978592 ], [ 139.252223670585977, 35.601667333180956 ], [ 139.264775057822703, 35.602458694313327 ], [ 139.266155616088895, 35.60811119777361 ], [ 139.285248418279934, 35.61338867584675 ], [ 139.30368923537003, 35.60470315302814 ], [ 139.339901491560681, 35.605545883435809 ], [ 139.361393139082111, 35.598803828833695 ], [ 139.356203942957677, 35.589142531702521 ], [ 139.35083058366456, 35.591937026572566 ], [ 139.352751024740087, 35.583794721249433 ], [ 139.344788885098978, 35.586130999845807 ], [ 139.346888028659691, 35.580427558784834 ], [ 139.342789247925566, 35.581982865217128 ], [ 139.341681581739635, 35.579178531763887 ], [ 139.341185005783473, 35.576119639809576 ], [ 139.347312580611174, 35.570582387167462 ], [ 139.352098145712944, 35.571132946728142 ], [ 139.353981945710302, 35.566091278989404 ], [ 139.349288910954556, 35.565540080910068 ], [ 139.337497522792546, 35.573249612679547 ], [ 139.330750699984833, 35.568615918789646 ], [ 139.328809300209059, 35.562143559177969 ], [ 139.322783332584777, 35.559037054416592 ], [ 139.322857392654555, 35.547232000156725 ], [ 139.326338611637652, 35.542592279010535 ], [ 139.317248053954586, 35.538185893264426 ], [ 139.303161750614322, 35.551509531939416 ], [ 139.288462088054985, 35.556612054103084 ], [ 139.278879532864266, 35.546009000415097 ], [ 139.259286783158586, 35.549733468025181 ], [ 139.2497887156768, 35.546909586008667 ], [ 139.237725278998482, 35.533734027003788 ], [ 139.231790803902527, 35.531999586411814 ], [ 139.229633890591685, 35.53646374820346 ], [ 139.220112750103453, 35.534597081190384 ], [ 139.217569947595052, 35.532443748080539 ], [ 139.223030506053078, 35.527913468132112 ], [ 139.214707419012257, 35.525624026227888 ], [ 139.215549338231426, 35.521204027443957 ], [ 139.210842087892161, 35.520623197602561 ], [ 139.200149780088395, 35.507425413651958 ], [ 139.192099195721426, 35.506234560176836 ], [ 139.181188275318732, 35.497127053870486 ], [ 139.166702581259187, 35.483086170790216 ], [ 139.16283391635227, 35.474549224966836 ], [ 139.157650052308099, 35.478460891856741 ], [ 139.148793358826538, 35.477457531739731 ], [ 139.146670052281138, 35.483214468073299 ], [ 139.139103385912563, 35.48638055921549 ], [ 139.130176718880534, 35.484748892247637 ], [ 139.126458079776626, 35.478020000122967 ], [ 139.102376938744783, 35.47896355892118 ], [ 139.087727717360281, 35.492626027069548 ], [ 139.07495658887558, 35.49562991918549 ], [ 139.066038222585917, 35.509408225409345 ], [ 139.085789974227964, 35.512086305738478 ], [ 139.104000661101736, 35.526784360310046 ], [ 139.113966029808466, 35.53860133328493 ], [ 139.111960779066749, 35.549793558925671 ], [ 139.129178975029731, 35.563874945672239 ], [ 139.127771000031657, 35.581000224580748 ], [ 139.121437664816426, 35.586987972816758 ], [ 139.129333279807042, 35.594596332654703 ], [ 139.133104746886602, 35.606701026631129 ], [ 139.127796977848334, 35.612899081327612 ], [ 139.134413670554522, 35.616509639908031 ], [ 139.123490610203589, 35.623951557718271 ], [ 139.127553475612444, 35.641080998689176 ], [ 139.117175720083424, 35.65470541382382 ], [ 139.131341387694988, 35.671994585182006 ], [ 139.135439753841638, 35.672364026678565 ], [ 139.135601140780068, 35.672337919359563 ] ] ] } }
]
}
