{
"type": "FeatureCollection",
"name": "18_fukui_region",
"crs": { "type": "name", "properties": { "name": "urn:ogc:def:crs:OGC:1.3:CRS84" } },
"features": [
{ "type": "Feature", "properties": { "regioncode": "1820100", "regionname": "福井県福井市", "name": "福井市", "namekana": "ふくいし", "PrefCode": "18" }, "geometry": { "type": "MultiPolygon", "coordinates": [ [ [ [ 136.058431309457433, 36.131465081248564 ], [ 136.058273606142052, 36.134385134966067 ], [ 136.05845594008963, 36.13146894563539 ], [ 136.058431309457433, 36.131465081248564 ] ] ], [ [ [ 136.125660336755232, 36.160001505065452 ], [ 136.130345615757619, 36.158645107985421 ], [ 136.128630337020468, 36.162669000374137 ], [ 136.138036693438721, 36.172077279542862 ], [ 136.139241479210909, 36.162641224812717 ], [ 136.151553722326526, 36.166895667401207 ], [ 136.156733450388515, 36.164161775145885 ], [ 136.166470025271565, 36.144470108109033 ], [ 136.176006393979947, 36.138630107693359 ], [ 136.177829689388773, 36.13368177519385 ], [ 136.191786641440444, 36.130421504348988 ], [ 136.193060219953281, 36.124442054157498 ], [ 136.198262995840651, 36.12136427913822 ], [ 136.245595772027286, 36.120789802107709 ], [ 136.247096057037425, 36.118253694152713 ], [ 136.25406664106265, 36.123648693832195 ], [ 136.25366075184229, 36.106506468099099 ], [ 136.279953554213193, 36.104068387146413 ], [ 136.281401309822627, 36.098786720930491 ], [ 136.288072165997733, 36.098357801871089 ], [ 136.288367418821394, 36.094910305666133 ], [ 136.278817950588063, 36.090116170924603 ], [ 136.28206988291879, 36.090740054010325 ], [ 136.287277665331999, 36.082749225096734 ], [ 136.29435849544825, 36.082035585174197 ], [ 136.281415383313401, 36.073175612764373 ], [ 136.286445616172273, 36.056081721094586 ], [ 136.297035330216431, 36.049668946065083 ], [ 136.297446718791093, 36.046069225214637 ], [ 136.316965083771606, 36.041266973192307 ], [ 136.322176523727649, 36.049615279021964 ], [ 136.328689857351151, 36.048306081060844 ], [ 136.340462140315594, 36.053131053555319 ], [ 136.347944577980002, 36.037601332935196 ], [ 136.367558495028561, 36.033512135376782 ], [ 136.384856913216026, 36.047182081387973 ], [ 136.40760963687535, 36.045921532252976 ], [ 136.425605135768478, 36.039792387208934 ], [ 136.432003475779879, 36.04332210842864 ], [ 136.446136912588486, 36.02122886482033 ], [ 136.457834085974355, 36.016453613143767 ], [ 136.448941556307886, 36.010121946170955 ], [ 136.455349558635248, 36.001970865263274 ], [ 136.45154730236618, 35.997040585754462 ], [ 136.456320583628099, 35.992063386815914 ], [ 136.448525836598151, 35.983435891852992 ], [ 136.457151556299323, 35.96709038721167 ], [ 136.455283721966225, 35.95542541405166 ], [ 136.465502580779571, 35.950145693968636 ], [ 136.461293943360829, 35.94159933314279 ], [ 136.464415304922454, 35.933046278662857 ], [ 136.453291414267369, 35.931315170958442 ], [ 136.467138053678354, 35.921334639681902 ], [ 136.446143891327552, 35.922896585808815 ], [ 136.438747249885751, 35.92768464023402 ], [ 136.439801724769836, 35.932257666757948 ], [ 136.435559805240928, 35.936116558732238 ], [ 136.423016471433129, 35.938797107700395 ], [ 136.407119584601219, 35.949020170844278 ], [ 136.387859922197663, 35.952603224559198 ], [ 136.35830180288599, 35.947541332866251 ], [ 136.352015110109278, 35.942043557764009 ], [ 136.350145356622988, 35.934280531621312 ], [ 136.33373697767945, 35.92867308059823 ], [ 136.331503995213325, 35.942801081005143 ], [ 136.3364584952634, 35.95127827856976 ], [ 136.322937393346137, 35.951857468047763 ], [ 136.323059052733129, 35.956725504578401 ], [ 136.317755446656633, 35.957939666682307 ], [ 136.317718832558171, 35.964210748127584 ], [ 136.313124111688467, 35.965965504404551 ], [ 136.303171025022834, 35.964502721123722 ], [ 136.290444136887459, 35.97396605409017 ], [ 136.274846056999991, 35.972154413895112 ], [ 136.271130777763233, 35.977971054420664 ], [ 136.238878560297394, 35.983459972999412 ], [ 136.22953635521867, 35.990811640245056 ], [ 136.219954668772971, 35.987903332572785 ], [ 136.205631777184863, 35.971236413829502 ], [ 136.201679299959778, 35.97425474815816 ], [ 136.206381581544861, 35.985732774747817 ], [ 136.19470852078166, 35.990784720838235 ], [ 136.185165472808421, 35.988942531572604 ], [ 136.177773022207248, 36.001381107851898 ], [ 136.166179948046192, 35.996024171078659 ], [ 136.159009974430887, 35.998206946193648 ], [ 136.157437172587493, 35.995499171149902 ], [ 136.160798559605951, 35.993672774878689 ], [ 136.156215499345876, 35.992468053857635 ], [ 136.137539948409994, 35.992885279032464 ], [ 136.128093061345794, 36.003875837999601 ], [ 136.120842503079075, 36.001049440579266 ], [ 136.096928106247219, 36.004930252629094 ], [ 136.097354228414929, 36.00928108095718 ], [ 136.092439248172809, 36.012680252092025 ], [ 136.080562579999082, 36.014628027161791 ], [ 136.081745667828386, 36.019099135316878 ], [ 136.071850143169627, 36.023899135436807 ], [ 136.072540142613548, 36.028077748089629 ], [ 136.057297107875343, 36.026929107892045 ], [ 136.056113449875852, 36.012088866008412 ], [ 136.049339830868576, 36.009666359514938 ], [ 136.043885939984193, 36.001896359129717 ], [ 136.032720660729979, 35.996838026953412 ], [ 136.030673721914809, 35.999765775270362 ], [ 136.028266782685932, 35.994954693704187 ], [ 136.022820414630473, 36.005339667191947 ], [ 136.011730441007103, 36.014236332840539 ], [ 136.00570655081674, 36.009996333364143 ], [ 136.002484332086283, 35.996871052756944 ], [ 136.008795965761237, 35.987755225023648 ], [ 135.996340143183147, 35.982731891763422 ], [ 135.984062672354526, 35.984881332607472 ], [ 135.985563502353784, 35.987783559064042 ], [ 135.966799053433647, 35.994564109146381 ], [ 135.964372917276364, 35.997514207414781 ], [ 135.968129362979766, 36.000949586154547 ], [ 135.985523333235278, 36.008857440918234 ], [ 136.010594967783618, 36.033281720075365 ], [ 136.011596109273114, 36.044478440527655 ], [ 136.008245888237184, 36.043507667345011 ], [ 136.016308494741338, 36.048990027168088 ], [ 136.02137208795159, 36.071433667329927 ], [ 136.025777497033914, 36.072092721102251 ], [ 136.023568833135187, 36.074327414078937 ], [ 136.030635525009529, 36.086431413778769 ], [ 136.030792218386182, 36.093543918916794 ], [ 136.027687392659118, 36.095675170972413 ], [ 136.037081050650045, 36.105087108583234 ], [ 136.048507419282032, 36.109655973044767 ], [ 136.048478638278652, 36.117593224847496 ], [ 136.054330194982526, 36.121062919018527 ], [ 136.05459163419664, 36.129126612802963 ], [ 136.071078417834769, 36.134591532073614 ], [ 136.09130491618896, 36.150988333145108 ], [ 136.095406692564893, 36.157611171818189 ], [ 136.090389025932836, 36.160515413655446 ], [ 136.100029001037683, 36.172893414299665 ], [ 136.12410700433486, 36.163806224577627 ], [ 136.125549493514427, 36.160082053743849 ], [ 136.125660336755232, 36.160001505065452 ] ] ] ] } },
{ "type": "Feature", "properties": { "regioncode": "1820200", "regionname": "福井県敦賀市", "name": "敦賀市", "namekana": "つるがし", "PrefCode": "18" }, "geometry": { "type": "MultiPolygon", "coordinates": [ [ [ [ 136.041960441121546, 35.736183919252539 ], [ 136.038636743790789, 35.738723171237439 ], [ 136.041891310235883, 35.73632730626025 ], [ 136.041960441121546, 35.736183919252539 ] ] ], [ [ [ 136.112962139691035, 35.765161504599803 ], [ 136.118547951227015, 35.751749280005299 ], [ 136.132621777373174, 35.737333170989075 ], [ 136.131993411167059, 35.722691225120002 ], [ 136.148788080405666, 35.710651774260043 ], [ 136.149083333229328, 35.704622080744457 ], [ 136.145303060887613, 35.702580694343624 ], [ 136.150348340303708, 35.697715414235006 ], [ 136.150362191661884, 35.69130041428275 ], [ 136.134474889804437, 35.66944630580241 ], [ 136.150162580838469, 35.659381026912911 ], [ 136.151230025745122, 35.648964387396632 ], [ 136.15989299626483, 35.634839945607041 ], [ 136.159865966241455, 35.625227747862311 ], [ 136.166889830601235, 35.618624973064129 ], [ 136.176807755573577, 35.598448027354607 ], [ 136.177417199144543, 35.594850251737796 ], [ 136.166384331571749, 35.582480586010263 ], [ 136.170672891740651, 35.575618918878035 ], [ 136.169924527195235, 35.566066134844277 ], [ 136.166880363438054, 35.565352252104788 ], [ 136.16231649830786, 35.571493108120478 ], [ 136.144889558906129, 35.570554250977978 ], [ 136.138904306288737, 35.575672306231979 ], [ 136.12120238658099, 35.576204278604621 ], [ 136.113838275416128, 35.582898440710494 ], [ 136.112926588591222, 35.573961224630864 ], [ 136.10793905284504, 35.568296774576538 ], [ 136.110440973072514, 35.55972289179806 ], [ 136.105435693702361, 35.555550107651413 ], [ 136.10944785983088, 35.544960360332425 ], [ 136.106353112806005, 35.528916197824344 ], [ 136.082907081996268, 35.540577586286645 ], [ 136.077046809063063, 35.530541440934826 ], [ 136.069436523776631, 35.526266722231526 ], [ 136.048617445039099, 35.534512559307245 ], [ 136.046376860603687, 35.530175585934614 ], [ 136.026532476992315, 35.529496694017269 ], [ 136.027679196237955, 35.542470865138341 ], [ 136.023894501030441, 35.545565026704651 ], [ 136.022794837911533, 35.558488639738982 ], [ 136.029652360967702, 35.568955865221028 ], [ 136.029378806986415, 35.577203640335767 ], [ 136.025164136915464, 35.587329440901044 ], [ 136.009351414036587, 35.585789135160496 ], [ 136.004609805098539, 35.595160251644359 ], [ 136.009395446642657, 35.609050224887994 ], [ 136.005909390206284, 35.615972440675648 ], [ 136.009138105639181, 35.631521027273664 ], [ 135.998218559838733, 35.652117360128102 ], [ 136.013718366309604, 35.666983441332775 ], [ 136.009532554583757, 35.669820108111537 ], [ 136.009048470210814, 35.677662585759776 ], [ 136.012921556184892, 35.684024505026912 ], [ 136.010174837798559, 35.708368332632517 ], [ 136.012629494155931, 35.724866386574547 ], [ 136.004986160582916, 35.730058332825877 ], [ 135.985856693032019, 35.724365000144701 ], [ 135.968747755704385, 35.724822532034295 ], [ 135.965107470933049, 35.732495838212401 ], [ 135.96806944205116, 35.735600558718886 ], [ 135.981100272259823, 35.733104720606434 ], [ 135.984843359433512, 35.739011386866082 ], [ 135.980935252959625, 35.737720439746568 ], [ 135.993639442206586, 35.748887774850971 ], [ 136.00115516198116, 35.749881090439999 ], [ 136.005371685554906, 35.756085756952189 ], [ 136.009587755870257, 35.754189549907835 ], [ 136.0167813097097, 35.763662225031737 ], [ 136.020884086131787, 35.763003639806186 ], [ 136.031783800082394, 35.751779748136926 ], [ 136.03772296963939, 35.739129749338531 ], [ 136.022024241225836, 35.748803449919308 ], [ 136.038352412334007, 35.726748360048816 ], [ 136.035898833364513, 35.718739197555976 ], [ 136.040683358849947, 35.712340026571042 ], [ 136.037690467241305, 35.709817558633461 ], [ 136.044346524172852, 35.705456198344905 ], [ 136.040677366667182, 35.699289531786519 ], [ 136.044296782670472, 35.697836468378341 ], [ 136.044215083759127, 35.691180081395714 ], [ 136.038132217827638, 35.694674062657896 ], [ 136.032938612327143, 35.692728505316325 ], [ 136.025467056459547, 35.680531747742009 ], [ 136.041918559693841, 35.670562640553499 ], [ 136.044830946690922, 35.658193559385325 ], [ 136.059635161733354, 35.657162694402871 ], [ 136.063555187821748, 35.660153585919318 ], [ 136.059452245025113, 35.660849467828712 ], [ 136.072627276127946, 35.661106802536949 ], [ 136.057960219388633, 35.664237721193956 ], [ 136.06205903969294, 35.663955629948418 ], [ 136.062552684758657, 35.668060757198248 ], [ 136.074293528323778, 35.667396919032626 ], [ 136.07429472082481, 35.678059586081076 ], [ 136.063377782159023, 35.679505748091856 ], [ 136.077278417764887, 35.679683413658665 ], [ 136.08611299601796, 35.684710333415183 ], [ 136.081342502654479, 35.689252198430268 ], [ 136.081609363881057, 35.699612359622733 ], [ 136.078480219586481, 35.703402612640502 ], [ 136.092366834761719, 35.710971531810799 ], [ 136.09095630389038, 35.716935946236958 ], [ 136.098656588830522, 35.725767332796238 ], [ 136.096481050560101, 35.735638720550583 ], [ 136.085686913420432, 35.73922646782728 ], [ 136.099925498962648, 35.746676504716959 ], [ 136.101410220305524, 35.75693091912666 ], [ 136.098310220340409, 35.765238413721875 ], [ 136.112766304221623, 35.765415108020875 ], [ 136.112962139691035, 35.765161504599803 ] ] ] ] } },
{ "type": "Feature", "properties": { "regioncode": "1820400", "regionname": "福井県小浜市", "name": "小浜市", "namekana": "おばまし", "PrefCode": "18" }, "geometry": { "type": "MultiPolygon", "coordinates": [ [ [ [ 135.733333333466589, 35.50220094611683 ], [ 135.736422165650538, 35.506494386906468 ], [ 135.733333695893407, 35.502201414663602 ], [ 135.733333333466589, 35.50220094611683 ] ] ], [ [ [ 135.738347366837615, 35.525287972961621 ], [ 135.735915421959248, 35.524966585839309 ], [ 135.738351803193268, 35.525326586253016 ], [ 135.738347366837615, 35.525287972961621 ] ] ], [ [ [ 135.811664254002153, 35.577000720906597 ], [ 135.815281141111882, 35.571772360206296 ], [ 135.813266445690033, 35.568389054011675 ], [ 135.819071725080107, 35.56604464014805 ], [ 135.821472282719697, 35.560266864724099 ], [ 135.8441683661772, 35.549203802413615 ], [ 135.851336978219024, 35.541038532002688 ], [ 135.832048884648316, 35.522502440735082 ], [ 135.841448613063108, 35.513007721429233 ], [ 135.840910271691769, 35.507649108319754 ], [ 135.845294422599636, 35.502347171384883 ], [ 135.842308338858857, 35.495124694449146 ], [ 135.84476389094084, 35.486767468244125 ], [ 135.824873605932225, 35.479248865242994 ], [ 135.809445524891089, 35.489934134952421 ], [ 135.79636577156316, 35.488084973242962 ], [ 135.800248028823489, 35.48114802656022 ], [ 135.811866667113009, 35.475685530962551 ], [ 135.810081141431624, 35.466125251978838 ], [ 135.815401413744326, 35.462386108332282 ], [ 135.818956471563979, 35.451502774633411 ], [ 135.840902023109948, 35.441351107767446 ], [ 135.849045887857528, 35.442332775337377 ], [ 135.859164448880279, 35.432298891780476 ], [ 135.857900310550917, 35.418241414409806 ], [ 135.852533384108483, 35.410628360110763 ], [ 135.839051802898439, 35.414353639808667 ], [ 135.813498585891125, 35.413221693726257 ], [ 135.808091996648386, 35.39524144103973 ], [ 135.810123138871859, 35.391481721804098 ], [ 135.804949753728238, 35.384386170685275 ], [ 135.773771283617862, 35.393531414343329 ], [ 135.760305641991863, 35.409930279358946 ], [ 135.740224136834513, 35.416889172197614 ], [ 135.729998832580122, 35.418516640230791 ], [ 135.727831050962322, 35.413986640870803 ], [ 135.719336030633372, 35.414800531819139 ], [ 135.712596004901798, 35.408884694273297 ], [ 135.693466781966436, 35.410331081114578 ], [ 135.682280946908236, 35.41545855946498 ], [ 135.682142335300568, 35.41867022465118 ], [ 135.672743139284535, 35.417945505081036 ], [ 135.666190052029378, 35.410245775022531 ], [ 135.643536420169767, 35.416660775874163 ], [ 135.641047523024781, 35.424499080668113 ], [ 135.632104188857284, 35.426701306320297 ], [ 135.628385836637108, 35.421578802120052 ], [ 135.620924720999142, 35.421929919030617 ], [ 135.614802749847058, 35.414410504840987 ], [ 135.598939415821405, 35.418895747640704 ], [ 135.597951919745356, 35.425220197554154 ], [ 135.588763553595186, 35.430207414040979 ], [ 135.589300778008578, 35.433267135170183 ], [ 135.599239143671639, 35.434414919213225 ], [ 135.606676938989608, 35.440497134934901 ], [ 135.617296667007622, 35.440141026786989 ], [ 135.622351698671991, 35.445304361107446 ], [ 135.631695304894492, 35.444589080821459 ], [ 135.64717367062849, 35.45010408063888 ], [ 135.64080671875513, 35.458957414253291 ], [ 135.648480336997977, 35.465047972985644 ], [ 135.645166964783698, 35.478603911041716 ], [ 135.654327612929023, 35.480423027300901 ], [ 135.662433915692759, 35.493714775116814 ], [ 135.665998858860348, 35.489847279328558 ], [ 135.671981555604361, 35.491251026613611 ], [ 135.672725356989645, 35.488052639917441 ], [ 135.68157050587422, 35.487255945805316 ], [ 135.691956108887325, 35.487775693693379 ], [ 135.700921051065734, 35.494562135234389 ], [ 135.70184827457831, 35.489744837554269 ], [ 135.707742308960405, 35.489808468186311 ], [ 135.714061024796479, 35.483213054339046 ], [ 135.71963138777835, 35.485040385905165 ], [ 135.720929754304734, 35.492219387814544 ], [ 135.738582100683516, 35.495312305618484 ], [ 135.740969273713063, 35.499368423414069 ], [ 135.73403875538429, 35.5008073872512 ], [ 135.741408832651587, 35.504090026933227 ], [ 135.736881557338052, 35.505504585867982 ], [ 135.743812776238656, 35.50632808067644 ], [ 135.748397664820459, 35.517869414142183 ], [ 135.749191529665381, 35.513807305962473 ], [ 135.750801335913025, 35.531628466780376 ], [ 135.755386835134345, 35.533713585413693 ], [ 135.762523747872706, 35.530512774145279 ], [ 135.764768145433663, 35.535489134915679 ], [ 135.758669248187289, 35.538777198409036 ], [ 135.750652113204524, 35.537696305939846 ], [ 135.7481418283827, 35.533094639605963 ], [ 135.74579516171741, 35.536830468351468 ], [ 135.73868194611498, 35.535916892050977 ], [ 135.735427807747215, 35.526328720594051 ], [ 135.730909663250372, 35.524815891839978 ], [ 135.733179999957088, 35.524132170563291 ], [ 135.717938171209653, 35.519754359875833 ], [ 135.716782114303214, 35.540743774705504 ], [ 135.702627094664763, 35.544354136334391 ], [ 135.694020415409909, 35.542598505017054 ], [ 135.688620973079537, 35.546241279111769 ], [ 135.707517419093733, 35.56421656034604 ], [ 135.712231024941957, 35.564359054326928 ], [ 135.714644384430812, 35.569865441337072 ], [ 135.735896355432487, 35.571350721158922 ], [ 135.741551089211498, 35.570224892265003 ], [ 135.744726329156833, 35.564391838212828 ], [ 135.74987914410724, 35.56660766701026 ], [ 135.752774383730866, 35.558071838144883 ], [ 135.750022996064445, 35.555146559366278 ], [ 135.754383554157812, 35.552736837634995 ], [ 135.752566886752447, 35.549983802410623 ], [ 135.757070466728692, 35.543258252166652 ], [ 135.770017172554503, 35.543879639633701 ], [ 135.771252725033264, 35.547500197775946 ], [ 135.764170220379469, 35.550929918880684 ], [ 135.76593330707658, 35.557306278561953 ], [ 135.774538858581536, 35.549709081109256 ], [ 135.779662750435705, 35.550302693914261 ], [ 135.786868586316245, 35.541505467203592 ], [ 135.793333022001434, 35.541547414281808 ], [ 135.786011607949376, 35.534529918920668 ], [ 135.795460803573292, 35.530846026922632 ], [ 135.798935253359332, 35.52493686504431 ], [ 135.804749973832259, 35.533056865382093 ], [ 135.807086913430339, 35.527619638935221 ], [ 135.81516917012118, 35.529361613147955 ], [ 135.812679999582429, 35.537659359991494 ], [ 135.827221672842029, 35.533283559288861 ], [ 135.834309469106756, 35.537247504668642 ], [ 135.83065557669363, 35.542488532319965 ], [ 135.826626978152603, 35.541395468426174 ], [ 135.829191413852755, 35.545196586153565 ], [ 135.825558079941516, 35.546527413709214 ], [ 135.825910856101245, 35.552039080639133 ], [ 135.821612801789456, 35.551053531595244 ], [ 135.818753917259528, 35.556821587146601 ], [ 135.811952802380006, 35.558660467806419 ], [ 135.812258663606485, 35.563939359613812 ], [ 135.804042244254219, 35.564867666809448 ], [ 135.801392828016674, 35.571400171280914 ], [ 135.80765588840859, 35.569790999954762 ], [ 135.811654254440327, 35.577051838371688 ], [ 135.811664254002153, 35.577000720906597 ] ] ] ] } },
{ "type": "Feature", "properties": { "regioncode": "1820500", "regionname": "福井県大野市", "name": "大野市", "namekana": "おおのし", "PrefCode": "18" }, "geometry": { "type": "Polygon", "coordinates": [ [ [ 136.755328611925961, 36.085660505028329 ], [ 136.764969882953778, 36.069392414028755 ], [ 136.74463929976389, 36.060099413557168 ], [ 136.732792580812998, 36.048881945745279 ], [ 136.735477030140942, 36.047804972521533 ], [ 136.735726109072743, 36.032314694367699 ], [ 136.726745058237952, 35.995937775008372 ], [ 136.752250829712125, 35.988605197671802 ], [ 136.753607082001281, 35.968373531813086 ], [ 136.748845939788339, 35.963601864834231 ], [ 136.75286535715054, 35.95645991859044 ], [ 136.793244162488122, 35.945981504642759 ], [ 136.783922387308394, 35.925739054114104 ], [ 136.81370258070956, 35.9109226937274 ], [ 136.823768586251276, 35.892766387059169 ], [ 136.81899824936977, 35.881655586036516 ], [ 136.826085446686079, 35.874479774921724 ], [ 136.832345356752853, 35.859266774841842 ], [ 136.831073112833906, 35.851813720726682 ], [ 136.825116134901805, 35.845406505306016 ], [ 136.801959754139375, 35.843674504574778 ], [ 136.797089688738197, 35.828095332933344 ], [ 136.798528559945112, 35.817742306062598 ], [ 136.78931683480414, 35.79943591873274 ], [ 136.776021283755313, 35.798833106762515 ], [ 136.774385472711515, 35.806673359488002 ], [ 136.76390963712015, 35.810607198263654 ], [ 136.755011582018938, 35.809477720820212 ], [ 136.741096550065777, 35.801068774604289 ], [ 136.723383798923237, 35.808194251563521 ], [ 136.720584060106376, 35.800217918821943 ], [ 136.710047911481979, 35.79204325229432 ], [ 136.697120700260143, 35.794062721317573 ], [ 136.68977875468579, 35.789282748200321 ], [ 136.676959300231601, 35.793253053585602 ], [ 136.666135421612466, 35.785136441893314 ], [ 136.657665422221498, 35.78348258595264 ], [ 136.653777912021042, 35.78732008125678 ], [ 136.652510999283209, 35.798725359887499 ], [ 136.645195188007619, 35.806831748086779 ], [ 136.637853773932534, 35.797304558758412 ], [ 136.626627665434512, 35.796838468020951 ], [ 136.627647108127576, 35.790841531411616 ], [ 136.622056809873925, 35.786799864821944 ], [ 136.611451283949691, 35.788796278825259 ], [ 136.59914963664653, 35.798529919220471 ], [ 136.589652140234193, 35.795547413882105 ], [ 136.58523158207197, 35.78963077504028 ], [ 136.585986550339044, 35.784334666611642 ], [ 136.570745446445244, 35.777423838039738 ], [ 136.555817690633944, 35.78097774742514 ], [ 136.544947691183097, 35.778774694396702 ], [ 136.522814967336899, 35.78816553211368 ], [ 136.513306886803434, 35.775330279269042 ], [ 136.513708833395981, 35.762248333393927 ], [ 136.5059307508036, 35.750293334269998 ], [ 136.485714448962767, 35.776454440819862 ], [ 136.469044449142075, 35.772872504962208 ], [ 136.458932243628169, 35.779067197992845 ], [ 136.445804747091415, 35.772908306073532 ], [ 136.430727523056817, 35.775029134986653 ], [ 136.415965888215283, 35.782445800733171 ], [ 136.42282533132402, 35.793356640196862 ], [ 136.431314500663689, 35.797974134598689 ], [ 136.43331644639693, 35.805456081233217 ], [ 136.423241193126614, 35.813018865228514 ], [ 136.422559533096091, 35.819458585745167 ], [ 136.428163696197657, 35.823464135561437 ], [ 136.423355355765125, 35.83277389220143 ], [ 136.428856783014226, 35.838990278678466 ], [ 136.430902606669974, 35.850393585995278 ], [ 136.436500389081743, 35.849793864095602 ], [ 136.427646523967951, 35.858852747656215 ], [ 136.434963475584027, 35.867148306449224 ], [ 136.433081283574438, 35.872094414026037 ], [ 136.439860169011695, 35.877921081093064 ], [ 136.439264358263586, 35.886006081615449 ], [ 136.432225745921528, 35.890087467662568 ], [ 136.432523281224462, 35.896350224982939 ], [ 136.438630220208552, 35.902464945800659 ], [ 136.439091361077544, 35.909031333129576 ], [ 136.455089143749092, 35.913299919355836 ], [ 136.460524449243962, 35.920552413862879 ], [ 136.467212775649159, 35.921462413559595 ], [ 136.453324475144427, 35.931126558843687 ], [ 136.464415304922454, 35.933046278662857 ], [ 136.461293943360829, 35.94159933314279 ], [ 136.465502580779571, 35.950145693968636 ], [ 136.455283721966225, 35.95542541405166 ], [ 136.457151556299323, 35.96709038721167 ], [ 136.448525836598151, 35.983435891852992 ], [ 136.456320583628099, 35.992063386815914 ], [ 136.451580635737855, 35.996899197939683 ], [ 136.455349558635248, 36.001970865263274 ], [ 136.448941556307886, 36.010121946170955 ], [ 136.450589920988136, 36.012515278657247 ], [ 136.466803799955414, 36.018646108131463 ], [ 136.47057247733801, 36.027648586213331 ], [ 136.474823060935591, 36.029252197930646 ], [ 136.496679144327118, 36.025345306440784 ], [ 136.502786588730146, 36.019519748237826 ], [ 136.515104357280279, 36.016640333084979 ], [ 136.516913865182801, 36.021808666736661 ], [ 136.543838247936833, 36.006984027191152 ], [ 136.551655279267834, 36.012092639563718 ], [ 136.561821388346402, 36.008617946061406 ], [ 136.567962554628252, 36.010757667032749 ], [ 136.571803747944728, 36.022329332832498 ], [ 136.599253722381491, 36.038300775260609 ], [ 136.610312087532861, 36.038581918620707 ], [ 136.613538807370105, 36.044289135035626 ], [ 136.632056939176437, 36.053690802388644 ], [ 136.637543086943992, 36.061743278029894 ], [ 136.649548340183856, 36.067053252205881 ], [ 136.65867583662066, 36.069507386956388 ], [ 136.674238299757803, 36.067228198222836 ], [ 136.699425525068023, 36.073983972882104 ], [ 136.711098029150776, 36.08111866609363 ], [ 136.737546354880465, 36.080219720863454 ], [ 136.745298611641715, 36.085145251951872 ], [ 136.755170830369593, 36.085852441936709 ], [ 136.755328611925961, 36.085660505028329 ] ] ] } },
{ "type": "Feature", "properties": { "regioncode": "1820600", "regionname": "福井県勝山市", "name": "勝山市", "namekana": "かつやまし", "PrefCode": "18" }, "geometry": { "type": "Polygon", "coordinates": [ [ [ 136.492129921958394, 36.157363251213098 ], [ 136.496884643011981, 36.149696278960164 ], [ 136.510716549729068, 36.146124359751468 ], [ 136.521527691250071, 36.151377171219508 ], [ 136.531198781098965, 36.147263306156731 ], [ 136.541164642634158, 36.153621945596342 ], [ 136.560028249004517, 36.153059773989412 ], [ 136.563162087760247, 36.144599532242694 ], [ 136.576412048577254, 36.142200387437981 ], [ 136.587398975182623, 36.132614359964805 ], [ 136.601718105805958, 36.129516360091998 ], [ 136.605776978224981, 36.12049361308982 ], [ 136.612274747281845, 36.116819747633315 ], [ 136.614890311238923, 36.108159225068221 ], [ 136.651344746762675, 36.0922323602353 ], [ 136.657229753750244, 36.083512081317565 ], [ 136.654978053694322, 36.077382667376241 ], [ 136.65867583662066, 36.069507386956388 ], [ 136.637543086943992, 36.061743278029894 ], [ 136.632056939176437, 36.053690802388644 ], [ 136.613538807370105, 36.044289135035626 ], [ 136.610312087532861, 36.038581918620707 ], [ 136.599828715622834, 36.038493838120189 ], [ 136.588502529668062, 36.033292972392815 ], [ 136.571283190666804, 36.021926837653496 ], [ 136.567962554628252, 36.010757667032749 ], [ 136.561821388346402, 36.008617946061406 ], [ 136.551655279267834, 36.012092639563718 ], [ 136.543838247936833, 36.006984027191152 ], [ 136.516913865182801, 36.021808666736661 ], [ 136.515104357280279, 36.016640333084979 ], [ 136.502786588730146, 36.019519748237826 ], [ 136.496679144327118, 36.025345306440784 ], [ 136.474823060935591, 36.029252197930646 ], [ 136.463797134330321, 36.016859171413671 ], [ 136.446614967906498, 36.020858026676649 ], [ 136.432003475779879, 36.04332210842864 ], [ 136.435478249321818, 36.050055170709641 ], [ 136.43242411208314, 36.057943198120142 ], [ 136.439328884620409, 36.069484027066267 ], [ 136.438005615866587, 36.075427891983679 ], [ 136.388287056102854, 36.087519278691786 ], [ 136.38840094714601, 36.090799838241992 ], [ 136.404166524865332, 36.099199559212366 ], [ 136.398916278263641, 36.111637333296358 ], [ 136.391180168829806, 36.116368748419063 ], [ 136.392023256268317, 36.123236252151344 ], [ 136.425339727846222, 36.133677865840866 ], [ 136.437420558312169, 36.133803946295131 ], [ 136.448511440250854, 36.140717251599938 ], [ 136.461492555037466, 36.136583332554778 ], [ 136.48334185484282, 36.156860505008353 ], [ 136.492108806776059, 36.157419919293886 ], [ 136.492129921958394, 36.157363251213098 ] ] ] } },
{ "type": "Feature", "properties": { "regioncode": "1820700", "regionname": "福井県鯖江市", "name": "鯖江市", "namekana": "さばえし", "PrefCode": "18" }, "geometry": { "type": "Polygon", "coordinates": [ [ [ 136.18042413726414, 35.998466665903948 ], [ 136.179809662885646, 35.994456945931347 ], [ 136.185165472808421, 35.988942531572604 ], [ 136.19470852078166, 35.990784720838235 ], [ 136.206381581544861, 35.985732774747817 ], [ 136.201679299959778, 35.97425474815816 ], [ 136.205631777184863, 35.971236413829502 ], [ 136.219954668772971, 35.987903332572785 ], [ 136.232091362426445, 35.990669134572954 ], [ 136.238742723997575, 35.983511918740135 ], [ 136.271130777763233, 35.977971054420664 ], [ 136.274846056999991, 35.972154413895112 ], [ 136.290444136887459, 35.97396605409017 ], [ 136.303171025022834, 35.964502721123722 ], [ 136.317718832558171, 35.964210748127584 ], [ 136.317755446656633, 35.957939666682307 ], [ 136.323059052733129, 35.956725504578401 ], [ 136.322937393346137, 35.951857468047763 ], [ 136.3364584952634, 35.95127827856976 ], [ 136.331503995213325, 35.942801081005143 ], [ 136.33373697767945, 35.92867308059823 ], [ 136.324437522773565, 35.929624747683988 ], [ 136.309278418164581, 35.942622224735942 ], [ 136.289348418195004, 35.945175278616261 ], [ 136.280055356569505, 35.941205305980134 ], [ 136.250324228380464, 35.941379748376733 ], [ 136.248790636079093, 35.948493080891012 ], [ 136.240252555311258, 35.948113639832684 ], [ 136.240260894724543, 35.944551134727135 ], [ 136.225617808515153, 35.938377000198443 ], [ 136.224587781700848, 35.93086338663602 ], [ 136.218639441756864, 35.933033108091536 ], [ 136.216779144641919, 35.929302026867106 ], [ 136.178151361596179, 35.930201467623704 ], [ 136.175963838960115, 35.926179251571227 ], [ 136.17541250328452, 35.936698135011 ], [ 136.169105005591632, 35.936115054166464 ], [ 136.166653605679471, 35.939975612584533 ], [ 136.160929169945348, 35.939923387154636 ], [ 136.160937224273539, 35.936101998708352 ], [ 136.142796691714011, 35.938180613444615 ], [ 136.132784721038092, 35.933115055215694 ], [ 136.124280895446987, 35.944780864745155 ], [ 136.138101217996905, 35.962075864609517 ], [ 136.137980699849436, 35.969395306448291 ], [ 136.154347950997249, 35.982842531757512 ], [ 136.155225772951098, 35.992286666896234 ], [ 136.160798559605951, 35.993672774878689 ], [ 136.157437172587493, 35.995499171149902 ], [ 136.159009974430887, 35.998206946193648 ], [ 136.166116056610804, 35.996017775100313 ], [ 136.177509689021008, 36.001355279322752 ], [ 136.180687471349756, 35.999140000011039 ], [ 136.18042413726414, 35.998466665903948 ] ] ] } },
{ "type": "Feature", "properties": { "regioncode": "1820800", "regionname": "福井県あわら市", "name": "あわら市", "namekana": "あわらし", "PrefCode": "18" }, "geometry": { "type": "Polygon", "coordinates": [ [ [ 136.243372632640899, 36.295235774411537 ], [ 136.2585944226945, 36.289320864965987 ], [ 136.256267444886703, 36.279656694500886 ], [ 136.2642205049724, 36.278326973111348 ], [ 136.261469078635173, 36.272931973431866 ], [ 136.2631335016099, 36.26903172073736 ], [ 136.268378248857175, 36.269893387270031 ], [ 136.266812387082041, 36.265101440579087 ], [ 136.282836834652244, 36.265917559148079 ], [ 136.285471529887218, 36.261674503775396 ], [ 136.301205135808459, 36.258217865062477 ], [ 136.30842036330921, 36.246817864552838 ], [ 136.315297587813461, 36.24588480174225 ], [ 136.316970895190707, 36.234757305705159 ], [ 136.332403358628198, 36.229586224624597 ], [ 136.329007523078758, 36.224297053566204 ], [ 136.329400532208865, 36.202018694407286 ], [ 136.307567134215901, 36.190262000291114 ], [ 136.297479610595587, 36.179226720736608 ], [ 136.285332632295194, 36.174603387036711 ], [ 136.275244330761325, 36.180375892433517 ], [ 136.272874889664536, 36.177252000179692 ], [ 136.259056550119794, 36.179096999826754 ], [ 136.251822970153967, 36.185420080971994 ], [ 136.237221581910489, 36.183850360206009 ], [ 136.237394669028845, 36.191659506281269 ], [ 136.22863180271554, 36.197314278731028 ], [ 136.21553364476199, 36.192428199102153 ], [ 136.214336887237664, 36.189053108214409 ], [ 136.210594942202874, 36.191869774970201 ], [ 136.191564112294031, 36.189789251872526 ], [ 136.172762477306492, 36.198801171037246 ], [ 136.175484189144072, 36.211289774803333 ], [ 136.168721414161951, 36.212239225060216 ], [ 136.166557249617426, 36.209141441024713 ], [ 136.17479619968492, 36.221796413973379 ], [ 136.183909532698863, 36.222991135432608 ], [ 136.184953995430647, 36.22831974805797 ], [ 136.181345109589188, 36.231579197821759 ], [ 136.187573723248761, 36.230294197918965 ], [ 136.18890208756136, 36.234013918907294 ], [ 136.196909559328788, 36.235653080825045 ], [ 136.193690415380388, 36.240955306442288 ], [ 136.200699027238329, 36.246099468116029 ], [ 136.195482944082642, 36.251201973192565 ], [ 136.184261283631372, 36.248413081098874 ], [ 136.181188807417584, 36.250713413793051 ], [ 136.184807394245922, 36.254749467713793 ], [ 136.183213060834191, 36.257691748175716 ], [ 136.226109104551597, 36.281163774788411 ], [ 136.243361750844201, 36.295244468157705 ], [ 136.243372632640899, 36.295235774411537 ] ] ] } },
{ "type": "Feature", "properties": { "regioncode": "1820900", "regionname": "福井県越前市", "name": "越前市", "namekana": "えちぜんし", "PrefCode": "18" }, "geometry": { "type": "Polygon", "coordinates": [ [ [ 136.248707002726064, 35.944460585587592 ], [ 136.250324228380464, 35.941379748376733 ], [ 136.267365058250903, 35.94061141438533 ], [ 136.289348418195004, 35.945175278616261 ], [ 136.309278418164581, 35.942622224735942 ], [ 136.324437522773565, 35.929624747683988 ], [ 136.334060855923781, 35.927146413076571 ], [ 136.328629441795329, 35.921395864627527 ], [ 136.315823060785647, 35.920919774328183 ], [ 136.310796912647447, 35.917424775033396 ], [ 136.309731089218417, 35.91420227931178 ], [ 136.31401691275039, 35.912937279431958 ], [ 136.316014384356436, 35.90681980219216 ], [ 136.310651024625145, 35.901422305994686 ], [ 136.308788781377189, 35.896379252400607 ], [ 136.312356809219409, 35.88866953177353 ], [ 136.303914838099331, 35.874269532313122 ], [ 136.293983450276073, 35.866773693850917 ], [ 136.277296225740315, 35.865362028035236 ], [ 136.261370896050039, 35.844642586086536 ], [ 136.25591644578742, 35.842148972896837 ], [ 136.243962529447231, 35.844533134996254 ], [ 136.223872826070078, 35.856001504665755 ], [ 136.206588949020897, 35.859615108350624 ], [ 136.18078780871042, 35.857504558688504 ], [ 136.175081140881957, 35.850337613090403 ], [ 136.174835278825071, 35.84398010769587 ], [ 136.158623307319885, 35.833735108288693 ], [ 136.153298559980612, 35.817084279316077 ], [ 136.138853527868037, 35.807961505219339 ], [ 136.134578833446426, 35.810104559078184 ], [ 136.126925836658074, 35.843030640351799 ], [ 136.114921388311473, 35.846908134802618 ], [ 136.104779143642645, 35.841614802581148 ], [ 136.099797781742268, 35.844471170807935 ], [ 136.084853022449124, 35.842948667147311 ], [ 136.07670944188726, 35.850079504965208 ], [ 136.057598612785796, 35.848224467984835 ], [ 136.054144189103113, 35.852669198125056 ], [ 136.056291166704, 35.860211973104128 ], [ 136.044742308610694, 35.860382251639635 ], [ 136.034861283721284, 35.870581387421169 ], [ 136.021877444888219, 35.87475555922174 ], [ 136.019044137077344, 35.880053612883955 ], [ 136.02000783439405, 35.894105000045784 ], [ 136.024814254774128, 35.901847223970265 ], [ 136.042140025841604, 35.903924441160086 ], [ 136.048101478800277, 35.917170559173996 ], [ 136.06909975375072, 35.917480586060265 ], [ 136.080762826643195, 35.925632252426567 ], [ 136.085333644432239, 35.920936134794829 ], [ 136.088282528615878, 35.922837252137526 ], [ 136.093757470830724, 35.910694197579232 ], [ 136.115478559687858, 35.910811170599118 ], [ 136.117039389756087, 35.914776722168028 ], [ 136.125871608188277, 35.916136441343724 ], [ 136.128728028575779, 35.924561170661548 ], [ 136.132968028951495, 35.925047279408489 ], [ 136.132799999620374, 35.930306720678686 ], [ 136.140441414040083, 35.937655892305656 ], [ 136.160937224273539, 35.936101998708352 ], [ 136.160929169945348, 35.939923387154636 ], [ 136.166653605679471, 35.939975612584533 ], [ 136.169105005591632, 35.936115054166464 ], [ 136.17541250328452, 35.936698135011 ], [ 136.175963838960115, 35.926179251571227 ], [ 136.178151361596179, 35.930201467623704 ], [ 136.224587781700848, 35.93086338663602 ], [ 136.225617808515153, 35.938377000198443 ], [ 136.240260894724543, 35.944551134727135 ], [ 136.240252555311258, 35.948113639832684 ], [ 136.248790636079093, 35.948493080891012 ], [ 136.248735615556257, 35.945464467311353 ], [ 136.248707002726064, 35.944460585587592 ] ] ] } },
{ "type": "Feature", "properties": { "regioncode": "1821000", "regionname": "福井県坂井市", "name": "坂井市", "namekana": "さかいし", "PrefCode": "18" }, "geometry": { "type": "MultiPolygon", "coordinates": [ [ [ [ 136.120636329003446, 36.253543440877138 ], [ 136.120976886973835, 36.250518333754144 ], [ 136.116923359225666, 36.250017693761606 ], [ 136.120619248179878, 36.253544198106283 ], [ 136.120636329003446, 36.253543440877138 ] ] ], [ [ [ 136.183775719873665, 36.253856973320694 ], [ 136.181188807417584, 36.250713413793051 ], [ 136.184261283631372, 36.248413081098874 ], [ 136.195482944082642, 36.251201973192565 ], [ 136.200699027238329, 36.246099468116029 ], [ 136.193690415380388, 36.240955306442288 ], [ 136.196909559328788, 36.235653080825045 ], [ 136.18890208756136, 36.234013918907294 ], [ 136.187573723248761, 36.230294197918965 ], [ 136.181345109589188, 36.231579197821759 ], [ 136.184953995430647, 36.22831974805797 ], [ 136.183909532698863, 36.222991135432608 ], [ 136.17479619968492, 36.221796413973379 ], [ 136.174016161017107, 36.21724783821719 ], [ 136.166803087392623, 36.2126047751903 ], [ 136.166747522780042, 36.209111441439916 ], [ 136.168721414161951, 36.212239225060216 ], [ 136.175484189144072, 36.211289774803333 ], [ 136.172762477306492, 36.198801171037246 ], [ 136.180490220347451, 36.19290480201505 ], [ 136.190299947884341, 36.192910332845656 ], [ 136.195194669098782, 36.189312026628784 ], [ 136.210594942202874, 36.191869774970201 ], [ 136.214336887237664, 36.189053108214409 ], [ 136.21553364476199, 36.192428199102153 ], [ 136.22863180271554, 36.197314278731028 ], [ 136.237394669028845, 36.191659506281269 ], [ 136.237221581910489, 36.183850360206009 ], [ 136.251822970153967, 36.185420080971994 ], [ 136.259056550119794, 36.179096999826754 ], [ 136.272874889664536, 36.177252000179692 ], [ 136.275244330761325, 36.180375892433517 ], [ 136.285332632295194, 36.174603387036711 ], [ 136.297479610595587, 36.179226720736608 ], [ 136.307567134215901, 36.190262000291114 ], [ 136.329400532208865, 36.202018694407286 ], [ 136.335979948016302, 36.194631720677421 ], [ 136.335666615222181, 36.184870332599814 ], [ 136.344372139862458, 36.1728261351181 ], [ 136.3582960571174, 36.165090135401499 ], [ 136.368895525208359, 36.169834694115877 ], [ 136.390094162815444, 36.167403802343642 ], [ 136.409306161150425, 36.172226801725571 ], [ 136.414285305322664, 36.156623720708183 ], [ 136.424537562258706, 36.154332586279907 ], [ 136.431668637497637, 36.143549251796571 ], [ 136.438617522680602, 36.14171199980899 ], [ 136.440024189165115, 36.135573107912649 ], [ 136.395691855294899, 36.124499865276618 ], [ 136.375776835332772, 36.125924892319972 ], [ 136.371681829053273, 36.130057414717953 ], [ 136.361906550047365, 36.128700468152147 ], [ 136.355292048988986, 36.116776027092044 ], [ 136.343042308755571, 36.11095855919018 ], [ 136.334997561888031, 36.112166891888592 ], [ 136.323317249891261, 36.106029973104853 ], [ 136.322959754988801, 36.102759974293406 ], [ 136.296247471044012, 36.10730891877165 ], [ 136.298671387674517, 36.111544468402542 ], [ 136.290404189002174, 36.116002531891411 ], [ 136.284002218427759, 36.111155505322358 ], [ 136.285340272036024, 36.119523640303782 ], [ 136.280485524787196, 36.120897837665154 ], [ 136.280666083473079, 36.111962279935312 ], [ 136.275660220442887, 36.111259504722398 ], [ 136.270148521137457, 36.104121171055226 ], [ 136.256934642020155, 36.104920919265055 ], [ 136.25366075184229, 36.106506468099099 ], [ 136.25406664106265, 36.123648693832195 ], [ 136.247096057037425, 36.118253694152713 ], [ 136.245595772027286, 36.120789802107709 ], [ 136.198262995840651, 36.12136427913822 ], [ 136.193060219953281, 36.124442054157498 ], [ 136.191786641440444, 36.130421504348988 ], [ 136.177829689388773, 36.13368177519385 ], [ 136.176006393979947, 36.138630107693359 ], [ 136.166470025271565, 36.144470108109033 ], [ 136.161899248851341, 36.1587845586605 ], [ 136.151553722326526, 36.166895667401207 ], [ 136.139241479210909, 36.162641224812717 ], [ 136.138036693438721, 36.172077279542862 ], [ 136.128630337020468, 36.162669000374137 ], [ 136.130345615757619, 36.158645107985421 ], [ 136.125493113216635, 36.157976775008194 ], [ 136.125594500985471, 36.163027891923718 ], [ 136.100029001037683, 36.172893414299665 ], [ 136.114257884693643, 36.192610306420534 ], [ 136.112481802793013, 36.205393558665833 ], [ 136.114423696296626, 36.19268680095513 ], [ 136.121055332137985, 36.189608613147016 ], [ 136.12765219209507, 36.19008758577354 ], [ 136.133987470745296, 36.203830332803648 ], [ 136.131096641396994, 36.20518541417556 ], [ 136.123045031802803, 36.197683359599409 ], [ 136.126553606363927, 36.198917892246982 ], [ 136.11855591382448, 36.200514170892347 ], [ 136.132028053951558, 36.213942999669769 ], [ 136.129659001361915, 36.219034134617687 ], [ 136.127369143970895, 36.217800252179927 ], [ 136.134999103725704, 36.221449414159167 ], [ 136.131564111694502, 36.224508000343974 ], [ 136.132427004003148, 36.230246945740021 ], [ 136.125052217885582, 36.237422505044606 ], [ 136.130961089282891, 36.242105080684951 ], [ 136.122266807966867, 36.249165053724312 ], [ 136.145374422991267, 36.251622972821963 ], [ 136.148616200177571, 36.255538026558725 ], [ 136.14941345007071, 36.252590054287623 ], [ 136.160631997069117, 36.249788469162581 ], [ 136.183185109904912, 36.257619776331637 ], [ 136.184807394245922, 36.254749467713793 ], [ 136.183775719873665, 36.253856973320694 ] ] ] ] } },
{ "type": "Feature", "properties": { "regioncode": "1832200", "regionname": "福井県永平寺町", "name": "永平寺町", "namekana": "えいへいじちょう", "PrefCode": "18" }, "geometry": { "type": "Polygon", "coordinates": [ [ [ 136.372008222701425, 36.12935853177089 ], [ 136.375776835332772, 36.125924892319972 ], [ 136.392781310109399, 36.124938747924944 ], [ 136.391180168829806, 36.116368748419063 ], [ 136.402659339357115, 36.105122891708163 ], [ 136.40413929968895, 36.099089278947133 ], [ 136.38840094714601, 36.090799838241992 ], [ 136.388287056102854, 36.087519278691786 ], [ 136.438005615866587, 36.075427891983679 ], [ 136.439328884620409, 36.069484027066267 ], [ 136.43242411208314, 36.057943198120142 ], [ 136.435478249321818, 36.050055170709641 ], [ 136.432003475779879, 36.04332210842864 ], [ 136.425605135768478, 36.039792387208934 ], [ 136.388385524672344, 36.047689027426713 ], [ 136.369235162272957, 36.034082134682819 ], [ 136.360196006240812, 36.03389630596979 ], [ 136.3478770820617, 36.037664666790988 ], [ 136.340462140315594, 36.053131053555319 ], [ 136.328689857351151, 36.048306081060844 ], [ 136.322176523727649, 36.049615279021964 ], [ 136.31851647185772, 36.041816413996344 ], [ 136.313715888077809, 36.041118918703205 ], [ 136.297269493892145, 36.046141170978331 ], [ 136.297035330216431, 36.049668946065083 ], [ 136.286445616172273, 36.056081721094586 ], [ 136.28142566796032, 36.073792560278491 ], [ 136.289115694333873, 36.075951720995192 ], [ 136.29435849544825, 36.082035585174197 ], [ 136.287277665331999, 36.082749225096734 ], [ 136.28206988291879, 36.090740054010325 ], [ 136.278817950588063, 36.090116170924603 ], [ 136.288367418821394, 36.094910305666133 ], [ 136.288072165997733, 36.098357801871089 ], [ 136.281401309822627, 36.098786720930491 ], [ 136.280226329381662, 36.103987000299867 ], [ 136.269969922074324, 36.104072559101382 ], [ 136.275660220442887, 36.111259504722398 ], [ 136.280666083473079, 36.111962279935312 ], [ 136.279843022137811, 36.120820612881005 ], [ 136.285340272036024, 36.119523640303782 ], [ 136.284002218427759, 36.111155505322358 ], [ 136.290404189002174, 36.116002531891411 ], [ 136.298671387674517, 36.111544468402542 ], [ 136.296247471044012, 36.10730891877165 ], [ 136.318688885383835, 36.102285802248048 ], [ 136.334997561888031, 36.112166891888592 ], [ 136.343042308755571, 36.11095855919018 ], [ 136.353335668306499, 36.115591306093961 ], [ 136.360387911672888, 36.12756908144803 ], [ 136.371959339152227, 36.129530197960321 ], [ 136.372008222701425, 36.12935853177089 ] ] ] } },
{ "type": "Feature", "properties": { "regioncode": "1838200", "regionname": "福井県池田町", "name": "池田町", "namekana": "いけだちょう", "PrefCode": "18" }, "geometry": { "type": "Polygon", "coordinates": [ [ [ 136.388947664802913, 35.952401000305997 ], [ 136.407119584601219, 35.949020170844278 ], [ 136.423016471433129, 35.938797107700395 ], [ 136.435900337130875, 35.935907666006017 ], [ 136.439801724769836, 35.932257666757948 ], [ 136.438747249885751, 35.92768464023402 ], [ 136.446143891327552, 35.922896585808815 ], [ 136.460524449243962, 35.920552413862879 ], [ 136.455655525082534, 35.913556864657608 ], [ 136.438889689007965, 35.908883558329592 ], [ 136.438630220208552, 35.902464945800659 ], [ 136.432523281224462, 35.896350224982939 ], [ 136.432225745921528, 35.890087467662568 ], [ 136.439264358263586, 35.886006081615449 ], [ 136.439860169011695, 35.877921081093064 ], [ 136.433081283574438, 35.872094414026037 ], [ 136.434963475584027, 35.867148306449224 ], [ 136.427646523967951, 35.858852747656215 ], [ 136.436500389081743, 35.849793864095602 ], [ 136.430902606669974, 35.850393585995278 ], [ 136.428856783014226, 35.838990278678466 ], [ 136.423355355765125, 35.83277389220143 ], [ 136.428163696197657, 35.823464135561437 ], [ 136.422559533096091, 35.819458585745167 ], [ 136.423241193126614, 35.813018865228514 ], [ 136.43331644639693, 35.805456081233217 ], [ 136.431314500663689, 35.797974134598689 ], [ 136.42282533132402, 35.793356640196862 ], [ 136.415965888215283, 35.782445800733171 ], [ 136.409207003700317, 35.779931082253711 ], [ 136.400275057647832, 35.789334694840363 ], [ 136.389500610265031, 35.788042198188975 ], [ 136.388798105748037, 35.791895251764515 ], [ 136.377776471606921, 35.795194135001395 ], [ 136.364065888829714, 35.788175504695857 ], [ 136.354401750740294, 35.787709108188835 ], [ 136.35090369644854, 35.794990801884069 ], [ 136.353422580587676, 35.801128306126486 ], [ 136.346426200408928, 35.807195000448985 ], [ 136.349506471946142, 35.813209999941591 ], [ 136.340323410896758, 35.822724196764341 ], [ 136.33106143973373, 35.820006973443128 ], [ 136.325156718707717, 35.823910306315611 ], [ 136.314686718817029, 35.817370305994871 ], [ 136.313310894582173, 35.822146694414471 ], [ 136.301732828307422, 35.830183109063285 ], [ 136.298555331063767, 35.82433866689604 ], [ 136.286286160977625, 35.820432558715652 ], [ 136.258776135210496, 35.823652306109068 ], [ 136.259893086896454, 35.836470080629795 ], [ 136.25591644578742, 35.842148972896837 ], [ 136.266119779604196, 35.848540918728474 ], [ 136.277296225740315, 35.865362028035236 ], [ 136.293983450276073, 35.866773693850917 ], [ 136.306352335392035, 35.877742305762865 ], [ 136.304967366850519, 35.880410359550524 ], [ 136.312356809219409, 35.88866953177353 ], [ 136.308788781377189, 35.896379252400607 ], [ 136.316014384356436, 35.90681980219216 ], [ 136.31401691275039, 35.912937279431958 ], [ 136.309731089218417, 35.91420227931178 ], [ 136.313464720920251, 35.920201171047268 ], [ 136.328629441795329, 35.921395864627527 ], [ 136.33373697767945, 35.92867308059823 ], [ 136.348153671254977, 35.932971946098462 ], [ 136.35830180288599, 35.947541332866251 ], [ 136.388109078471302, 35.952576279072048 ], [ 136.388947664802913, 35.952401000305997 ] ] ] } },
{ "type": "Feature", "properties": { "regioncode": "1840400", "regionname": "福井県南越前町", "name": "南越前町", "namekana": "みなみえちぜんちょう", "PrefCode": "18" }, "geometry": { "type": "Polygon", "coordinates": [ [ [ 136.022492438175505, 35.874364999844943 ], [ 136.034861283721284, 35.870581387421169 ], [ 136.044742308610694, 35.860382251639635 ], [ 136.056291166704, 35.860211973104128 ], [ 136.054144189103113, 35.852669198125056 ], [ 136.057598612785796, 35.848224467984835 ], [ 136.07670944188726, 35.850079504965208 ], [ 136.084853022449124, 35.842948667147311 ], [ 136.099797781742268, 35.844471170807935 ], [ 136.104779143642645, 35.841614802581148 ], [ 136.114921388311473, 35.846908134802618 ], [ 136.126925836658074, 35.843030640351799 ], [ 136.134578833446426, 35.810104559078184 ], [ 136.138853527868037, 35.807961505219339 ], [ 136.153298559980612, 35.817084279316077 ], [ 136.158623307319885, 35.833735108288693 ], [ 136.174835278825071, 35.84398010769587 ], [ 136.175081140881957, 35.850337613090403 ], [ 136.18078780871042, 35.857504558688504 ], [ 136.206588949020897, 35.859615108350624 ], [ 136.223872826070078, 35.856001504665755 ], [ 136.241545863151146, 35.845401224486977 ], [ 136.255495331044699, 35.842490639731295 ], [ 136.259827522722048, 35.836869251914493 ], [ 136.259320583877866, 35.823357585684107 ], [ 136.286286160977625, 35.820432558715652 ], [ 136.298555331063767, 35.82433866689604 ], [ 136.301732828307422, 35.830183109063285 ], [ 136.313310894582173, 35.822146694414471 ], [ 136.314686718817029, 35.817370305994871 ], [ 136.325156718707717, 35.823910306315611 ], [ 136.33106143973373, 35.820006973443128 ], [ 136.341292308992934, 35.822291414217432 ], [ 136.349506471946142, 35.813209999941591 ], [ 136.346426200408928, 35.807195000448985 ], [ 136.353422580587676, 35.801128306126486 ], [ 136.35090369644854, 35.794990801884069 ], [ 136.356978418119525, 35.785774947056211 ], [ 136.346527562097322, 35.776046865370574 ], [ 136.327947833925464, 35.77510186495914 ], [ 136.324111166896955, 35.76961463980382 ], [ 136.318386160992645, 35.751058467574296 ], [ 136.325198417573006, 35.743648440623076 ], [ 136.327002865889654, 35.731433972699733 ], [ 136.320448975539875, 35.722544224636295 ], [ 136.323953138926299, 35.716746999574411 ], [ 136.311751750742815, 35.711955305592937 ], [ 136.309463450977546, 35.70351583818541 ], [ 136.297797587488731, 35.691841333111086 ], [ 136.291822023267855, 35.690523305606121 ], [ 136.292014501568019, 35.683882720611109 ], [ 136.298907302330235, 35.677683279160078 ], [ 136.288788054225392, 35.671377748284499 ], [ 136.290544422986841, 35.665936107965081 ], [ 136.280742113957444, 35.658630864622751 ], [ 136.269359883152106, 35.668727838319114 ], [ 136.250662334799017, 35.676245134605324 ], [ 136.244649805743961, 35.673788225446287 ], [ 136.234407004279888, 35.682462134420007 ], [ 136.225946978370416, 35.680548865437856 ], [ 136.217203332367944, 35.684576107801206 ], [ 136.212608339902999, 35.681701108319544 ], [ 136.208348611998872, 35.687587802435189 ], [ 136.198298611691598, 35.689716171264365 ], [ 136.191092244311676, 35.702463946154239 ], [ 136.167928053836704, 35.703414559234545 ], [ 136.164571088784783, 35.696263721393677 ], [ 136.156943333268259, 35.700344837644195 ], [ 136.147318339969502, 35.699088197862068 ], [ 136.145303060887613, 35.702580694343624 ], [ 136.149083333229328, 35.704622080744457 ], [ 136.148788080405666, 35.710651774260043 ], [ 136.131993411167059, 35.722691225120002 ], [ 136.130867638930454, 35.740710387874174 ], [ 136.118547951227015, 35.751749280005299 ], [ 136.112766304221623, 35.765415108020875 ], [ 136.096651335390902, 35.767405081079687 ], [ 136.100133838605871, 35.778586468091078 ], [ 136.076741336343616, 35.810536170707792 ], [ 136.070977834059818, 35.824131532344381 ], [ 136.047322191965691, 35.840785305697352 ], [ 136.048726109222571, 35.838401613044084 ], [ 136.040451141307244, 35.849106693918827 ], [ 136.011229688599315, 35.872357775091302 ], [ 136.019683865318143, 35.878946667055118 ], [ 136.021877444888219, 35.87475555922174 ], [ 136.022492438175505, 35.874364999844943 ] ] ] } },
{ "type": "Feature", "properties": { "regioncode": "1842300", "regionname": "福井県越前町", "name": "越前町", "namekana": "えちぜんちょう", "PrefCode": "18" }, "geometry": { "type": "MultiPolygon", "coordinates": [ [ [ [ 135.993572788953088, 35.936026684983574 ], [ 135.99416731456995, 35.931692667682512 ], [ 135.99347972800706, 35.935986324309454 ], [ 135.993572788953088, 35.936026684983574 ] ] ], [ [ [ 136.072540142613548, 36.028077748089629 ], [ 136.071850143169627, 36.023899135436807 ], [ 136.081745667828386, 36.019099135316878 ], [ 136.080562579999082, 36.014628027161791 ], [ 136.092439248172809, 36.012680252092025 ], [ 136.097354228414929, 36.00928108095718 ], [ 136.097038105923957, 36.004879973332152 ], [ 136.120842503079075, 36.001049440579266 ], [ 136.128093061345794, 36.003875837999601 ], [ 136.137539948409994, 35.992885279032464 ], [ 136.155225772951098, 35.992286666896234 ], [ 136.154347950997249, 35.982842531757512 ], [ 136.137980699849436, 35.969395306448291 ], [ 136.138101217996905, 35.962075864609517 ], [ 136.124384773438578, 35.945266693802921 ], [ 136.124696446084158, 35.940680612720143 ], [ 136.134716938735778, 35.932771721038137 ], [ 136.133031920386884, 35.925170053954901 ], [ 136.128728028575779, 35.924561170661548 ], [ 136.125871608188277, 35.916136441343724 ], [ 136.117039389756087, 35.914776722168028 ], [ 136.115381335780057, 35.910798667324684 ], [ 136.093757470830724, 35.910694197579232 ], [ 136.088282528615878, 35.922837252137526 ], [ 136.085333644432239, 35.920936134794829 ], [ 136.080762826643195, 35.925632252426567 ], [ 136.06909975375072, 35.917480586060265 ], [ 136.047969803663591, 35.917123054285582 ], [ 136.042140025841604, 35.903924441160086 ], [ 136.024814254774128, 35.901847223970265 ], [ 136.02000783439405, 35.894105000045784 ], [ 136.019617197675643, 35.878228892049776 ], [ 136.011112192173982, 35.872352225374925 ], [ 135.993654227960292, 35.88759207201656 ], [ 135.99543328122104, 35.896721684558145 ], [ 135.991947043121627, 35.895133161666138 ], [ 135.997860440806789, 35.902966918588447 ], [ 135.995017470679841, 35.912947171075132 ], [ 135.997369222111956, 35.934812171244744 ], [ 135.988177418752912, 35.942312505417817 ], [ 135.992027820227804, 35.93568326986707 ], [ 135.985537055990449, 35.944350504971851 ], [ 135.985578443690315, 35.951540225001452 ], [ 135.984848846197337, 35.948572812085672 ], [ 135.981386796263678, 35.955597171072611 ], [ 135.969556251619792, 35.962301332740367 ], [ 135.968523747173208, 35.968110505295613 ], [ 135.958510441004137, 35.976119253201034 ], [ 135.960679857589412, 35.978233838121184 ], [ 135.957694306247276, 35.982510774552679 ], [ 135.962993877965118, 35.986990865136363 ], [ 135.960769883323564, 35.990439107778627 ], [ 135.96529516214207, 35.99196161413721 ], [ 135.964372917276364, 35.997514207414781 ], [ 135.99063236109464, 35.982866891693732 ], [ 136.007177081756936, 35.986308000014219 ], [ 136.002484332086283, 35.996871052756944 ], [ 136.003487665223588, 36.005437440585467 ], [ 136.011730441007103, 36.014236332840539 ], [ 136.022820414630473, 36.005339667191947 ], [ 136.028266782685932, 35.994954693704187 ], [ 136.030673721914809, 35.999765775270362 ], [ 136.032720660729979, 35.996838026953412 ], [ 136.043885939984193, 36.001896359129717 ], [ 136.049339830868576, 36.009666359514938 ], [ 136.056113449875852, 36.012088866008412 ], [ 136.057297107875343, 36.026929107892045 ], [ 136.072420700055318, 36.028086639686705 ], [ 136.072540142613548, 36.028077748089629 ] ] ] ] } },
{ "type": "Feature", "properties": { "regioncode": "1844200", "regionname": "福井県美浜町", "name": "美浜町", "namekana": "みはまちょう", "PrefCode": "18" }, "geometry": { "type": "MultiPolygon", "coordinates": [ [ [ [ 135.899033218108571, 35.592757945722667 ], [ 135.905819611086258, 35.588337386661124 ], [ 135.899751283594924, 35.589254892099632 ], [ 135.898777950941735, 35.592927108199547 ], [ 135.899033218108571, 35.592757945722667 ] ] ], [ [ [ 135.895173217270212, 35.592547945931017 ], [ 135.898022387323408, 35.593009612903359 ], [ 135.88948016967413, 35.592796559014062 ], [ 135.894698780824115, 35.592747667370986 ], [ 135.895173217270212, 35.592547945931017 ] ] ], [ [ [ 135.964872749677738, 35.729971387269757 ], [ 135.968747755704385, 35.724822532034295 ], [ 135.985856693032019, 35.724365000144701 ], [ 136.004986160582916, 35.730058332825877 ], [ 136.012629494155931, 35.724866386574547 ], [ 136.010174837798559, 35.708368332632517 ], [ 136.012921556184892, 35.684024505026912 ], [ 136.009048470210814, 35.677662585759776 ], [ 136.009532554583757, 35.669820108111537 ], [ 136.013718366309604, 35.666983441332775 ], [ 135.998213280818277, 35.652433198433414 ], [ 136.009138105639181, 35.631521027273664 ], [ 136.005909390206284, 35.615972440675648 ], [ 136.009395446642657, 35.609050224887994 ], [ 136.004462023103997, 35.595871081185521 ], [ 136.009351414036587, 35.585789135160496 ], [ 136.025164136915464, 35.587329440901044 ], [ 136.029784060386191, 35.573028080881272 ], [ 136.022794837911533, 35.558488639738982 ], [ 136.028842166233062, 35.523428081440841 ], [ 136.020306615258164, 35.5120255592322 ], [ 136.015138832890898, 35.51164833320405 ], [ 136.011446031309333, 35.497049721167741 ], [ 136.006664916053069, 35.491819441314192 ], [ 135.989506887432981, 35.492681945115748 ], [ 135.98145050603614, 35.486547504863495 ], [ 135.972600584449424, 35.500189694199094 ], [ 135.951826744308846, 35.507236919348429 ], [ 135.947022360893357, 35.520475531620548 ], [ 135.954234034273327, 35.526200252439764 ], [ 135.954012113967906, 35.535712199158695 ], [ 135.944906083449041, 35.550971891139909 ], [ 135.943883359129813, 35.565357720882162 ], [ 135.936740078292019, 35.57749769436316 ], [ 135.916807613280753, 35.580754359825903 ], [ 135.916440972273108, 35.584419080975863 ], [ 135.907737107781372, 35.589545169873759 ], [ 135.905427134354795, 35.600572387006082 ], [ 135.901279637345397, 35.598220170624415 ], [ 135.901222438664718, 35.604213775245569 ], [ 135.889219363582811, 35.597829053667965 ], [ 135.878935771568649, 35.608640973102467 ], [ 135.870548520597822, 35.60133989182259 ], [ 135.864511854638408, 35.60286294586831 ], [ 135.848205771779021, 35.614714864699295 ], [ 135.839866354848482, 35.626984586069852 ], [ 135.839434720735881, 35.634803198408918 ], [ 135.814642892255733, 35.642249638909732 ], [ 135.822824163404448, 35.644162054435299 ], [ 135.827694720734826, 35.638848197886091 ], [ 135.846211115051005, 35.635454305771646 ], [ 135.843686913220495, 35.626380414324728 ], [ 135.848602477122654, 35.622836251791625 ], [ 135.859246939194918, 35.623740973367262 ], [ 135.856807172912795, 35.61493069389644 ], [ 135.867616887209692, 35.608140693738051 ], [ 135.876867716671882, 35.610422918582856 ], [ 135.879396744264454, 35.616051305823134 ], [ 135.885111802767597, 35.617845667343715 ], [ 135.893597055559781, 35.611728198197852 ], [ 135.895621970877301, 35.622031891858398 ], [ 135.906931361992861, 35.625290748069631 ], [ 135.910557392509759, 35.617038279393114 ], [ 135.907941894203077, 35.618680748118095 ], [ 135.90786807964821, 35.614777801954062 ], [ 135.91267613499565, 35.61309736025504 ], [ 135.912275253200391, 35.610071441044227 ], [ 135.926221282985921, 35.610173666981211 ], [ 135.938814863715038, 35.614323135304517 ], [ 135.951333916726981, 35.627897864694773 ], [ 135.947830246169019, 35.631691667336611 ], [ 135.949922437970145, 35.633875197882105 ], [ 135.954865331370002, 35.634200306399066 ], [ 135.954577056386142, 35.629088891739002 ], [ 135.96234678337737, 35.622452839327138 ], [ 135.974263644951293, 35.624712749294019 ], [ 135.986241828597599, 35.6416970270962 ], [ 135.974622192060565, 35.654652054348901 ], [ 135.967954969146604, 35.656284277997088 ], [ 135.967720998825143, 35.653337892130082 ], [ 135.963155524807689, 35.656730107908231 ], [ 135.968913670729421, 35.669232027036458 ], [ 135.965296199959766, 35.674338972965302 ], [ 135.972297056064349, 35.676693693958839 ], [ 135.977602672125727, 35.68702366670891 ], [ 135.975432088220373, 35.698272359881571 ], [ 135.969133697062489, 35.704039864148456 ], [ 135.97060182861162, 35.709165658068741 ], [ 135.972724110829063, 35.707713252064991 ], [ 135.971244967980965, 35.711807252003155 ], [ 135.960576304253095, 35.705199467981117 ], [ 135.965885227121589, 35.706704747825881 ], [ 135.966235188403289, 35.701072532171679 ], [ 135.955827665314587, 35.702924468289609 ], [ 135.959616304049291, 35.706994747709473 ], [ 135.959583839422748, 35.716222252355124 ], [ 135.954238559661917, 35.721964197889463 ], [ 135.964586355176266, 35.730111945909641 ], [ 135.964872749677738, 35.729971387269757 ] ] ] ] } },
{ "type": "Feature", "properties": { "regioncode": "1848100", "regionname": "福井県高浜町", "name": "高浜町", "namekana": "たかはまちょう", "PrefCode": "18" }, "geometry": { "type": "MultiPolygon", "coordinates": [ [ [ [ 135.545298470148396, 35.496331721331899 ], [ 135.54933041506672, 35.49624327930394 ], [ 135.545285913813927, 35.496371838289747 ], [ 135.545298470148396, 35.496331721331899 ] ] ], [ [ [ 135.486229922572988, 35.556922170921496 ], [ 135.478549973102872, 35.551157333144488 ], [ 135.47935516221105, 35.543475225301449 ], [ 135.47328810636111, 35.540812613311516 ], [ 135.474742114057335, 35.538060775084773 ], [ 135.468750778425715, 35.530331639893291 ], [ 135.473614864234605, 35.532020224953499 ], [ 135.47478374817149, 35.529444386749105 ], [ 135.481385719875107, 35.535333559396292 ], [ 135.483776835532581, 35.532572171268725 ], [ 135.477952672178162, 35.525930748105566 ], [ 135.47989535708507, 35.522467413940035 ], [ 135.487279780337644, 35.522564919335593 ], [ 135.491013773566806, 35.530609107724217 ], [ 135.494024889936782, 35.527472721189156 ], [ 135.492593994817071, 35.522958171282653 ], [ 135.502039754131374, 35.524105585704262 ], [ 135.502814384276462, 35.53327699963387 ], [ 135.509892335662812, 35.534628387490159 ], [ 135.503904864418018, 35.539924891620501 ], [ 135.494251725037088, 35.538564360356986 ], [ 135.502157133644914, 35.542376332901483 ], [ 135.499039947635538, 35.553752441122299 ], [ 135.503678833311596, 35.549489668113722 ], [ 135.516311335799628, 35.551304640296962 ], [ 135.518585771616131, 35.547049918918674 ], [ 135.514137782332796, 35.535749892443619 ], [ 135.517328781098399, 35.534334361341735 ], [ 135.513099078859454, 35.531611054106918 ], [ 135.51723547283882, 35.52637438726822 ], [ 135.512583799702611, 35.523241053931542 ], [ 135.514344033750262, 35.517227891753862 ], [ 135.508989688823135, 35.513527080810206 ], [ 135.510579558899622, 35.508893386920306 ], [ 135.50716936387505, 35.506242000268173 ], [ 135.518937419126701, 35.493799440891564 ], [ 135.536453528107927, 35.488882386812747 ], [ 135.544355005778925, 35.494313279334449 ], [ 135.550789856466736, 35.492939305904315 ], [ 135.548766057207786, 35.494510532135394 ], [ 135.551922244116327, 35.497275639858969 ], [ 135.556095305254189, 35.490550440350603 ], [ 135.56444116672651, 35.490322891188555 ], [ 135.57433433156416, 35.493040531795145 ], [ 135.575045278916605, 35.496425278703725 ], [ 135.57777549923992, 35.494740108369342 ], [ 135.5738728273692, 35.497156027328856 ], [ 135.577117664948332, 35.499847558817862 ], [ 135.58030824912646, 35.498050919314551 ], [ 135.592350310718302, 35.502633225043326 ], [ 135.602103721809385, 35.513745170902951 ], [ 135.609008949403574, 35.509880170733368 ], [ 135.607521970762377, 35.498537666580091 ], [ 135.60353280209722, 35.497934333003116 ], [ 135.606292969844731, 35.490261793047353 ], [ 135.592204215851893, 35.494580225097366 ], [ 135.58101247674449, 35.490053332895059 ], [ 135.592336978269032, 35.490444413878663 ], [ 135.605226628406285, 35.483690126698036 ], [ 135.599796395087651, 35.472103774069978 ], [ 135.594876393930463, 35.46802599970016 ], [ 135.585681633600529, 35.466512973095291 ], [ 135.579896912712456, 35.469361585568777 ], [ 135.557121581895558, 35.460317414017481 ], [ 135.536266550061328, 35.459876613115227 ], [ 135.524967082065245, 35.455596333004394 ], [ 135.516157638963932, 35.463004386843011 ], [ 135.495595939900795, 35.449711918670175 ], [ 135.484055083975022, 35.447993865524552 ], [ 135.470943696094764, 35.453963307160961 ], [ 135.458333112782952, 35.468531360234124 ], [ 135.470435642091275, 35.489139135162986 ], [ 135.476206783216526, 35.489447467726507 ], [ 135.472575940427419, 35.50117636020093 ], [ 135.476224552920826, 35.50549274809191 ], [ 135.449926199934225, 35.520796079675392 ], [ 135.449405667837368, 35.525893305731529 ], [ 135.460484578000887, 35.548456892971274 ], [ 135.486264357614118, 35.556961612488465 ], [ 135.486229922572988, 35.556922170921496 ] ] ] ] } },
{ "type": "Feature", "properties": { "regioncode": "1848300", "regionname": "福井県おおい町", "name": "おおい町", "namekana": "おおいちょう", "PrefCode": "18" }, "geometry": { "type": "MultiPolygon", "coordinates": [ [ [ [ 135.63202031088872, 35.483638027173242 ], [ 135.635729195945714, 35.481848747721585 ], [ 135.631829779620716, 35.483653586343962 ], [ 135.63202031088872, 35.483638027173242 ] ] ], [ [ [ 135.620791698677976, 35.48614077477697 ], [ 135.626100609855371, 35.481465775025526 ], [ 135.629244085745995, 35.483596278845255 ], [ 135.633644941560874, 35.479826559148421 ], [ 135.644085887953452, 35.48035725178579 ], [ 135.648480336997977, 35.465047972985644 ], [ 135.64080671875513, 35.458957414253291 ], [ 135.64717367062849, 35.45010408063888 ], [ 135.631695304894492, 35.444589080821459 ], [ 135.622351698671991, 35.445304361107446 ], [ 135.620745550866559, 35.441174918887441 ], [ 135.609202503292977, 35.441276305756958 ], [ 135.599239143671639, 35.434414919213225 ], [ 135.589300778008578, 35.433267135170183 ], [ 135.588763553595186, 35.430207414040979 ], [ 135.598365252654389, 35.424729918650883 ], [ 135.598939415821405, 35.418895747640704 ], [ 135.615206354789507, 35.414410504840987 ], [ 135.620924720999142, 35.421929919030617 ], [ 135.628385836637108, 35.421578802120052 ], [ 135.632197524096568, 35.426701306320297 ], [ 135.641047523024781, 35.424499080668113 ], [ 135.643536420169767, 35.416660775874163 ], [ 135.665699221841692, 35.410293279011682 ], [ 135.672520077739478, 35.417865225299977 ], [ 135.682142335300568, 35.41867022465118 ], [ 135.682280946908236, 35.41545855946498 ], [ 135.693466781966436, 35.410331081114578 ], [ 135.712596004901798, 35.408884694273297 ], [ 135.719336030633372, 35.414800531819139 ], [ 135.727831050962322, 35.413986640870803 ], [ 135.729998832580122, 35.418516640230791 ], [ 135.740224136834513, 35.416889172197614 ], [ 135.760305641991863, 35.409930279358946 ], [ 135.773771283617862, 35.393531414343329 ], [ 135.788623580014246, 35.389781414081028 ], [ 135.79088605574691, 35.379025027782859 ], [ 135.778958753943357, 35.373366134639468 ], [ 135.777749000316135, 35.365939197735827 ], [ 135.768785304598168, 35.356014467593639 ], [ 135.759639728191019, 35.353089467604889 ], [ 135.740235227273956, 35.358409441342701 ], [ 135.740752995754178, 35.354044999976793 ], [ 135.731479077997164, 35.350552224705439 ], [ 135.718385162145637, 35.355416666645908 ], [ 135.700883695925882, 35.34367777460966 ], [ 135.675192801706544, 35.350271918614226 ], [ 135.66819836586194, 35.357066359624866 ], [ 135.660904162597035, 35.356407197933891 ], [ 135.642056353717862, 35.366906360140433 ], [ 135.636438028991961, 35.363718586343737 ], [ 135.61499522724796, 35.37105997253974 ], [ 135.611145473284978, 35.366800802215323 ], [ 135.606906304782228, 35.371655802173564 ], [ 135.595730194992598, 35.372921640221591 ], [ 135.588102387315416, 35.368257468307547 ], [ 135.579050168630488, 35.37508691902616 ], [ 135.536980117138796, 35.376671359895397 ], [ 135.527587860291533, 35.380113306384033 ], [ 135.526155109870501, 35.386171919398635 ], [ 135.531695940015652, 35.392966640098393 ], [ 135.525148443845637, 35.402460252338813 ], [ 135.530031505349712, 35.408646613150722 ], [ 135.526781529943719, 35.419128837525875 ], [ 135.510796226264915, 35.424560532242822 ], [ 135.502048974880381, 35.420031360259145 ], [ 135.495276200336434, 35.426149693653485 ], [ 135.500782892216762, 35.433223305810941 ], [ 135.495539248437581, 35.438932748047932 ], [ 135.488118417031387, 35.439224972854277 ], [ 135.486539247987935, 35.449241361000077 ], [ 135.495595939900795, 35.449711918670175 ], [ 135.516157638963932, 35.463004386843011 ], [ 135.524967082065245, 35.455596333004394 ], [ 135.536266550061328, 35.459876613115227 ], [ 135.557121581895558, 35.460317414017481 ], [ 135.579896912712456, 35.469361585568777 ], [ 135.585681633600529, 35.466512973095291 ], [ 135.594876393930463, 35.46802599970016 ], [ 135.605226628406285, 35.483690126698036 ], [ 135.620782607431465, 35.486150946109319 ], [ 135.620791698677976, 35.48614077477697 ] ] ], [ [ [ 135.650267755752338, 35.521685027142325 ], [ 135.647967301649714, 35.519918891743487 ], [ 135.650250051698549, 35.521693080571254 ], [ 135.650267755752338, 35.521685027142325 ] ] ], [ [ [ 135.644949973662392, 35.524944333014616 ], [ 135.648209947730948, 35.52654772080075 ], [ 135.645030855989262, 35.524999892231278 ], [ 135.644949973662392, 35.524944333014616 ] ] ], [ [ [ 135.660919078752499, 35.547672080702 ], [ 135.663371946358325, 35.543069080673604 ], [ 135.657158365766009, 35.54326872117457 ], [ 135.666252944317989, 35.538704838057868 ], [ 135.659422865872671, 35.535114171581824 ], [ 135.666723501988145, 35.532921558782959 ], [ 135.669489339061784, 35.524596972572283 ], [ 135.664454423432971, 35.52404783843707 ], [ 135.655844746737785, 35.531235413583545 ], [ 135.636369221862196, 35.520090000353264 ], [ 135.630953384890859, 35.52217874775107 ], [ 135.63367627843752, 35.517799080862972 ], [ 135.641783061439241, 35.519352748730398 ], [ 135.637228248884639, 35.513291972846332 ], [ 135.642048249027539, 35.50687900086524 ], [ 135.633462023053994, 35.501013081988219 ], [ 135.626854162589552, 35.488673585817367 ], [ 135.616109855985087, 35.492420864731173 ], [ 135.606292969844731, 35.490261793047353 ], [ 135.60353280209722, 35.497934333003116 ], [ 135.607521970762377, 35.498537666580091 ], [ 135.610744227264377, 35.506269053673918 ], [ 135.60341939039256, 35.515344467673117 ], [ 135.619077664602628, 35.519464440931245 ], [ 135.619823306900116, 35.526883972817132 ], [ 135.631922309067363, 35.537805667097928 ], [ 135.636840919872611, 35.537001945683301 ], [ 135.660930751952719, 35.547677440661403 ], [ 135.660919078752499, 35.547672080702 ] ] ] ] } },
{ "type": "Feature", "properties": { "regioncode": "1850100", "regionname": "福井県若狭町", "name": "若狭町", "namekana": "わかさちょう", "PrefCode": "18" }, "geometry": { "type": "MultiPolygon", "coordinates": [ [ [ [ 135.83487591429207, 35.579881360036779 ], [ 135.837786445987717, 35.577082999880588 ], [ 135.834826030696831, 35.579889774993148 ], [ 135.83487591429207, 35.579881360036779 ] ] ], [ [ [ 135.805029779900451, 35.639372413606054 ], [ 135.807596549341383, 35.639062134909636 ], [ 135.806671556147421, 35.631808278829055 ], [ 135.802739494432217, 35.630126864962904 ], [ 135.805024669053296, 35.639375749191515 ], [ 135.805029779900451, 35.639372413606054 ] ] ], [ [ [ 135.816123306745226, 35.641210108060079 ], [ 135.839434720735881, 35.634803198408918 ], [ 135.839866354848482, 35.626984586069852 ], [ 135.848205771779021, 35.614714864699295 ], [ 135.864511854638408, 35.60286294586831 ], [ 135.870548520597822, 35.60133989182259 ], [ 135.878935771568649, 35.608640973102467 ], [ 135.889219363582811, 35.597829053667965 ], [ 135.901222438664718, 35.604213775245569 ], [ 135.901279637345397, 35.598220170624415 ], [ 135.905427134354795, 35.600572387006082 ], [ 135.907737107781372, 35.589545169873759 ], [ 135.916440972273108, 35.584419080975863 ], [ 135.916807613280753, 35.580754359825903 ], [ 135.936740078292019, 35.57749769436316 ], [ 135.943883359129813, 35.565357720882162 ], [ 135.944906083449041, 35.550971891139909 ], [ 135.954012113967906, 35.535712199158695 ], [ 135.954234034273327, 35.526200252439764 ], [ 135.947022360893357, 35.520475531620548 ], [ 135.939647081947328, 35.520542747849561 ], [ 135.930025667950304, 35.492337198103257 ], [ 135.924409274068807, 35.48956553162401 ], [ 135.921662309268186, 35.47595080218781 ], [ 135.915974838368129, 35.470990531188136 ], [ 135.914586472188034, 35.451861387393137 ], [ 135.90978230910639, 35.447045559205264 ], [ 135.913172282874598, 35.44509694596735 ], [ 135.91416224399245, 35.432106107710752 ], [ 135.902711192567494, 35.429433053692549 ], [ 135.892981504692784, 35.419847504658662 ], [ 135.89057007784686, 35.403175000226156 ], [ 135.867396329377129, 35.394757532034532 ], [ 135.860682502695454, 35.395126972631715 ], [ 135.854297561683211, 35.400897252206448 ], [ 135.853133384797957, 35.411536973052932 ], [ 135.857900310550917, 35.418241414409806 ], [ 135.859164448880279, 35.432298891780476 ], [ 135.849045887857528, 35.442332775337377 ], [ 135.840902023109948, 35.441351107767446 ], [ 135.818956471563979, 35.451502774633411 ], [ 135.815401413744326, 35.462386108332282 ], [ 135.810081141431624, 35.466125251978838 ], [ 135.811866667113009, 35.475685530962551 ], [ 135.800248028823489, 35.48114802656022 ], [ 135.79636577156316, 35.488084973242962 ], [ 135.809445524891089, 35.489934134952421 ], [ 135.824873605932225, 35.479248865242994 ], [ 135.844671946053495, 35.486426639577815 ], [ 135.842308338858857, 35.495124694449146 ], [ 135.845294422599636, 35.502347171384883 ], [ 135.840910271691769, 35.507649108319754 ], [ 135.841448613063108, 35.513007721429233 ], [ 135.832048884648316, 35.522502440735082 ], [ 135.851336978219024, 35.541038532002688 ], [ 135.8441683661772, 35.549203802413615 ], [ 135.821989779604678, 35.559822972851975 ], [ 135.813119779754061, 35.568875171751813 ], [ 135.82072771691071, 35.573923999892713 ], [ 135.827818366724273, 35.568533863746893 ], [ 135.82793866363852, 35.564013107618848 ], [ 135.8365143063902, 35.561981864671395 ], [ 135.840570558184822, 35.563846585551516 ], [ 135.842488754552392, 35.570951837657219 ], [ 135.849282048927535, 35.571495081233081 ], [ 135.848136200225554, 35.577518694432229 ], [ 135.857508028972461, 35.582089972674169 ], [ 135.854231751094517, 35.587155440970889 ], [ 135.85751202286167, 35.589522468287328 ], [ 135.852126004711408, 35.592685440580681 ], [ 135.855559558726668, 35.595951054297757 ], [ 135.854077002951385, 35.602673080997931 ], [ 135.84451569424391, 35.601618667267758 ], [ 135.844854449073637, 35.605882863903105 ], [ 135.841219053016971, 35.607637440315671 ], [ 135.832472775598148, 35.602888504600855 ], [ 135.82786669269376, 35.607442612986233 ], [ 135.827299948034238, 35.611443559172983 ], [ 135.838323747742834, 35.615730693916419 ], [ 135.83889697831296, 35.62076474799477 ], [ 135.823834163216134, 35.624088892288626 ], [ 135.823695226953191, 35.631436532370117 ], [ 135.833096692858135, 35.630458197687744 ], [ 135.82432150493355, 35.637172000087787 ], [ 135.8146006609918, 35.632259081091775 ], [ 135.812752943593523, 35.638959134656375 ], [ 135.815524968002933, 35.64149817080397 ], [ 135.816123306745226, 35.641210108060079 ] ], [ [ 135.890321284000152, 35.593757667182672 ], [ 135.898007107841863, 35.592772387036064 ], [ 135.890674616840215, 35.59398517137862 ], [ 135.890321284000152, 35.593757667182672 ] ], [ [ 135.897753748137006, 35.591666559064493 ], [ 135.906108780895579, 35.588851558752481 ], [ 135.897753644714953, 35.591666666983144 ], [ 135.897753748137006, 35.591666559064493 ] ] ] ] } }
]
}
