{
"type": "FeatureCollection",
"name": "19_yamanashi_region",
"crs": { "type": "name", "properties": { "name": "urn:ogc:def:crs:OGC:1.3:CRS84" } },
"features": [
{ "type": "Feature", "properties": { "regioncode": "1920100", "regionname": "山梨県甲府市", "name": "甲府市", "namekana": "こうふし", "PrefCode": "19" }, "geometry": { "type": "Polygon", "coordinates": [ [ [ 138.657084863575619, 35.87587335986774 ], [ 138.661172336234358, 35.873571413789762 ], [ 138.659372917825976, 35.869869467901651 ], [ 138.635741581708658, 35.852318919382697 ], [ 138.638132968961372, 35.840776693789451 ], [ 138.634588248848672, 35.828181108471426 ], [ 138.628131309912078, 35.821230838332554 ], [ 138.630657134119474, 35.815541666814511 ], [ 138.636772387335895, 35.813007225303238 ], [ 138.635630169197043, 35.804526945762007 ], [ 138.629794891121378, 35.804074998662315 ], [ 138.63099627835561, 35.800704170561062 ], [ 138.615295719821688, 35.793554440684943 ], [ 138.613014059751094, 35.789716108111975 ], [ 138.616409585034376, 35.777504721265927 ], [ 138.611457639058813, 35.774844440318702 ], [ 138.605622581317107, 35.759529467910681 ], [ 138.59469031010974, 35.750996134663922 ], [ 138.595892218051517, 35.745142252313144 ], [ 138.593079441762939, 35.742985865105652 ], [ 138.598140506079517, 35.734819504716427 ], [ 138.594959611197169, 35.72598200006928 ], [ 138.612350661353958, 35.717808134837583 ], [ 138.616790973124921, 35.719945918669282 ], [ 138.621460946565549, 35.717437865065449 ], [ 138.615662581163292, 35.712959532656384 ], [ 138.624348053619883, 35.698764280047556 ], [ 138.620793580359532, 35.694825945560979 ], [ 138.622768859395364, 35.692684279356058 ], [ 138.609299079089283, 35.691023468058631 ], [ 138.626345616057392, 35.668602387390308 ], [ 138.627706938724259, 35.658683531619715 ], [ 138.622209973911254, 35.657574640557243 ], [ 138.635382775594735, 35.653844640317971 ], [ 138.598384358151634, 35.634127197812006 ], [ 138.598459804976073, 35.622690801739168 ], [ 138.594567249578972, 35.616411387175845 ], [ 138.607184810730473, 35.618022224945776 ], [ 138.608628859334431, 35.60354527769249 ], [ 138.592237029715193, 35.596432251846977 ], [ 138.590996135263481, 35.59197589167411 ], [ 138.585623358731141, 35.594768107662105 ], [ 138.584892776480501, 35.590557278595611 ], [ 138.597929493651236, 35.580938108407054 ], [ 138.617420726085697, 35.575105027375173 ], [ 138.624585187756225, 35.561233081041905 ], [ 138.621098223004651, 35.551306134970218 ], [ 138.616209857299168, 35.54866336022593 ], [ 138.625639052900056, 35.544319748058001 ], [ 138.631771556012609, 35.534888054140424 ], [ 138.639247977212449, 35.534333613105787 ], [ 138.641996031092049, 35.52633472177007 ], [ 138.650464086148759, 35.519825559202275 ], [ 138.64492055803737, 35.513159721244165 ], [ 138.636600777803665, 35.513303720690203 ], [ 138.621002023424694, 35.502288999637699 ], [ 138.614678560067546, 35.501983748151531 ], [ 138.602410803715657, 35.504890892101059 ], [ 138.58885810591687, 35.528515864615485 ], [ 138.589938106258614, 35.536873640306283 ], [ 138.59641616127692, 35.543111972939244 ], [ 138.596323942995582, 35.549992801926294 ], [ 138.584487808165932, 35.550922252160262 ], [ 138.584218638379525, 35.557846135290959 ], [ 138.578941699000325, 35.559137837840979 ], [ 138.576127249972728, 35.57199366717407 ], [ 138.560116743692788, 35.582048360143745 ], [ 138.562628444047505, 35.591147251844234 ], [ 138.556253191431665, 35.592488918928495 ], [ 138.560127912373332, 35.597933080946973 ], [ 138.559212139928377, 35.60599361271511 ], [ 138.555626861290648, 35.604939171105912 ], [ 138.553515331367521, 35.620315252446971 ], [ 138.547987029677756, 35.622181081291899 ], [ 138.545995939660997, 35.62783636006003 ], [ 138.553091220083843, 35.628811919434611 ], [ 138.545684136613659, 35.642334945901098 ], [ 138.549274941585395, 35.640768837711732 ], [ 138.553160804227787, 35.644076054066716 ], [ 138.544766719308768, 35.651595469155609 ], [ 138.542020000023058, 35.645058000426445 ], [ 138.532453112820917, 35.651762413904351 ], [ 138.538721193228525, 35.654312413686966 ], [ 138.530762387374352, 35.663236306310523 ], [ 138.536438560091483, 35.671979891159083 ], [ 138.533246394005914, 35.678836252291262 ], [ 138.536307807659227, 35.680042919445214 ], [ 138.52358905299252, 35.697060107937659 ], [ 138.523878560946855, 35.701727612739205 ], [ 138.524705837404554, 35.707090639721287 ], [ 138.53533311433182, 35.71404397295106 ], [ 138.54262756221226, 35.713227865173906 ], [ 138.545830948239768, 35.72086144110267 ], [ 138.549871245161853, 35.721625891821475 ], [ 138.548870440918222, 35.726035332564607 ], [ 138.561401893782431, 35.733139504584528 ], [ 138.559636913113081, 35.735298387410694 ], [ 138.565483061294344, 35.740120586396017 ], [ 138.561283113125228, 35.747064197954444 ], [ 138.553765913965776, 35.748959198108537 ], [ 138.553307885650497, 35.753521666591666 ], [ 138.557691531139312, 35.756846667939442 ], [ 138.555717664938356, 35.759394720689841 ], [ 138.543129364128959, 35.760113054174155 ], [ 138.540495227372958, 35.76567330607827 ], [ 138.54490425442782, 35.785460251789232 ], [ 138.550422023257852, 35.791828306231423 ], [ 138.548428443917601, 35.804804413592876 ], [ 138.558343994679717, 35.817033586330979 ], [ 138.556334278804002, 35.827998865355426 ], [ 138.566683721876302, 35.830521387252247 ], [ 138.580195615635262, 35.827782224969781 ], [ 138.587743385448903, 35.835087504284957 ], [ 138.593232827433098, 35.847850558656432 ], [ 138.603593086651699, 35.848253613213728 ], [ 138.60911972729366, 35.859809747721727 ], [ 138.620429688579293, 35.861661414942375 ], [ 138.62159416314023, 35.87044753232783 ], [ 138.628133864885967, 35.873366972707686 ], [ 138.634234112014724, 35.870053080685182 ], [ 138.64248824893366, 35.874764747595066 ], [ 138.656565693951734, 35.875875586589075 ], [ 138.657084863575619, 35.87587335986774 ] ] ] } },
{ "type": "Feature", "properties": { "regioncode": "1920200", "regionname": "山梨県富士吉田市", "name": "富士吉田市", "namekana": "ふじよしだし", "PrefCode": "19" }, "geometry": { "type": "Polygon", "coordinates": [ [ [ 138.81885924795597, 35.532337531851681 ], [ 138.822522282877117, 35.527608919016473 ], [ 138.833665356970755, 35.525867251472505 ], [ 138.836048663814836, 35.520618918628259 ], [ 138.839859780204733, 35.52046558601802 ], [ 138.833493580164713, 35.510926442001733 ], [ 138.837281050679962, 35.503239504799353 ], [ 138.855857782310864, 35.505070865328207 ], [ 138.866222969814316, 35.485335865357968 ], [ 138.864896523755647, 35.480540027300492 ], [ 138.846706978144539, 35.471263387295551 ], [ 138.831093061195929, 35.468938945575928 ], [ 138.815164448980227, 35.475394504952476 ], [ 138.812639611329018, 35.461673386617576 ], [ 138.806267082759746, 35.458420613420628 ], [ 138.806265383041023, 35.45271950520106 ], [ 138.808893579774917, 35.456285171423588 ], [ 138.810377328051345, 35.451048386773664 ], [ 138.809556134607988, 35.439588945573405 ], [ 138.802911413630909, 35.442549224167408 ], [ 138.80269167418146, 35.438175053935652 ], [ 138.833710026296785, 35.429191135162796 ], [ 138.836246394155864, 35.426208919406179 ], [ 138.828512944017234, 35.412067531691264 ], [ 138.864142632876224, 35.391528613354865 ], [ 138.833631141364094, 35.383727251811251 ], [ 138.821748831743207, 35.374087802809925 ], [ 138.799104642765087, 35.37664364009197 ], [ 138.73078141393114, 35.362798613165523 ], [ 138.733447133978075, 35.394282225044719 ], [ 138.727593969286318, 35.422492775021624 ], [ 138.754914721037608, 35.445945306131023 ], [ 138.769581362290069, 35.481531974121367 ], [ 138.785181140996883, 35.489552279214365 ], [ 138.773969169841394, 35.48637113521977 ], [ 138.76794444867744, 35.488693639799692 ], [ 138.772744747372258, 35.490578081013666 ], [ 138.771573670888301, 35.493933081046919 ], [ 138.784510895161702, 35.49125866725376 ], [ 138.780587886022204, 35.503238359962381 ], [ 138.786768494770286, 35.508109467677855 ], [ 138.78716213972109, 35.513489198667628 ], [ 138.802046109340495, 35.524494467845443 ], [ 138.806334811602369, 35.532697775082283 ], [ 138.818746199577504, 35.53239808140637 ], [ 138.81885924795597, 35.532337531851681 ] ], [ [ 138.756943332568767, 35.40175613533745 ], [ 138.753724163439415, 35.401722251580679 ], [ 138.754316082820992, 35.398336694382976 ], [ 138.757075279300807, 35.40175974791407 ], [ 138.756943332568767, 35.40175613533745 ] ] ] } },
{ "type": "Feature", "properties": { "regioncode": "1920400", "regionname": "山梨県都留市", "name": "都留市", "namekana": "つるし", "PrefCode": "19" }, "geometry": { "type": "Polygon", "coordinates": [ [ [ 138.940647328011892, 35.603473251889113 ], [ 138.946155617088152, 35.593067172212272 ], [ 138.949749804409976, 35.593886054397956 ], [ 138.950142478092971, 35.57560497309106 ], [ 138.955632477656764, 35.569807748029177 ], [ 138.968285837221629, 35.571013586008235 ], [ 138.984973943093109, 35.578910774812471 ], [ 139.004263165312864, 35.579369667376284 ], [ 139.005662282888125, 35.569072197923674 ], [ 139.017684747353314, 35.561620802158359 ], [ 139.018346641184621, 35.554272504672383 ], [ 139.027606082554712, 35.549811666775042 ], [ 139.024383799972497, 35.544344170946772 ], [ 139.004937912254945, 35.539396135223512 ], [ 139.00616949422681, 35.528277558662467 ], [ 138.983668079818131, 35.520641999728582 ], [ 138.974451141307213, 35.521281134416881 ], [ 138.970406912549038, 35.507168360431535 ], [ 138.951991582245796, 35.496305305545491 ], [ 138.939972671901387, 35.493838612661875 ], [ 138.929372891745629, 35.484422225205606 ], [ 138.927323864704704, 35.459530559387872 ], [ 138.90845150433347, 35.450421386637743 ], [ 138.901056744273433, 35.450529171284302 ], [ 138.882559858051081, 35.468195585757712 ], [ 138.884391555825687, 35.473163081011421 ], [ 138.880862697955195, 35.481675586858898 ], [ 138.876546328949985, 35.485747532722485 ], [ 138.865612697967663, 35.485726135153072 ], [ 138.864477445078137, 35.493085026652693 ], [ 138.856930532318302, 35.499162000226193 ], [ 138.853352334942315, 35.525497252396349 ], [ 138.866784812269316, 35.533102225387438 ], [ 138.85895795134843, 35.534316107802169 ], [ 138.861535745578294, 35.536560838112223 ], [ 138.853132698015656, 35.538555838381285 ], [ 138.838676329049463, 35.549682224654987 ], [ 138.8102613101114, 35.550656918881771 ], [ 138.801192723765212, 35.558416080637642 ], [ 138.799369753011774, 35.572051891981289 ], [ 138.829950661393923, 35.58397636002104 ], [ 138.863230660966337, 35.574019134675382 ], [ 138.880053746982867, 35.574408586087429 ], [ 138.885749637335948, 35.579737440630424 ], [ 138.898508275136805, 35.582064666651092 ], [ 138.903678301312652, 35.588339945232349 ], [ 138.926682554556351, 35.594664666741039 ], [ 138.930371479160499, 35.601474080564401 ], [ 138.940612335391052, 35.60353630605573 ], [ 138.940647328011892, 35.603473251889113 ] ] ] } },
{ "type": "Feature", "properties": { "regioncode": "1920500", "regionname": "山梨県山梨市", "name": "山梨市", "namekana": "やまなしし", "PrefCode": "19" }, "geometry": { "type": "Polygon", "coordinates": [ [ [ 138.708471854592517, 35.909603387386483 ], [ 138.72901128374383, 35.909220613440596 ], [ 138.734402970320843, 35.904011721263998 ], [ 138.739184385051431, 35.90584394604133 ], [ 138.765667108050707, 35.899108360262687 ], [ 138.779349999802662, 35.899908333303017 ], [ 138.79062005187393, 35.891878613207496 ], [ 138.792003645351997, 35.875451135361686 ], [ 138.808404889973758, 35.870019532375579 ], [ 138.813604863573687, 35.862367774852999 ], [ 138.804184772709164, 35.85177058564409 ], [ 138.802704501211792, 35.840927802376257 ], [ 138.789265525383712, 35.83508363989813 ], [ 138.784633579775914, 35.825556694286092 ], [ 138.786818586108893, 35.818450306336615 ], [ 138.783041051303485, 35.811488080610502 ], [ 138.786078301072848, 35.808232801003044 ], [ 138.784319389927987, 35.793356694156159 ], [ 138.786970778378759, 35.787070306249689 ], [ 138.778386614550641, 35.786022802010734 ], [ 138.768162140370578, 35.790271693983527 ], [ 138.740879300439474, 35.789211693664811 ], [ 138.743314578205286, 35.786366693767945 ], [ 138.739220142995237, 35.784194467700559 ], [ 138.740383476316424, 35.77775613483783 ], [ 138.746129053313211, 35.775693081970189 ], [ 138.737170415382479, 35.755300864643232 ], [ 138.73238041482432, 35.759248640212604 ], [ 138.72344513588439, 35.753205586368779 ], [ 138.72071927457489, 35.741976413880423 ], [ 138.710569803853446, 35.733847531838194 ], [ 138.711514501193392, 35.727158639759466 ], [ 138.702200829804497, 35.712297837575193 ], [ 138.706685550997463, 35.710853946352586 ], [ 138.706408029207296, 35.707270333259316 ], [ 138.713408054338288, 35.708503387421445 ], [ 138.710050219641971, 35.694943414107343 ], [ 138.716932140406016, 35.689454533300136 ], [ 138.700108443749741, 35.674817891632472 ], [ 138.707505381967849, 35.669938747575202 ], [ 138.707721479162956, 35.663046251683227 ], [ 138.667084941616849, 35.662277387091819 ], [ 138.672110025857023, 35.674436251731663 ], [ 138.654868029336171, 35.680585973264101 ], [ 138.651475810860006, 35.678492080844933 ], [ 138.652771634103715, 35.681170973261885 ], [ 138.642411362294638, 35.684649306320466 ], [ 138.649082243650696, 35.689343440947084 ], [ 138.643134448695946, 35.690434000229004 ], [ 138.623548417825305, 35.709945360390122 ], [ 138.616880363038376, 35.711538693755756 ], [ 138.621460946565549, 35.717437865065449 ], [ 138.616790973124921, 35.719945918669282 ], [ 138.612350661353958, 35.717808134837583 ], [ 138.593680440699814, 35.727386170935119 ], [ 138.598140506079517, 35.734819504716427 ], [ 138.593079441762939, 35.742985865105652 ], [ 138.595892218051517, 35.745142252313144 ], [ 138.59469031010974, 35.750996134663922 ], [ 138.605622581317107, 35.759529467910681 ], [ 138.611457639058813, 35.774844440318702 ], [ 138.616409585034376, 35.777504721265927 ], [ 138.613014059751094, 35.789716108111975 ], [ 138.615295719821688, 35.793554440684943 ], [ 138.63099627835561, 35.800704170561062 ], [ 138.629794891121378, 35.804074998662315 ], [ 138.635630169197043, 35.804526945762007 ], [ 138.636772387335895, 35.813007225303238 ], [ 138.630657134119474, 35.815541666814511 ], [ 138.628131309912078, 35.821230838332554 ], [ 138.634588248848672, 35.828181108471426 ], [ 138.638132968961372, 35.840776693789451 ], [ 138.635840195069022, 35.852497531935626 ], [ 138.660946252067902, 35.873890027402922 ], [ 138.676222023028004, 35.869833639810679 ], [ 138.685845577411555, 35.893865613107607 ], [ 138.708361855815042, 35.90966644065378 ], [ 138.708471854592517, 35.909603387386483 ] ] ] } },
{ "type": "Feature", "properties": { "regioncode": "1920600", "regionname": "山梨県大月市", "name": "大月市", "namekana": "おおつきし", "PrefCode": "19" }, "geometry": { "type": "Polygon", "coordinates": [ [ [ 138.909273358778592, 35.742303332732661 ], [ 138.937338470394138, 35.736737747848849 ], [ 138.947585110164823, 35.72820441370277 ], [ 138.965805888331147, 35.721535532438907 ], [ 138.97175416262462, 35.712308586272286 ], [ 138.968451894339523, 35.704661666202981 ], [ 138.977930778382756, 35.70024750491848 ], [ 138.983218196662506, 35.689235305564978 ], [ 138.994639558768654, 35.682363639770188 ], [ 138.992611997645668, 35.675396721381617 ], [ 139.000092283232334, 35.670216442035212 ], [ 139.020112826945478, 35.666985053817257 ], [ 139.02528997395325, 35.652325081037702 ], [ 139.01375238706305, 35.637282053723879 ], [ 139.021288470186846, 35.632539026554866 ], [ 139.023228417557448, 35.619154305926543 ], [ 139.04448535731342, 35.611769027418745 ], [ 139.063232387264975, 35.61618874831214 ], [ 139.067171750575881, 35.601737667359487 ], [ 139.063783061039544, 35.584132135189918 ], [ 139.034751051419903, 35.584509918797778 ], [ 139.024303217119837, 35.580567136264392 ], [ 139.019633216699617, 35.583969359698244 ], [ 139.007507328400493, 35.578873838756692 ], [ 138.996430078385515, 35.580986892131421 ], [ 138.95685302224922, 35.569279694002716 ], [ 138.950142478092971, 35.57560497309106 ], [ 138.949749804409976, 35.593886054397956 ], [ 138.944808689869205, 35.59452689330152 ], [ 138.940113994964918, 35.604609920311646 ], [ 138.929876200026683, 35.601196027274909 ], [ 138.926682554556351, 35.594664666741039 ], [ 138.903678301312652, 35.588339945232349 ], [ 138.898508275136805, 35.582064666651092 ], [ 138.885749637335948, 35.579737440630424 ], [ 138.880053746982867, 35.574408586087429 ], [ 138.863230660966337, 35.574019134675382 ], [ 138.829950661393923, 35.58397636002104 ], [ 138.793253890954361, 35.569900505004341 ], [ 138.786778910718226, 35.574765505423784 ], [ 138.788708949358579, 35.580333251378477 ], [ 138.784989533240378, 35.5855049197163 ], [ 138.772590337374254, 35.586696026800269 ], [ 138.774128170878498, 35.59305741366876 ], [ 138.766988755326906, 35.605342946020187 ], [ 138.775249882676007, 35.605066559174418 ], [ 138.785710532315306, 35.617763505281573 ], [ 138.79353191996222, 35.617414332705323 ], [ 138.803536939778041, 35.623298774918567 ], [ 138.814785304698148, 35.622121558762956 ], [ 138.822602580644684, 35.630524612620832 ], [ 138.829877587880446, 35.628923504616125 ], [ 138.831524553215672, 35.635049892338714 ], [ 138.845367950570562, 35.64113125190579 ], [ 138.850881581619774, 35.649656802419543 ], [ 138.847000025830539, 35.672712333207642 ], [ 138.859924280081486, 35.688741747733502 ], [ 138.855089390762828, 35.714647838027361 ], [ 138.859959468754596, 35.730295892341587 ], [ 138.892406615173172, 35.741155278893075 ], [ 138.909291141073368, 35.742439720316895 ], [ 138.909273358778592, 35.742303332732661 ] ] ] } },
{ "type": "Feature", "properties": { "regioncode": "1920700", "regionname": "山梨県韮崎市", "name": "韮崎市", "namekana": "にらさきし", "PrefCode": "19" }, "geometry": { "type": "Polygon", "coordinates": [ [ [ 138.4268913619469, 35.768195360327695 ], [ 138.449087082403025, 35.736081197789076 ], [ 138.457974110916552, 35.746490891841233 ], [ 138.48294705566218, 35.757579747607338 ], [ 138.489214384236561, 35.767317774895446 ], [ 138.512143384909336, 35.771023026691353 ], [ 138.519663333296307, 35.767273027328429 ], [ 138.516147108202517, 35.756236109209112 ], [ 138.518749856820477, 35.752694170699442 ], [ 138.512098391827408, 35.742988919203299 ], [ 138.511596615091776, 35.731922559078896 ], [ 138.507701555982067, 35.726495612782344 ], [ 138.49590678277184, 35.721507306317164 ], [ 138.484028859144587, 35.710134558862876 ], [ 138.481650610087627, 35.718818973716736 ], [ 138.474432556017746, 35.718715918604801 ], [ 138.465445162264473, 35.703151225148986 ], [ 138.472276471881742, 35.690184585850034 ], [ 138.470080894917487, 35.688286251909062 ], [ 138.486685524817176, 35.67680794563023 ], [ 138.431306057428628, 35.662535170561739 ], [ 138.413703332942532, 35.672788468013437 ], [ 138.398448080014987, 35.671532359730691 ], [ 138.3903953309798, 35.674512359557809 ], [ 138.3873128668954, 35.679662919008535 ], [ 138.379665641955853, 35.677305134924097 ], [ 138.371977301811057, 35.683507919155204 ], [ 138.363920662308828, 35.684729026723232 ], [ 138.356477055571759, 35.683535135338275 ], [ 138.352157588402065, 35.674634586417085 ], [ 138.336790636079058, 35.671982613406954 ], [ 138.316959273751536, 35.679695972691036 ], [ 138.311659338707614, 35.695795973205634 ], [ 138.297247133648398, 35.709410413959461 ], [ 138.299739078595621, 35.712923747732816 ], [ 138.318399467861241, 35.710500440842736 ], [ 138.32914827467323, 35.717377639266715 ], [ 138.344169442166049, 35.739059586031146 ], [ 138.343182243765568, 35.746806251707198 ], [ 138.351706421014569, 35.745930694246169 ], [ 138.368950636163049, 35.751552054184003 ], [ 138.381515084253806, 35.748334838382164 ], [ 138.367230947150574, 35.763685108281152 ], [ 138.367953994881077, 35.76693677531199 ], [ 138.400248806936929, 35.772948441017775 ], [ 138.403211025368591, 35.765998721264054 ], [ 138.409913256191885, 35.766899802384046 ], [ 138.418492477346035, 35.7739456398794 ], [ 138.426810531780689, 35.76821591882964 ], [ 138.4268913619469, 35.768195360327695 ] ] ] } },
{ "type": "Feature", "properties": { "regioncode": "1920800", "regionname": "山梨県南アルプス市", "name": "南アルプス市", "namekana": "みなみあるぷすし", "PrefCode": "19" }, "geometry": { "type": "Polygon", "coordinates": [ [ [ 138.234322192415334, 35.74531544015548 ], [ 138.234304422711034, 35.737965440252935 ], [ 138.241604694601051, 35.731766279390342 ], [ 138.261963839359737, 35.727917946356172 ], [ 138.267601894312065, 35.719678748075808 ], [ 138.284411024649103, 35.710314026671028 ], [ 138.296841581673675, 35.710416251708693 ], [ 138.311659338707614, 35.695795973205634 ], [ 138.316493164128246, 35.680179306130128 ], [ 138.329456199843776, 35.673509279129973 ], [ 138.352157588402065, 35.674634586417085 ], [ 138.356477055571759, 35.683535135338275 ], [ 138.363920662308828, 35.684729026723232 ], [ 138.371977301811057, 35.683507919155204 ], [ 138.379665641955853, 35.677305134924097 ], [ 138.3873128668954, 35.679662919008535 ], [ 138.3903953309798, 35.674512359557809 ], [ 138.398448080014987, 35.671532359730691 ], [ 138.413703332942532, 35.672788468013437 ], [ 138.431306057428628, 35.662535170561739 ], [ 138.486685524817176, 35.67680794563023 ], [ 138.49480191977284, 35.674862468328286 ], [ 138.502865083856591, 35.653064080942613 ], [ 138.505500778238343, 35.633366332690173 ], [ 138.509672996711515, 35.633247694125828 ], [ 138.510767950980267, 35.623496891968045 ], [ 138.506810168654397, 35.622265774046298 ], [ 138.510321699287033, 35.599433305702576 ], [ 138.507957781826235, 35.590875252790738 ], [ 138.49587469496123, 35.573151386027689 ], [ 138.479031114294571, 35.563797468178677 ], [ 138.474906135409924, 35.566857468097737 ], [ 138.474848949319608, 35.572526359903634 ], [ 138.465628715692787, 35.57820986479345 ], [ 138.423412438033665, 35.580554918974372 ], [ 138.42111219167441, 35.587636026981102 ], [ 138.412403605741929, 35.588054333141031 ], [ 138.414361115073461, 35.591957666912833 ], [ 138.411759195630452, 35.59482155886792 ], [ 138.40179641966904, 35.589947666851401 ], [ 138.384066744184906, 35.59082374771782 ], [ 138.377874279674302, 35.595034027298595 ], [ 138.369720946864277, 35.590723198117132 ], [ 138.369249001540197, 35.586441532151014 ], [ 138.36272763876957, 35.586452055118286 ], [ 138.356530141652797, 35.5874753873793 ], [ 138.354447107647957, 35.591428441069752 ], [ 138.338835745673236, 35.591268171089268 ], [ 138.334651582404717, 35.598538441595849 ], [ 138.335890219557996, 35.604133999984185 ], [ 138.328158029369661, 35.609768999939433 ], [ 138.312320803562329, 35.600605641237394 ], [ 138.308631634342532, 35.607299531748026 ], [ 138.312899689069468, 35.608642054087568 ], [ 138.310011388614726, 35.616578440742501 ], [ 138.315460558058362, 35.622183441112952 ], [ 138.311653359115326, 35.635251774849564 ], [ 138.315764188966227, 35.636459279272344 ], [ 138.310082283070983, 35.644051505272785 ], [ 138.26915202334726, 35.644292892303213 ], [ 138.236339001244005, 35.650413440727732 ], [ 138.218213165405359, 35.64475346839788 ], [ 138.208114060315665, 35.6556643339419 ], [ 138.205573217430128, 35.664178775130438 ], [ 138.193340752273912, 35.672153251671261 ], [ 138.193604384035211, 35.696928802422349 ], [ 138.180104423380499, 35.714364639716393 ], [ 138.227397497196762, 35.753558503722047 ], [ 138.234322192415334, 35.745477107682404 ], [ 138.234322192415334, 35.74531544015548 ] ] ] } },
{ "type": "Feature", "properties": { "regioncode": "1920900", "regionname": "山梨県北杜市", "name": "北杜市", "namekana": "ほくとし", "PrefCode": "19" }, "geometry": { "type": "Polygon", "coordinates": [ [ [ 138.375389026582411, 35.971321747800459 ], [ 138.424193190763162, 35.958974801645809 ], [ 138.450562892363678, 35.945411467565236 ], [ 138.454333410658478, 35.938306198372402 ], [ 138.444335252669816, 35.917881505627008 ], [ 138.454918859417944, 35.899726773671716 ], [ 138.459444137337186, 35.903708972591062 ], [ 138.471602243848565, 35.896196747581882 ], [ 138.482575616771328, 35.898828693589394 ], [ 138.490132308759144, 35.89637477467619 ], [ 138.495549558565358, 35.903638945980617 ], [ 138.494701505070452, 35.911341440555077 ], [ 138.502757911648359, 35.912195053658877 ], [ 138.510571854707337, 35.922338945885713 ], [ 138.529057690959689, 35.914535891817991 ], [ 138.540158833263604, 35.913673945596145 ], [ 138.55539910528455, 35.919136999672844 ], [ 138.556213838897634, 35.916315332686509 ], [ 138.564415226981168, 35.917333946204678 ], [ 138.576510194789762, 35.911422000025311 ], [ 138.580981855128584, 35.917050053617118 ], [ 138.591150752105591, 35.919722559048921 ], [ 138.602699027438234, 35.909762803011006 ], [ 138.612255940259502, 35.90915336033936 ], [ 138.604992866127986, 35.893826694046766 ], [ 138.606749223198108, 35.878481694174923 ], [ 138.610873645402421, 35.873610305870955 ], [ 138.62159416314023, 35.87044753232783 ], [ 138.620526354907383, 35.861845864994734 ], [ 138.60911972729366, 35.859809747721727 ], [ 138.603593086651699, 35.848253613213728 ], [ 138.593232827433098, 35.847850558656432 ], [ 138.587743385448903, 35.835087504284957 ], [ 138.580195615635262, 35.827782224969781 ], [ 138.566683721876302, 35.830521387252247 ], [ 138.556391219379293, 35.82806580189532 ], [ 138.558343994679717, 35.817033586330979 ], [ 138.549410946957664, 35.80703913534785 ], [ 138.548304838397598, 35.800515251777483 ], [ 138.527246588559251, 35.807169386857765 ], [ 138.512296329012429, 35.80223133270988 ], [ 138.512529390119312, 35.788637972964125 ], [ 138.502481414186036, 35.771771359760521 ], [ 138.489098002970536, 35.767250838355551 ], [ 138.47659005208925, 35.753124197723594 ], [ 138.457896615436539, 35.74644061344361 ], [ 138.450568196565087, 35.736736747802695 ], [ 138.438274642261035, 35.748761197970964 ], [ 138.427217756494315, 35.768498135080904 ], [ 138.418492477346035, 35.7739456398794 ], [ 138.410301310057434, 35.766987026729964 ], [ 138.403211025368591, 35.765998721264054 ], [ 138.400248806936929, 35.772948441017775 ], [ 138.390388781217325, 35.77228817136205 ], [ 138.366443449505709, 35.765385387225876 ], [ 138.381515084253806, 35.748334838382164 ], [ 138.368950636163049, 35.751552054184003 ], [ 138.351706421014569, 35.745930694246169 ], [ 138.343182243765568, 35.746806251707198 ], [ 138.344169442166049, 35.739059586031146 ], [ 138.333224112802668, 35.721184865189457 ], [ 138.320528521074493, 35.711361531809303 ], [ 138.284411024649103, 35.710314026671028 ], [ 138.267601894312065, 35.719678748075808 ], [ 138.26223272406105, 35.727776559440713 ], [ 138.241604694601051, 35.731766279390342 ], [ 138.234304422711034, 35.737965440252935 ], [ 138.234299416185195, 35.745707666875376 ], [ 138.229546108865861, 35.752904612957593 ], [ 138.236900272629555, 35.757986838321983 ], [ 138.233388339999919, 35.762568504632839 ], [ 138.224457223122386, 35.765832108365146 ], [ 138.205933645021787, 35.782697108185062 ], [ 138.199988911359242, 35.780956838187592 ], [ 138.191206977620027, 35.784474054334169 ], [ 138.185174188637916, 35.791079892223308 ], [ 138.185587809329945, 35.795532918609354 ], [ 138.205692866832351, 35.815734306093418 ], [ 138.204700078246105, 35.828139027394229 ], [ 138.226821556070036, 35.857451252273506 ], [ 138.232354669132746, 35.875679000185755 ], [ 138.23866858618635, 35.882890107892194 ], [ 138.251455836817513, 35.885010387319596 ], [ 138.272841088245741, 35.864929305742919 ], [ 138.283640777799747, 35.859315721343535 ], [ 138.296115550892068, 35.870074026794953 ], [ 138.307288664140628, 35.887103467650945 ], [ 138.326466524210787, 35.90329402719766 ], [ 138.333126278255236, 35.917216224948902 ], [ 138.342225226612982, 35.926016504857841 ], [ 138.34504666697012, 35.941333134716444 ], [ 138.359915331027764, 35.950713134703449 ], [ 138.361902866024479, 35.962595640376549 ], [ 138.370460415315961, 35.97138063990468 ], [ 138.375186251944001, 35.971324801898163 ], [ 138.375389026582411, 35.971321747800459 ] ] ] } },
{ "type": "Feature", "properties": { "regioncode": "1921000", "regionname": "山梨県甲斐市", "name": "甲斐市", "namekana": "かいし", "PrefCode": "19" }, "geometry": { "type": "Polygon", "coordinates": [ [ [ 138.531013255957077, 35.805345505091054 ], [ 138.5481701172572, 35.800454414439741 ], [ 138.550404812032525, 35.791748027349627 ], [ 138.540226108847946, 35.773124973438826 ], [ 138.54050605790826, 35.765600252349827 ], [ 138.543129364128959, 35.760113054174155 ], [ 138.555717664938356, 35.759394720689841 ], [ 138.557691531139312, 35.756846667939442 ], [ 138.553307885650497, 35.753521666591666 ], [ 138.553765913965776, 35.748959198108537 ], [ 138.561283113125228, 35.747064197954444 ], [ 138.565483061294344, 35.740120586396017 ], [ 138.559636913113081, 35.735298387410694 ], [ 138.561401893782431, 35.733139504584528 ], [ 138.548870440918222, 35.726035332564607 ], [ 138.549871245161853, 35.721625891821475 ], [ 138.545830948239768, 35.72086144110267 ], [ 138.54262756221226, 35.713227865173906 ], [ 138.53533311433182, 35.71404397295106 ], [ 138.524498300855953, 35.706787891947727 ], [ 138.52358905299252, 35.697060107937659 ], [ 138.536321414401868, 35.679955413611481 ], [ 138.533246394005914, 35.678836252291262 ], [ 138.536438560091483, 35.671979891159083 ], [ 138.530762387374352, 35.663236306310523 ], [ 138.538721193228525, 35.654312413686966 ], [ 138.533227302298201, 35.654215467669758 ], [ 138.538758338826369, 35.646903279762626 ], [ 138.527751894234598, 35.637907999854349 ], [ 138.534640168708847, 35.631637440915199 ], [ 138.528392140484925, 35.632222171116382 ], [ 138.527216835388685, 35.628857441317905 ], [ 138.505500778238343, 35.633366332690173 ], [ 138.496888003378672, 35.672975721252612 ], [ 138.48266639523797, 35.678114890789629 ], [ 138.470080894917487, 35.688286251909062 ], [ 138.472276471881742, 35.690184585850034 ], [ 138.465420169205458, 35.703009838233527 ], [ 138.474432556017746, 35.718715918604801 ], [ 138.481650610087627, 35.718818973716736 ], [ 138.484028859144587, 35.710134558862876 ], [ 138.511596615091776, 35.731922559078896 ], [ 138.510443060998568, 35.737822801481173 ], [ 138.518749856820477, 35.752694170699442 ], [ 138.516147108202517, 35.756236109209112 ], [ 138.520595524663804, 35.76499358588535 ], [ 138.514114188918711, 35.770782747625731 ], [ 138.500368885116018, 35.769679972852543 ], [ 138.511685746000467, 35.786077171424381 ], [ 138.512253553658638, 35.802196612583657 ], [ 138.527094916097553, 35.807167440724868 ], [ 138.530954916036649, 35.805371332720881 ], [ 138.531013255957077, 35.805345505091054 ] ] ] } },
{ "type": "Feature", "properties": { "regioncode": "1921100", "regionname": "山梨県笛吹市", "name": "笛吹市", "namekana": "ふえふきし", "PrefCode": "19" }, "geometry": { "type": "Polygon", "coordinates": [ [ [ 138.62187508436773, 35.709761198120873 ], [ 138.643134448695946, 35.690434000229004 ], [ 138.649082243650696, 35.689343440947084 ], [ 138.642411362294638, 35.684649306320466 ], [ 138.652771634103715, 35.681170973261885 ], [ 138.651475810860006, 35.678492080844933 ], [ 138.654868029336171, 35.680585973264101 ], [ 138.672110025857023, 35.674436251731663 ], [ 138.665963256798932, 35.662510720693263 ], [ 138.713421479417775, 35.662776802207702 ], [ 138.71488302163425, 35.649361251920311 ], [ 138.710637250308878, 35.650919306680692 ], [ 138.711069170405949, 35.646766278840744 ], [ 138.719346082655647, 35.64072072128431 ], [ 138.717738054367828, 35.647780134945322 ], [ 138.726880531711231, 35.63660294596923 ], [ 138.738056354617129, 35.636284585964916 ], [ 138.740806330347937, 35.626836558560399 ], [ 138.750942724027595, 35.624608505278331 ], [ 138.752942139967899, 35.619580721273337 ], [ 138.764881051119687, 35.622901558759963 ], [ 138.76658350192713, 35.605882386363078 ], [ 138.774128170878498, 35.59305741366876 ], [ 138.772533385107749, 35.586791586062873 ], [ 138.785136200075613, 35.585355748269194 ], [ 138.788708949358579, 35.580333251378477 ], [ 138.786778910718226, 35.574765505423784 ], [ 138.793253890954361, 35.569900505004341 ], [ 138.79163189439646, 35.56076772055394 ], [ 138.769263553570227, 35.560951053648239 ], [ 138.759011829032715, 35.553655198328784 ], [ 138.696028469638236, 35.534632748302727 ], [ 138.677182775065035, 35.519877225253822 ], [ 138.650395473272511, 35.516206108125459 ], [ 138.639247977212449, 35.534333613105787 ], [ 138.631771556012609, 35.534888054140424 ], [ 138.625639052900056, 35.544319748058001 ], [ 138.616209857299168, 35.54866336022593 ], [ 138.621098223004651, 35.551306134970218 ], [ 138.624585187756225, 35.561233081041905 ], [ 138.617420726085697, 35.575105027375173 ], [ 138.597929493651236, 35.580938108407054 ], [ 138.584892776480501, 35.590557278595611 ], [ 138.585623358731141, 35.594768107662105 ], [ 138.590996135263481, 35.59197589167411 ], [ 138.592237029715193, 35.596432251846977 ], [ 138.608628859334431, 35.60354527769249 ], [ 138.607184810730473, 35.618022224945776 ], [ 138.594567249578972, 35.616411387175845 ], [ 138.598459804976073, 35.622690801739168 ], [ 138.598384358151634, 35.634127197812006 ], [ 138.635382775594735, 35.653844640317971 ], [ 138.622209973911254, 35.657574640557243 ], [ 138.627706938724259, 35.658683531619715 ], [ 138.626345616057392, 35.668602387390308 ], [ 138.609299079089283, 35.691023468058631 ], [ 138.622768859395364, 35.692684279356058 ], [ 138.620793580359532, 35.694825945560979 ], [ 138.624348053619883, 35.698764280047556 ], [ 138.616582581321154, 35.710682585932659 ], [ 138.621688418385816, 35.709836467778814 ], [ 138.62187508436773, 35.709761198120873 ] ] ] } },
{ "type": "Feature", "properties": { "regioncode": "1921200", "regionname": "山梨県上野原市", "name": "上野原市", "namekana": "うえのはらし", "PrefCode": "19" }, "geometry": { "type": "Polygon", "coordinates": [ [ [ 139.012415914462963, 35.738488505740008 ], [ 139.022528366391043, 35.721991333133587 ], [ 139.038715005792938, 35.711286918656413 ], [ 139.072205810949526, 35.695360305633642 ], [ 139.10585919644484, 35.690979802376035 ], [ 139.131341387694988, 35.671994585182006 ], [ 139.117168223334943, 35.654537639900241 ], [ 139.127553475612444, 35.641080998689176 ], [ 139.123490610203589, 35.623951557718271 ], [ 139.134413670554522, 35.616509639908031 ], [ 139.127796977848334, 35.612899081327612 ], [ 139.133104746886602, 35.606701026631129 ], [ 139.129333279807042, 35.594596332654703 ], [ 139.121437664816426, 35.586987972816758 ], [ 139.127737950845813, 35.58108466732358 ], [ 139.129854838030383, 35.56637355909254 ], [ 139.111960779066749, 35.549793558925671 ], [ 139.08939208817435, 35.5436707478068 ], [ 139.085045135924361, 35.548343802324666 ], [ 139.078155668049703, 35.548718252145648 ], [ 139.025967691355959, 35.542973891931638 ], [ 139.02716525287417, 35.552394695059206 ], [ 139.018346641184621, 35.554272504672383 ], [ 139.017684747353314, 35.561620802158359 ], [ 139.005662282888125, 35.569072197923674 ], [ 139.00504038910276, 35.578998278847564 ], [ 139.013996251725757, 35.579528838385215 ], [ 139.018971828287363, 35.583855467755711 ], [ 139.024303217119837, 35.580567136264392 ], [ 139.034751051419903, 35.584509918797778 ], [ 139.062533579860883, 35.583231865258426 ], [ 139.065892217651822, 35.586458225366869 ], [ 139.06453703015984, 35.599026000049889 ], [ 139.067171750575881, 35.601737667359487 ], [ 139.063067108060636, 35.616291531828779 ], [ 139.04448535731342, 35.611769027418745 ], [ 139.02422063597362, 35.617324585761082 ], [ 139.021288470186846, 35.632539026554866 ], [ 139.01375238706305, 35.637282053723879 ], [ 139.02528997395325, 35.652325081037702 ], [ 139.020307561644699, 35.66669477514381 ], [ 138.993877003820785, 35.674261440613066 ], [ 138.994639558768654, 35.682363639770188 ], [ 138.983218196662506, 35.689235305564978 ], [ 138.977930778382756, 35.70024750491848 ], [ 138.968451894339523, 35.704661666202981 ], [ 138.967885524697294, 35.708829171329228 ], [ 138.972280829896476, 35.712610252161483 ], [ 138.99186416280088, 35.713808865886506 ], [ 139.012290922188413, 35.738669053633998 ], [ 139.012415914462963, 35.738488505740008 ] ] ] } },
{ "type": "Feature", "properties": { "regioncode": "1921300", "regionname": "山梨県甲州市", "name": "甲州市", "namekana": "こうしゅうし", "PrefCode": "19" }, "geometry": { "type": "Polygon", "coordinates": [ [ [ 138.846949441663469, 35.866903864421886 ], [ 138.856441750786189, 35.864766945737983 ], [ 138.857782282926109, 35.858410559100093 ], [ 138.862661479143981, 35.858761107639054 ], [ 138.864325642214681, 35.855467505221213 ], [ 138.862347834285174, 35.847580000316839 ], [ 138.865310895381526, 35.841086666716365 ], [ 138.860006135474805, 35.835024441125086 ], [ 138.861078365674075, 35.831539999871154 ], [ 138.85204552468133, 35.828144721002104 ], [ 138.851225253043026, 35.823901108049768 ], [ 138.859930532168391, 35.816451386822109 ], [ 138.855096615016805, 35.808378612582942 ], [ 138.863428585560882, 35.805769720696105 ], [ 138.865614422867338, 35.795242774834264 ], [ 138.869898884825716, 35.794583053764995 ], [ 138.867966886562613, 35.782914441048661 ], [ 138.846153190917107, 35.77590253227612 ], [ 138.816306693199408, 35.775611134846031 ], [ 138.818856939396255, 35.766083639748217 ], [ 138.828075031737399, 35.755066414083785 ], [ 138.845461997173516, 35.748901973347472 ], [ 138.854220583613142, 35.733284224387489 ], [ 138.859959468754596, 35.730295892341587 ], [ 138.855089390762828, 35.714647838027361 ], [ 138.859924280081486, 35.688741747733502 ], [ 138.847000025830539, 35.672712333207642 ], [ 138.850881581619774, 35.649656802419543 ], [ 138.845367950570562, 35.64113125190579 ], [ 138.831524553215672, 35.635049892338714 ], [ 138.829877587880446, 35.628923504616125 ], [ 138.822602580644684, 35.630524612620832 ], [ 138.814785304698148, 35.622121558762956 ], [ 138.803536939778041, 35.623298774918567 ], [ 138.79353191996222, 35.617414332705323 ], [ 138.785710532315306, 35.617763505281573 ], [ 138.775249882676007, 35.605066559174418 ], [ 138.766988755326906, 35.605342946020187 ], [ 138.764881051119687, 35.622901558759963 ], [ 138.752942139967899, 35.619580721273337 ], [ 138.750942724027595, 35.624608505278331 ], [ 138.740806330347937, 35.626836558560399 ], [ 138.738056354617129, 35.636284585964916 ], [ 138.726880531711231, 35.63660294596923 ], [ 138.717738054367828, 35.647780134945322 ], [ 138.719346082655647, 35.64072072128431 ], [ 138.711046109090717, 35.646789054171563 ], [ 138.710637250308878, 35.650919306680692 ], [ 138.71488302163425, 35.649361251920311 ], [ 138.712003086673121, 35.654658748002873 ], [ 138.714580077808364, 35.661355694409849 ], [ 138.707721479162956, 35.663046251683227 ], [ 138.707505381967849, 35.669938747575202 ], [ 138.700108443749741, 35.674817891632472 ], [ 138.716932140406016, 35.689454533300136 ], [ 138.710050219641971, 35.694943414107343 ], [ 138.713408054338288, 35.708503387421445 ], [ 138.706408029207296, 35.707270333259316 ], [ 138.706685550997463, 35.710853946352586 ], [ 138.702203891096815, 35.712320054427039 ], [ 138.711514501193392, 35.727158639759466 ], [ 138.710671194320184, 35.734013919007225 ], [ 138.720836782691435, 35.742182532198171 ], [ 138.723072633095626, 35.752795586347304 ], [ 138.73238041482432, 35.759248640212604 ], [ 138.737073475660395, 35.755181693680299 ], [ 138.741917367192855, 35.764151413956654 ], [ 138.746129053313211, 35.775693081970189 ], [ 138.740383476316424, 35.77775613483783 ], [ 138.739220142995237, 35.784194467700559 ], [ 138.743318754656912, 35.786465865607283 ], [ 138.740437912279845, 35.788874197886003 ], [ 138.768162140370578, 35.790271693983527 ], [ 138.778386614550641, 35.786022802010734 ], [ 138.786752724258918, 35.786840864914041 ], [ 138.786078301072848, 35.808232801003044 ], [ 138.783041051303485, 35.811488080610502 ], [ 138.788814422747464, 35.834646135011155 ], [ 138.802704501211792, 35.840927802376257 ], [ 138.804184772709164, 35.85177058564409 ], [ 138.813604863573687, 35.862367774852999 ], [ 138.827830776769019, 35.865795000339062 ], [ 138.834445668133185, 35.86227874826568 ], [ 138.846082529385285, 35.867142225233579 ], [ 138.846949441663469, 35.866903864421886 ] ] ] } },
{ "type": "Feature", "properties": { "regioncode": "1921400", "regionname": "山梨県中央市", "name": "中央市", "namekana": "ちゅうおうし", "PrefCode": "19" }, "geometry": { "type": "Polygon", "coordinates": [ [ [ 138.510994890401889, 35.623397441338909 ], [ 138.516137639240696, 35.623356639996985 ], [ 138.520695331424463, 35.610141359736019 ], [ 138.526041192147318, 35.614171360320086 ], [ 138.528153358790519, 35.609291081318418 ], [ 138.534564163405435, 35.608352774560956 ], [ 138.535368418118082, 35.618282198264865 ], [ 138.553678638358519, 35.616994720729849 ], [ 138.560159857191707, 35.598351693775726 ], [ 138.556253191431665, 35.592488918928495 ], [ 138.562931192720384, 35.589958640378995 ], [ 138.560116743692788, 35.582048360143745 ], [ 138.576127249972728, 35.57199366717407 ], [ 138.578941699000325, 35.559137837840979 ], [ 138.584218638379525, 35.557846135290959 ], [ 138.584046420006302, 35.551573080733135 ], [ 138.574033086857526, 35.550438639031995 ], [ 138.573382528980574, 35.545848639603093 ], [ 138.567065305119854, 35.545225585692265 ], [ 138.541313139190038, 35.551958918669186 ], [ 138.537576472276442, 35.554986135601723 ], [ 138.541528418002144, 35.560773639891636 ], [ 138.539086782928734, 35.565582802304561 ], [ 138.545953410721381, 35.569943918876788 ], [ 138.547464838331734, 35.577316414421034 ], [ 138.534719051842785, 35.583663054206625 ], [ 138.522987665548385, 35.572428892279618 ], [ 138.505245771874911, 35.574626945976831 ], [ 138.496997755741859, 35.57168722498551 ], [ 138.497026667146997, 35.577741640864076 ], [ 138.509971140855555, 35.595141359586137 ], [ 138.506763216849095, 35.620862721037781 ], [ 138.510767950980267, 35.623496891968045 ], [ 138.510994890401889, 35.623397441338909 ] ] ] } },
{ "type": "Feature", "properties": { "regioncode": "1934600", "regionname": "山梨県市川三郷町", "name": "市川三郷町", "namekana": "いちかわみさとちょう", "PrefCode": "19" }, "geometry": { "type": "Polygon", "coordinates": [ [ [ 138.534928495853478, 35.581889720634138 ], [ 138.547464838331734, 35.577316414421034 ], [ 138.545953410721381, 35.569943918876788 ], [ 138.539086782928734, 35.565582802304561 ], [ 138.541528418002144, 35.560773639891636 ], [ 138.537576472276442, 35.554986135601723 ], [ 138.5413336958934, 35.551945865009714 ], [ 138.567065305119854, 35.545225585692265 ], [ 138.573382528980574, 35.545848639603093 ], [ 138.574167522912944, 35.550462802916059 ], [ 138.596323942995582, 35.549992801926294 ], [ 138.59641616127692, 35.543111972939244 ], [ 138.589938106258614, 35.536873640306283 ], [ 138.588848949019848, 35.528651693720747 ], [ 138.595681750612357, 35.519618081109627 ], [ 138.556538638047755, 35.514542802108679 ], [ 138.537595886840791, 35.51923002814334 ], [ 138.526127563036653, 35.514896134948742 ], [ 138.520759493555829, 35.507620586321082 ], [ 138.505147302406158, 35.510349748142403 ], [ 138.495282607406466, 35.504541413755305 ], [ 138.499190920724459, 35.493718359814523 ], [ 138.483124553055745, 35.491733612716132 ], [ 138.478003722493895, 35.484588919043404 ], [ 138.463854060116887, 35.484124721378862 ], [ 138.462112632691856, 35.477664440561512 ], [ 138.445495746831284, 35.469310837725061 ], [ 138.447797718090328, 35.479062225341465 ], [ 138.455468808338878, 35.488416945385779 ], [ 138.447162749960967, 35.502301359919898 ], [ 138.462684668962311, 35.506367774952878 ], [ 138.469627172555988, 35.517770280074444 ], [ 138.453493333250776, 35.521561918947441 ], [ 138.450781139837773, 35.527638027373143 ], [ 138.452740026031393, 35.536283865807832 ], [ 138.458298365976816, 35.538456081083325 ], [ 138.467256083001871, 35.535335802305497 ], [ 138.46635749660129, 35.540389973318668 ], [ 138.470622192360338, 35.540919414099733 ], [ 138.466255551252743, 35.54352886536492 ], [ 138.481875278721191, 35.567009135163516 ], [ 138.503862191886697, 35.574543333308213 ], [ 138.522987665548385, 35.572428892279618 ], [ 138.524591309641323, 35.576949721252674 ], [ 138.534887393238705, 35.581964171009759 ], [ 138.534928495853478, 35.581889720634138 ] ] ] } },
{ "type": "Feature", "properties": { "regioncode": "1936400", "regionname": "山梨県早川町", "name": "早川町", "namekana": "はやかわちょう", "PrefCode": "19" }, "geometry": { "type": "Polygon", "coordinates": [ [ [ 138.238110947162568, 35.650043170955655 ], [ 138.254682310240469, 35.645572891975462 ], [ 138.311140856165594, 35.64348733267434 ], [ 138.315764188966227, 35.636459279272344 ], [ 138.311653359115326, 35.635251774849564 ], [ 138.315458611925465, 35.622038440721496 ], [ 138.310011388614726, 35.616578440742501 ], [ 138.312973306672802, 35.613695946310941 ], [ 138.310158612130294, 35.611689279136954 ], [ 138.312868859410401, 35.60856872066995 ], [ 138.308631634342532, 35.607299531748026 ], [ 138.310373023096645, 35.601720359906722 ], [ 138.31375358006369, 35.600298693629838 ], [ 138.328158029369661, 35.609768999939433 ], [ 138.335890219557996, 35.604133999984185 ], [ 138.334651582404717, 35.598538441595849 ], [ 138.338835745673236, 35.591268171089268 ], [ 138.34874739427687, 35.589861224915637 ], [ 138.344147951067157, 35.584349279195919 ], [ 138.335191025445511, 35.582483170661874 ], [ 138.328712969527942, 35.568805640667847 ], [ 138.321012139598679, 35.56509035963245 ], [ 138.324831829225559, 35.561386748199936 ], [ 138.326256004610968, 35.548836197332719 ], [ 138.332608495385784, 35.552068694414743 ], [ 138.355594836832324, 35.548200107748812 ], [ 138.353662022884123, 35.521645387724504 ], [ 138.358795330640078, 35.515507054307136 ], [ 138.361223087375606, 35.503617333373313 ], [ 138.368424720724306, 35.499110945713653 ], [ 138.369875837100267, 35.488025946240498 ], [ 138.376994422554617, 35.486338468245776 ], [ 138.384352165620044, 35.478457360219068 ], [ 138.379101362338019, 35.466668748264169 ], [ 138.378949415583179, 35.449860667435928 ], [ 138.387125473361948, 35.442272332801963 ], [ 138.399282087898087, 35.441048774581361 ], [ 138.392605162198493, 35.43516708069626 ], [ 138.42228693919094, 35.41561241368197 ], [ 138.41747972830683, 35.397762387324349 ], [ 138.404494279687356, 35.395993440644816 ], [ 138.393556004606012, 35.388492306075136 ], [ 138.394987082288026, 35.372470053750021 ], [ 138.387289856841448, 35.355338386957044 ], [ 138.371462724125536, 35.348876667224488 ], [ 138.350567911679832, 35.35874161313501 ], [ 138.342239195782327, 35.349360801959506 ], [ 138.343069104555639, 35.341054170713448 ], [ 138.33582727600799, 35.326628919189318 ], [ 138.32584394334333, 35.327611972614477 ], [ 138.308980752060165, 35.318493973018519 ], [ 138.296051777267735, 35.316399252323663 ], [ 138.28526719812271, 35.30427486499309 ], [ 138.254803501980064, 35.319817386563216 ], [ 138.248737419196573, 35.331602386840757 ], [ 138.257139753596789, 35.338974305919521 ], [ 138.251145719999045, 35.363786773840616 ], [ 138.232017081623098, 35.371224838055866 ], [ 138.237007782083538, 35.384526197825835 ], [ 138.246040635666873, 35.391244531909649 ], [ 138.24649985738256, 35.399891721126096 ], [ 138.258117173668666, 35.40742450463722 ], [ 138.259257560787887, 35.432079467993105 ], [ 138.255476744356315, 35.44438919840286 ], [ 138.248305383086972, 35.447184749076939 ], [ 138.24400403365928, 35.458608360387586 ], [ 138.255205161688878, 35.468908080843335 ], [ 138.26017744493322, 35.505733946264684 ], [ 138.268997445176069, 35.514233947039088 ], [ 138.263800531969082, 35.526703666840831 ], [ 138.257348300983381, 35.53084866643286 ], [ 138.259558053961086, 35.552897837864975 ], [ 138.244448911188329, 35.563461747661563 ], [ 138.245713086389856, 35.56998980228758 ], [ 138.23869530414504, 35.583672306431822 ], [ 138.243293644785922, 35.597455082286274 ], [ 138.240758663681504, 35.605003972655254 ], [ 138.235138664417946, 35.607379802535888 ], [ 138.236883671144597, 35.621109531879426 ], [ 138.228276743676815, 35.627024279446971 ], [ 138.23231535706816, 35.640030387292597 ], [ 138.228817613042452, 35.647135386688774 ], [ 138.237830660856389, 35.650130666896814 ], [ 138.238110947162568, 35.650043170955655 ] ], [ [ 138.350578806966382, 35.370639918997142 ], [ 138.359154305826564, 35.374179387069091 ], [ 138.357431245255839, 35.384661080844239 ], [ 138.35245211367419, 35.3831271980618 ], [ 138.350574643105347, 35.370665749324928 ], [ 138.350578806966382, 35.370639918997142 ] ] ] } },
{ "type": "Feature", "properties": { "regioncode": "1936500", "regionname": "山梨県身延町", "name": "身延町", "namekana": "みのぶちょう", "PrefCode": "19" }, "geometry": { "type": "MultiPolygon", "coordinates": [ [ [ [ 138.358646251823075, 35.373526892052496 ], [ 138.350578806966382, 35.370639918997142 ], [ 138.352479882940315, 35.38318302707512 ], [ 138.357499299653, 35.384593864615226 ], [ 138.358707638646706, 35.37359189235201 ], [ 138.358646251823075, 35.373526892052496 ] ] ], [ [ [ 138.538535887920943, 35.519014198046875 ], [ 138.556538638047755, 35.514542802108679 ], [ 138.594681440096451, 35.518807532042047 ], [ 138.602408690308835, 35.504772802123171 ], [ 138.594546161376343, 35.495551694355242 ], [ 138.59588894901583, 35.48340805433827 ], [ 138.581844747437231, 35.478681413716345 ], [ 138.583468248560848, 35.446787504140048 ], [ 138.577421556060017, 35.440893333060899 ], [ 138.558919830585751, 35.434168918660703 ], [ 138.553034811907082, 35.423086135117103 ], [ 138.531827003913122, 35.409408918986458 ], [ 138.534591608016399, 35.386226386838359 ], [ 138.526397445086104, 35.378374999606592 ], [ 138.513492217791736, 35.380261946331814 ], [ 138.507784694707993, 35.36210553174493 ], [ 138.49603197109866, 35.358554413855188 ], [ 138.489189467619894, 35.346518586363743 ], [ 138.48141671890653, 35.344601640053725 ], [ 138.481901946317862, 35.331138864566981 ], [ 138.477527807562296, 35.327288559319584 ], [ 138.482469974309879, 35.318110531775687 ], [ 138.479254137168709, 35.311438585622284 ], [ 138.452617562650516, 35.307926892212379 ], [ 138.449548171111246, 35.316209080784517 ], [ 138.428246329104923, 35.314081560016007 ], [ 138.419877173392933, 35.308176559300819 ], [ 138.41350111498457, 35.309714586159259 ], [ 138.402548885122997, 35.29919625220532 ], [ 138.383516692741296, 35.29555705381506 ], [ 138.372478690039543, 35.299410945558748 ], [ 138.367508248606896, 35.309676748083518 ], [ 138.359134384044637, 35.313523108005086 ], [ 138.358493061305808, 35.317571170573103 ], [ 138.350149689156865, 35.315234224679784 ], [ 138.343373332613282, 35.317994504842602 ], [ 138.335637833819078, 35.326495585702787 ], [ 138.343013554332174, 35.340875837849694 ], [ 138.344227834247249, 35.351783586343515 ], [ 138.350567911679832, 35.35874161313501 ], [ 138.371462724125536, 35.348876667224488 ], [ 138.387205136208081, 35.355280333021028 ], [ 138.394987082288026, 35.372470053750021 ], [ 138.393556004606012, 35.388492306075136 ], [ 138.404494279687356, 35.395993440644816 ], [ 138.41731111621516, 35.397638773710469 ], [ 138.420343332478865, 35.402695720930808 ], [ 138.422167224138093, 35.416222973311619 ], [ 138.392605162198493, 35.43516708069626 ], [ 138.399282087898087, 35.441048774581361 ], [ 138.387125473361948, 35.442272332801963 ], [ 138.378949415583179, 35.449860667435928 ], [ 138.379101362338019, 35.466668748264169 ], [ 138.384368002681299, 35.47833013492783 ], [ 138.394883216887024, 35.483219613094718 ], [ 138.398711283698844, 35.48952655860387 ], [ 138.407607366586717, 35.490277134582129 ], [ 138.422076200156539, 35.499489667314322 ], [ 138.441049170382939, 35.494116639871095 ], [ 138.447267198122745, 35.499269414352057 ], [ 138.455471025167753, 35.488521666941438 ], [ 138.447026886681556, 35.477355838201447 ], [ 138.447711855317948, 35.468283332609758 ], [ 138.462239027908822, 35.477767775362622 ], [ 138.463854060116887, 35.484124721378862 ], [ 138.478003722493895, 35.484588919043404 ], [ 138.483124553055745, 35.491733612716132 ], [ 138.499190920724459, 35.493718359814523 ], [ 138.496335940151539, 35.50661308122875 ], [ 138.505260920954811, 35.510386972880553 ], [ 138.520759493555829, 35.507620586321082 ], [ 138.526127563036653, 35.514896134948742 ], [ 138.538265057086733, 35.519118360224184 ], [ 138.538535887920943, 35.519014198046875 ] ] ] ] } },
{ "type": "Feature", "properties": { "regioncode": "1936600", "regionname": "山梨県南部町", "name": "南部町", "namekana": "なんぶちょう", "PrefCode": "19" }, "geometry": { "type": "Polygon", "coordinates": [ [ [ 138.51544610915073, 35.379576667429319 ], [ 138.530669921779577, 35.376216945955321 ], [ 138.529434279368616, 35.349794170864357 ], [ 138.535027030073479, 35.340393332686233 ], [ 138.535086200068122, 35.330564721184999 ], [ 138.512093191047938, 35.313555251573632 ], [ 138.512752334752463, 35.303299972915454 ], [ 138.521724527265178, 35.283814972782807 ], [ 138.520321440981775, 35.270884134595178 ], [ 138.514242827044882, 35.262230802109855 ], [ 138.520708948958941, 35.255353865388656 ], [ 138.532275031767313, 35.223390838416492 ], [ 138.527380026367155, 35.216803613795776 ], [ 138.533136420409505, 35.200688054110458 ], [ 138.528482802039775, 35.197539441292236 ], [ 138.515356977342663, 35.198196946432006 ], [ 138.513725576574188, 35.190565000074741 ], [ 138.491492243772086, 35.168384440389673 ], [ 138.477898663692486, 35.178083586388425 ], [ 138.430941751061027, 35.180386918321688 ], [ 138.418363190808691, 35.199334972830798 ], [ 138.407574331789988, 35.202930224949966 ], [ 138.398697107685393, 35.200269945801438 ], [ 138.394499922233649, 35.207030226064148 ], [ 138.386152282801618, 35.246243531613743 ], [ 138.36703185523595, 35.27018819782711 ], [ 138.367233672096404, 35.29172872080386 ], [ 138.37315036309883, 35.299705666883085 ], [ 138.383516692741296, 35.29555705381506 ], [ 138.396892217801678, 35.297498467979949 ], [ 138.404821919795836, 35.300302359866066 ], [ 138.41350111498457, 35.309714586159259 ], [ 138.419877173392933, 35.308176559300819 ], [ 138.428246329104923, 35.314081560016007 ], [ 138.449548171111246, 35.316209080784517 ], [ 138.452617562650516, 35.307926892212379 ], [ 138.476024968477532, 35.309444667237642 ], [ 138.482469974309879, 35.318110531775687 ], [ 138.477527807562296, 35.327288559319584 ], [ 138.481901946317862, 35.331138864566981 ], [ 138.481356446342943, 35.344506359580862 ], [ 138.489189467619894, 35.346518586363743 ], [ 138.49603197109866, 35.358554413855188 ], [ 138.507784694707993, 35.36210553174493 ], [ 138.506846640660001, 35.366263332287019 ], [ 138.515336108574616, 35.379589999878647 ], [ 138.51544610915073, 35.379576667429319 ] ] ] } },
{ "type": "Feature", "properties": { "regioncode": "1936800", "regionname": "山梨県富士川町", "name": "富士川町", "namekana": "ふじかわちょう", "PrefCode": "19" }, "geometry": { "type": "Polygon", "coordinates": [ [ [ 138.384066744184906, 35.59082374771782 ], [ 138.401908911367286, 35.589953225560976 ], [ 138.411586978156606, 35.594859054301992 ], [ 138.414361115073461, 35.591957666912833 ], [ 138.412403605741929, 35.588054333141031 ], [ 138.42111219167441, 35.587636026981102 ], [ 138.423412438033665, 35.580554918974372 ], [ 138.438267391926615, 35.578072693899742 ], [ 138.454376251662779, 35.580958837780202 ], [ 138.474848949319608, 35.572526359903634 ], [ 138.474906135409924, 35.566857468097737 ], [ 138.479031114294571, 35.563797468178677 ], [ 138.465864448685466, 35.542578864722884 ], [ 138.470579973686881, 35.540791640222096 ], [ 138.46635749660129, 35.540389973318668 ], [ 138.467256083001871, 35.535335802305497 ], [ 138.458207250264422, 35.538443026524533 ], [ 138.451268079558304, 35.53264941403927 ], [ 138.453493333250776, 35.521561918947441 ], [ 138.469627172555988, 35.517770280074444 ], [ 138.463535772058322, 35.506962775411807 ], [ 138.447248029073307, 35.502365252254663 ], [ 138.442714968421114, 35.494387468007289 ], [ 138.430598079637775, 35.495672720619609 ], [ 138.426195330750033, 35.500082171255258 ], [ 138.415983722270994, 35.497381305702731 ], [ 138.407607366586717, 35.490277134582129 ], [ 138.398571284437253, 35.48944127859221 ], [ 138.394883216887024, 35.483219613094718 ], [ 138.385098559750759, 35.478460972795688 ], [ 138.376994422554617, 35.486338468245776 ], [ 138.371547224424944, 35.486097054235699 ], [ 138.368424720724306, 35.499110945713653 ], [ 138.361223087375606, 35.503617333373313 ], [ 138.358795330640078, 35.515507054307136 ], [ 138.353662022884123, 35.521645387724504 ], [ 138.355594836832324, 35.548200107748812 ], [ 138.332608495385784, 35.552068694414743 ], [ 138.326302943825908, 35.548797864629819 ], [ 138.324831829225559, 35.561386748199936 ], [ 138.321000752382929, 35.565020360001654 ], [ 138.328712969527942, 35.568805640667847 ], [ 138.335191025445511, 35.582483170661874 ], [ 138.344147951067157, 35.584349279195919 ], [ 138.350720998775159, 35.591575946073078 ], [ 138.363023747747775, 35.586435387083498 ], [ 138.369249001540197, 35.586441532151014 ], [ 138.369720946864277, 35.590723198117132 ], [ 138.377874279674302, 35.595034027298595 ], [ 138.383828418446797, 35.590880973378262 ], [ 138.384066744184906, 35.59082374771782 ] ] ] } },
{ "type": "Feature", "properties": { "regioncode": "1938400", "regionname": "山梨県昭和町", "name": "昭和町", "namekana": "しょうわちょう", "PrefCode": "19" }, "geometry": { "type": "Polygon", "coordinates": [ [ [ 138.510767950980267, 35.623496891968045 ], [ 138.509721336170742, 35.633543000009468 ], [ 138.528736276857785, 35.629270775126201 ], [ 138.528392140484925, 35.632222171116382 ], [ 138.534640168708847, 35.631637440915199 ], [ 138.527751894234598, 35.637907999854349 ], [ 138.535641946019041, 35.645864387431573 ], [ 138.542020000023058, 35.645058000426445 ], [ 138.544299779611151, 35.651690198344056 ], [ 138.552083061184362, 35.646749386874774 ], [ 138.549393332836075, 35.640802000212204 ], [ 138.545397198022329, 35.641605774686809 ], [ 138.553091220083843, 35.628811919434611 ], [ 138.545995939660997, 35.62783636006003 ], [ 138.553678638358519, 35.616994720729849 ], [ 138.535368418118082, 35.618282198264865 ], [ 138.534564163405435, 35.608352774560956 ], [ 138.528153358790519, 35.609291081318418 ], [ 138.526041192147318, 35.614171360320086 ], [ 138.520695331424463, 35.610141359736019 ], [ 138.516137639240696, 35.623356639996985 ], [ 138.510994890401889, 35.623397441338909 ], [ 138.510767950980267, 35.623496891968045 ] ] ] } },
{ "type": "Feature", "properties": { "regioncode": "1942200", "regionname": "山梨県道志村", "name": "道志村", "namekana": "どうしむら", "PrefCode": "19" }, "geometry": { "type": "Polygon", "coordinates": [ [ [ 139.112632723721276, 35.549168558881945 ], [ 139.11223544730808, 35.53516938725744 ], [ 139.085789974227964, 35.512086305738478 ], [ 139.060081244653816, 35.507499360407223 ], [ 139.04623980422366, 35.509810000231369 ], [ 139.04370089488043, 35.498941946913362 ], [ 139.030620272807369, 35.488701999897444 ], [ 139.027549442352893, 35.480967802422185 ], [ 139.014593022050349, 35.479831170871876 ], [ 139.007873022422132, 35.474497801732241 ], [ 138.98882158185063, 35.473640585944338 ], [ 138.978769338634152, 35.46374169422387 ], [ 138.973463476158599, 35.466545026731637 ], [ 138.958727302023476, 35.462086107987545 ], [ 138.940440804099921, 35.449491946296348 ], [ 138.925187445144502, 35.455256945951362 ], [ 138.931534863743082, 35.486642775443784 ], [ 138.940280439690582, 35.494006107795713 ], [ 138.951991582245796, 35.496305305545491 ], [ 138.970406912549038, 35.507168360431535 ], [ 138.974451141307213, 35.521281134416881 ], [ 138.983668079818131, 35.520641999728582 ], [ 139.00616949422681, 35.528277558662467 ], [ 139.004937912254945, 35.539396135223512 ], [ 139.012407664981765, 35.54337530612554 ], [ 139.056707808518581, 35.547178279154309 ], [ 139.065464227592088, 35.54506186501311 ], [ 139.081793164922715, 35.548733251938074 ], [ 139.08939208817435, 35.5436707478068 ], [ 139.11255050590114, 35.549204109082439 ], [ 139.112632723721276, 35.549168558881945 ] ] ] } },
{ "type": "Feature", "properties": { "regioncode": "1942300", "regionname": "山梨県西桂町", "name": "西桂町", "namekana": "にしかつらちょう", "PrefCode": "19" }, "geometry": { "type": "Polygon", "coordinates": [ [ [ 138.8102613101114, 35.550656918881771 ], [ 138.838676329049463, 35.549682224654987 ], [ 138.853132698015656, 35.538555838381285 ], [ 138.861535745578294, 35.536560838112223 ], [ 138.85895795134843, 35.534316107802169 ], [ 138.866784812269316, 35.533102225387438 ], [ 138.853352334942315, 35.525497252396349 ], [ 138.855739169826848, 35.504944748001776 ], [ 138.839047976582947, 35.501639504759396 ], [ 138.833484423267578, 35.510777838026854 ], [ 138.839859780204733, 35.52046558601802 ], [ 138.836048663814836, 35.520618918628259 ], [ 138.833665356970755, 35.525867251472505 ], [ 138.822522282877117, 35.527608919016473 ], [ 138.819033410663451, 35.532296413948416 ], [ 138.806334811602369, 35.532697775082283 ], [ 138.802533191153884, 35.545670000070515 ], [ 138.810380466685274, 35.550509693567562 ], [ 138.8102613101114, 35.550656918881771 ] ] ] } },
{ "type": "Feature", "properties": { "regioncode": "1942400", "regionname": "山梨県忍野村", "name": "忍野村", "namekana": "おしのむら", "PrefCode": "19" }, "geometry": { "type": "Polygon", "coordinates": [ [ [ 138.874255745806067, 35.485621134807559 ], [ 138.882484915746318, 35.47944613513107 ], [ 138.882559858051081, 35.468195585757712 ], [ 138.901289805380316, 35.45048444080436 ], [ 138.888441919758861, 35.440348918567793 ], [ 138.864433773999508, 35.436713080944003 ], [ 138.857875188289427, 35.444294197619172 ], [ 138.864597471296292, 35.449919467809252 ], [ 138.849858002944529, 35.456591440942304 ], [ 138.847320999264753, 35.445758080770872 ], [ 138.833885642308587, 35.440485054341821 ], [ 138.806377639116818, 35.456355054142477 ], [ 138.812639611329018, 35.461673386617576 ], [ 138.816944720822221, 35.476424774583734 ], [ 138.835901945718319, 35.469175891754048 ], [ 138.861631141164253, 35.478767171267975 ], [ 138.866222969814316, 35.485335865357968 ], [ 138.874085187581386, 35.485652531938854 ], [ 138.874255745806067, 35.485621134807559 ] ] ] } },
{ "type": "Feature", "properties": { "regioncode": "1942500", "regionname": "山梨県山中湖村", "name": "山中湖村", "namekana": "やまなかこむら", "PrefCode": "19" }, "geometry": { "type": "Polygon", "coordinates": [ [ [ 138.923869663154505, 35.45795555960143 ], [ 138.93762133595601, 35.447778612792774 ], [ 138.927403747884682, 35.437644721027084 ], [ 138.930169780111328, 35.42087055902914 ], [ 138.918066303816886, 35.411339170766155 ], [ 138.916402917760479, 35.400613613227733 ], [ 138.887941554958843, 35.386353053650566 ], [ 138.878911244658298, 35.385842774724324 ], [ 138.874262477231582, 35.379173522939766 ], [ 138.862401777420132, 35.390079721002394 ], [ 138.863550972499411, 35.393484467933888 ], [ 138.828512944017234, 35.412067531691264 ], [ 138.836246394155864, 35.426208919406179 ], [ 138.833710026296785, 35.429191135162796 ], [ 138.80269167418146, 35.438175053935652 ], [ 138.802911413630909, 35.442549224167408 ], [ 138.809652801835455, 35.439902279266846 ], [ 138.810377328051345, 35.451048386773664 ], [ 138.806377639116818, 35.456355054142477 ], [ 138.833885642308587, 35.440485054341821 ], [ 138.847320999264753, 35.445758080770872 ], [ 138.851893580624278, 35.455956999815726 ], [ 138.864597471296292, 35.449919467809252 ], [ 138.857875188289427, 35.444294197619172 ], [ 138.864433773999508, 35.436713080944003 ], [ 138.888171362318531, 35.440235586003553 ], [ 138.902615940273449, 35.451856666851768 ], [ 138.90845150433347, 35.450421386637743 ], [ 138.923341335734108, 35.457906667059092 ], [ 138.923869663154505, 35.45795555960143 ] ] ] } },
{ "type": "Feature", "properties": { "regioncode": "1942900", "regionname": "山梨県鳴沢村", "name": "鳴沢村", "namekana": "なるさわむら", "PrefCode": "19" }, "geometry": { "type": "Polygon", "coordinates": [ [ [ 138.716867756142051, 35.495487775040829 ], [ 138.731297444921211, 35.488563613120277 ], [ 138.723354227915365, 35.463778332604022 ], [ 138.744273113413556, 35.458168358982618 ], [ 138.750129974318952, 35.442013918907264 ], [ 138.727593969286318, 35.422492775021624 ], [ 138.733447133978075, 35.394282225044719 ], [ 138.73078141393114, 35.362798613165523 ], [ 138.718978392139206, 35.365553054030272 ], [ 138.680535615826102, 35.357678332988712 ], [ 138.671182970517748, 35.39282999980469 ], [ 138.66338577193585, 35.398282225144612 ], [ 138.638954942116925, 35.398282774630388 ], [ 138.650791945691822, 35.408455838166446 ], [ 138.651643671118563, 35.41712055876684 ], [ 138.664487302047405, 35.42053694562361 ], [ 138.658968197724221, 35.432014440713942 ], [ 138.659050751890732, 35.444273053658549 ], [ 138.654618003418136, 35.448952774850738 ], [ 138.664770077676963, 35.478016667235465 ], [ 138.673165382976094, 35.484211107556632 ], [ 138.716798029005872, 35.495493054061228 ], [ 138.716867756142051, 35.495487775040829 ] ] ] } },
{ "type": "Feature", "properties": { "regioncode": "1943000", "regionname": "山梨県富士河口湖町", "name": "富士河口湖町", "namekana": "ふじかわぐちこまち", "PrefCode": "19" }, "geometry": { "type": "MultiPolygon", "coordinates": [ [ [ [ 138.757075279300807, 35.40175974791407 ], [ 138.754316082820992, 35.398336694382976 ], [ 138.753724163439415, 35.401722251580679 ], [ 138.756943332568767, 35.40175613533745 ], [ 138.757075279300807, 35.40175974791407 ] ] ], [ [ [ 138.801737444927198, 35.559966919237979 ], [ 138.810455187756816, 35.550417747780898 ], [ 138.802533191153884, 35.545670000070515 ], [ 138.805962891574268, 35.539053333444656 ], [ 138.805116718561749, 35.528945306181015 ], [ 138.780648716165388, 35.503358081310466 ], [ 138.784510895161702, 35.49125866725376 ], [ 138.771573670888301, 35.493933081046919 ], [ 138.772744747372258, 35.490578081013666 ], [ 138.768580855722007, 35.490065864048461 ], [ 138.773969169841394, 35.48637113521977 ], [ 138.785194475244907, 35.489592279260307 ], [ 138.769581362290069, 35.481531974121367 ], [ 138.75467916970797, 35.445665865187607 ], [ 138.750129974318952, 35.442013918907264 ], [ 138.744141996755843, 35.458245027086377 ], [ 138.723354227915365, 35.463778332604022 ], [ 138.731343554061823, 35.4863277744073 ], [ 138.729562749821071, 35.491887775400585 ], [ 138.72705605689157, 35.489426666407553 ], [ 138.716867756142051, 35.495487775040829 ], [ 138.706534942433677, 35.494331109293284 ], [ 138.694164616603871, 35.48782194582617 ], [ 138.673165382976094, 35.484211107556632 ], [ 138.664770077676963, 35.478016667235465 ], [ 138.654618003418136, 35.448952774850738 ], [ 138.659050751890732, 35.444273053658549 ], [ 138.658968197724221, 35.432014440713942 ], [ 138.664419532735337, 35.420421946615591 ], [ 138.651643671118563, 35.41712055876684 ], [ 138.650791945691822, 35.408455838166446 ], [ 138.641952476925326, 35.399708612862241 ], [ 138.609136031103048, 35.393176387180574 ], [ 138.597344864174261, 35.432704171260525 ], [ 138.588363191008511, 35.436910558575448 ], [ 138.581888249443182, 35.445728332996225 ], [ 138.581844747437231, 35.478681413716345 ], [ 138.59588894901583, 35.48340805433827 ], [ 138.594546161376343, 35.495551694355242 ], [ 138.602410803715657, 35.504890892101059 ], [ 138.620667496307988, 35.502168747689609 ], [ 138.636600777803665, 35.513303720690203 ], [ 138.676754722052806, 35.519720837646616 ], [ 138.696028469638236, 35.534632748302727 ], [ 138.759011829032715, 35.553655198328784 ], [ 138.768831608292203, 35.560814666963381 ], [ 138.791346056575321, 35.560618837789207 ], [ 138.796497807627816, 35.571800505389092 ], [ 138.799498637552119, 35.572215225052673 ], [ 138.801701607843029, 35.560062197912146 ], [ 138.801737444927198, 35.559966919237979 ] ] ] ] } },
{ "type": "Feature", "properties": { "regioncode": "1944200", "regionname": "山梨県小菅村", "name": "小菅村", "namekana": "こすげむら", "PrefCode": "19" }, "geometry": { "type": "Polygon", "coordinates": [ [ [ 138.942549415722965, 35.774640197986798 ], [ 138.963947470799212, 35.768529052873532 ], [ 138.983772995627305, 35.769475413959242 ], [ 138.992572672091228, 35.755380972653825 ], [ 139.005155422284929, 35.75045153221248 ], [ 139.011881478847272, 35.738863225357591 ], [ 138.99186416280088, 35.713808865886506 ], [ 138.97175416262462, 35.712308586272286 ], [ 138.965805888331147, 35.721535532438907 ], [ 138.923739804648335, 35.740624972964156 ], [ 138.892614942225919, 35.741194170974268 ], [ 138.859959468754596, 35.730295892341587 ], [ 138.851178080004502, 35.738582251969433 ], [ 138.86962124522438, 35.748104747735965 ], [ 138.879748858822836, 35.764519440819583 ], [ 138.919517664808495, 35.769063865305213 ], [ 138.932724668608671, 35.780235224875753 ], [ 138.942473580391493, 35.774654359611077 ], [ 138.942549415722965, 35.774640197986798 ] ] ] } },
{ "type": "Feature", "properties": { "regioncode": "1944300", "regionname": "山梨県丹波山村", "name": "丹波山村", "namekana": "たばやまむら", "PrefCode": "19" }, "geometry": { "type": "Polygon", "coordinates": [ [ [ 138.871846226422235, 35.854936945683562 ], [ 138.892222672338562, 35.839778585713191 ], [ 138.910946083395061, 35.852727467898376 ], [ 138.926630026054909, 35.848918278755605 ], [ 138.945749532714785, 35.854085748158809 ], [ 138.950195887929908, 35.839345721328016 ], [ 138.962681166902371, 35.829396532324154 ], [ 138.969765615890537, 35.831225414321466 ], [ 138.971368884966182, 35.800058198327235 ], [ 138.976875810670208, 35.789028999988432 ], [ 138.986709947606073, 35.781234838417106 ], [ 138.983772995627305, 35.769475413959242 ], [ 138.949893865009926, 35.77045102729312 ], [ 138.932630220008718, 35.78021800016063 ], [ 138.919517664808495, 35.769063865305213 ], [ 138.879064112319043, 35.764198891865419 ], [ 138.86962124522438, 35.748104747735965 ], [ 138.85569978042065, 35.741014468443041 ], [ 138.845461997173516, 35.748901973347472 ], [ 138.828075031737399, 35.755066414083785 ], [ 138.818856939396255, 35.766083639748217 ], [ 138.81703946799712, 35.776523080675702 ], [ 138.845935965972103, 35.775871973312974 ], [ 138.867966886562613, 35.782914441048661 ], [ 138.869898884825716, 35.794583053764995 ], [ 138.865614422867338, 35.795242774834264 ], [ 138.863428585560882, 35.805769720696105 ], [ 138.855096615016805, 35.808378612582942 ], [ 138.859930532168391, 35.816451386822109 ], [ 138.851229416004799, 35.824063612845521 ], [ 138.85204552468133, 35.828144721002104 ], [ 138.861078365674075, 35.831539999871154 ], [ 138.860006135474805, 35.835024441125086 ], [ 138.865361166584648, 35.841216946105249 ], [ 138.862661479143981, 35.858761107639054 ], [ 138.87177094687172, 35.854946107976559 ], [ 138.871846226422235, 35.854936945683562 ] ] ] } }
]
}
