{
"type": "FeatureCollection",
"name": "25_shiga_region",
"crs": { "type": "name", "properties": { "name": "urn:ogc:def:crs:OGC:1.3:CRS84" } },
"features": [
{ "type": "Feature", "properties": { "regioncode": "2520101", "regionname": "気象庁予報警報規程別表第四の二に示す「大津市南部」の区域", "name": "大津市南部", "namekana": "おおつしなんぶ", "PrefCode": "25" }, "geometry": { "type": "Polygon", "coordinates": [ [ [ 135.940254553305067, 35.137524440900279 ], [ 135.935580803611288, 35.115521440662008 ], [ 135.923241114985558, 35.088122505449292 ], [ 135.887955356554471, 35.03532513464728 ], [ 135.902906589167856, 34.992353027170509 ], [ 135.915943060823679, 34.996373333062934 ], [ 135.9329822179551, 34.995487224755664 ], [ 135.941511945819684, 34.990799162351493 ], [ 135.939713333203827, 34.98852610789362 ], [ 135.951452775625171, 34.971864720880205 ], [ 135.96902250308608, 34.976638054302839 ], [ 135.965765005750427, 34.977521107613086 ], [ 135.966987781560988, 34.983097495153345 ], [ 135.973395005974794, 34.986020279212539 ], [ 135.983685279052452, 34.978523613374136 ], [ 135.993876393780624, 34.980989720799016 ], [ 135.993085550657725, 34.978390278988229 ], [ 135.998835278925071, 34.976889162105181 ], [ 136.005541387625044, 34.97983749500446 ], [ 136.010360557693616, 34.975365558573742 ], [ 136.013991946371334, 34.962609440673191 ], [ 136.001022502986189, 34.959758332581032 ], [ 136.010216667065606, 34.954468891726037 ], [ 136.016203890996849, 34.943136666823762 ], [ 136.030084449237961, 34.939724162340269 ], [ 136.039016939380303, 34.943549999732738 ], [ 136.039684162594085, 34.957960279343467 ], [ 136.042889441694456, 34.961184440609486 ], [ 136.041091387557572, 34.944900278724958 ], [ 136.033042502909211, 34.937850558856269 ], [ 136.041959441974768, 34.931365829069819 ], [ 136.042674721361323, 34.92635389201854 ], [ 136.038506109169703, 34.921516667160517 ], [ 136.035327496766627, 34.923929999669781 ], [ 136.023548340283696, 34.921603054237607 ], [ 136.019761115283359, 34.916727774567221 ], [ 136.009756939031604, 34.919954161655312 ], [ 135.99923389083142, 34.909103892430721 ], [ 135.993093333390675, 34.909509721396603 ], [ 135.991687223586609, 34.900922224680983 ], [ 135.986929999719791, 34.897585279437124 ], [ 135.987493060756265, 34.889837495004429 ], [ 135.974828611651219, 34.888473333177842 ], [ 135.971450558396668, 34.893919161640042 ], [ 135.963914449192544, 34.879757774801533 ], [ 135.943235006390523, 34.878177495095372 ], [ 135.939658884649816, 34.881382775095062 ], [ 135.94089444881979, 34.893683333319245 ], [ 135.923225837302653, 34.883617495051396 ], [ 135.912655551312696, 34.883516386971735 ], [ 135.90742250334597, 34.87401861266892 ], [ 135.897295550749163, 34.87129694579744 ], [ 135.88500194608298, 34.875546387256009 ], [ 135.88860111474969, 34.879879999862169 ], [ 135.886931387573554, 34.883205828586199 ], [ 135.866637224228612, 34.892140279250555 ], [ 135.862933605601484, 34.903387225040433 ], [ 135.871178340108372, 34.909948613038125 ], [ 135.868654449443397, 34.919524999778957 ], [ 135.879924449353894, 34.93452499992884 ], [ 135.876028339836125, 34.943229720575175 ], [ 135.878747781784796, 34.947045278716701 ], [ 135.874203890597187, 34.955018053740218 ], [ 135.863878339813596, 34.957601666583685 ], [ 135.852437781678304, 34.970788891594111 ], [ 135.856695279263818, 34.982457495317192 ], [ 135.849117782359826, 34.984812495100641 ], [ 135.849267223603533, 34.991733891605861 ], [ 135.826904721175993, 34.991203892345823 ], [ 135.832357496901068, 35.000835278925024 ], [ 135.836558884884653, 35.001226386888277 ], [ 135.832681672820968, 35.009425279353195 ], [ 135.824279441842805, 35.008717225119881 ], [ 135.820239170101672, 35.015194441070662 ], [ 135.835464162641074, 35.012328612875251 ], [ 135.834517781770273, 35.022080558970686 ], [ 135.82737444877182, 35.022132775407329 ], [ 135.827739442221514, 35.030378613382368 ], [ 135.814757497360688, 35.045199721290146 ], [ 135.83485250314061, 35.055553892098487 ], [ 135.831891945756752, 35.07145555882704 ], [ 135.839850272272315, 35.08586000003902 ], [ 135.835046109190671, 35.091326946381514 ], [ 135.842938340032447, 35.102515000067228 ], [ 135.85017232199516, 35.123444907656392 ], [ 135.873028884075779, 35.119138615554732 ], [ 135.879628884465546, 35.12163861572958 ], [ 135.89882888404577, 35.119238615669644 ], [ 135.898328884370585, 35.128038615889466 ], [ 135.894928884060846, 35.128038615889466 ], [ 135.890828884745247, 35.136438615649638 ], [ 135.892628884115766, 35.142938615924436 ], [ 135.908467002050543, 35.148629542919139 ], [ 135.912454593304915, 35.141336829830891 ], [ 135.923780019332526, 35.137644471615147 ], [ 135.940254553305067, 35.137524440900279 ] ] ] } },
{ "type": "Feature", "properties": { "regioncode": "2520200", "regionname": "滋賀県彦根市", "name": "彦根市", "namekana": "ひこねし", "PrefCode": "25" }, "geometry": { "type": "Polygon", "coordinates": [ [ [ 136.241666667282971, 35.296278613167487 ], [ 136.257400272304835, 35.300461108193645 ], [ 136.26056555135915, 35.294530000159455 ], [ 136.268522776205259, 35.294144171216601 ], [ 136.269918612154243, 35.296772504647436 ], [ 136.286211946224398, 35.297058053786202 ], [ 136.288229999714758, 35.301574171211087 ], [ 136.296864720730355, 35.298788333215043 ], [ 136.301079999642297, 35.302071386585283 ], [ 136.302644448582555, 35.295811667174746 ], [ 136.313708611663174, 35.29302222469596 ], [ 136.318892217601842, 35.28089722492706 ], [ 136.323108611673206, 35.279852774785752 ], [ 136.328479728057118, 35.291611108365998 ], [ 136.326008884802263, 35.29844110767101 ], [ 136.328442775813528, 35.298009441182842 ], [ 136.331739999801243, 35.291485000032765 ], [ 136.346134448645898, 35.286424720824243 ], [ 136.351593605960261, 35.26958361329315 ], [ 136.337922775915445, 35.263826107688772 ], [ 136.319523890615073, 35.267300559273451 ], [ 136.304970830139723, 35.255844720757295 ], [ 136.299663891175669, 35.256496945977347 ], [ 136.294345550606749, 35.245386666561444 ], [ 136.287809441652485, 35.241154440824857 ], [ 136.274580558246271, 35.240289721093802 ], [ 136.269903061077457, 35.232635279094893 ], [ 136.27497944174786, 35.229533892375287 ], [ 136.272213060584363, 35.226045837645358 ], [ 136.256050829682067, 35.2298758379996 ], [ 136.254698054171968, 35.225010558790302 ], [ 136.250265551214284, 35.226021386877562 ], [ 136.253026394352673, 35.220330558808314 ], [ 136.250660271754214, 35.21709000020337 ], [ 136.241286109266639, 35.217730278829379 ], [ 136.237203061272339, 35.212263891865177 ], [ 136.22575888516451, 35.218550000082473 ], [ 136.221747782034527, 35.213277774949404 ], [ 136.223071388034214, 35.205926667082053 ], [ 136.21978250256052, 35.206438892141193 ], [ 136.213488340014919, 35.197079170967015 ], [ 136.216055006033798, 35.193618891798451 ], [ 136.205274721151568, 35.199128612595473 ], [ 136.200358053781201, 35.194866666963151 ], [ 136.193675278891078, 35.198590837796985 ], [ 136.19163000022445, 35.190163612860488 ], [ 136.177878611608662, 35.195059171343757 ], [ 136.1657188854183, 35.204969441286721 ], [ 136.141297781767321, 35.20664222525852 ], [ 136.133636394304176, 35.212567504786591 ], [ 136.112116667250461, 35.216438053773231 ], [ 136.085233191058933, 35.251843108172977 ], [ 136.083699754340273, 35.258851387281766 ], [ 136.122226666727329, 35.255890053782991 ], [ 136.152848469980995, 35.268715585855659 ], [ 136.145756108757496, 35.34994305362909 ], [ 136.148545939743371, 35.356008837837635 ], [ 136.209780363273239, 35.338653640053508 ], [ 136.213278197231034, 35.332323640423738 ], [ 136.215992581392584, 35.303684999663062 ], [ 136.233333333366659, 35.298682586432278 ], [ 136.241666667282971, 35.296278613167487 ] ] ] } },
{ "type": "Feature", "properties": { "regioncode": "2520300", "regionname": "滋賀県長浜市", "name": "長浜市", "namekana": "ながはまし", "PrefCode": "25" }, "geometry": { "type": "Polygon", "coordinates": [ [ [ 136.176024162784984, 35.702951748324551 ], [ 136.191252528681275, 35.70240477615954 ], [ 136.198298611691598, 35.689716171264365 ], [ 136.208348611998872, 35.687587802435189 ], [ 136.212608339902999, 35.681701108319544 ], [ 136.217203332367944, 35.684576107801206 ], [ 136.225946978370416, 35.680548865437856 ], [ 136.234231997109077, 35.682517413947551 ], [ 136.244649805743961, 35.673788225446287 ], [ 136.250662334799017, 35.676245134605324 ], [ 136.269812386032868, 35.668463945754525 ], [ 136.280576860833548, 35.661193918964216 ], [ 136.276225939875303, 35.653080333490664 ], [ 136.283103139198602, 35.643736441283806 ], [ 136.279164188676418, 35.636685640430017 ], [ 136.287344746662825, 35.62809953226764 ], [ 136.288559415984309, 35.620588170607618 ], [ 136.298398054027075, 35.617476467764845 ], [ 136.315764811696795, 35.623424504637228 ], [ 136.323711479401368, 35.616444224121722 ], [ 136.314981673965121, 35.60592953242201 ], [ 136.320309999706751, 35.601553414258717 ], [ 136.324449390227187, 35.584180080746194 ], [ 136.316586719201837, 35.549262359969987 ], [ 136.322276887168641, 35.544337414340248 ], [ 136.329564111694481, 35.550917667416456 ], [ 136.33732014380962, 35.550254531621363 ], [ 136.34092788481405, 35.537283413698617 ], [ 136.346083747566922, 35.535683946057304 ], [ 136.347665083976494, 35.522713106924414 ], [ 136.334728339940966, 35.483663054406463 ], [ 136.338396393978428, 35.476631667217703 ], [ 136.332710558045846, 35.4693983327669 ], [ 136.34408861239956, 35.463998054067019 ], [ 136.343184449302953, 35.459358332920772 ], [ 136.358708884607381, 35.434318612613936 ], [ 136.35714416317262, 35.424469721400555 ], [ 136.362946108775986, 35.415541387025428 ], [ 136.356495551428566, 35.400664720800251 ], [ 136.33308693871129, 35.403840000315824 ], [ 136.337511388240046, 35.379480558680882 ], [ 136.334104448761309, 35.367694999924367 ], [ 136.326459728433747, 35.35928750521424 ], [ 136.324536939228437, 35.346408612767334 ], [ 136.311101673103849, 35.342622225035711 ], [ 136.305778611993446, 35.352166945748024 ], [ 136.298053890674623, 35.350276945824419 ], [ 136.296398885400322, 35.35461500018215 ], [ 136.278076108825417, 35.350822774951155 ], [ 136.250427055963883, 35.352659640230286 ], [ 136.225741361874384, 35.347947919361047 ], [ 136.209780363273239, 35.338653640053508 ], [ 136.145082412223587, 35.357558197952528 ], [ 136.098340778404236, 35.392821531788286 ], [ 136.094714837819538, 35.410053505365056 ], [ 136.117939558963485, 35.438102693584483 ], [ 136.115828559640363, 35.454556946046296 ], [ 136.094285836921927, 35.46137972109733 ], [ 136.091580829991358, 35.465166667307926 ], [ 136.101049170383021, 35.485703332842604 ], [ 136.098582216696059, 35.500038612591936 ], [ 136.105038080942791, 35.514535612928228 ], [ 136.1058681452987, 35.538255918975551 ], [ 136.109379532939101, 35.543865360198254 ], [ 136.105435693702361, 35.555550107651413 ], [ 136.110486252138912, 35.559903170794769 ], [ 136.107963501814197, 35.568434279118719 ], [ 136.114619948152153, 35.582975386704788 ], [ 136.12120238658099, 35.576204278604621 ], [ 136.138904306288737, 35.575672306231979 ], [ 136.144889558906129, 35.570554250977978 ], [ 136.16231649830786, 35.571493108120478 ], [ 136.166880363438054, 35.565352252104788 ], [ 136.169924527195235, 35.566066134844277 ], [ 136.170672891740651, 35.575618918878035 ], [ 136.166384331571749, 35.582480586010263 ], [ 136.177417199144543, 35.594850251737796 ], [ 136.176807755573577, 35.598448027354607 ], [ 136.166889830601235, 35.618624973064129 ], [ 136.159865966241455, 35.625227747862311 ], [ 136.15989299626483, 35.634839945607041 ], [ 136.151230025745122, 35.648964387396632 ], [ 136.150162580838469, 35.659381026912911 ], [ 136.134474888905061, 35.66957713467707 ], [ 136.14890494280894, 35.688420413671224 ], [ 136.150552503495305, 35.697940973197433 ], [ 136.156753891079234, 35.700368720939764 ], [ 136.164833306811715, 35.696311225382772 ], [ 136.16775333265025, 35.703343171050562 ], [ 136.175776394165268, 35.703177306387659 ], [ 136.176024162784984, 35.702951748324551 ] ] ] } },
{ "type": "Feature", "properties": { "regioncode": "2520400", "regionname": "滋賀県近江八幡市", "name": "近江八幡市", "namekana": "おうみはちまんし", "PrefCode": "25" }, "geometry": { "type": "Polygon", "coordinates": [ [ [ 136.098071945863694, 35.19687499968154 ], [ 136.104097782186955, 35.196131945632828 ], [ 136.105895006249625, 35.188960278594038 ], [ 136.11130416305673, 35.189850837646077 ], [ 136.112433891411001, 35.185169441016967 ], [ 136.123393606329955, 35.18702777491194 ], [ 136.124619727618438, 35.182426945846942 ], [ 136.129745278721657, 35.18325389225339 ], [ 136.131754721203492, 35.175168053562857 ], [ 136.135700000254928, 35.173663054306587 ], [ 136.130463333416174, 35.171879170787179 ], [ 136.140011387915251, 35.16078333268473 ], [ 136.139378884827693, 35.155996666812769 ], [ 136.168277223714995, 35.144250000137447 ], [ 136.173270272305331, 35.137750838030797 ], [ 136.172098053682248, 35.134166946147673 ], [ 136.182833332892073, 35.127089440825102 ], [ 136.169912775754028, 35.118190559246955 ], [ 136.169845551431081, 35.110891945706783 ], [ 136.164347781724814, 35.109575278876093 ], [ 136.163691114753192, 35.10510444141687 ], [ 136.146835836604623, 35.111991946071498 ], [ 136.139624449209009, 35.109730559417812 ], [ 136.139973333102944, 35.10469472108457 ], [ 136.125563605675893, 35.102644999766994 ], [ 136.125508339638259, 35.09574722485462 ], [ 136.139408885311923, 35.086882774720323 ], [ 136.14594972829741, 35.076947505423107 ], [ 136.140222217781229, 35.074336386814878 ], [ 136.133886394141882, 35.077112774734815 ], [ 136.134432776351559, 35.084199440551799 ], [ 136.122646108731033, 35.091603612916458 ], [ 136.114992503101575, 35.087390279238036 ], [ 136.108517496785112, 35.092318054134921 ], [ 136.103375279445686, 35.088812225204094 ], [ 136.09828027201695, 35.097160837702575 ], [ 136.08718916974442, 35.097174440847823 ], [ 136.077954721433343, 35.092018891958332 ], [ 136.070184162569149, 35.097926387392931 ], [ 136.066545006446972, 35.106311945839707 ], [ 136.040684448828301, 35.110155278643219 ], [ 136.032863606170508, 35.115016667385362 ], [ 136.032241672814962, 35.12526055882779 ], [ 136.028349442073136, 35.127375559234736 ], [ 136.030566939112987, 35.129974721356348 ], [ 136.025673890637563, 35.131291945766748 ], [ 136.024959169729982, 35.135899721195244 ], [ 136.007978974849834, 35.140902504946723 ], [ 136.00106863820713, 35.186177667365484 ], [ 135.995847249950657, 35.190206864854986 ], [ 136.010823410871808, 35.224862441348648 ], [ 136.026869363930018, 35.239293801967449 ], [ 136.071179973776793, 35.259499278668841 ], [ 136.083699754340273, 35.258851387281766 ], [ 136.090539974440276, 35.221662441268677 ], [ 136.099535084376726, 35.209720279067653 ], [ 136.101873333387744, 35.198853892193426 ], [ 136.098161673022901, 35.196945279001454 ], [ 136.098071945863694, 35.19687499968154 ] ] ] } },
{ "type": "Feature", "properties": { "regioncode": "2520600", "regionname": "滋賀県草津市", "name": "草津市", "namekana": "くさつし", "PrefCode": "25" }, "geometry": { "type": "Polygon", "coordinates": [ [ [ 135.950883606393404, 35.061374441077646 ], [ 135.957549727637911, 35.061249721297656 ], [ 135.964379441857773, 35.054663333046449 ], [ 135.958637782307846, 35.045965279074437 ], [ 135.96500972811657, 35.042607775328634 ], [ 135.961036667208532, 35.037524171303517 ], [ 135.972492217941522, 35.031372775233422 ], [ 135.96879294393932, 35.025088586169375 ], [ 135.972561115003487, 35.018350838420531 ], [ 135.970468612036825, 35.015585558926432 ], [ 135.990144449207037, 35.007978612822797 ], [ 135.999250829562243, 34.997164440586516 ], [ 135.995936394349201, 34.988960278993716 ], [ 135.990584721307869, 34.991463053577093 ], [ 135.991405837409502, 34.983143332698717 ], [ 135.987691945826668, 34.978143891727257 ], [ 135.977932412151176, 34.980061332664434 ], [ 135.976006083214202, 34.981796532284193 ], [ 135.979482996243291, 34.983342667430236 ], [ 135.973395005974794, 34.986020279212539 ], [ 135.966987781560988, 34.983097495153345 ], [ 135.965765005750427, 34.977521107613086 ], [ 135.96902250308608, 34.976638054302839 ], [ 135.950526667271902, 34.972052775415307 ], [ 135.939789727913649, 34.992416108316775 ], [ 135.930270271855647, 34.996389162030255 ], [ 135.915943060823679, 34.996373333062934 ], [ 135.902906589167856, 34.992353027170509 ], [ 135.900617328027352, 34.997392080580084 ], [ 135.898190052429072, 35.012473721185358 ], [ 135.887955356554471, 35.03532513464728 ], [ 135.914685576578108, 35.079441107820912 ], [ 135.923241114985558, 35.088122505449292 ], [ 135.940880557891546, 35.080840891793798 ], [ 135.950129999699811, 35.061540278760901 ], [ 135.950883606393404, 35.061374441077646 ] ] ] } },
{ "type": "Feature", "properties": { "regioncode": "2520700", "regionname": "滋賀県守山市", "name": "守山市", "namekana": "もりやまし", "PrefCode": "25" }, "geometry": { "type": "Polygon", "coordinates": [ [ [ 135.98333333296705, 35.12212297259714 ], [ 135.993594746800227, 35.117660107627898 ], [ 135.991381051194594, 35.110675027430602 ], [ 135.99929330724035, 35.109776666759842 ], [ 136.003763191418216, 35.101927278721007 ], [ 136.001602502753371, 35.090397774937401 ], [ 136.009692140180164, 35.086252386838225 ], [ 136.007167224288082, 35.070212774899687 ], [ 135.99675416317416, 35.063143892276855 ], [ 136.007718339629719, 35.059290279322965 ], [ 136.015963333141372, 35.050670558999172 ], [ 136.003713606397923, 35.047806667044085 ], [ 135.994921388011676, 35.036892504585467 ], [ 135.986034163445993, 35.038033333271756 ], [ 135.962835837403986, 35.050685000312569 ], [ 135.964379441857773, 35.054663333046449 ], [ 135.960753060605271, 35.058925559267209 ], [ 135.948302502658407, 35.06316694639753 ], [ 135.944773943362861, 35.077549026866166 ], [ 135.923241114985558, 35.088122505449292 ], [ 135.935580803611288, 35.115521440662008 ], [ 135.940254553305067, 35.137524440900279 ], [ 135.95931133584952, 35.147213251890093 ], [ 135.967593671011173, 35.130869197855247 ], [ 135.982116108671562, 35.122139720671612 ], [ 135.98333333296705, 35.12212297259714 ] ] ] } },
{ "type": "Feature", "properties": { "regioncode": "2520800", "regionname": "滋賀県栗東市", "name": "栗東市", "namekana": "りっとうし", "PrefCode": "25" }, "geometry": { "type": "Polygon", "coordinates": [ [ [ 135.966787497145333, 35.048654171053215 ], [ 135.986034163445993, 35.038033333271756 ], [ 135.994921388011676, 35.036892504585467 ], [ 136.003713606397923, 35.047806667044085 ], [ 136.015963333141372, 35.050670558999172 ], [ 136.027933332956991, 35.033266946212677 ], [ 136.038886393792154, 35.026170000245372 ], [ 136.036240557755605, 35.011849440599235 ], [ 136.039584449362906, 35.007401945943116 ], [ 136.038525005724523, 34.997935828675622 ], [ 136.046405279180362, 34.994909720607154 ], [ 136.042443332993457, 34.985619999963092 ], [ 136.06112693915702, 34.966309721016842 ], [ 136.048829728209398, 34.958365828620174 ], [ 136.04617805377427, 34.946399441381175 ], [ 136.040146666835312, 34.947354999833408 ], [ 136.042741388104673, 34.961254162349746 ], [ 136.039684162594085, 34.957960279343467 ], [ 136.040338611837569, 34.945055829063335 ], [ 136.030152502735859, 34.939725828784049 ], [ 136.016203890996849, 34.943136666823762 ], [ 136.010216667065606, 34.954468891726037 ], [ 136.002254720778751, 34.958107224968501 ], [ 136.001150272367227, 34.96101305410923 ], [ 136.013991946371334, 34.962609440673191 ], [ 136.010499441795901, 34.975058054285853 ], [ 136.005541387625044, 34.97983749500446 ], [ 135.998835278925071, 34.976889162105181 ], [ 135.993085550657725, 34.978390278988229 ], [ 135.993876393780624, 34.980989720799016 ], [ 135.98941277607878, 34.979996666912712 ], [ 135.990584721307869, 34.991463053577093 ], [ 135.995936394349201, 34.988960278993716 ], [ 135.999250829562243, 34.997164440586516 ], [ 135.990144449207037, 35.007978612822797 ], [ 135.970468612036825, 35.015585558926432 ], [ 135.972561115003487, 35.018350838420531 ], [ 135.96879294393932, 35.025088586169375 ], [ 135.972492217941522, 35.031372775233422 ], [ 135.961036667208532, 35.037524171303517 ], [ 135.96500972811657, 35.042607775328634 ], [ 135.958470830364604, 35.04725194632033 ], [ 135.962835837403986, 35.050685000312569 ], [ 135.966666666933179, 35.048711531611957 ], [ 135.966787497145333, 35.048654171053215 ] ] ] } },
{ "type": "Feature", "properties": { "regioncode": "2520900", "regionname": "滋賀県甲賀市", "name": "甲賀市", "namekana": "こうかし", "PrefCode": "25" }, "geometry": { "type": "Polygon", "coordinates": [ [ [ 136.168262502712423, 35.023483054399492 ], [ 136.173173060988006, 35.016616946415013 ], [ 136.176594162990341, 35.021359171388724 ], [ 136.182890000073485, 35.013817775070322 ], [ 136.181729728044616, 35.002476108185874 ], [ 136.201161387588058, 34.992337225182837 ], [ 136.200103333402126, 34.988891387327726 ], [ 136.215421115292315, 34.985611108366015 ], [ 136.220544721162014, 34.977601945873175 ], [ 136.220023891389587, 34.968730278679459 ], [ 136.228212502804809, 34.97042582898888 ], [ 136.231834448601035, 34.963169161627548 ], [ 136.247975836815499, 34.956463891995099 ], [ 136.277703061047532, 34.964891667316635 ], [ 136.284059442289504, 34.973424441185045 ], [ 136.290670558299666, 34.973707224908537 ], [ 136.301247224080157, 34.983627224616782 ], [ 136.315810272426233, 34.982627225266299 ], [ 136.323316108651511, 34.977640828961114 ], [ 136.336299169571134, 34.983649721157747 ], [ 136.340986393807043, 34.989403332697691 ], [ 136.345399441730933, 35.008418892118243 ], [ 136.3417536063439, 35.015626107558887 ], [ 136.354900557914448, 35.023412775079578 ], [ 136.363376667299462, 35.021792224631497 ], [ 136.364522775905471, 35.016403054357511 ], [ 136.37449333280108, 35.01508305374 ], [ 136.387910830120745, 35.022452505079116 ], [ 136.403767496572755, 35.013826386978224 ], [ 136.418166666858269, 35.018122774846233 ], [ 136.416962218331719, 35.011238053593331 ], [ 136.421364449210046, 35.000056386892766 ], [ 136.41348583680201, 34.99542666710704 ], [ 136.416368885215888, 34.992265559108318 ], [ 136.415800830244166, 34.980529161791424 ], [ 136.403146109105705, 34.969152495091635 ], [ 136.395241115085469, 34.951781387401184 ], [ 136.385670830244635, 34.952648612643429 ], [ 136.372634721015629, 34.942171946078474 ], [ 136.375389441569496, 34.939010829086556 ], [ 136.371691387947294, 34.927595828784547 ], [ 136.375239727831286, 34.924509440957991 ], [ 136.367812218059498, 34.921900828760272 ], [ 136.366034163046265, 34.904898891870403 ], [ 136.346214162753427, 34.894733333176816 ], [ 136.313226109197672, 34.886972225287991 ], [ 136.312917782030127, 34.880627494763132 ], [ 136.292931673358112, 34.870309440728136 ], [ 136.277115279446662, 34.874213612668143 ], [ 136.268046938615385, 34.864546387206076 ], [ 136.251248885227938, 34.857761945757261 ], [ 136.227543060963512, 34.861018053640294 ], [ 136.190473606072146, 34.87308472068338 ], [ 136.188456939336334, 34.877775278706224 ], [ 136.178742503064086, 34.879815558940948 ], [ 136.1785461091157, 34.887117494576785 ], [ 136.165827224047234, 34.887917775185201 ], [ 136.147933333256788, 34.881865559048379 ], [ 136.136819169669025, 34.888388613443794 ], [ 136.131215836641559, 34.883105000195656 ], [ 136.115027496621792, 34.893145000041784 ], [ 136.115262217877103, 34.89862666738685 ], [ 136.110847782299402, 34.90185582888347 ], [ 136.101663061101476, 34.896086667166003 ], [ 136.098040271741183, 34.889255558996922 ], [ 136.087475005766919, 34.890621945746261 ], [ 136.085346109035754, 34.886861945922135 ], [ 136.089600271935069, 34.8825000001749 ], [ 136.08562083033712, 34.877246387410878 ], [ 136.10316666730796, 34.869693891659836 ], [ 136.123988339690186, 34.872486945815922 ], [ 136.125851946310377, 34.869951667035878 ], [ 136.122726108822917, 34.866488612559465 ], [ 136.126410558400607, 34.861851946410241 ], [ 136.107074449126571, 34.852563892209901 ], [ 136.104472502703857, 34.840581387321208 ], [ 136.086052503120641, 34.837597774917413 ], [ 136.095186938726329, 34.819104162227347 ], [ 136.090615550767097, 34.812226667027119 ], [ 136.062548885122965, 34.79976000042376 ], [ 136.057411114931028, 34.803740828776256 ], [ 136.051554449178525, 34.799091108068239 ], [ 136.046713332954027, 34.801447494606236 ], [ 136.038778611843554, 34.79403833280287 ], [ 136.028109727781725, 34.790589162060257 ], [ 136.019632775732134, 34.79219722542166 ], [ 136.015861672877918, 34.797813053629568 ], [ 136.01124722358054, 34.795861108403471 ], [ 136.015051388211077, 34.80914582891694 ], [ 136.02903389090136, 34.817390000448199 ], [ 136.017610272396269, 34.828406666734338 ], [ 136.012166108579095, 34.825173612971923 ], [ 136.005499999925064, 34.826407775098801 ], [ 136.002316393586739, 34.832919161690029 ], [ 136.004431672783539, 34.844022494742376 ], [ 135.969866667013093, 34.837778613292414 ], [ 135.972054448653921, 34.846048892142733 ], [ 135.962732775996869, 34.85043361322073 ], [ 135.96139917043547, 34.854659720869449 ], [ 135.94618693927589, 34.851782494666452 ], [ 135.940926938627399, 34.863890559301922 ], [ 135.942818612189285, 34.877795278729195 ], [ 135.964035550999938, 34.879810558710346 ], [ 135.971450558396668, 34.893919161640042 ], [ 135.974828611651219, 34.888473333177842 ], [ 135.987236939233412, 34.889643891652327 ], [ 135.986929999719791, 34.897585279437124 ], [ 135.991687223586609, 34.900922224680983 ], [ 135.993093333390675, 34.909509721396603 ], [ 135.99923389083142, 34.909103892430721 ], [ 136.009756939031604, 34.919954161655312 ], [ 136.019761115283359, 34.916727774567221 ], [ 136.023548340283696, 34.921603054237607 ], [ 136.040438340357241, 34.92218305400479 ], [ 136.042284448868259, 34.9308705589292 ], [ 136.033108884567469, 34.938226387337977 ], [ 136.04617805377427, 34.946399441381175 ], [ 136.045094721444343, 34.950210000191419 ], [ 136.051303605776866, 34.960443053903873 ], [ 136.070133332887053, 34.965655000178174 ], [ 136.086444449251985, 34.953697224847076 ], [ 136.093313060949072, 34.957346946204666 ], [ 136.109949728297352, 34.946584720608428 ], [ 136.123258885189443, 34.954931666663128 ], [ 136.125629999924627, 34.960963333291261 ], [ 136.131961945687294, 34.963480828877209 ], [ 136.124051946040595, 34.983841945849179 ], [ 136.127206108575137, 34.9913786126329 ], [ 136.122487223706457, 34.995944720672355 ], [ 136.139123060980523, 35.002954441394422 ], [ 136.136998053817138, 35.013684170887814 ], [ 136.142179999607379, 35.025044999627085 ], [ 136.153404721350853, 35.019254999718498 ], [ 136.163799441690912, 35.030667775097811 ], [ 136.16746693904804, 35.024072224553549 ], [ 136.168262502712423, 35.023483054399492 ] ] ] } },
{ "type": "Feature", "properties": { "regioncode": "2521000", "regionname": "滋賀県野洲市", "name": "野洲市", "namekana": "やすし", "PrefCode": "25" }, "geometry": { "type": "Polygon", "coordinates": [ [ [ 136.015610830375635, 35.137337774918421 ], [ 136.023323605999735, 35.136982774735316 ], [ 136.025673890637563, 35.131291945766748 ], [ 136.030566939112987, 35.129974721356348 ], [ 136.028378339988421, 35.127196107614338 ], [ 136.032167496732654, 35.125446946019792 ], [ 136.033732503252509, 35.113976945879415 ], [ 136.057262776256152, 35.105643054383506 ], [ 136.066545006446972, 35.106311945839707 ], [ 136.070184162569149, 35.097926387392931 ], [ 136.077954721433343, 35.092018891958332 ], [ 136.075815279251856, 35.083380838055291 ], [ 136.079636109219109, 35.078934721160522 ], [ 136.079368884666337, 35.059433332682204 ], [ 136.073340829715562, 35.056132505111066 ], [ 136.073168612241716, 35.052300278934752 ], [ 136.05522749715135, 35.055954441144593 ], [ 136.056038611892518, 35.045250559066119 ], [ 136.051206939448775, 35.031685278852592 ], [ 136.041235836664555, 35.025341945874175 ], [ 136.029570830229659, 35.031543332558783 ], [ 136.007858053806217, 35.059188891554129 ], [ 135.99675416317416, 35.063143892276855 ], [ 136.007167224288082, 35.070212774899687 ], [ 136.010199442350427, 35.077428053661777 ], [ 136.009692140180164, 35.086252386838225 ], [ 136.001602502753371, 35.090397774937401 ], [ 136.003386939355778, 35.103150999718935 ], [ 135.99899603094218, 35.109977053698117 ], [ 135.991381051194594, 35.110675027430602 ], [ 135.993594746800227, 35.117660107627898 ], [ 135.967593671011173, 35.130869197855247 ], [ 135.95931133584952, 35.147213251890093 ], [ 135.972563891210712, 35.18097977479681 ], [ 135.995847249950657, 35.190206864854986 ], [ 136.00106863820713, 35.186177667365484 ], [ 136.003638638012831, 35.154608054218386 ], [ 136.007978974849834, 35.140902504946723 ], [ 136.015178885097498, 35.137448891553163 ], [ 136.015610830375635, 35.137337774918421 ] ] ] } },
{ "type": "Feature", "properties": { "regioncode": "2521100", "regionname": "滋賀県湖南市", "name": "湖南市", "namekana": "こなんし", "PrefCode": "25" }, "geometry": { "type": "Polygon", "coordinates": [ [ [ 136.059716667290445, 35.055988892373534 ], [ 136.078686938651344, 35.050023891589376 ], [ 136.085767223778362, 35.030524171353477 ], [ 136.101104449011132, 35.021566386879329 ], [ 136.11272389129465, 35.027626946026771 ], [ 136.121966393934031, 35.021571945588846 ], [ 136.123602217568305, 35.02519417107419 ], [ 136.118400557739619, 35.036297505025914 ], [ 136.123662217637275, 35.037206108075452 ], [ 136.142179999607379, 35.025044999627085 ], [ 136.136998053817138, 35.013684170887814 ], [ 136.139123060980523, 35.002954441394422 ], [ 136.122421387936811, 34.995793053606576 ], [ 136.127206108575137, 34.9913786126329 ], [ 136.124051946040595, 34.983841945849179 ], [ 136.131951672731589, 34.963410829246413 ], [ 136.113481946034995, 34.947629441445599 ], [ 136.104762218401675, 34.94863722532773 ], [ 136.093313060949072, 34.957346946204666 ], [ 136.086444449251985, 34.953697224847076 ], [ 136.070133332887053, 34.965655000178174 ], [ 136.061239170051749, 34.964170278835354 ], [ 136.042695837443034, 34.985022494892291 ], [ 136.046326109162692, 34.995581387371203 ], [ 136.038525005724523, 34.997935828675622 ], [ 136.039584449362906, 35.007401945943116 ], [ 136.036240557755605, 35.011849440599235 ], [ 136.039650000047573, 35.0184286126904 ], [ 136.036822217671329, 35.023725559287186 ], [ 136.051206939448775, 35.031685278852592 ], [ 136.056038611892518, 35.045250559066119 ], [ 136.055058611665686, 35.055603054437483 ], [ 136.058905836734993, 35.05608527901245 ], [ 136.059716667290445, 35.055988892373534 ] ] ] } },
{ "type": "Feature", "properties": { "regioncode": "2521200", "regionname": "滋賀県高島市", "name": "高島市", "namekana": "たかしまし", "PrefCode": "25" }, "geometry": { "type": "Polygon", "coordinates": [ [ [ 136.087425965735747, 35.538973693081516 ], [ 136.105653942975096, 35.528614531935148 ], [ 136.105038080942791, 35.514535612928228 ], [ 136.098582216696059, 35.500038612591936 ], [ 136.100102776022368, 35.48083917059131 ], [ 136.091609727906643, 35.464971107930353 ], [ 136.115828559640363, 35.454556946046296 ], [ 136.117939558963485, 35.438102693584483 ], [ 136.094714837819538, 35.410053505365056 ], [ 136.098340778404236, 35.392821531788286 ], [ 136.148545939743371, 35.356008837837635 ], [ 136.145756108757496, 35.34994305362909 ], [ 136.152848469980995, 35.268715585855659 ], [ 136.122226666727329, 35.255890053782991 ], [ 136.071179973776793, 35.259499278668841 ], [ 136.016299416085303, 35.231278945866734 ], [ 135.993728885179962, 35.264387774776026 ], [ 135.983692218221336, 35.272307774883927 ], [ 135.956532217587892, 35.277647225239321 ], [ 135.948665005885346, 35.274182775015106 ], [ 135.945269170336019, 35.267308054223349 ], [ 135.940484721292933, 35.267063333406156 ], [ 135.937170000095534, 35.260616667425325 ], [ 135.927893333110887, 35.258274721301404 ], [ 135.919032776141762, 35.260641945569375 ], [ 135.917137497197814, 35.265980278966765 ], [ 135.909894163185186, 35.264371107640557 ], [ 135.904602217718207, 35.276232505325936 ], [ 135.882898054101929, 35.284656386583038 ], [ 135.865768884726322, 35.28017333273317 ], [ 135.860230558293665, 35.2832933327212 ], [ 135.858430558023883, 35.289228892399535 ], [ 135.851822503305925, 35.286122505449327 ], [ 135.849203060572904, 35.279693891559873 ], [ 135.834023891189645, 35.274287775360619 ], [ 135.825221945736303, 35.281860837707541 ], [ 135.820053333294709, 35.290939721291181 ], [ 135.821366938833194, 35.297057224611251 ], [ 135.815061945752291, 35.30096777544253 ], [ 135.809047224150163, 35.31668055936035 ], [ 135.79113639372963, 35.323527504590743 ], [ 135.780818521357787, 35.340561972656985 ], [ 135.76407275005738, 35.344557531904627 ], [ 135.769943942558939, 35.359811134576262 ], [ 135.777749000316135, 35.365939197735827 ], [ 135.778958753943357, 35.373366134639468 ], [ 135.79088605574691, 35.379025027782859 ], [ 135.790893580374473, 35.386638919350673 ], [ 135.807529196415317, 35.385361721066602 ], [ 135.81365775600068, 35.413300864643247 ], [ 135.853202554354425, 35.411536973052932 ], [ 135.854338949383077, 35.400778360033314 ], [ 135.864691088622862, 35.394400027239499 ], [ 135.89057007784686, 35.403175000226156 ], [ 135.892981504692784, 35.419847504658662 ], [ 135.902711192567494, 35.429433053692549 ], [ 135.91416224399245, 35.432106107710752 ], [ 135.913172282874598, 35.44509694596735 ], [ 135.90978230910639, 35.447045559205264 ], [ 135.914586472188034, 35.451861387393137 ], [ 135.915943450230088, 35.470904693596765 ], [ 135.921662309268186, 35.47595080218781 ], [ 135.924409274068807, 35.48956553162401 ], [ 135.930025667950304, 35.492337198103257 ], [ 135.939647081947328, 35.520542747849561 ], [ 135.947022360893357, 35.520475531620548 ], [ 135.952370077816909, 35.506221359927849 ], [ 135.972600584449424, 35.500189694199094 ], [ 135.98145050603614, 35.486547504863495 ], [ 135.989506887432981, 35.492681945115748 ], [ 136.004171581653281, 35.490954171198098 ], [ 136.008890467421224, 35.493849999877625 ], [ 136.015138832890898, 35.51164833320405 ], [ 136.020306615258164, 35.5120255592322 ], [ 136.028842166233062, 35.523428081440841 ], [ 136.026532476992315, 35.529496694017269 ], [ 136.046376860603687, 35.530175585934614 ], [ 136.048617445039099, 35.534512559307245 ], [ 136.069436523776631, 35.526266722231526 ], [ 136.077046809063063, 35.530541440934826 ], [ 136.081569585068337, 35.540028972858863 ], [ 136.08686791212449, 35.539097027006221 ], [ 136.087425965735747, 35.538973693081516 ] ] ] } },
{ "type": "Feature", "properties": { "regioncode": "2521300", "regionname": "滋賀県東近江市", "name": "東近江市", "namekana": "ひがしおうみし", "PrefCode": "25" }, "geometry": { "type": "Polygon", "coordinates": [ [ [ 136.121975836815523, 35.212695278664228 ], [ 136.133636394304176, 35.212567504786591 ], [ 136.141297781767321, 35.20664222525852 ], [ 136.1657188854183, 35.204969441286721 ], [ 136.177878611608662, 35.195059171343757 ], [ 136.191973061008071, 35.189983612653634 ], [ 136.195986109371461, 35.184584441019183 ], [ 136.196842218093934, 35.169663332996492 ], [ 136.20451841829049, 35.161542865011256 ], [ 136.204261672638154, 35.148049170832621 ], [ 136.210035837284181, 35.149263612625646 ], [ 136.21434583729058, 35.144767774912907 ], [ 136.216465006055273, 35.148053332895074 ], [ 136.226984448873282, 35.143511108151188 ], [ 136.232209441612554, 35.151749170587777 ], [ 136.228793061050965, 35.158261107564101 ], [ 136.233247224180104, 35.159656108043009 ], [ 136.246834721245477, 35.151002774658366 ], [ 136.248014720802757, 35.156091387007962 ], [ 136.25346250259247, 35.153202775387854 ], [ 136.258761945707306, 35.159202775088033 ], [ 136.281701388408464, 35.152452505179042 ], [ 136.303555279252805, 35.15771722457032 ], [ 136.321468054007596, 35.146224441005188 ], [ 136.31893027241415, 35.138618054279846 ], [ 136.325167497082361, 35.136925558967448 ], [ 136.333636938893733, 35.143441387310247 ], [ 136.340713332654218, 35.136056946071278 ], [ 136.354723606409379, 35.131103892130966 ], [ 136.359240558405077, 35.136491386967975 ], [ 136.364834162566581, 35.135076945844446 ], [ 136.379385278707673, 35.140344999921865 ], [ 136.391181945890139, 35.150932224642531 ], [ 136.390584448913273, 35.155047775034859 ], [ 136.380390000398279, 35.162181666950403 ], [ 136.374483890818965, 35.177224170858835 ], [ 136.376460558408098, 35.186021107987813 ], [ 136.38757194578875, 35.190771945768745 ], [ 136.388781673335643, 35.196646945999817 ], [ 136.403582503329972, 35.187488333020212 ], [ 136.429912775953881, 35.181157225425693 ], [ 136.438732217717757, 35.172025558832502 ], [ 136.444646109130645, 35.171141946143962 ], [ 136.445334720920641, 35.166182775015102 ], [ 136.45255389104932, 35.16583861256197 ], [ 136.455038340147325, 35.152480558630941 ], [ 136.444299169571082, 35.149244440878306 ], [ 136.442947781714793, 35.139057224711223 ], [ 136.435584720958218, 35.130778054263828 ], [ 136.448054721348399, 35.123718892413024 ], [ 136.439965836654096, 35.116632224797399 ], [ 136.441910830120833, 35.10143972116623 ], [ 136.438071946263335, 35.091671946103475 ], [ 136.442108885117023, 35.08597389198161 ], [ 136.435266666723351, 35.082487224905549 ], [ 136.441556393812562, 35.066304171100683 ], [ 136.417768885026135, 35.049468053907617 ], [ 136.417938612277226, 35.030659171283787 ], [ 136.424468884631438, 35.029493613039847 ], [ 136.421418611779586, 35.021436945658593 ], [ 136.407855278598277, 35.013874721041589 ], [ 136.387910830120745, 35.022452505079116 ], [ 136.374678885422327, 35.015092225026194 ], [ 136.364522775905471, 35.016403054357511 ], [ 136.363376667299462, 35.021792224631497 ], [ 136.355194163180158, 35.023412775079578 ], [ 136.34248444939783, 35.016573892271367 ], [ 136.332117497424633, 35.032536387344464 ], [ 136.31773306073228, 35.038429721154785 ], [ 136.310380558016391, 35.047062505030624 ], [ 136.306269442181019, 35.045748612608463 ], [ 136.295904721425813, 35.057272224933286 ], [ 136.275578339868503, 35.057932505380847 ], [ 136.27294472112203, 35.06306444077137 ], [ 136.264567496692734, 35.05805000000754 ], [ 136.250536108654501, 35.068068333386918 ], [ 136.238284449268008, 35.069384171042714 ], [ 136.21455472102366, 35.05978889224366 ], [ 136.2168780538791, 35.056522225420395 ], [ 136.214211387745422, 35.041077505122814 ], [ 136.220459999629384, 35.037536667383335 ], [ 136.205340000240881, 35.031559441215279 ], [ 136.196742775558732, 35.022533891925605 ], [ 136.184257781671363, 35.025067774957904 ], [ 136.180675279240859, 35.016432775152509 ], [ 136.176594162990341, 35.021359171388724 ], [ 136.173173060988006, 35.016616946415013 ], [ 136.165229170389921, 35.030083053889882 ], [ 136.157403332897616, 35.02815750466516 ], [ 136.154673332908033, 35.030768332792377 ], [ 136.149111387580547, 35.049709171141387 ], [ 136.153065551034388, 35.053879170986988 ], [ 136.144036938653812, 35.060444441357959 ], [ 136.151363890731091, 35.066126386823328 ], [ 136.147563605775872, 35.070054999638558 ], [ 136.149781387900816, 35.072596107824154 ], [ 136.140652502910712, 35.081041107860869 ], [ 136.139408885311923, 35.086882774720323 ], [ 136.125508339638259, 35.09574722485462 ], [ 136.125502503038092, 35.102476107986035 ], [ 136.139973333102944, 35.10469472108457 ], [ 136.139624449209009, 35.109730559417812 ], [ 136.146835836604623, 35.111991946071498 ], [ 136.163691114753192, 35.10510444141687 ], [ 136.164347781724814, 35.109575278876093 ], [ 136.169845551431081, 35.110891945706783 ], [ 136.169912775754028, 35.118190559246955 ], [ 136.182833332892073, 35.127089440825102 ], [ 136.172098053682248, 35.134166946147673 ], [ 136.173270272305331, 35.137750838030797 ], [ 136.168277223714995, 35.144250000137447 ], [ 136.139378884827693, 35.155996666812769 ], [ 136.140011387915251, 35.16078333268473 ], [ 136.130463333416174, 35.171879170787179 ], [ 136.135700000254928, 35.173663054306587 ], [ 136.131754721203492, 35.175168053562857 ], [ 136.129745278721657, 35.18325389225339 ], [ 136.124619727618438, 35.182426945846942 ], [ 136.123393606329955, 35.18702777491194 ], [ 136.112433891411001, 35.185169441016967 ], [ 136.11130416305673, 35.189850837646077 ], [ 136.105895006249625, 35.188960278594038 ], [ 136.104097782186955, 35.196131945632828 ], [ 136.098157496571275, 35.196425558992416 ], [ 136.101873333387744, 35.198853892193426 ], [ 136.099535084376726, 35.209720279067653 ], [ 136.090539974440276, 35.221662441268677 ], [ 136.085233191058933, 35.251843108172977 ], [ 136.112116667250461, 35.216438053773231 ], [ 136.121349170328017, 35.212804720761312 ], [ 136.121975836815523, 35.212695278664228 ] ] ] } },
{ "type": "Feature", "properties": { "regioncode": "2521400", "regionname": "滋賀県米原市", "name": "米原市", "namekana": "まいばらし", "PrefCode": "25" }, "geometry": { "type": "Polygon", "coordinates": [ [ [ 136.369613060994084, 35.558949170867606 ], [ 136.374005577395565, 35.558639134988141 ], [ 136.384252775645109, 35.533091333698167 ], [ 136.400404500667264, 35.53008183790655 ], [ 136.399056978097178, 35.521342666930593 ], [ 136.405677807684697, 35.513455413836311 ], [ 136.400071114790194, 35.513639334187985 ], [ 136.394094941728213, 35.506323252216362 ], [ 136.386880117123724, 35.488406387344924 ], [ 136.398005356761814, 35.480928613564743 ], [ 136.401619467664318, 35.470016999784775 ], [ 136.420363916561541, 35.466234775014925 ], [ 136.421466057312728, 35.455638720750414 ], [ 136.426222698418883, 35.448945973278114 ], [ 136.423119027421194, 35.439734359653016 ], [ 136.415729001392378, 35.43342241391332 ], [ 136.418886744128031, 35.427775505135514 ], [ 136.411839493797629, 35.422406080376334 ], [ 136.411808078679996, 35.418598054056986 ], [ 136.420306109039757, 35.412908054263369 ], [ 136.427965226613992, 35.400784505100887 ], [ 136.444351829373545, 35.389425108082321 ], [ 136.436483995340154, 35.378822918642811 ], [ 136.411973994604182, 35.370064865501206 ], [ 136.413528417902285, 35.359972919015036 ], [ 136.409727030378235, 35.356967667124195 ], [ 136.410559494125437, 35.352543505378549 ], [ 136.421423112886373, 35.35391683669269 ], [ 136.422325058254842, 35.348389613290067 ], [ 136.411427249967687, 35.329014081334833 ], [ 136.412264162661018, 35.315562693963216 ], [ 136.406702503317888, 35.305016891116679 ], [ 136.391149689006966, 35.29019689207297 ], [ 136.391433307301327, 35.286912171359688 ], [ 136.380833865290697, 35.284069667081496 ], [ 136.37707999974225, 35.287668838446166 ], [ 136.351525279068483, 35.274130278889288 ], [ 136.346134448645898, 35.286424720824243 ], [ 136.331739999801243, 35.291485000032765 ], [ 136.328442775813528, 35.298009441182842 ], [ 136.326008884802263, 35.29844110767101 ], [ 136.328479728057118, 35.291611108365998 ], [ 136.322937224273574, 35.279857224631257 ], [ 136.318892217601842, 35.28089722492706 ], [ 136.313708611663174, 35.29302222469596 ], [ 136.302644448582555, 35.295811667174746 ], [ 136.301079999642297, 35.302071386585283 ], [ 136.29754639425073, 35.298879721422054 ], [ 136.288229999714758, 35.301574171211087 ], [ 136.286120000437791, 35.297028332991204 ], [ 136.26232000006803, 35.293979440598775 ], [ 136.257400272304835, 35.300461108193645 ], [ 136.244080168864798, 35.295582359838079 ], [ 136.215992581392584, 35.303684999663062 ], [ 136.213278197231034, 35.332323640423738 ], [ 136.209780363273239, 35.338653640053508 ], [ 136.225741361874384, 35.347947919361047 ], [ 136.250427055963883, 35.352659640230286 ], [ 136.278076108825417, 35.350822774951155 ], [ 136.296398885400322, 35.35461500018215 ], [ 136.298053890674623, 35.350276945824419 ], [ 136.305778611993446, 35.352166945748024 ], [ 136.311101673103849, 35.342622225035711 ], [ 136.324536939228437, 35.346408612767334 ], [ 136.326459728433747, 35.35928750521424 ], [ 136.334104448761309, 35.367694999924367 ], [ 136.337511388240046, 35.379480558680882 ], [ 136.33308693871129, 35.403840000315824 ], [ 136.353645006312036, 35.400192225091189 ], [ 136.359703605836785, 35.404715278986998 ], [ 136.362946108775986, 35.415541387025428 ], [ 136.35714416317262, 35.424469721400555 ], [ 136.358708884607381, 35.434318612613936 ], [ 136.343184449302953, 35.459358332920772 ], [ 136.343926393588276, 35.464258612844731 ], [ 136.332697497191816, 35.469567505136297 ], [ 136.338396393978428, 35.476631667217703 ], [ 136.334747782384284, 35.482923053556135 ], [ 136.336720830202239, 35.494408612867232 ], [ 136.342651672936427, 35.502577225158859 ], [ 136.342804915614465, 35.514932694188531 ], [ 136.347665083976494, 35.522713106924414 ], [ 136.345882088087933, 35.536108667081351 ], [ 136.356219636726905, 35.539468919155354 ], [ 136.362640271831197, 35.558746387236056 ], [ 136.369225006229158, 35.559163053931854 ], [ 136.369613060994084, 35.558949170867606 ] ] ] } },
{ "type": "Feature", "properties": { "regioncode": "2538300", "regionname": "滋賀県日野町", "name": "日野町", "namekana": "ひのちょう", "PrefCode": "25" }, "geometry": { "type": "Polygon", "coordinates": [ [ [ 136.239016393991506, 35.069135000380015 ], [ 136.250536108654501, 35.068068333386918 ], [ 136.264567496692734, 35.05805000000754 ], [ 136.27294472112203, 35.06306444077137 ], [ 136.275578339868503, 35.057932505380847 ], [ 136.295904721425813, 35.057272224933286 ], [ 136.306269442181019, 35.045748612608463 ], [ 136.310380558016391, 35.047062505030624 ], [ 136.31773306073228, 35.038429721154785 ], [ 136.332117497424633, 35.032536387344464 ], [ 136.345419170158607, 35.008599720600671 ], [ 136.338569442425865, 34.985337774718573 ], [ 136.323316108651511, 34.977640828961114 ], [ 136.315810272426233, 34.982627225266299 ], [ 136.301247224080157, 34.983627224616782 ], [ 136.290670558299666, 34.973707224908537 ], [ 136.284059442289504, 34.973424441185045 ], [ 136.27788472140287, 34.964987494577258 ], [ 136.269575278876118, 34.961356945866385 ], [ 136.265229727769793, 34.96374194613395 ], [ 136.2522419463088, 34.956726946391541 ], [ 136.237793060601348, 34.959301387049436 ], [ 136.228212502804809, 34.97042582898888 ], [ 136.220023891389587, 34.968730278679459 ], [ 136.220544721162014, 34.977601945873175 ], [ 136.215463333066396, 34.985564721334867 ], [ 136.200103333402126, 34.988891387327726 ], [ 136.201161387588058, 34.992337225182837 ], [ 136.181729728044616, 35.002476108185874 ], [ 136.183650557627175, 35.008972225188074 ], [ 136.180326666942165, 35.015419440654739 ], [ 136.184257781671363, 35.025067774957904 ], [ 136.196742775558732, 35.022533891925605 ], [ 136.205340000240881, 35.031559441215279 ], [ 136.220459999629384, 35.037536667383335 ], [ 136.214211387745422, 35.041077505122814 ], [ 136.2168780538791, 35.056522225420395 ], [ 136.21455472102366, 35.05978889224366 ], [ 136.238470830164715, 35.069359170789141 ], [ 136.239016393991506, 35.069135000380015 ] ] ] } },
{ "type": "Feature", "properties": { "regioncode": "2538400", "regionname": "滋賀県竜王町", "name": "竜王町", "namekana": "りゅうおうちょう", "PrefCode": "25" }, "geometry": { "type": "Polygon", "coordinates": [ [ [ 136.093367781997586, 35.096456387052683 ], [ 136.099839441936751, 35.096428892079757 ], [ 136.103375279445686, 35.088812225204094 ], [ 136.108517496785112, 35.092318054134921 ], [ 136.114992503101575, 35.087390279238036 ], [ 136.122646108731033, 35.091603612916458 ], [ 136.134581672606146, 35.084045559355104 ], [ 136.135994720679832, 35.074845558675634 ], [ 136.145767224378005, 35.076446386991222 ], [ 136.149468340191788, 35.073240278715957 ], [ 136.147563605775872, 35.070054999638558 ], [ 136.151363890731091, 35.066126386823328 ], [ 136.144036938653812, 35.060444441357959 ], [ 136.153065551034388, 35.053879170986988 ], [ 136.149111387580547, 35.049709171141387 ], [ 136.154673332908033, 35.030768332792377 ], [ 136.157749169888348, 35.02814805368979 ], [ 136.16354944185332, 35.030629999974565 ], [ 136.159197224072727, 35.022200279419394 ], [ 136.150683060774668, 35.019839441237252 ], [ 136.123963333141319, 35.037211945574882 ], [ 136.118400557739619, 35.036297505025914 ], [ 136.123639728290868, 35.024950837910865 ], [ 136.12019167270762, 35.020994441440394 ], [ 136.116917781630377, 35.027074441232514 ], [ 136.109831114914073, 35.02734722539418 ], [ 136.102300558124284, 35.021409721381588 ], [ 136.085767223778362, 35.030524171353477 ], [ 136.078859999689257, 35.049805838368798 ], [ 136.073168612241716, 35.052300278934752 ], [ 136.073340829715562, 35.056132505111066 ], [ 136.079368884666337, 35.059433332682204 ], [ 136.08032583706779, 35.066813612758096 ], [ 136.079415837371016, 35.080034720625918 ], [ 136.075815279251856, 35.083380838055291 ], [ 136.078128340050966, 35.093163054431443 ], [ 136.093347781974671, 35.09645944115033 ], [ 136.093367781997586, 35.096456387052683 ] ] ] } },
{ "type": "Feature", "properties": { "regioncode": "2542500", "regionname": "滋賀県愛荘町", "name": "愛荘町", "namekana": "あいしょうちょう", "PrefCode": "25" }, "geometry": { "type": "Polygon", "coordinates": [ [ [ 136.209298885135468, 35.196305558854533 ], [ 136.224545837320647, 35.186866108284335 ], [ 136.225128053916592, 35.179017505353613 ], [ 136.229516667260441, 35.176861387043402 ], [ 136.234790000358316, 35.176337774768569 ], [ 136.237458611725629, 35.179793053706533 ], [ 136.232725550843611, 35.184394170554583 ], [ 136.229685005958345, 35.196770838403495 ], [ 136.274563332631715, 35.183168332552555 ], [ 136.274758884814787, 35.179781946179901 ], [ 136.291404720751302, 35.182284999553133 ], [ 136.29519693878774, 35.167409999771735 ], [ 136.30681500600781, 35.162836386889808 ], [ 136.313581388170633, 35.154762775381812 ], [ 136.327649441568497, 35.154382224560095 ], [ 136.335682502645454, 35.142954170598557 ], [ 136.330905278755722, 35.142874999681567 ], [ 136.325167497082361, 35.136925558967448 ], [ 136.31893027241415, 35.138618054279846 ], [ 136.321468054007596, 35.146224441005188 ], [ 136.303555279252805, 35.15771722457032 ], [ 136.281701388408464, 35.152452505179042 ], [ 136.258761945707306, 35.159202775088033 ], [ 136.25346250259247, 35.153202775387854 ], [ 136.248014720802757, 35.156091387007962 ], [ 136.246834721245477, 35.151002774658366 ], [ 136.233247224180104, 35.159656108043009 ], [ 136.228793061050965, 35.158261107564101 ], [ 136.232209441612554, 35.151749170587777 ], [ 136.226984448873282, 35.143511108151188 ], [ 136.216465006055273, 35.148053332895074 ], [ 136.21434583729058, 35.144767774912907 ], [ 136.210035837284181, 35.149263612625646 ], [ 136.204261672638154, 35.148049170832621 ], [ 136.205082554916089, 35.159589080671594 ], [ 136.19674999981271, 35.169879440983493 ], [ 136.195986109371461, 35.184584441019183 ], [ 136.191670271865632, 35.192481666695642 ], [ 136.193675278891078, 35.198590837796985 ], [ 136.199958611800525, 35.194886666986122 ], [ 136.205274721151568, 35.199128612595473 ], [ 136.20958944169945, 35.196712774574962 ], [ 136.209298885135468, 35.196305558854533 ] ] ] } },
{ "type": "Feature", "properties": { "regioncode": "2544100", "regionname": "滋賀県豊郷町", "name": "豊郷町", "namekana": "とよさとちょう", "PrefCode": "25" }, "geometry": { "type": "Polygon", "coordinates": [ [ [ 136.227193061011008, 35.217608891936891 ], [ 136.244980272421685, 35.209226946066735 ], [ 136.243107497213259, 35.197504170780917 ], [ 136.256612503064616, 35.192894171328987 ], [ 136.256231672553668, 35.188406387045177 ], [ 136.229685005958345, 35.196770838403495 ], [ 136.232725550843611, 35.184394170554583 ], [ 136.23717444934141, 35.181147775349586 ], [ 136.234790000358316, 35.176337774768569 ], [ 136.225128053916592, 35.179017505353613 ], [ 136.224800271715253, 35.186548054049524 ], [ 136.216110272071433, 35.190702224927804 ], [ 136.213488340014919, 35.197079170967015 ], [ 136.21978250256052, 35.206438892141193 ], [ 136.223071388034214, 35.205926667082053 ], [ 136.221747782034527, 35.213277774949404 ], [ 136.226807497368213, 35.217742774909198 ], [ 136.227193061011008, 35.217608891936891 ] ] ] } },
{ "type": "Feature", "properties": { "regioncode": "2544200", "regionname": "滋賀県甲良町", "name": "甲良町", "namekana": "こうらちょう", "PrefCode": "25" }, "geometry": { "type": "Polygon", "coordinates": [ [ [ 136.261675473044761, 35.225049837580002 ], [ 136.281501945758237, 35.203073612856997 ], [ 136.289131115009013, 35.199829170979513 ], [ 136.285603061132406, 35.197641946019019 ], [ 136.290671388373994, 35.192163332771656 ], [ 136.289441945889166, 35.181818612938685 ], [ 136.274758884814787, 35.179781946179901 ], [ 136.274563332631715, 35.183168332552555 ], [ 136.256231672553668, 35.188406387045177 ], [ 136.255940830005329, 35.195079171366729 ], [ 136.249300829569734, 35.19391277495464 ], [ 136.243107497213259, 35.197504170780917 ], [ 136.244980272421685, 35.209226946066735 ], [ 136.23865916978491, 35.214584721008123 ], [ 136.241286109266639, 35.217730278829379 ], [ 136.250660271754214, 35.21709000020337 ], [ 136.253026394352673, 35.220330558808314 ], [ 136.250265551214284, 35.226021386877562 ], [ 136.254698054171968, 35.225010558790302 ], [ 136.256050829682067, 35.2298758379996 ], [ 136.261648612093836, 35.225067504761569 ], [ 136.261675473044761, 35.225049837580002 ] ] ] } },
{ "type": "Feature", "properties": { "regioncode": "2544300", "regionname": "滋賀県多賀町", "name": "多賀町", "namekana": "たがちょう", "PrefCode": "25" }, "geometry": { "type": "Polygon", "coordinates": [ [ [ 136.378346109385461, 35.285829107927043 ], [ 136.393252476620546, 35.285999107672751 ], [ 136.395960803848084, 35.280229386576991 ], [ 136.39354136224415, 35.261912999685251 ], [ 136.396962190852491, 35.257731332934725 ], [ 136.389154423437958, 35.249766640118423 ], [ 136.379214967796543, 35.247504694086388 ], [ 136.377290245948188, 35.243160532432682 ], [ 136.385685525166878, 35.235114693788148 ], [ 136.392049689141913, 35.234180532006008 ], [ 136.392471919943205, 35.229819694223579 ], [ 136.415563280620972, 35.217406918594463 ], [ 136.418002476733022, 35.203777747844867 ], [ 136.408653333384677, 35.187182774865221 ], [ 136.389084720583469, 35.196795837757747 ], [ 136.38757194578875, 35.190771945768745 ], [ 136.376460558408098, 35.186021107987813 ], [ 136.375919441728911, 35.169512774794782 ], [ 136.391351945635847, 35.151311946289354 ], [ 136.379385278707673, 35.140344999921865 ], [ 136.364834162566581, 35.135076945844446 ], [ 136.359240558405077, 35.136491386967975 ], [ 136.354723606409379, 35.131103892130966 ], [ 136.340713332654218, 35.136056946071278 ], [ 136.327649441568497, 35.154382224560095 ], [ 136.313581388170633, 35.154762775381812 ], [ 136.30681500600781, 35.162836386889808 ], [ 136.29519693878774, 35.167409999771735 ], [ 136.288038053813239, 35.18747472088171 ], [ 136.290608339603295, 35.192371107640554 ], [ 136.285603061132406, 35.197641946019019 ], [ 136.289131115009013, 35.199829170979513 ], [ 136.281501945758237, 35.203073612856997 ], [ 136.257686939300925, 35.228375278696205 ], [ 136.261465005605601, 35.230498053742224 ], [ 136.272213060584363, 35.226045837645358 ], [ 136.27497944174786, 35.229533892375287 ], [ 136.269903061077457, 35.232635279094893 ], [ 136.274580558246271, 35.240289721093802 ], [ 136.287809441652485, 35.241154440824857 ], [ 136.294345550606749, 35.245386666561444 ], [ 136.299663891175669, 35.256496945977347 ], [ 136.304970830139723, 35.255844720757295 ], [ 136.319523890615073, 35.267300559273451 ], [ 136.338635005701008, 35.263962774962124 ], [ 136.350814721122561, 35.268233891880641 ], [ 136.351525279068483, 35.274130278889288 ], [ 136.357709441937232, 35.277624973313891 ], [ 136.378125836638105, 35.28597189328832 ], [ 136.378346109385461, 35.285829107927043 ] ] ] } },
{ "type": "Feature", "properties": { "regioncode": "2520102", "regionname": "気象庁予報警報規程別表第四の二に示す「大津市北部」の区域", "name": "大津市北部", "namekana": "おおつしほくぶ", "PrefCode": "25" }, "geometry": { "type": "Polygon", "coordinates": [ [ [ 135.940254553305067, 35.137524440900279 ], [ 135.916520255605406, 35.138507331548169 ], [ 135.908467002050543, 35.148629542919139 ], [ 135.892628884115766, 35.142938615924436 ], [ 135.890828884745247, 35.136438615649638 ], [ 135.894928884060846, 35.128038615889466 ], [ 135.898328884370585, 35.128038615889466 ], [ 135.89882888404577, 35.119238615669644 ], [ 135.879628884465546, 35.12163861572958 ], [ 135.873028884075779, 35.119138615554732 ], [ 135.84940500603625, 35.124537225112874 ], [ 135.852294162645535, 35.134266946262585 ], [ 135.848767782407322, 35.142184721447791 ], [ 135.85686055756878, 35.156971945598855 ], [ 135.845390558327722, 35.165357774741551 ], [ 135.840213060584347, 35.181914441098627 ], [ 135.841908054213377, 35.189839721126305 ], [ 135.82930805412343, 35.220346386876315 ], [ 135.83805639368768, 35.226105000445443 ], [ 135.834526108593082, 35.241119171212858 ], [ 135.839923605689933, 35.243851108342028 ], [ 135.846089169679544, 35.257112225249045 ], [ 135.844673061212916, 35.261985279097416 ], [ 135.854933332907081, 35.271421666576714 ], [ 135.860755279432624, 35.282959999904108 ], [ 135.8658733328881, 35.28015055920099 ], [ 135.887488054430264, 35.283586667290933 ], [ 135.905479170027775, 35.275743613177269 ], [ 135.904584162928813, 35.270737775328143 ], [ 135.910095278574317, 35.264223332840572 ], [ 135.917137497197814, 35.265980278966765 ], [ 135.919032776141762, 35.260641945569375 ], [ 135.927893333110887, 35.258274721301404 ], [ 135.937170000095534, 35.260616667425325 ], [ 135.940484721292933, 35.267063333406156 ], [ 135.945269170336019, 35.267308054223349 ], [ 135.948665005885346, 35.274182775015106 ], [ 135.956532217587892, 35.277647225239321 ], [ 135.983692218221336, 35.272307774883927 ], [ 135.993728885179962, 35.264387774776026 ], [ 136.016299416085303, 35.231278945866734 ], [ 135.995847249950657, 35.190206864854986 ], [ 135.972563891210712, 35.18097977479681 ], [ 135.95931133584952, 35.147213251890093 ], [ 135.94166666698311, 35.138242386776767 ], [ 135.940254553305067, 35.137524440900279 ] ] ] } }
]
}
