{
"type": "FeatureCollection",
"name": "26_kyoto_region",
"crs": { "type": "name", "properties": { "name": "urn:ogc:def:crs:OGC:1.3:CRS84" } },
"features": [
{ "type": "Feature", "properties": { "regioncode": "2610000", "regionname": "京都府京都市", "name": "京都市", "namekana": "きょうとし", "PrefCode": "26" }, "geometry": { "type": "Polygon", "coordinates": [ [ [ 135.804814721422304, 35.317083333329208 ], [ 135.81103666660897, 35.313993892304325 ], [ 135.810158885124565, 35.309183891723251 ], [ 135.821366938833194, 35.297057224611251 ], [ 135.820094720994689, 35.290794720899726 ], [ 135.829623333050449, 35.27673527940965 ], [ 135.840081673230657, 35.275554170988244 ], [ 135.849203060572904, 35.279693891559873 ], [ 135.857084449188051, 35.289040559074579 ], [ 135.860755279432624, 35.282959999904108 ], [ 135.854933332907081, 35.271421666576714 ], [ 135.844673061212916, 35.261985279097416 ], [ 135.846089169679544, 35.257112225249045 ], [ 135.839923605689933, 35.243851108342028 ], [ 135.834526108593082, 35.241119171212858 ], [ 135.83805639368768, 35.226105000445443 ], [ 135.82930805412343, 35.220346386876315 ], [ 135.841908054213377, 35.189839721126305 ], [ 135.840213060584347, 35.181914441098627 ], [ 135.845313332644196, 35.165544440723409 ], [ 135.856088611899963, 35.159563891560424 ], [ 135.856763061166362, 35.153615000332024 ], [ 135.848767782407322, 35.142184721447791 ], [ 135.852294162645535, 35.134266946262585 ], [ 135.8498661091337, 35.120589170753703 ], [ 135.835046109190671, 35.091326946381514 ], [ 135.839850272272315, 35.08586000003902 ], [ 135.831891945756752, 35.07145555882704 ], [ 135.83485250314061, 35.055553892098487 ], [ 135.814757497360688, 35.045199721290146 ], [ 135.827739442221514, 35.030378613382368 ], [ 135.82737444877182, 35.022132775407329 ], [ 135.834517781770273, 35.022080558970686 ], [ 135.835464162641074, 35.012328612875251 ], [ 135.820239170101672, 35.015194441070662 ], [ 135.824279441842805, 35.008717225119881 ], [ 135.832681672820968, 35.009425279353195 ], [ 135.836558884884653, 35.001226386888277 ], [ 135.832357496901068, 35.000835278925024 ], [ 135.826904721175993, 34.991203892345823 ], [ 135.849267223603533, 34.991733891605861 ], [ 135.849117782359826, 34.984812495100641 ], [ 135.856695279263818, 34.982457495317192 ], [ 135.852437781678304, 34.970788891594111 ], [ 135.863878339813596, 34.957601666583685 ], [ 135.874203890597187, 34.955018053740218 ], [ 135.878441945739269, 34.947434161757201 ], [ 135.862015550677143, 34.951100829040058 ], [ 135.859465279299229, 34.957089440625225 ], [ 135.850795278779174, 34.957334720820768 ], [ 135.844579441787914, 34.948336108024989 ], [ 135.849942502944259, 34.939227224856609 ], [ 135.847274163172187, 34.930842775273902 ], [ 135.840020000422783, 34.930457494917505 ], [ 135.844694162905398, 34.935503892190923 ], [ 135.830503333162369, 34.93623110827906 ], [ 135.829412775679089, 34.927392224971243 ], [ 135.818136939168426, 34.926648053964584 ], [ 135.810838340017426, 34.936531441372949 ], [ 135.798119169863867, 34.934146108356288 ], [ 135.796887497060425, 34.937877224654244 ], [ 135.789837496603241, 34.916993332676213 ], [ 135.776128054166406, 34.916136107895113 ], [ 135.75306583691895, 34.90416722503744 ], [ 135.745803061362267, 34.911576386840807 ], [ 135.740284162983812, 34.904788613403809 ], [ 135.725959999754195, 34.902808333238056 ], [ 135.719573061347774, 34.89810222503769 ], [ 135.713938611777621, 34.901537494959484 ], [ 135.717131115108941, 34.891792225430891 ], [ 135.720098340066443, 34.892860000388737 ], [ 135.719418340184347, 34.888243613052339 ], [ 135.728712502580038, 34.885154720613912 ], [ 135.73247221821839, 34.874915558706107 ], [ 135.715441672994871, 34.882784441348917 ], [ 135.711945278851658, 34.89320361335615 ], [ 135.70317416305727, 34.898693333230824 ], [ 135.717382502600458, 34.925066386604499 ], [ 135.714575006231598, 34.925102224588045 ], [ 135.713844163177669, 34.935617494551764 ], [ 135.718350829627184, 34.944802495438864 ], [ 135.717441672595214, 34.950576107901099 ], [ 135.709559442214527, 34.955723892044034 ], [ 135.709980000276801, 34.962523053596101 ], [ 135.702314721447351, 34.963399999610374 ], [ 135.699685005758511, 34.968613053849424 ], [ 135.683158612380112, 34.969013891577902 ], [ 135.683194448565018, 34.964069161762438 ], [ 135.696101114774706, 34.946573891871651 ], [ 135.674612503364415, 34.945690828668887 ], [ 135.659354720643933, 34.932968054032528 ], [ 135.653797496757079, 34.934059440690703 ], [ 135.646110830250677, 34.92951416184917 ], [ 135.630404721101058, 34.935146945874919 ], [ 135.623750272157395, 34.934908053563845 ], [ 135.615199441700952, 34.927624721303914 ], [ 135.599321672657084, 34.92829166662716 ], [ 135.603439441676983, 34.936033612661163 ], [ 135.613148612418627, 34.941703613331129 ], [ 135.618705551220273, 34.958136387284469 ], [ 135.613263606030614, 34.971195279038966 ], [ 135.641156667446353, 34.975312774664872 ], [ 135.637530271804621, 34.982231666558221 ], [ 135.638946108676009, 34.997756946326092 ], [ 135.64606778240227, 35.001294170589574 ], [ 135.646745006077253, 35.007476945804456 ], [ 135.636385279257297, 35.018971108030257 ], [ 135.639748339914036, 35.021909441367654 ], [ 135.6379780541439, 35.0275738923213 ], [ 135.626330272424184, 35.039527225001507 ], [ 135.621776394265225, 35.038033333271756 ], [ 135.6172144491876, 35.042787225150391 ], [ 135.617442217784173, 35.055471667083793 ], [ 135.62191000024643, 35.064710558945194 ], [ 135.617216394421121, 35.068333892395287 ], [ 135.602848612273647, 35.062662225281542 ], [ 135.600019442243479, 35.070363333101398 ], [ 135.590063891435534, 35.077163332821613 ], [ 135.597959170079662, 35.094467504871488 ], [ 135.605966109448445, 35.092843054063735 ], [ 135.614563333231331, 35.097383892053017 ], [ 135.61647778212398, 35.103879721272165 ], [ 135.604279727727317, 35.112203891996046 ], [ 135.595866938708355, 35.111277774649636 ], [ 135.59096610929862, 35.124173891811722 ], [ 135.597339727846247, 35.125896386708916 ], [ 135.595541946203866, 35.128884720553458 ], [ 135.577613060994054, 35.127690278783405 ], [ 135.575200271675271, 35.132528332816378 ], [ 135.566613891018278, 35.12790055916355 ], [ 135.55900555096548, 35.136888333329978 ], [ 135.562428340095835, 35.148020558901749 ], [ 135.5605316725987, 35.154518891833447 ], [ 135.572497224367453, 35.165841946348792 ], [ 135.57617583734509, 35.179143891577382 ], [ 135.596541673059846, 35.202547225274259 ], [ 135.597148612018941, 35.211437225147847 ], [ 135.589622503276019, 35.219019440794625 ], [ 135.609020271868076, 35.22845583816644 ], [ 135.619197496567267, 35.225497774602673 ], [ 135.620014448807865, 35.233070559059115 ], [ 135.629709441737418, 35.235996107634321 ], [ 135.628888885014135, 35.245430000394265 ], [ 135.63930083006926, 35.257811946364313 ], [ 135.655447782389274, 35.263354720843722 ], [ 135.689417223825899, 35.255212775249447 ], [ 135.703609442122115, 35.257471945973577 ], [ 135.717705005781454, 35.265376386910759 ], [ 135.72629693885267, 35.266101666758573 ], [ 135.725665550924532, 35.271709440638233 ], [ 135.731557223686991, 35.277818892328071 ], [ 135.729359441585075, 35.284172504557489 ], [ 135.73495111490206, 35.287575837754787 ], [ 135.767675551085858, 35.289832225077191 ], [ 135.776688053910675, 35.285013054109186 ], [ 135.781536666883767, 35.290267505041356 ], [ 135.777695836893372, 35.29433361340557 ], [ 135.777413891338028, 35.305096107899089 ], [ 135.787793060601302, 35.308047225099415 ], [ 135.794029727689804, 35.320769441256743 ], [ 135.804781673135722, 35.317091667346631 ], [ 135.804814721422304, 35.317083333329208 ] ] ] } },
{ "type": "Feature", "properties": { "regioncode": "2620100", "regionname": "京都府福知山市", "name": "福知山市", "namekana": "ふくちやまし", "PrefCode": "26" }, "geometry": { "type": "Polygon", "coordinates": [ [ [ 135.126637497122829, 35.469487225355238 ], [ 135.144659728363877, 35.465594721219475 ], [ 135.148794162720492, 35.45929389199955 ], [ 135.17043999990608, 35.450557775121297 ], [ 135.171192218046485, 35.444667224712703 ], [ 135.166774721176466, 35.441846108111463 ], [ 135.171021114832683, 35.437076666954681 ], [ 135.169685005558676, 35.429228612610416 ], [ 135.185263061141427, 35.431646108081452 ], [ 135.200600829564678, 35.427121108052745 ], [ 135.20482194597605, 35.424304170601033 ], [ 135.203601115399238, 35.41429222510618 ], [ 135.216754162574603, 35.411312225279005 ], [ 135.223009999611804, 35.399715838015538 ], [ 135.229156393652715, 35.396277774799501 ], [ 135.225842503428908, 35.391497225216824 ], [ 135.214470558169751, 35.39539333293601 ], [ 135.208316108901386, 35.392974721406347 ], [ 135.203112776333569, 35.383261108013755 ], [ 135.202605279010527, 35.37168527925229 ], [ 135.193143606192507, 35.374725000358524 ], [ 135.18887360623205, 35.370627504755589 ], [ 135.183460829653654, 35.373103612641671 ], [ 135.173606109034722, 35.370618891948368 ], [ 135.188924163419415, 35.360162225406441 ], [ 135.172829170330033, 35.345251386742177 ], [ 135.189510829860978, 35.338756667286418 ], [ 135.193480557881458, 35.32109277541133 ], [ 135.185988611685161, 35.31572138743212 ], [ 135.185268611757124, 35.311224440855312 ], [ 135.197616666775843, 35.30820889172702 ], [ 135.202572218133469, 35.284278054388778 ], [ 135.221185006283122, 35.277306107890638 ], [ 135.238593890895459, 35.264882775120043 ], [ 135.246668612166786, 35.263851107942344 ], [ 135.27224555059172, 35.271677774609657 ], [ 135.291706108949825, 35.26529861264089 ], [ 135.318626939381829, 35.273846945680077 ], [ 135.324175278866051, 35.25460861339684 ], [ 135.302948053609839, 35.243961386808621 ], [ 135.299241945659332, 35.23516500006474 ], [ 135.288748054379312, 35.234615278672209 ], [ 135.299361114823682, 35.220642774644375 ], [ 135.293079442062663, 35.218980000126976 ], [ 135.29998639365715, 35.210515838235381 ], [ 135.29384722387033, 35.198352225175086 ], [ 135.283426109327593, 35.198319441289243 ], [ 135.289318884658883, 35.17241694558561 ], [ 135.28343250260798, 35.171453054015274 ], [ 135.273874449446339, 35.177276945774452 ], [ 135.232189441789387, 35.177504171180601 ], [ 135.228010271556855, 35.165333612656127 ], [ 135.206213061383778, 35.160684721123062 ], [ 135.194860557668676, 35.171293332621246 ], [ 135.186866666563446, 35.173166107829672 ], [ 135.190140000060978, 35.183186107652773 ], [ 135.186713060559327, 35.190223891719256 ], [ 135.199103890931838, 35.193581945850156 ], [ 135.197057782190996, 35.203017505053879 ], [ 135.188835006430509, 35.206828613349899 ], [ 135.182311945739798, 35.215924171263566 ], [ 135.175131388003251, 35.214600837758496 ], [ 135.17096666717805, 35.220266946162667 ], [ 135.163067223773396, 35.22009055943181 ], [ 135.154777782168935, 35.226501667118271 ], [ 135.161981115236358, 35.231241107790936 ], [ 135.166858340140379, 35.240344720932171 ], [ 135.161978612423127, 35.257818333349462 ], [ 135.15752972831433, 35.261092774811743 ], [ 135.137763890591145, 35.265249720997872 ], [ 135.128674448966763, 35.260716946330035 ], [ 135.108770272130414, 35.266280279311502 ], [ 135.098904449380939, 35.258820000043045 ], [ 135.093346109435515, 35.259780000246849 ], [ 135.08289972843977, 35.246379721347125 ], [ 135.067874720841701, 35.23735110806723 ], [ 135.055821945626349, 35.259211386796096 ], [ 135.056789170084244, 35.264602774798277 ], [ 135.049593061270798, 35.261962775361837 ], [ 135.04229055816279, 35.264129720610185 ], [ 135.03747000044018, 35.260688613189018 ], [ 135.010851388081164, 35.269581945950108 ], [ 135.011726939246955, 35.281119720798529 ], [ 134.999877782233966, 35.28733110794434 ], [ 134.999116667100566, 35.290938332737937 ], [ 134.99285888482973, 35.289053612734108 ], [ 134.96005333339474, 35.297912505058093 ], [ 134.945680558211279, 35.307351945735775 ], [ 134.934243332963547, 35.307752504674397 ], [ 134.921603891306631, 35.315133613025864 ], [ 134.928050272202313, 35.330439171330738 ], [ 134.925583061309339, 35.336678054348795 ], [ 134.917148612118808, 35.340291945816716 ], [ 134.918867223743405, 35.350124999968841 ], [ 134.923466393559238, 35.354238053843176 ], [ 134.918927497206255, 35.364514721077569 ], [ 134.927174994430516, 35.379554721273394 ], [ 134.923408053638809, 35.394282504733837 ], [ 134.933567496942487, 35.407070278770391 ], [ 134.946604448836297, 35.413286667046123 ], [ 134.961146393691138, 35.408205838328854 ], [ 134.970946666655436, 35.398951107607559 ], [ 134.985478326863358, 35.396213612668134 ], [ 134.990553605864307, 35.385713053814413 ], [ 135.001966108749002, 35.387050279147104 ], [ 135.019445005582611, 35.394256107833144 ], [ 135.030034448930792, 35.410100279104654 ], [ 135.049166939102975, 35.407742774709334 ], [ 135.050184449153107, 35.419836387239513 ], [ 135.046911388150079, 35.427486667176026 ], [ 135.05183472129545, 35.442538891856429 ], [ 135.050116108771476, 35.451181107821924 ], [ 135.059171115354729, 35.452163332971509 ], [ 135.070494721154546, 35.444776108330814 ], [ 135.094363061006561, 35.443771946018558 ], [ 135.106977223619992, 35.450706945669083 ], [ 135.105706939323909, 35.457858054205872 ], [ 135.109904721026169, 35.463412504583459 ], [ 135.126445837205665, 35.469508613032133 ], [ 135.126637497122829, 35.469487225355238 ] ] ] } },
{ "type": "Feature", "properties": { "regioncode": "2621200", "regionname": "京都府京丹後市", "name": "京丹後市", "namekana": "きょうたんごし", "PrefCode": "26" }, "geometry": { "type": "MultiPolygon", "coordinates": [ [ [ [ 134.965025330654498, 35.674356694106223 ], [ 134.961765772072795, 35.674231279150263 ], [ 134.964942801669054, 35.67444394633111 ], [ 134.965025330654498, 35.674356694106223 ] ] ], [ [ [ 135.223592360998737, 35.779108802429334 ], [ 135.231693501653808, 35.77223797300411 ], [ 135.231575837055289, 35.765163054131676 ], [ 135.227234721405353, 35.762236667388322 ], [ 135.219953891059276, 35.742326946231628 ], [ 135.20787416316216, 35.74097805399407 ], [ 135.206738340102333, 35.735818612838784 ], [ 135.197381673025802, 35.732393613174736 ], [ 135.199430000394273, 35.725368333282006 ], [ 135.192850830101747, 35.717648053714754 ], [ 135.193466939447717, 35.712060838337095 ], [ 135.188027223677523, 35.70864610803153 ], [ 135.195061387972714, 35.696400558638913 ], [ 135.213824163254571, 35.69311805385513 ], [ 135.212893060966053, 35.687862225161609 ], [ 135.206513605818373, 35.687090837971823 ], [ 135.198153891189236, 35.674489999713785 ], [ 135.205880271757223, 35.665291946066532 ], [ 135.201781115106428, 35.662671107585595 ], [ 135.192752776119733, 35.669499441346204 ], [ 135.185125006214093, 35.667438332812878 ], [ 135.180024449069151, 35.670406386945274 ], [ 135.176145279181355, 35.655051386612229 ], [ 135.163518612394114, 35.65413250521101 ], [ 135.158390557578286, 35.643785558656646 ], [ 135.160341387644962, 35.629639999886138 ], [ 135.171909727751768, 35.623482224924771 ], [ 135.178206938999097, 35.614563333431136 ], [ 135.183309999856647, 35.613953333179836 ], [ 135.181344721281903, 35.606686945945853 ], [ 135.169305006021318, 35.605845559125328 ], [ 135.161982502890282, 35.596671666664122 ], [ 135.163390271943513, 35.591743333288264 ], [ 135.145387224141132, 35.583995838437261 ], [ 135.131536938878639, 35.558471387144834 ], [ 135.11892583665815, 35.547124441240044 ], [ 135.093650000247408, 35.548668891955856 ], [ 135.082367223668484, 35.539554720773822 ], [ 135.053457224171666, 35.531463333266288 ], [ 135.030031672723567, 35.54026777523768 ], [ 135.008008339713115, 35.533632775032572 ], [ 134.996408884862262, 35.535229720974883 ], [ 134.979494994298648, 35.524065278989497 ], [ 134.971717497164832, 35.52419138732273 ], [ 134.960547781554965, 35.512928054086501 ], [ 134.953911945879668, 35.516157505164756 ], [ 134.929725836877878, 35.511726666852269 ], [ 134.915129170075147, 35.527708053983531 ], [ 134.919291945666828, 35.538121107902839 ], [ 134.914568611852019, 35.545308612902204 ], [ 134.90305444870387, 35.549442504967658 ], [ 134.900875550566298, 35.556063332756651 ], [ 134.881051659806303, 35.564033613060872 ], [ 134.875763333211353, 35.573951666636162 ], [ 134.867757497310663, 35.576138891596599 ], [ 134.86895472068386, 35.579769171410192 ], [ 134.862594448974733, 35.587051386712176 ], [ 134.853726666852253, 35.589079721252176 ], [ 134.865356938771811, 35.599012774619894 ], [ 134.866378611783603, 35.613434441446373 ], [ 134.873877223754903, 35.620928612565478 ], [ 134.871259169575069, 35.636445559215247 ], [ 134.865843891082818, 35.638069170955532 ], [ 134.867688611939911, 35.649679171256821 ], [ 134.864101114674781, 35.651658332665988 ], [ 134.870093358621716, 35.659804864802709 ], [ 134.879285135900318, 35.661015053701817 ], [ 134.882465887790545, 35.659074694441642 ], [ 134.880105473189133, 35.656423720578289 ], [ 134.885622892182823, 35.656741693874153 ], [ 134.884372217603868, 35.646184108110162 ], [ 134.892271581868044, 35.648804441172047 ], [ 134.895192335258116, 35.645420946119827 ], [ 134.900546744037115, 35.649357972992107 ], [ 134.90930007843599, 35.645264532432293 ], [ 134.931414617090923, 35.64833583772878 ], [ 134.963367223618548, 35.6624283329013 ], [ 134.967181439971569, 35.669014838064356 ], [ 134.963683865018425, 35.671891342111792 ], [ 134.967543060963521, 35.672782775304881 ], [ 134.96539997382979, 35.674788748202218 ], [ 134.972178690194482, 35.675774279259656 ], [ 134.973867393065802, 35.683054721098529 ], [ 134.978994721229469, 35.681954441044695 ], [ 134.985713359284205, 35.692800279309495 ], [ 134.993251504553314, 35.689823134829851 ], [ 135.015416809038584, 35.694317081268366 ], [ 135.014997885943785, 35.690197467738983 ], [ 135.017555057819777, 35.693846666590446 ], [ 135.025568366187258, 35.689509694117135 ], [ 135.029949754377753, 35.69187005385993 ], [ 135.032556744198473, 35.700939748170867 ], [ 135.042522865637807, 35.699644837739129 ], [ 135.061711530163052, 35.707875918738694 ], [ 135.0680919970481, 35.718242721424531 ], [ 135.075510143078759, 35.718512586386794 ], [ 135.085328054446222, 35.725850413965475 ], [ 135.087865498793803, 35.731501440738953 ], [ 135.085758469977463, 35.739873467986229 ], [ 135.092909467897698, 35.738086026748761 ], [ 135.094423553903994, 35.742950612580785 ], [ 135.102989364367772, 35.741811414365316 ], [ 135.110445110153819, 35.747008225049626 ], [ 135.114162892203808, 35.743740333349763 ], [ 135.124353747927216, 35.745686720765605 ], [ 135.13858610926161, 35.757651775209297 ], [ 135.146257223791963, 35.749783505004814 ], [ 135.154511529783349, 35.752140108279434 ], [ 135.154636252261298, 35.755341081425797 ], [ 135.162480363078316, 35.754004559362954 ], [ 135.16582644633354, 35.759451306032986 ], [ 135.1703123609268, 35.75707972095239 ], [ 135.176235188003602, 35.762377558777359 ], [ 135.183365005990254, 35.76051750537863 ], [ 135.1863119710207, 35.766313197995771 ], [ 135.18967488958458, 35.763245170728112 ], [ 135.193820467440673, 35.767695027003924 ], [ 135.206914332030806, 35.763883026580459 ], [ 135.222010414848796, 35.771866919023125 ], [ 135.219105057852175, 35.776258748342627 ], [ 135.2235701693279, 35.779116667000608 ], [ 135.223592360998737, 35.779108802429334 ] ] ] ] } },
{ "type": "Feature", "properties": { "regioncode": "2621300", "regionname": "京都府南丹市", "name": "南丹市", "namekana": "なんたんし", "PrefCode": "26" }, "geometry": { "type": "Polygon", "coordinates": [ [ [ 135.554605694297379, 35.377075532310016 ], [ 135.579050168630488, 35.37508691902616 ], [ 135.588102387315416, 35.368257468307547 ], [ 135.595730194992598, 35.372921640221591 ], [ 135.606906304782228, 35.371655802173564 ], [ 135.611145473284978, 35.366800802215323 ], [ 135.61499522724796, 35.37105997253974 ], [ 135.636438028991961, 35.363718586343737 ], [ 135.642056353717862, 35.366906360140433 ], [ 135.660904162597035, 35.356407197933891 ], [ 135.66819836586194, 35.357066359624866 ], [ 135.675192801706544, 35.350271918614226 ], [ 135.700883695925882, 35.34367777460966 ], [ 135.718385162145637, 35.355416666645908 ], [ 135.731479077997164, 35.350552224705439 ], [ 135.740752995754178, 35.354044999976793 ], [ 135.740235227273956, 35.358409441342701 ], [ 135.759639728191019, 35.353089467604889 ], [ 135.768785304598168, 35.356014467593639 ], [ 135.76407275005738, 35.344557531904627 ], [ 135.780818521357787, 35.340561972656985 ], [ 135.794606938659399, 35.318770278925285 ], [ 135.787793060601302, 35.308047225099415 ], [ 135.777413891338028, 35.305096107899089 ], [ 135.777695836893372, 35.29433361340557 ], [ 135.781536666883767, 35.290267505041356 ], [ 135.775411945604901, 35.28437555888496 ], [ 135.767861946371795, 35.289818333249514 ], [ 135.73495111490206, 35.287575837754787 ], [ 135.729359441585075, 35.284172504557489 ], [ 135.731557223686991, 35.277818892328071 ], [ 135.725665550924532, 35.271709440638233 ], [ 135.72629693885267, 35.266101666758573 ], [ 135.717705005781454, 35.265376386910759 ], [ 135.702116667350424, 35.25706138657381 ], [ 135.676570271700712, 35.256915837595898 ], [ 135.655447782389274, 35.263354720843722 ], [ 135.639481672940974, 35.257919721118299 ], [ 135.628888885014135, 35.245430000394265 ], [ 135.629709441737418, 35.235996107634321 ], [ 135.620014448807865, 35.233070559059115 ], [ 135.619197496567267, 35.225497774602673 ], [ 135.609020271868076, 35.22845583816644 ], [ 135.589622503276019, 35.219019440794625 ], [ 135.597148612018941, 35.211437225147847 ], [ 135.596541673059846, 35.202547225274259 ], [ 135.57617583734509, 35.179143891577382 ], [ 135.572497224367453, 35.165841946348792 ], [ 135.560815836781558, 35.155510837755003 ], [ 135.562428340095835, 35.148020558901749 ], [ 135.55900555096548, 35.136888333329978 ], [ 135.567196109412976, 35.12765222487036 ], [ 135.575200271675271, 35.132528332816378 ], [ 135.577613060994054, 35.127690278783405 ], [ 135.595541946203866, 35.128884720553458 ], [ 135.597339727846247, 35.125896386708916 ], [ 135.59096610929862, 35.124173891811722 ], [ 135.592264162860943, 35.116778612842779 ], [ 135.597309442277037, 35.110060278758908 ], [ 135.604279727727317, 35.112203891996046 ], [ 135.61647778212398, 35.103879721272165 ], [ 135.614405279180346, 35.097251386842061 ], [ 135.605258340300225, 35.092642224659016 ], [ 135.587046666870265, 35.099240558604947 ], [ 135.577842775723639, 35.097835278875095 ], [ 135.571403333097464, 35.101290000233348 ], [ 135.564798884660831, 35.098636946238116 ], [ 135.560847497414102, 35.0900472245998 ], [ 135.551788885448786, 35.084991108352995 ], [ 135.557010830385593, 35.070263892364778 ], [ 135.556598054156893, 35.064408892156678 ], [ 135.551516393566772, 35.060928612965142 ], [ 135.540720830102259, 35.066693612620156 ], [ 135.537040271891101, 35.065173892361315 ], [ 135.538858340440129, 35.059714720657894 ], [ 135.526366938883143, 35.05729889163058 ], [ 135.523350557882054, 35.06156944107687 ], [ 135.505601387793831, 35.063228612910223 ], [ 135.50555082970709, 35.069118891723519 ], [ 135.484046667220014, 35.068993892254355 ], [ 135.476747496999451, 35.072319720978385 ], [ 135.469257496936052, 35.054213332978975 ], [ 135.448897496921973, 35.036721946360785 ], [ 135.442883061304315, 35.036755838211434 ], [ 135.434294721024571, 35.024576666879739 ], [ 135.426465005655587, 35.028517505078867 ], [ 135.397975550731189, 35.024716387351475 ], [ 135.393188339870107, 35.029471666883978 ], [ 135.385899727690344, 35.028054721148521 ], [ 135.376221115012527, 35.043978891612596 ], [ 135.371245551041397, 35.045288891769019 ], [ 135.3687288846304, 35.054889721183713 ], [ 135.377381673025866, 35.061020558751864 ], [ 135.378283605803858, 35.067259440870544 ], [ 135.399686394011951, 35.076163332571809 ], [ 135.400109169802363, 35.085958054021035 ], [ 135.404346667364848, 35.088850000327284 ], [ 135.391614162963265, 35.098028053951566 ], [ 135.401992217966495, 35.105296387318447 ], [ 135.411905006011239, 35.107367224717677 ], [ 135.421627781696884, 35.104716667240439 ], [ 135.428147781994653, 35.121052505069088 ], [ 135.437098340416128, 35.119660278998708 ], [ 135.446326667042058, 35.126817775420079 ], [ 135.442127224291994, 35.133235558774061 ], [ 135.448335837029276, 35.133390558727342 ], [ 135.448161388337439, 35.139154721113528 ], [ 135.452466109323495, 35.140067225422172 ], [ 135.451554162594562, 35.145003613126278 ], [ 135.454670272115436, 35.14582333258079 ], [ 135.450859727694365, 35.153521945681291 ], [ 135.457726394157817, 35.156356946016274 ], [ 135.458927223812339, 35.165011945844697 ], [ 135.465179727962095, 35.167692504705371 ], [ 135.460893890940383, 35.175808054298329 ], [ 135.462220272247805, 35.184838333122627 ], [ 135.44597610861058, 35.193249441308694 ], [ 135.457143890678026, 35.21625250474932 ], [ 135.45002389059016, 35.235203053977784 ], [ 135.453576394335187, 35.245357505144796 ], [ 135.464859170014734, 35.249257774926434 ], [ 135.456046394025975, 35.261274440563056 ], [ 135.461088339655248, 35.284816946145213 ], [ 135.478164720625387, 35.296124440590518 ], [ 135.47417749719375, 35.303105559274172 ], [ 135.480240558255218, 35.312970278555554 ], [ 135.502252218065451, 35.324189721278685 ], [ 135.497266667123085, 35.332969440887041 ], [ 135.498091946186378, 35.342364440666472 ], [ 135.4997836060287, 35.347594440830846 ], [ 135.505887223816444, 35.349592225400954 ], [ 135.500316161162004, 35.360139693791893 ], [ 135.516362023388751, 35.364700801600748 ], [ 135.52178036317332, 35.36968080192753 ], [ 135.532440637125774, 35.370021081108064 ], [ 135.534502049629964, 35.377439135407826 ], [ 135.554414034380216, 35.377203863767363 ], [ 135.554605694297379, 35.377075532310016 ] ] ] } },
{ "type": "Feature", "properties": { "regioncode": "2621400", "regionname": "京都府木津川市", "name": "木津川市", "namekana": "きづがわし", "PrefCode": "26" }, "geometry": { "type": "Polygon", "coordinates": [ [ [ 135.867250829861973, 34.802869999950587 ], [ 135.864220000352816, 34.797272224733433 ], [ 135.872261945832179, 34.794166666958176 ], [ 135.868827223597577, 34.78788000026185 ], [ 135.881051945590912, 34.773875829306121 ], [ 135.891988054205399, 34.768875559159767 ], [ 135.900217224145649, 34.778976667039615 ], [ 135.903305279315305, 34.773267224802623 ], [ 135.898876109245066, 34.769455828723551 ], [ 135.898808053948642, 34.763250000287314 ], [ 135.902531115018974, 34.766353333139875 ], [ 135.91311138798028, 34.764791666702081 ], [ 135.911645550601747, 34.7609144411486 ], [ 135.916022218250873, 34.754616945715497 ], [ 135.922068884671376, 34.754756107708261 ], [ 135.916156109317058, 34.753686386617517 ], [ 135.903020830047353, 34.732915829002366 ], [ 135.89738639396694, 34.730871946083482 ], [ 135.890171115204907, 34.708315558816025 ], [ 135.885158884974658, 34.713620279152622 ], [ 135.87613749684806, 34.713877495150314 ], [ 135.863740558280256, 34.706353333439665 ], [ 135.849015551026923, 34.705972225038181 ], [ 135.83181555104693, 34.713415278692196 ], [ 135.819968054182368, 34.711661107873908 ], [ 135.810284449367941, 34.714489721223686 ], [ 135.812085278812674, 34.71758944060025 ], [ 135.799155278793137, 34.723110278816364 ], [ 135.796273061352736, 34.720543612797542 ], [ 135.791396108943331, 34.724882495430847 ], [ 135.778130272394264, 34.723170558574452 ], [ 135.779045551111381, 34.729415000302083 ], [ 135.79041778235478, 34.732693054341041 ], [ 135.794085006318028, 34.737694441445342 ], [ 135.789978054343806, 34.738523612774543 ], [ 135.792221945586334, 34.741719720588662 ], [ 135.787856393557831, 34.738537494709647 ], [ 135.775150000072472, 34.738539721431039 ], [ 135.774773605917289, 34.742440829380826 ], [ 135.785999441920808, 34.748755559421568 ], [ 135.805185836557143, 34.751099440886549 ], [ 135.807613333388645, 34.757668332827336 ], [ 135.800443606187514, 34.790067495018945 ], [ 135.824596109323011, 34.79456805417243 ], [ 135.836892776180775, 34.800654440949756 ], [ 135.867106666739346, 34.802990558567501 ], [ 135.867250829861973, 34.802869999950587 ] ], [ [ 135.849630000224352, 34.799807495419657 ], [ 135.860751114672212, 34.79328916156561 ], [ 135.863678053599301, 34.796656386982704 ], [ 135.860851945760714, 34.793949162324054 ], [ 135.84969221802146, 34.799910829321391 ], [ 135.849630000224352, 34.799807495419657 ] ], [ [ 135.906510830010916, 34.762468332947265 ], [ 135.90288360609361, 34.754379441058404 ], [ 135.909971387969222, 34.747591108243114 ], [ 135.911059441739894, 34.751134161912091 ], [ 135.906837782138041, 34.754077224784169 ], [ 135.911691114753239, 34.754435558754096 ], [ 135.91213055767912, 34.750928891655064 ], [ 135.913237497212776, 34.754370559353902 ], [ 135.912317497054914, 34.74679610755436 ], [ 135.915534720950632, 34.753603891806222 ], [ 135.904276666734859, 34.757674162232831 ], [ 135.911635279444681, 34.759235828670626 ], [ 135.915977496764071, 34.755984161639788 ], [ 135.911206393660223, 34.763284161934564 ], [ 135.906665278679725, 34.762639440657722 ], [ 135.906510830010916, 34.762468332947265 ] ] ] } },
{ "type": "Feature", "properties": { "regioncode": "2640700", "regionname": "京都府京丹波町", "name": "京丹波町", "namekana": "きょうたんばちょう", "PrefCode": "26" }, "geometry": { "type": "Polygon", "coordinates": [ [ [ 135.457747224255058, 35.344662224681997 ], [ 135.496117497224759, 35.343997505180766 ], [ 135.499937782203006, 35.340635000305099 ], [ 135.497266667123085, 35.332969440887041 ], [ 135.502584449213032, 35.325042505207477 ], [ 135.49173500556617, 35.316464170784911 ], [ 135.480240558255218, 35.312970278555554 ], [ 135.47417749719375, 35.303105559274172 ], [ 135.478164720625387, 35.296124440590518 ], [ 135.461014721152537, 35.284655278618288 ], [ 135.456046394025975, 35.261274440563056 ], [ 135.464859170014734, 35.249257774926434 ], [ 135.453576394335187, 35.245357505144796 ], [ 135.45002389059016, 35.235203053977784 ], [ 135.457143890678026, 35.21625250474932 ], [ 135.44597610861058, 35.193249441308694 ], [ 135.462220272247805, 35.184838333122627 ], [ 135.460893890940383, 35.175808054298329 ], [ 135.465201673218758, 35.167799720980383 ], [ 135.458927223812339, 35.165011945844697 ], [ 135.457726394157817, 35.156356946016274 ], [ 135.450859727694365, 35.153521945681291 ], [ 135.454670272115436, 35.14582333258079 ], [ 135.451554162594562, 35.145003613126278 ], [ 135.452466109323495, 35.140067225422172 ], [ 135.448161388337439, 35.139154721113528 ], [ 135.448335837029276, 35.133390558727342 ], [ 135.442127224291994, 35.133235558774061 ], [ 135.446326667042058, 35.126817775420079 ], [ 135.437098340416128, 35.119660278998708 ], [ 135.428147781994653, 35.121052505069088 ], [ 135.421627781696884, 35.104716667240439 ], [ 135.411905006011239, 35.107367224717677 ], [ 135.401992217966495, 35.105296387318447 ], [ 135.388236667288425, 35.096880558590954 ], [ 135.389172502708902, 35.108333612806064 ], [ 135.393343891107747, 35.110794441210544 ], [ 135.385965550869514, 35.119985838075991 ], [ 135.38980999973171, 35.128765278894548 ], [ 135.372561946276846, 35.128969441186825 ], [ 135.354711672605617, 35.136655279417653 ], [ 135.342470000190474, 35.135873891766721 ], [ 135.337421115392203, 35.144015000092224 ], [ 135.340843605947725, 35.145535838208446 ], [ 135.340458339980501, 35.150092774961649 ], [ 135.29397805364431, 35.14156972096589 ], [ 135.27993000026936, 35.146967225257299 ], [ 135.278398053727301, 35.151058612664883 ], [ 135.283392775955917, 35.150885837611384 ], [ 135.292227782286432, 35.161078892177159 ], [ 135.283426109327593, 35.198319441289243 ], [ 135.29384722387033, 35.198352225175086 ], [ 135.29998639365715, 35.210515838235381 ], [ 135.293079442062663, 35.218980000126976 ], [ 135.299361114823682, 35.220642774644375 ], [ 135.288748054379312, 35.234615278672209 ], [ 135.299241945659332, 35.23516500006474 ], [ 135.302948053609839, 35.243961386808621 ], [ 135.324175278866051, 35.25460861339684 ], [ 135.318626939381829, 35.273846945680077 ], [ 135.332253333024937, 35.27103694559861 ], [ 135.337266394228777, 35.279290837901897 ], [ 135.345124163049718, 35.281893892289361 ], [ 135.351598885180465, 35.289456386702909 ], [ 135.367252217615828, 35.291995558648182 ], [ 135.378996108983301, 35.302399170585318 ], [ 135.384612776258678, 35.314942224703941 ], [ 135.403266393629224, 35.326331107794431 ], [ 135.414281673160758, 35.328554999913365 ], [ 135.416803061012502, 35.334741386805604 ], [ 135.428538053588341, 35.342302775053099 ], [ 135.441271388064138, 35.341602775148033 ], [ 135.45532944190029, 35.348539999721254 ], [ 135.457679999932111, 35.344694441095612 ], [ 135.457747224255058, 35.344662224681997 ] ] ] } },
{ "type": "Feature", "properties": { "regioncode": "2646500", "regionname": "京都府与謝野町", "name": "与謝野町", "namekana": "よさのちょう", "PrefCode": "26" }, "geometry": { "type": "Polygon", "coordinates": [ [ [ 135.177323332605738, 35.606634171030237 ], [ 135.182174449291438, 35.604717775105314 ], [ 135.170917224250616, 35.578050000407245 ], [ 135.175487223656546, 35.574628332731436 ], [ 135.176675966422749, 35.567713468002182 ], [ 135.162523113251154, 35.56330027888481 ], [ 135.15819258082297, 35.554577332577878 ], [ 135.146742775858456, 35.559399721320119 ], [ 135.138509728041527, 35.550202504941694 ], [ 135.139548053799672, 35.544453053665563 ], [ 135.144403333447144, 35.543890837991853 ], [ 135.155456666891723, 35.530383332924544 ], [ 135.165975551230758, 35.53147638692576 ], [ 135.166018611669642, 35.515065837918144 ], [ 135.151305006021289, 35.509443612832513 ], [ 135.151160000233858, 35.501167504576699 ], [ 135.137956666566993, 35.489559999894141 ], [ 135.137475279260798, 35.481522505159546 ], [ 135.125003891216693, 35.47679138681309 ], [ 135.124326666642446, 35.46921000034132 ], [ 135.109772776092768, 35.463291386588253 ], [ 135.105777781619395, 35.458120837906392 ], [ 135.105605279060455, 35.449691387147823 ], [ 135.090011388215089, 35.443055278978022 ], [ 135.069563061286317, 35.444938333437392 ], [ 135.059171115354729, 35.452163332971509 ], [ 135.047781115306293, 35.452180558585951 ], [ 135.040956109037211, 35.473468333396909 ], [ 135.035098884805734, 35.476630838042809 ], [ 135.0402127761987, 35.481856107773183 ], [ 135.042209727996578, 35.493933892235418 ], [ 135.032163605565984, 35.497157774711582 ], [ 135.045155836872482, 35.508693053941329 ], [ 135.036191115028032, 35.530609999851663 ], [ 135.037103890931917, 35.537264440701449 ], [ 135.053457224171666, 35.531463333266288 ], [ 135.082367223668484, 35.539554720773822 ], [ 135.093650000247408, 35.548668891955856 ], [ 135.11892583665815, 35.547124441240044 ], [ 135.131536938878639, 35.558471387144834 ], [ 135.145387224141132, 35.583995838437261 ], [ 135.163346667414885, 35.591709999916588 ], [ 135.161982502890282, 35.596671666664122 ], [ 135.166254720578991, 35.602553053880399 ], [ 135.177210557621152, 35.606824440595517 ], [ 135.177323332605738, 35.606634171030237 ] ] ] } },
{ "type": "Feature", "properties": { "regioncode": "2620200", "regionname": "京都府舞鶴市", "name": "舞鶴市", "namekana": "まいづるし", "PrefCode": "26" }, "geometry": { "type": "MultiPolygon", "coordinates": [ [ [ [ 135.314099441935809, 35.455664559172135 ], [ 135.315517197960389, 35.458159774953685 ], [ 135.31475605674666, 35.455846305862394 ], [ 135.314099441935809, 35.455664559172135 ] ] ], [ [ [ 135.334293449583129, 35.474657999766919 ], [ 135.334144720602467, 35.470799468420807 ], [ 135.329505188313874, 35.470348251570613 ], [ 135.333671698789885, 35.474173748120052 ], [ 135.334293449583129, 35.474657999766919 ] ] ], [ [ [ 135.36798749702541, 35.49843346842988 ], [ 135.368503891341561, 35.495972801903349 ], [ 135.367951088871678, 35.498467171422874 ], [ 135.36798749702541, 35.49843346842988 ] ] ], [ [ [ 135.342391777158809, 35.497521054053436 ], [ 135.347751829183608, 35.496251694260309 ], [ 135.338294669163702, 35.493531306224838 ], [ 135.339163281160609, 35.498323467853822 ], [ 135.34217027234024, 35.497541838285258 ], [ 135.342391777158809, 35.497521054053436 ] ] ], [ [ [ 135.477487977188503, 35.568076053966763 ], [ 135.481279922730323, 35.56656189241744 ], [ 135.477466861106791, 35.568083558809235 ], [ 135.477487977188503, 35.568076053966763 ] ] ], [ [ [ 135.392453332955029, 35.577896666897686 ], [ 135.393832217582826, 35.573400559388347 ], [ 135.392434720585925, 35.577916387231539 ], [ 135.392453332955029, 35.577896666897686 ] ] ], [ [ [ 135.462629728179422, 35.603751666706103 ], [ 135.463119999888136, 35.59258972123871 ], [ 135.457727781811741, 35.59570305365304 ], [ 135.457081672880918, 35.591942224654019 ], [ 135.45176083039803, 35.590766666848253 ], [ 135.456105837414498, 35.584779441118371 ], [ 135.447866277606636, 35.578528586325262 ], [ 135.451182192204442, 35.568715721053763 ], [ 135.46508469480284, 35.571204891592515 ], [ 135.46859914373556, 35.566200864977986 ], [ 135.465850946863725, 35.561952776099815 ], [ 135.473160116646113, 35.563424801713268 ], [ 135.473312631772615, 35.55703650533053 ], [ 135.486599635664675, 35.557936332795578 ], [ 135.460484578000887, 35.548456892971274 ], [ 135.449405667837368, 35.525893305731529 ], [ 135.449926199934225, 35.520796079675392 ], [ 135.476224552920826, 35.50549274809191 ], [ 135.472575940427419, 35.50117636020093 ], [ 135.476206783216526, 35.489447467726507 ], [ 135.470435642091275, 35.489139135162986 ], [ 135.458333112782952, 35.468531360234124 ], [ 135.470732309548566, 35.455372468364772 ], [ 135.444967497352195, 35.431452225040232 ], [ 135.4345374966083, 35.428886945775957 ], [ 135.427723060970607, 35.433759999624328 ], [ 135.4199086115932, 35.425961666997409 ], [ 135.408672502633976, 35.427918053975077 ], [ 135.403021115232377, 35.411861945772216 ], [ 135.409733890606617, 35.400342775198965 ], [ 135.408117496825071, 35.394432775152495 ], [ 135.403236939033604, 35.39475027900221 ], [ 135.391698054421681, 35.382629999774736 ], [ 135.383982218404753, 35.380032774792767 ], [ 135.377705278775693, 35.39408083806029 ], [ 135.368163060876668, 35.392350838320567 ], [ 135.3590455514111, 35.396809441402638 ], [ 135.350857781761306, 35.393283613348103 ], [ 135.347497223917799, 35.386575838204408 ], [ 135.338934721160513, 35.39341972124322 ], [ 135.329178612103306, 35.386617225004954 ], [ 135.310379169663065, 35.382921107623076 ], [ 135.297018885413308, 35.389715559425554 ], [ 135.295396109143212, 35.396820558821787 ], [ 135.288085550807637, 35.39852889209476 ], [ 135.229156393652715, 35.396277774799501 ], [ 135.223009999611804, 35.399715838015538 ], [ 135.216754162574603, 35.411312225279005 ], [ 135.203601115399238, 35.41429222510618 ], [ 135.20482194597605, 35.424304170601033 ], [ 135.200600829564678, 35.427121108052745 ], [ 135.185263061141427, 35.431646108081452 ], [ 135.174491114773218, 35.428191667311637 ], [ 135.168881115071486, 35.430361386968514 ], [ 135.171021114832683, 35.437076666954681 ], [ 135.166774721176466, 35.441846108111463 ], [ 135.172563891010782, 35.448893053571624 ], [ 135.159426394012939, 35.455363892429716 ], [ 135.17418888500913, 35.456820838211172 ], [ 135.184939441901747, 35.462476667364342 ], [ 135.185958884594925, 35.469885838160963 ], [ 135.201477224294536, 35.481656945711507 ], [ 135.201063061311288, 35.490024441275011 ], [ 135.218808885022099, 35.492964720745306 ], [ 135.221282502685426, 35.500744171206577 ], [ 135.234214162853391, 35.511182225379457 ], [ 135.241734720980617, 35.507330278869347 ], [ 135.254164721324855, 35.510493054211111 ], [ 135.273668611717085, 35.49216694564808 ], [ 135.28403805391315, 35.489801946302805 ], [ 135.288482502565557, 35.516114999607623 ], [ 135.310658144757667, 35.512303170954624 ], [ 135.317078080189276, 35.522634918966389 ], [ 135.324111971090701, 35.525708747760575 ], [ 135.3268419971605, 35.518043387092689 ], [ 135.331818418185549, 35.516017801780208 ], [ 135.334867562388126, 35.504496775006203 ], [ 135.33043221757282, 35.492423864869522 ], [ 135.323868080347665, 35.489109026760218 ], [ 135.32488564165908, 35.480916387281525 ], [ 135.316778755235418, 35.479599838262004 ], [ 135.316801997314428, 35.476122972896917 ], [ 135.321959363733754, 35.47580105427528 ], [ 135.315197691320463, 35.471431386949007 ], [ 135.320207327905905, 35.471407134931383 ], [ 135.316208145289693, 35.458816946444983 ], [ 135.310914150267877, 35.458070793332524 ], [ 135.316712826835555, 35.451154918664599 ], [ 135.321728274840098, 35.452441666849495 ], [ 135.32107082995492, 35.458000693876954 ], [ 135.32591769104863, 35.456592027300246 ], [ 135.32544878093654, 35.463789414050268 ], [ 135.331006252136945, 35.468668053587862 ], [ 135.347505305225695, 35.475264864981568 ], [ 135.345654189289462, 35.479179720867478 ], [ 135.348970895290677, 35.481670135168656 ], [ 135.340787029597777, 35.479845387354771 ], [ 135.349552826801528, 35.486394198333642 ], [ 135.347444059595773, 35.49445917095403 ], [ 135.360600946876275, 35.487523531885529 ], [ 135.379503799660711, 35.49045761322833 ], [ 135.382684306035912, 35.484729667440263 ], [ 135.372664811631807, 35.481371640289012 ], [ 135.371845188404791, 35.476870721406726 ], [ 135.383236200190595, 35.478167720963597 ], [ 135.386071971244519, 35.475172359816611 ], [ 135.385414967926522, 35.478652333238642 ], [ 135.391862827307705, 35.482838585632294 ], [ 135.394074059670174, 35.477580279306494 ], [ 135.398220725705983, 35.478885441110265 ], [ 135.394884942386284, 35.484706838150089 ], [ 135.400864111989222, 35.50048130566779 ], [ 135.393921309820712, 35.49963233306579 ], [ 135.390542826690194, 35.507689801743027 ], [ 135.397392581402528, 35.514694505147361 ], [ 135.395096226409805, 35.516871387004983 ], [ 135.388826718778091, 35.516382135127458 ], [ 135.380035162292984, 35.502393919044152 ], [ 135.372421971297058, 35.506267171392892 ], [ 135.35558191957, 35.50234467576621 ], [ 135.343500466773207, 35.504097693653705 ], [ 135.345354915596886, 35.506541864815233 ], [ 135.342102217943079, 35.507402918909634 ], [ 135.347400414597473, 35.509798891805474 ], [ 135.343951115251798, 35.515698332911768 ], [ 135.349745668427886, 35.519188946212921 ], [ 135.337665421621978, 35.525173892161433 ], [ 135.338674889934282, 35.547768468240292 ], [ 135.343751581770107, 35.551927919038292 ], [ 135.3439103372923, 35.54457313474245 ], [ 135.348442750432696, 35.542986612841958 ], [ 135.367780337292743, 35.551818612738828 ], [ 135.37937130973819, 35.56203586536293 ], [ 135.39013296966084, 35.556547170715419 ], [ 135.399231505229864, 35.560822919142481 ], [ 135.398557224136653, 35.566663414185257 ], [ 135.402242892295703, 35.561232386765312 ], [ 135.413148340323687, 35.570231945647834 ], [ 135.426786640990713, 35.566513224705602 ], [ 135.425175771744534, 35.574447387337102 ], [ 135.428868611996904, 35.577280839039531 ], [ 135.426215279211874, 35.580356945816447 ], [ 135.435572217883646, 35.582036667158491 ], [ 135.434102502628434, 35.590807505062344 ], [ 135.444655551312735, 35.590856946191138 ], [ 135.449613061393734, 35.593498891760476 ], [ 135.45085167336606, 35.599410837939843 ], [ 135.462530558138837, 35.6037763872705 ], [ 135.462629728179422, 35.603751666706103 ] ] ], [ [ [ 135.478911673235189, 35.605153892338308 ], [ 135.480229170140205, 35.592891108338051 ], [ 135.474429169770474, 35.595016108306822 ], [ 135.478916938765792, 35.60518861336385 ], [ 135.478911673235189, 35.605153892338308 ] ] ], [ [ [ 135.425222218130898, 35.687415837670812 ], [ 135.427687782365297, 35.681394999779457 ], [ 135.423481946334846, 35.676404441411876 ], [ 135.421299727900191, 35.680262774907192 ], [ 135.425222218130898, 35.687460837947356 ], [ 135.425222218130898, 35.687415837670812 ] ] ], [ [ [ 135.436935006445424, 35.712942225203562 ], [ 135.438619999613366, 35.708717775005368 ], [ 135.436907223689445, 35.712964720845264 ], [ 135.436935006445424, 35.712942225203562 ] ] ] ] } },
{ "type": "Feature", "properties": { "regioncode": "2620300", "regionname": "京都府綾部市", "name": "綾部市", "namekana": "あやべし", "PrefCode": "26" }, "geometry": { "type": "Polygon", "coordinates": [ [ [ 135.471233139297965, 35.453795532338006 ], [ 135.486120636058558, 35.44857302712353 ], [ 135.488802865859611, 35.438736918873758 ], [ 135.497943450130151, 35.43742358582989 ], [ 135.500789558891142, 35.433007748209093 ], [ 135.495276200336434, 35.426149693653485 ], [ 135.502048974880381, 35.420031360259145 ], [ 135.510796226264915, 35.424560532242822 ], [ 135.523930661071176, 35.421831332649958 ], [ 135.529988444011565, 35.410091613237398 ], [ 135.525148443845637, 35.402460252338813 ], [ 135.531695940015652, 35.392966640098393 ], [ 135.526155109870501, 35.386002468239383 ], [ 135.527587860291533, 35.380113306384033 ], [ 135.534502049629964, 35.377439135407826 ], [ 135.534402866099413, 35.371247748284986 ], [ 135.52178036317332, 35.36968080192753 ], [ 135.516362023388751, 35.364700801600748 ], [ 135.500316161162004, 35.360139693791893 ], [ 135.505887223816444, 35.349592225400954 ], [ 135.4997836060287, 35.347594440830846 ], [ 135.498103333402128, 35.342152775330362 ], [ 135.486259441919742, 35.345657505289694 ], [ 135.457875837200163, 35.344636108369741 ], [ 135.45532944190029, 35.348539999721254 ], [ 135.441271388064138, 35.341602775148033 ], [ 135.428538053588341, 35.342302775053099 ], [ 135.416803061012502, 35.334741386805604 ], [ 135.414281673160758, 35.328554999913365 ], [ 135.403266393629224, 35.326331107794431 ], [ 135.384612776258678, 35.314942224703941 ], [ 135.378996108983301, 35.302399170585318 ], [ 135.368430557923944, 35.29296944078709 ], [ 135.351484163163718, 35.289387504929437 ], [ 135.345124163049718, 35.281893892289361 ], [ 135.337266394228777, 35.279290837901897 ], [ 135.332404162821945, 35.271119170613304 ], [ 135.318999728154949, 35.274035000215122 ], [ 135.291706108949825, 35.26529861264089 ], [ 135.27224555059172, 35.271677774609657 ], [ 135.246668612166786, 35.263851107942344 ], [ 135.238593890895459, 35.264882775120043 ], [ 135.221185006283122, 35.277306107890638 ], [ 135.202572218133469, 35.284278054388778 ], [ 135.197616666775843, 35.30820889172702 ], [ 135.185268611757124, 35.311224440855312 ], [ 135.185988611685161, 35.31572138743212 ], [ 135.19280111467981, 35.318822775051103 ], [ 135.192007497148325, 35.332120559116561 ], [ 135.189431673333161, 35.338889721083831 ], [ 135.172813333268778, 35.346963613180264 ], [ 135.186341672929871, 35.354788892193653 ], [ 135.188924163419415, 35.360162225406441 ], [ 135.173606109034722, 35.370618891948368 ], [ 135.183460829653654, 35.373103612641671 ], [ 135.18887360623205, 35.370627504755589 ], [ 135.193143606192507, 35.374725000358524 ], [ 135.20270778193867, 35.371746945764983 ], [ 135.203112776333569, 35.383261108013755 ], [ 135.209630000424227, 35.394104721355859 ], [ 135.225484163163628, 35.391458891614604 ], [ 135.234271946093486, 35.398390838066803 ], [ 135.250580000266837, 35.395514441038699 ], [ 135.254396108793458, 35.399068613026145 ], [ 135.266583891133678, 35.399633613000901 ], [ 135.270691388097134, 35.396345838189916 ], [ 135.288085550807637, 35.39852889209476 ], [ 135.295396109143212, 35.396820558821787 ], [ 135.297018885413308, 35.389715559425554 ], [ 135.310379169663065, 35.382921107623076 ], [ 135.329178612103306, 35.386617225004954 ], [ 135.338934721160513, 35.39341972124322 ], [ 135.347497223917799, 35.386575838204408 ], [ 135.350857781761306, 35.393283613348103 ], [ 135.3590455514111, 35.396809441402638 ], [ 135.368163060876668, 35.392350838320567 ], [ 135.377705278775693, 35.39408083806029 ], [ 135.384652217825646, 35.380114999807461 ], [ 135.39391194607947, 35.38410889171206 ], [ 135.403236939033604, 35.39475027900221 ], [ 135.408117496825071, 35.394432775152495 ], [ 135.409733890606617, 35.400342775198965 ], [ 135.403021115232377, 35.411861945772216 ], [ 135.408672502633976, 35.427918053975077 ], [ 135.4199086115932, 35.425961666997409 ], [ 135.427723060970607, 35.433759999624328 ], [ 135.4345374966083, 35.428886945775957 ], [ 135.444967497352195, 35.431452225040232 ], [ 135.470943696094764, 35.453963307160961 ], [ 135.471233139297965, 35.453795532338006 ] ] ] } },
{ "type": "Feature", "properties": { "regioncode": "2620400", "regionname": "京都府宇治市", "name": "宇治市", "namekana": "うじし", "PrefCode": "26" }, "geometry": { "type": "Polygon", "coordinates": [ [ [ 135.851011946144467, 34.957366667437782 ], [ 135.859465279299229, 34.957089440625225 ], [ 135.862015550677143, 34.951100829040058 ], [ 135.878777782268912, 34.946858612734843 ], [ 135.876028339836125, 34.943229720575175 ], [ 135.879924449353894, 34.93452499992884 ], [ 135.868654449443397, 34.919524999778957 ], [ 135.871178340108372, 34.909948613038125 ], [ 135.862933605601484, 34.903387225040433 ], [ 135.867645551301166, 34.893716387001689 ], [ 135.861709999716822, 34.890784721237935 ], [ 135.859086108936822, 34.883973891881681 ], [ 135.849041672735098, 34.882044999876882 ], [ 135.843015006337509, 34.870632495193547 ], [ 135.826833061396769, 34.865388333404894 ], [ 135.829556667206475, 34.85942638671844 ], [ 135.824856393807636, 34.857925559417083 ], [ 135.801534162771418, 34.867172225018237 ], [ 135.759882502875257, 34.868516667410347 ], [ 135.759646108880929, 34.874453891733765 ], [ 135.767100505683857, 34.874473080568293 ], [ 135.765824162655008, 34.88622582935858 ], [ 135.759785837446543, 34.886180559285435 ], [ 135.760015837261108, 34.893443333043422 ], [ 135.766757782145987, 34.893535000040288 ], [ 135.760916394076389, 34.908084721332898 ], [ 135.776128054166406, 34.916136107895113 ], [ 135.789837496603241, 34.916993332676213 ], [ 135.796887497060425, 34.937877224654244 ], [ 135.798119169863867, 34.934146108356288 ], [ 135.810838340017426, 34.936531441372949 ], [ 135.818136939168426, 34.926648053964584 ], [ 135.829412775679089, 34.927392224971243 ], [ 135.830503333162369, 34.93623110827906 ], [ 135.844694162905398, 34.935503892190923 ], [ 135.840020000422783, 34.930457494917505 ], [ 135.847274163172187, 34.930842775273902 ], [ 135.849942502944259, 34.939227224856609 ], [ 135.844579441787914, 34.948336108024989 ], [ 135.851007782283432, 34.957366108059489 ], [ 135.851011946144467, 34.957366667437782 ] ] ] } },
{ "type": "Feature", "properties": { "regioncode": "2620500", "regionname": "京都府宮津市", "name": "宮津市", "namekana": "みやづし", "PrefCode": "26" }, "geometry": { "type": "Polygon", "coordinates": [ [ [ 135.270399999660299, 35.693456108112969 ], [ 135.277320272012958, 35.689581108381503 ], [ 135.276494721354425, 35.682845278886589 ], [ 135.26681472102257, 35.676281666865464 ], [ 135.273073605862237, 35.672486946015795 ], [ 135.270533333146886, 35.669699170880108 ], [ 135.274396640792361, 35.66725973914572 ], [ 135.26521130985418, 35.66490025174528 ], [ 135.263355616368699, 35.658199171154877 ], [ 135.264959663357786, 35.660526801870446 ], [ 135.252884358326583, 35.648980639944625 ], [ 135.244627690715447, 35.620446000382685 ], [ 135.235293112786962, 35.61632244062821 ], [ 135.2226106997241, 35.600927972647867 ], [ 135.213892283302243, 35.597834559317505 ], [ 135.205180726009758, 35.58216086533173 ], [ 135.191576524037373, 35.5694235045911 ], [ 135.186611920104042, 35.557533279137601 ], [ 135.187370894851028, 35.547404748230576 ], [ 135.192487444639937, 35.540191802309892 ], [ 135.198829052718679, 35.536924360271087 ], [ 135.205651335840571, 35.539682532423001 ], [ 135.210874279924155, 35.549689332896435 ], [ 135.203993747713298, 35.555267251982173 ], [ 135.204234864047748, 35.559630170795799 ], [ 135.225365616330237, 35.567931080554956 ], [ 135.230073060923132, 35.576598332746926 ], [ 135.228005615766619, 35.585560135391972 ], [ 135.237759169849824, 35.581565667021948 ], [ 135.254457302262722, 35.599679360214338 ], [ 135.256294253876831, 35.588240919083205 ], [ 135.24741664126509, 35.586566973187303 ], [ 135.247996498040038, 35.579981837691719 ], [ 135.25341221809947, 35.577577666576076 ], [ 135.250689338941925, 35.57082605397926 ], [ 135.255056419817947, 35.567612892321165 ], [ 135.268148171001371, 35.56746261290931 ], [ 135.27484425405919, 35.560180197957834 ], [ 135.261682049087312, 35.553617171395388 ], [ 135.254205473204138, 35.555712865156636 ], [ 135.253729882927814, 35.552458531635978 ], [ 135.249333747654418, 35.555289801583115 ], [ 135.251158858794383, 35.560726027084513 ], [ 135.244624188755324, 35.561228532271002 ], [ 135.237483890968861, 35.554084612914608 ], [ 135.237100856219627, 35.546360558892729 ], [ 135.244731335782603, 35.535585134846144 ], [ 135.269106886973304, 35.533491837778115 ], [ 135.273213695955405, 35.52865538723637 ], [ 135.27205058386744, 35.524714504970461 ], [ 135.288650143389418, 35.516251603928424 ], [ 135.284156667296429, 35.489889441344701 ], [ 135.273668611717085, 35.49216694564808 ], [ 135.254164721324855, 35.510493054211111 ], [ 135.241734720980617, 35.507330278869347 ], [ 135.234214162853391, 35.511182225379457 ], [ 135.221282502685426, 35.500744171206577 ], [ 135.218808885022099, 35.492964720745306 ], [ 135.201063061311288, 35.490024441275011 ], [ 135.201102502878257, 35.481132224572548 ], [ 135.185958884594925, 35.469885838160963 ], [ 135.185108339978001, 35.462627224666733 ], [ 135.174456938736853, 35.456919721368081 ], [ 135.159426394012939, 35.455363892429716 ], [ 135.148618612359087, 35.459400279099668 ], [ 135.143686108826955, 35.4660088922966 ], [ 135.124817224335516, 35.469725278598787 ], [ 135.123445006381985, 35.475222505114573 ], [ 135.137314720597942, 35.481371386680223 ], [ 135.137956666566993, 35.489559999894141 ], [ 135.151095837203229, 35.501039441117371 ], [ 135.151305006021289, 35.509443612832513 ], [ 135.162461388282509, 35.511821108257607 ], [ 135.167466939247902, 35.518660000059015 ], [ 135.165161115293245, 35.532286667096059 ], [ 135.155456666891723, 35.530383332924544 ], [ 135.138312218034457, 35.546773613011908 ], [ 135.138780271992005, 35.551967505396135 ], [ 135.146742775858456, 35.559399721320119 ], [ 135.15819258082297, 35.554577332577878 ], [ 135.162523113251154, 35.56330027888481 ], [ 135.176675966422749, 35.567713468002182 ], [ 135.171076666854788, 35.582614171307 ], [ 135.180340558070384, 35.597695559202748 ], [ 135.183337224133652, 35.6138238919591 ], [ 135.160341387644962, 35.629639999886138 ], [ 135.158390557578286, 35.643785558656646 ], [ 135.163328340130874, 35.653928333026215 ], [ 135.176145279181355, 35.655051386612229 ], [ 135.180024449069151, 35.670406386945274 ], [ 135.185125006214093, 35.667438332812878 ], [ 135.192710558345652, 35.669513054384026 ], [ 135.197911945679834, 35.66384222543843 ], [ 135.20484555138114, 35.663886946025798 ], [ 135.198153891189236, 35.674489999713785 ], [ 135.206553060875081, 35.687121387042453 ], [ 135.226608054018584, 35.689166666608457 ], [ 135.238836108899363, 35.684904720976135 ], [ 135.270249169863405, 35.69355527905293 ], [ 135.270399999660299, 35.693456108112969 ] ] ] } },
{ "type": "Feature", "properties": { "regioncode": "2620600", "regionname": "京都府亀岡市", "name": "亀岡市", "namekana": "かめおかし", "PrefCode": "26" }, "geometry": { "type": "Polygon", "coordinates": [ [ [ 135.575516939155477, 35.098474721131538 ], [ 135.587046666870265, 35.099240558604947 ], [ 135.597922776315158, 35.094346386876282 ], [ 135.590063891435534, 35.077163332821613 ], [ 135.600019442243479, 35.070363333101398 ], [ 135.602749728217418, 35.062728053856631 ], [ 135.617216394421121, 35.068333892395287 ], [ 135.62191000024643, 35.064710558945194 ], [ 135.617442217784173, 35.055471667083793 ], [ 135.6172144491876, 35.042787225150391 ], [ 135.621776394265225, 35.038033333271756 ], [ 135.626330272424184, 35.039527225001507 ], [ 135.6379780541439, 35.0275738923213 ], [ 135.639748339914036, 35.021909441367654 ], [ 135.636385279257297, 35.018971108030257 ], [ 135.646745006077253, 35.007476945804456 ], [ 135.64606778240227, 35.001294170589574 ], [ 135.638946108676009, 34.997756946326092 ], [ 135.637530271804621, 34.982231666558221 ], [ 135.641156667446353, 34.975312774664872 ], [ 135.594761387727885, 34.969711108081242 ], [ 135.592364720555452, 34.966040278735932 ], [ 135.582551946115473, 34.976756108307825 ], [ 135.570926667232015, 34.969788332865335 ], [ 135.571339727646432, 34.963647225039438 ], [ 135.578287781855693, 34.960587225120378 ], [ 135.578577781739341, 34.955885000192666 ], [ 135.563131387803423, 34.953663892374777 ], [ 135.562382502550463, 34.943755558672137 ], [ 135.557186666731354, 34.938691666886996 ], [ 135.558370557655167, 34.932771386690206 ], [ 135.563082503354963, 34.942191667311647 ], [ 135.566016667435292, 34.940127775376595 ], [ 135.563039170421462, 34.933346387126107 ], [ 135.571799728174938, 34.939063612995369 ], [ 135.581191115377692, 34.936964161866626 ], [ 135.581258053716283, 34.922451667110806 ], [ 135.57245055764713, 34.91640722471368 ], [ 135.553408053638805, 34.915536386894814 ], [ 135.54947027223534, 34.918554161845123 ], [ 135.541060272013965, 34.915309720866958 ], [ 135.536065005695491, 34.920468892225642 ], [ 135.538145837260686, 34.925399721220231 ], [ 135.51727138816409, 34.933479720612695 ], [ 135.514593606409903, 34.94411972114824 ], [ 135.504198340181347, 34.94639805372725 ], [ 135.494355005878901, 34.940854720768812 ], [ 135.481408612117775, 34.94948082897713 ], [ 135.487328885120064, 34.957167494584269 ], [ 135.481936393649676, 34.965229720675097 ], [ 135.487121673226738, 34.966771387089921 ], [ 135.486251672676644, 34.963923333095408 ], [ 135.490916394076407, 34.968021945656346 ], [ 135.48826277620617, 34.967293892299324 ], [ 135.483162775741562, 34.981868333257012 ], [ 135.49359749702694, 34.988515558846018 ], [ 135.487192217846655, 34.992397225251807 ], [ 135.471221672941965, 34.994804721161017 ], [ 135.436188339820092, 35.008406666734345 ], [ 135.421448611564188, 35.002138892096241 ], [ 135.409767223978292, 35.011525558757569 ], [ 135.403247223680523, 35.006691945576904 ], [ 135.397473890907349, 35.010641667279174 ], [ 135.382081673030825, 35.010141387015437 ], [ 135.377921672747107, 35.017969999815705 ], [ 135.382252776244741, 35.030952225265025 ], [ 135.386023333210346, 35.028012224584529 ], [ 135.393188339870107, 35.029471666883978 ], [ 135.397717496565292, 35.024741667294165 ], [ 135.426465005655587, 35.028517505078867 ], [ 135.434434162706452, 35.024640278626009 ], [ 135.442883061304315, 35.036755838211434 ], [ 135.448897496921973, 35.036721946360785 ], [ 135.469257496936052, 35.054213332978975 ], [ 135.476747496999451, 35.072319720978385 ], [ 135.484046667220014, 35.068993892254355 ], [ 135.50555082970709, 35.069118891723519 ], [ 135.505601387793831, 35.063228612910223 ], [ 135.523350557882054, 35.06156944107687 ], [ 135.526366938883143, 35.05729889163058 ], [ 135.538858340440129, 35.059714720657894 ], [ 135.537040271891101, 35.065173892361315 ], [ 135.540720830102259, 35.066693612620156 ], [ 135.553320557697589, 35.061613613077839 ], [ 135.556972775573172, 35.071650837616119 ], [ 135.553271114770155, 35.07468889227863 ], [ 135.551788885448786, 35.084991108352995 ], [ 135.560847497414102, 35.0900472245998 ], [ 135.564798884660831, 35.098636946238116 ], [ 135.571403333097464, 35.101290000233348 ], [ 135.575217497289714, 35.098590278618531 ], [ 135.575516939155477, 35.098474721131538 ] ] ] } },
{ "type": "Feature", "properties": { "regioncode": "2620700", "regionname": "京都府城陽市", "name": "城陽市", "namekana": "じょうようし", "PrefCode": "26" }, "geometry": { "type": "Polygon", "coordinates": [ [ [ 135.784410272416153, 34.868548053749748 ], [ 135.801534162771418, 34.867172225018237 ], [ 135.820786108991797, 34.858302494964221 ], [ 135.833799727975133, 34.857938613076612 ], [ 135.83375138761653, 34.848475279210845 ], [ 135.841434526981857, 34.846490945800554 ], [ 135.841595836578676, 34.840565829049808 ], [ 135.848204721370848, 34.836219721263205 ], [ 135.847710829890957, 34.824798612765846 ], [ 135.820788054225432, 34.826302774753287 ], [ 135.790712217694704, 34.821595558588228 ], [ 135.781843061408267, 34.830896107969068 ], [ 135.762807496568826, 34.834855559436562 ], [ 135.752429441565596, 34.849957225245817 ], [ 135.752363333301219, 34.865486387386909 ], [ 135.749456394397157, 34.868245829381578 ], [ 135.78398055835612, 34.868734440941751 ], [ 135.784410272416153, 34.868548053749748 ] ] ] } },
{ "type": "Feature", "properties": { "regioncode": "2620800", "regionname": "京都府向日市", "name": "向日市", "namekana": "むこうし", "PrefCode": "26" }, "geometry": { "type": "Polygon", "coordinates": [ [ [ 135.683093060796182, 34.964808891916903 ], [ 135.684260000398808, 34.969484999633096 ], [ 135.687480558081347, 34.966763892139966 ], [ 135.699685005758511, 34.968613053849424 ], [ 135.702314721447351, 34.963399999610374 ], [ 135.709980000276801, 34.962523053596101 ], [ 135.709559442214527, 34.955723892044034 ], [ 135.717441672595214, 34.950576107901099 ], [ 135.718350829627184, 34.944802495438864 ], [ 135.714604163151648, 34.929062224641996 ], [ 135.70027000036032, 34.929175559004875 ], [ 135.69607944201266, 34.947784441398881 ], [ 135.683104162926838, 34.964583332954476 ], [ 135.683093060796182, 34.964808891916903 ] ] ] } },
{ "type": "Feature", "properties": { "regioncode": "2620900", "regionname": "京都府長岡京市", "name": "長岡京市", "namekana": "ながおかきょうし", "PrefCode": "26" }, "geometry": { "type": "Polygon", "coordinates": [ [ [ 135.695760557703693, 34.945953332680233 ], [ 135.70027000036032, 34.929175559004875 ], [ 135.714604163151648, 34.929062224641996 ], [ 135.717382502600458, 34.925066386604499 ], [ 135.709555279252754, 34.909148333328972 ], [ 135.696339169816952, 34.910975828571679 ], [ 135.690853605709435, 34.907617494751605 ], [ 135.687614720742886, 34.912740829026063 ], [ 135.676892218201374, 34.914011107926342 ], [ 135.664088611600164, 34.902158054150902 ], [ 135.663712218344244, 34.905146108306326 ], [ 135.648502218402768, 34.909547494721153 ], [ 135.648248612283737, 34.916854441379428 ], [ 135.653492218291262, 34.917731107704526 ], [ 135.643159728338901, 34.929713612593218 ], [ 135.659354720643933, 34.932968054032528 ], [ 135.674612503364415, 34.945690828668887 ], [ 135.695746109195625, 34.946030829059566 ], [ 135.695760557703693, 34.945953332680233 ] ] ] } },
{ "type": "Feature", "properties": { "regioncode": "2621000", "regionname": "京都府八幡市", "name": "八幡市", "namekana": "やわたし", "PrefCode": "26" }, "geometry": { "type": "MultiPolygon", "coordinates": [ [ [ [ 135.726052503120627, 34.827939162262567 ], [ 135.730147224315033, 34.827564440846345 ], [ 135.731080000241832, 34.822663613235193 ], [ 135.724167782217478, 34.823283613048375 ], [ 135.726004721240997, 34.828061667012378 ], [ 135.726052503120627, 34.827939162262567 ] ] ], [ [ [ 135.732454721008594, 34.879196107714279 ], [ 135.728712502580038, 34.885154720613912 ], [ 135.732081945725326, 34.880783054094707 ], [ 135.732454721008594, 34.879196107714279 ] ] ], [ [ [ 135.721980272171891, 34.887723892143981 ], [ 135.719418340184347, 34.888243613052339 ], [ 135.722125006363967, 34.887784440799351 ], [ 135.721980272171891, 34.887723892143981 ] ] ], [ [ [ 135.70523639394446, 34.895328613324921 ], [ 135.711945278851658, 34.89320361335615 ], [ 135.715441672994871, 34.882784441348917 ], [ 135.747901673423598, 34.871279441393142 ], [ 135.752363333301219, 34.865486387386909 ], [ 135.752878339963445, 34.849029161766452 ], [ 135.73970639443462, 34.849795829314132 ], [ 135.733391673387132, 34.854024721263954 ], [ 135.720418885423328, 34.839649999947596 ], [ 135.722481387905759, 34.836238053943077 ], [ 135.718697807857666, 34.831820747729353 ], [ 135.705303605676932, 34.85099027917812 ], [ 135.695073606062124, 34.848109161608591 ], [ 135.690651387751359, 34.856519161829908 ], [ 135.694653333084943, 34.861339440762606 ], [ 135.691381945720309, 34.861380829361849 ], [ 135.691117781560479, 34.868889440895032 ], [ 135.682411114781189, 34.87225277494565 ], [ 135.683518611894442, 34.877632774832762 ], [ 135.679922217636317, 34.881341387395139 ], [ 135.685339728245935, 34.890478612697848 ], [ 135.704603060782688, 34.896943053778955 ], [ 135.70523639394446, 34.895328613324921 ] ] ], [ [ [ 135.718552218410196, 34.892303613221202 ], [ 135.715951114652285, 34.899229721274651 ], [ 135.718735550605288, 34.892369440897028 ], [ 135.718552218410196, 34.892303613221202 ] ] ] ] } },
{ "type": "Feature", "properties": { "regioncode": "2621100", "regionname": "京都府京田辺市", "name": "京田辺市", "namekana": "きょうたなべし", "PrefCode": "26" }, "geometry": { "type": "Polygon", "coordinates": [ [ [ 135.734983890694025, 34.853410279261027 ], [ 135.73970639443462, 34.849795829314132 ], [ 135.752878339963445, 34.849029161766452 ], [ 135.763812218259318, 34.834251386792118 ], [ 135.785183333244277, 34.82883166744756 ], [ 135.802419170308553, 34.808290278673496 ], [ 135.797758885264443, 34.795753892128459 ], [ 135.800443606187514, 34.790067495018945 ], [ 135.786361672653129, 34.788922224581029 ], [ 135.782069728335387, 34.780052224730412 ], [ 135.759967496902505, 34.779488332720405 ], [ 135.753925279428131, 34.769089161635577 ], [ 135.761850830151729, 34.763669441391642 ], [ 135.755775279305794, 34.763956108387731 ], [ 135.736707782238454, 34.751809720941935 ], [ 135.73207000003049, 34.757336667353343 ], [ 135.728634721115554, 34.777998053567387 ], [ 135.740775550751096, 34.788468612836255 ], [ 135.746458612275205, 34.80246722508241 ], [ 135.730147224315033, 34.827564440846345 ], [ 135.723274721251414, 34.826234161877096 ], [ 135.718697807857666, 34.831820747729353 ], [ 135.722481387905759, 34.836238053943077 ], [ 135.720418885423328, 34.839649999947596 ], [ 135.734983890694025, 34.853571387409659 ], [ 135.734983890694025, 34.853410279261027 ] ] ] } },
{ "type": "Feature", "properties": { "regioncode": "2630300", "regionname": "京都府大山崎町", "name": "大山崎町", "namekana": "おおやまざきちょう", "PrefCode": "26" }, "geometry": { "type": "Polygon", "coordinates": [ [ [ 135.667103333352202, 34.904225829358609 ], [ 135.676892218201374, 34.914011107926342 ], [ 135.687614720742886, 34.912740829026063 ], [ 135.690853605709435, 34.907617494751605 ], [ 135.696339169816952, 34.910975828571679 ], [ 135.706526108992762, 34.90810722506842 ], [ 135.705462775786486, 34.90021333317884 ], [ 135.68269444888972, 34.887842224938765 ], [ 135.675140272305839, 34.894923332945496 ], [ 135.675683060824667, 34.89939694571251 ], [ 135.667273060603293, 34.904138333417393 ], [ 135.667103333352202, 34.904225829358609 ] ] ] } },
{ "type": "Feature", "properties": { "regioncode": "2632200", "regionname": "京都府久御山町", "name": "久御山町", "namekana": "くみやまちょう", "PrefCode": "26" }, "geometry": { "type": "MultiPolygon", "coordinates": [ [ [ [ 135.828962775611672, 34.864990558767317 ], [ 135.833193333105896, 34.858349999852635 ], [ 135.827140000011013, 34.860630559153037 ], [ 135.828668054287391, 34.865267774788038 ], [ 135.828962775611672, 34.864990558767317 ] ] ], [ [ [ 135.746439999906102, 34.911576386840807 ], [ 135.75306583691895, 34.90416722503744 ], [ 135.760916394076389, 34.908084721332898 ], [ 135.765070557760055, 34.902434720685847 ], [ 135.766757782145987, 34.893535000040288 ], [ 135.760015837261108, 34.893443333043422 ], [ 135.759785837446543, 34.886180559285435 ], [ 135.765824162655008, 34.88622582935858 ], [ 135.767097781637403, 34.874415414240048 ], [ 135.759646108880929, 34.874453891733765 ], [ 135.759882502875257, 34.868516667410347 ], [ 135.749456394397157, 34.868245829381578 ], [ 135.732526394277784, 34.874869721160735 ], [ 135.731607781773732, 34.882888332830362 ], [ 135.722045551261203, 34.888494162375764 ], [ 135.713924163269553, 34.901394161911071 ], [ 135.719573061347774, 34.89810222503769 ], [ 135.725959999754195, 34.902808333238056 ], [ 135.740284162983812, 34.904788613403809 ], [ 135.745969728220416, 34.91136166740705 ], [ 135.746439999906102, 34.911576386840807 ] ] ] ] } },
{ "type": "Feature", "properties": { "regioncode": "2634300", "regionname": "京都府井手町", "name": "井手町", "namekana": "いでちょう", "PrefCode": "26" }, "geometry": { "type": "MultiPolygon", "coordinates": [ [ [ [ 135.851559727699282, 34.800341666634665 ], [ 135.860851945760714, 34.793949162324054 ], [ 135.863678053599301, 34.796656386982704 ], [ 135.860751114672212, 34.79328916156561 ], [ 135.851290830407606, 34.800379162068737 ], [ 135.851559727699282, 34.800341666634665 ] ] ], [ [ [ 135.82199527895898, 34.825715558826005 ], [ 135.853090558182771, 34.825851666721121 ], [ 135.859791672947381, 34.821385279107403 ], [ 135.860381945670269, 34.810781945730241 ], [ 135.866749441633488, 34.812948891877909 ], [ 135.877415837271087, 34.804848054294325 ], [ 135.872482217680272, 34.808111945809685 ], [ 135.868460558308129, 34.798944720922179 ], [ 135.87204972831239, 34.808419720793552 ], [ 135.864130829873943, 34.812690828718814 ], [ 135.86137693939429, 34.810726945891872 ], [ 135.867182217885102, 34.807613054099193 ], [ 135.86810833972811, 34.80267722487406 ], [ 135.836892776180775, 34.800654440949756 ], [ 135.824596109323011, 34.79456805417243 ], [ 135.800443606187514, 34.790067495018945 ], [ 135.797714721357352, 34.795277225363691 ], [ 135.80217333343262, 34.809823054390506 ], [ 135.790712217694704, 34.821595558588228 ], [ 135.821366667237953, 34.826140829335884 ], [ 135.82199527895898, 34.825715558826005 ] ] ] ] } },
{ "type": "Feature", "properties": { "regioncode": "2634400", "regionname": "京都府宇治田原町", "name": "宇治田原町", "namekana": "うじたわらちょう", "PrefCode": "26" }, "geometry": { "type": "Polygon", "coordinates": [ [ [ 135.940353061444739, 34.887980278966779 ], [ 135.939658884649816, 34.881382775095062 ], [ 135.943749170387946, 34.874961666947399 ], [ 135.940926938627399, 34.863890559301922 ], [ 135.946595550744178, 34.852346946054752 ], [ 135.932510000136517, 34.844706108100468 ], [ 135.924010557841029, 34.83301833262999 ], [ 135.911600558419082, 34.834499999875163 ], [ 135.904412776428558, 34.830799161951802 ], [ 135.906884721352867, 34.82712027917762 ], [ 135.897486666576469, 34.822463613005368 ], [ 135.886099170240527, 34.825910828621886 ], [ 135.889491115322812, 34.820808613127042 ], [ 135.886095006379492, 34.81906194625185 ], [ 135.861070558359643, 34.813652495366398 ], [ 135.859791672947381, 34.821385279107403 ], [ 135.853090558182771, 34.825851666721121 ], [ 135.847710829890957, 34.824798612765846 ], [ 135.848204721370848, 34.836219721263205 ], [ 135.841595836578676, 34.840565829049808 ], [ 135.841434526981857, 34.846490945800554 ], [ 135.83375138761653, 34.848475279210845 ], [ 135.83381778186515, 34.859887774900926 ], [ 135.829436938663889, 34.864867494639213 ], [ 135.84336221839169, 34.870866666963138 ], [ 135.848652217725771, 34.881672224593558 ], [ 135.859086108936822, 34.883973891881681 ], [ 135.862682218109967, 34.891489440785108 ], [ 135.886931387573554, 34.883205828586199 ], [ 135.88860111474969, 34.879879999862169 ], [ 135.88500194608298, 34.875546387256009 ], [ 135.897891387577488, 34.871267494799099 ], [ 135.90742250334597, 34.87401861266892 ], [ 135.912655551312696, 34.883516386971735 ], [ 135.923225837302653, 34.883617495051396 ], [ 135.941006938719283, 34.893683333319245 ], [ 135.939975006241639, 34.88827500029106 ], [ 135.940353061444739, 34.887980278966779 ] ] ] } },
{ "type": "Feature", "properties": { "regioncode": "2636400", "regionname": "京都府笠置町", "name": "笠置町", "namekana": "かさぎちょう", "PrefCode": "26" }, "geometry": { "type": "MultiPolygon", "coordinates": [ [ [ [ 135.909295551048899, 34.763816387016675 ], [ 135.915972217743729, 34.755925279428141 ], [ 135.911635279444681, 34.759235828670626 ], [ 135.904267497247247, 34.757296667307401 ], [ 135.915534720950632, 34.753603891806222 ], [ 135.912206938899203, 34.746757495162342 ], [ 135.913237497212776, 34.754370559353902 ], [ 135.91213055767912, 34.750928891655064 ], [ 135.911691114753239, 34.754435558754096 ], [ 135.906837782138041, 34.754077224784169 ], [ 135.911059441739894, 34.751134161912091 ], [ 135.909971387969222, 34.747591108243114 ], [ 135.90288360609361, 34.754379441058404 ], [ 135.903980000176944, 34.761645829191707 ], [ 135.909239442346461, 34.763835279074897 ], [ 135.909295551048899, 34.763816387016675 ] ] ], [ [ [ 135.952376393755685, 34.79746055895771 ], [ 135.960043606127556, 34.794411108086194 ], [ 135.965870272295319, 34.796312774914668 ], [ 135.969030558313648, 34.78802027921256 ], [ 135.966070271625767, 34.783464999909881 ], [ 135.978510830010805, 34.781459161910846 ], [ 135.977087782375293, 34.762366946077748 ], [ 135.971948611938956, 34.761292775141499 ], [ 135.969509441907235, 34.753018891808438 ], [ 135.97178778168086, 34.743026386958263 ], [ 135.958649442018213, 34.740261666842514 ], [ 135.954600558369179, 34.748285278742685 ], [ 135.942895836973321, 34.737491945596844 ], [ 135.936560829918449, 34.740215558601221 ], [ 135.930623890680067, 34.738148892257641 ], [ 135.923138053578327, 34.744681946214882 ], [ 135.928962502917216, 34.756841107631089 ], [ 135.916961673442529, 34.754027494972945 ], [ 135.911751388216089, 34.762017494711642 ], [ 135.920100558294166, 34.764385279257283 ], [ 135.918812218309313, 34.77000805382869 ], [ 135.92623389058167, 34.77418861261441 ], [ 135.941540271766144, 34.77358582942253 ], [ 135.940994448934703, 34.779645559395078 ], [ 135.947686109126721, 34.785891386977994 ], [ 135.952246666550536, 34.797586386702449 ], [ 135.952376393755685, 34.79746055895771 ] ] ] ] } },
{ "type": "Feature", "properties": { "regioncode": "2636500", "regionname": "京都府和束町", "name": "和束町", "namekana": "わづかちょう", "PrefCode": "26" }, "geometry": { "type": "Polygon", "coordinates": [ [ [ 135.958782503010184, 34.855005000280585 ], [ 135.972054448653921, 34.846048892142733 ], [ 135.969866667013093, 34.837778613292414 ], [ 136.003993333325752, 34.844341387145334 ], [ 136.002327781701865, 34.832761945807192 ], [ 136.005499999925064, 34.826407775098801 ], [ 136.012166108579095, 34.825173612971923 ], [ 136.016273333047934, 34.828911386951006 ], [ 136.02845861167566, 34.819115829132272 ], [ 135.99467055809987, 34.82590249460452 ], [ 135.968283333209342, 34.808920278947767 ], [ 135.959928340020952, 34.810905559344121 ], [ 135.953528612355626, 34.807558054260824 ], [ 135.949519441868802, 34.788945829086799 ], [ 135.940994448934703, 34.779645559395078 ], [ 135.941664163270616, 34.773721666621668 ], [ 135.92623389058167, 34.77418861261441 ], [ 135.918812218309313, 34.77000805382869 ], [ 135.920100558294166, 34.764385279257283 ], [ 135.90306444896521, 34.766400829035092 ], [ 135.898808053948642, 34.763250000287314 ], [ 135.898876109245066, 34.769455828723551 ], [ 135.903310272351291, 34.773342775049059 ], [ 135.899474448886735, 34.779282494991207 ], [ 135.891988054205399, 34.768875559159767 ], [ 135.881051945590912, 34.773875829306121 ], [ 135.868827223597577, 34.78788000026185 ], [ 135.872351387906292, 34.793932225391927 ], [ 135.864720830102328, 34.796298613290446 ], [ 135.867318611764631, 34.807257495437113 ], [ 135.86137693939429, 34.810726945891872 ], [ 135.866580000366753, 34.812509721446531 ], [ 135.87204972831239, 34.808419720793552 ], [ 135.868460558308129, 34.798944720922179 ], [ 135.872482217680272, 34.808111945809685 ], [ 135.877366939332887, 34.804971107630593 ], [ 135.866749441633488, 34.812948891877909 ], [ 135.860381945670269, 34.810781945730241 ], [ 135.860791673197241, 34.813421667276202 ], [ 135.886095006379492, 34.81906194625185 ], [ 135.889491115322812, 34.820808613127042 ], [ 135.886099170240527, 34.825910828621886 ], [ 135.897486666576469, 34.822463613005368 ], [ 135.906884721352867, 34.82712027917762 ], [ 135.904412776428558, 34.830799161951802 ], [ 135.911600558419082, 34.834499999875163 ], [ 135.924010557841029, 34.83301833262999 ], [ 135.932510000136517, 34.844706108100468 ], [ 135.958741672889914, 34.855013333398688 ], [ 135.958782503010184, 34.855005000280585 ] ] ] } },
{ "type": "Feature", "properties": { "regioncode": "2636600", "regionname": "京都府精華町", "name": "精華町", "namekana": "せいかちょう", "PrefCode": "26" }, "geometry": { "type": "Polygon", "coordinates": [ [ [ 135.792957781676364, 34.790143892426727 ], [ 135.794671946153471, 34.787537224563323 ], [ 135.800443606187514, 34.790067495018945 ], [ 135.803303605876749, 34.785881387416168 ], [ 135.803611388055174, 34.771165278954527 ], [ 135.807996109133228, 34.759775278906034 ], [ 135.805185836557143, 34.751099440886549 ], [ 135.785999441920808, 34.748755559421568 ], [ 135.774773605917289, 34.742440829380826 ], [ 135.775150000072472, 34.738539721431039 ], [ 135.787856393557831, 34.738537494709647 ], [ 135.792221945586334, 34.741719720588662 ], [ 135.789978054343806, 34.738523612774543 ], [ 135.794085006318028, 34.737694441445342 ], [ 135.79041778235478, 34.732693054341041 ], [ 135.779045551111381, 34.729415000302083 ], [ 135.77806833968225, 34.723086107737743 ], [ 135.755513606267982, 34.727531945842657 ], [ 135.756956394022382, 34.73611582908228 ], [ 135.736707782238454, 34.751809720941935 ], [ 135.755775279305794, 34.763956108387731 ], [ 135.761850830151729, 34.763669441391642 ], [ 135.753925279428131, 34.769089161635577 ], [ 135.759967496902505, 34.779488332720405 ], [ 135.782296939352364, 34.780116386861835 ], [ 135.78624333266373, 34.788813612558215 ], [ 135.792826666817291, 34.790160829358854 ], [ 135.792957781676364, 34.790143892426727 ] ] ] } },
{ "type": "Feature", "properties": { "regioncode": "2636700", "regionname": "京都府南山城村", "name": "南山城村", "namekana": "みなみやましろむら", "PrefCode": "26" }, "geometry": { "type": "Polygon", "coordinates": [ [ [ 135.99940778194366, 34.824096387038708 ], [ 136.02845861167566, 34.819115829132272 ], [ 136.02737444927152, 34.814911108261072 ], [ 136.016695551258749, 34.811070000380255 ], [ 136.010171387999208, 34.798455828773513 ], [ 136.022288884724276, 34.79155527855329 ], [ 136.01994861223875, 34.786487495401616 ], [ 136.022605837289575, 34.78231055908509 ], [ 136.033577497003989, 34.779439441077386 ], [ 136.028600000389815, 34.757456946281081 ], [ 136.038139169587112, 34.756451387321704 ], [ 136.039102776072355, 34.749523333135357 ], [ 136.055476394420111, 34.738555559391614 ], [ 136.043003891216699, 34.736109999676785 ], [ 136.039474162802435, 34.720155558931936 ], [ 136.028893890740505, 34.713246108121439 ], [ 136.028159442304514, 34.706133612875988 ], [ 136.013344721381827, 34.707988053605845 ], [ 136.009322502631449, 34.716614161814164 ], [ 135.992149727827723, 34.712153054120222 ], [ 135.986191945901624, 34.715270559388841 ], [ 135.983711673255129, 34.734406666634413 ], [ 135.976109169802385, 34.741140828786286 ], [ 135.969754162724485, 34.740524161860606 ], [ 135.972018339974511, 34.74858749501692 ], [ 135.969532218137374, 34.753141386665732 ], [ 135.971948611938956, 34.761292775141499 ], [ 135.977087782375293, 34.762366946077748 ], [ 135.978510830010805, 34.781459161910846 ], [ 135.966070271625767, 34.783464999909881 ], [ 135.969030558313648, 34.78802027921256 ], [ 135.965870272295319, 34.796312774914668 ], [ 135.960043606127556, 34.794411108086194 ], [ 135.951564721434806, 34.798018054089994 ], [ 135.953528612355626, 34.807558054260824 ], [ 135.959928340020952, 34.810905559344121 ], [ 135.968283333209342, 34.808920278947767 ], [ 135.99467055809987, 34.82590249460452 ], [ 135.999268340261779, 34.824179999707269 ], [ 135.99940778194366, 34.824096387038708 ] ] ] } },
{ "type": "Feature", "properties": { "regioncode": "2646300", "regionname": "京都府伊根町", "name": "伊根町", "namekana": "いねちょう", "PrefCode": "26" }, "geometry": { "type": "MultiPolygon", "coordinates": [ [ [ [ 135.285654721088576, 35.665685278952537 ], [ 135.28177360596726, 35.666116946340026 ], [ 135.285733332627274, 35.665718613223476 ], [ 135.285654721088576, 35.665685278952537 ] ] ], [ [ [ 135.233168611942006, 35.769226666877216 ], [ 135.246688612189814, 35.757236387349451 ], [ 135.255153891039299, 35.758994721129511 ], [ 135.250863332576841, 35.7513597206746 ], [ 135.256966393684138, 35.744493612690121 ], [ 135.274600557569784, 35.742740837619635 ], [ 135.27345111517684, 35.730953053940311 ], [ 135.284741387604981, 35.729565278614757 ], [ 135.288869442171062, 35.724399170785148 ], [ 135.286172775553268, 35.705127505130292 ], [ 135.291900830159193, 35.706287224975483 ], [ 135.306641387590048, 35.699084999872923 ], [ 135.308641388089654, 35.693593054176176 ], [ 135.304912217924539, 35.693106946328555 ], [ 135.298448612313678, 35.679461666922464 ], [ 135.302752218140427, 35.662115278897033 ], [ 135.294728340040933, 35.659774721326357 ], [ 135.287722218405747, 35.664607505332185 ], [ 135.295011114771228, 35.671118333444383 ], [ 135.293263332736728, 35.674758612819801 ], [ 135.287123606269461, 35.675759441345178 ], [ 135.279792724154959, 35.668062081000301 ], [ 135.275334449325442, 35.672058892104246 ], [ 135.274982775734543, 35.667539171095939 ], [ 135.270821946275873, 35.669184171412439 ], [ 135.273094449449331, 35.672458891664576 ], [ 135.26681472102257, 35.676281666865464 ], [ 135.276494721354425, 35.682845278886589 ], [ 135.277320272012958, 35.689581108381503 ], [ 135.268569999805663, 35.694458612974643 ], [ 135.238745005777446, 35.684900558913739 ], [ 135.226608054018584, 35.689166666608457 ], [ 135.216246393656206, 35.686841386720687 ], [ 135.213798054136987, 35.693169999595852 ], [ 135.193295551148822, 35.698368332832331 ], [ 135.192994163150161, 35.704089999553901 ], [ 135.188027223677523, 35.70864610803153 ], [ 135.193466939447717, 35.712060838337095 ], [ 135.192850830101747, 35.717648053714754 ], [ 135.199430000394273, 35.725368333282006 ], [ 135.197308884597419, 35.732296667157527 ], [ 135.206738340102333, 35.735818612838784 ], [ 135.20787416316216, 35.74097805399407 ], [ 135.219953891059276, 35.742326946231628 ], [ 135.23316330684122, 35.769236532440061 ], [ 135.233168611942006, 35.769226666877216 ] ] ] ] } }
]
}
