{
"type": "FeatureCollection",
"name": "27_osaka_region",
"crs": { "type": "name", "properties": { "name": "urn:ogc:def:crs:OGC:1.3:CRS84" } },
"features": [
{ "type": "Feature", "properties": { "regioncode": "2710000", "regionname": "大阪府大阪市", "name": "大阪市", "namekana": "おおさかし", "PrefCode": "27" }, "geometry": { "type": "MultiPolygon", "coordinates": [ [ [ [ 135.389658663616501, 34.628276359866163 ], [ 135.39953143992409, 34.620673946345619 ], [ 135.418429584757632, 34.619546387156106 ], [ 135.420684916275945, 34.610780973063527 ], [ 135.401282114178343, 34.610730027368902 ], [ 135.401142503423898, 34.618421414416787 ], [ 135.389699300382517, 34.628312613336504 ], [ 135.389658663616501, 34.628276359866163 ] ] ], [ [ [ 135.349357003922705, 34.620069639702137 ], [ 135.345675472644984, 34.617279440893526 ], [ 135.34356849509004, 34.622024225337782 ], [ 135.353290440701358, 34.632410892248913 ], [ 135.358635939896772, 34.627591278814521 ], [ 135.349062191766848, 34.620335440628139 ], [ 135.349357003922705, 34.620069639702137 ] ] ], [ [ [ 135.416912891616676, 34.64467716202148 ], [ 135.439300467142857, 34.641212801729466 ], [ 135.441862087965092, 34.628395693606421 ], [ 135.422153580223608, 34.621900721441193 ], [ 135.420569467606924, 34.62585366721305 ], [ 135.410429830972021, 34.625865747806074 ], [ 135.407470973306886, 34.62942589219125 ], [ 135.414802969681318, 34.634823026861227 ], [ 135.412283061214339, 34.637202080811448 ], [ 135.396485720339797, 34.628675441218661 ], [ 135.397702866394184, 34.638754828672461 ], [ 135.416917834290643, 34.644689559175845 ], [ 135.416912891616676, 34.64467716202148 ] ] ], [ [ [ 135.379625279183301, 34.660918080904764 ], [ 135.404523449797466, 34.653718134684198 ], [ 135.392750077753931, 34.641390891776268 ], [ 135.378938911201885, 34.643189197723359 ], [ 135.372900077876352, 34.652076162385015 ], [ 135.379437613155346, 34.660114891888782 ], [ 135.379625279183301, 34.660918080904764 ] ] ], [ [ [ 135.402755940234556, 34.673082747970511 ], [ 135.409389052762663, 34.668786495000802 ], [ 135.409776031039087, 34.659040747932238 ], [ 135.386849390187308, 34.66267966663338 ], [ 135.38825221836521, 34.668859694419439 ], [ 135.40276427964784, 34.673090829278408 ], [ 135.402755940234556, 34.673082747970511 ] ] ], [ [ [ 135.546609727556984, 34.768172774953655 ], [ 135.55115527889302, 34.766640558614938 ], [ 135.550763606155556, 34.757152225394918 ], [ 135.560528612205758, 34.753991945671828 ], [ 135.556316393686643, 34.746686667255915 ], [ 135.560936109414001, 34.738134162261815 ], [ 135.553400557789587, 34.733095000034268 ], [ 135.555117781760259, 34.724813054279082 ], [ 135.564442775613657, 34.724066107964575 ], [ 135.569900830359074, 34.708901666778559 ], [ 135.57761221832925, 34.712763612850495 ], [ 135.575052218085489, 34.717406108405214 ], [ 135.58287000035034, 34.717388612994171 ], [ 135.582230558093897, 34.723337774918434 ], [ 135.587235278984963, 34.718253613313664 ], [ 135.586981115286335, 34.710903613411062 ], [ 135.599350000402296, 34.714692225166118 ], [ 135.5970391699218, 34.706931945552924 ], [ 135.590308339758167, 34.707695279313725 ], [ 135.594993891255172, 34.703499441046404 ], [ 135.581961673392584, 34.696806108115425 ], [ 135.579520272142872, 34.689664721249926 ], [ 135.565637782157978, 34.687751667205703 ], [ 135.562202775737546, 34.667913891812702 ], [ 135.557418340184313, 34.668063054266611 ], [ 135.557036109428964, 34.663344720682346 ], [ 135.56389861203138, 34.65820916192331 ], [ 135.558558884684885, 34.655829161886345 ], [ 135.561964720695414, 34.652793054256108 ], [ 135.561290558312635, 34.640842225288509 ], [ 135.568412776128753, 34.638163892249906 ], [ 135.568578885407305, 34.634364440966237 ], [ 135.574604163251593, 34.633989161970305 ], [ 135.576631945607915, 34.626521108062718 ], [ 135.5751819461899, 34.61823582942003 ], [ 135.56225805436577, 34.622858333045713 ], [ 135.561955006218682, 34.616994720929654 ], [ 135.572519442118619, 34.613756107558345 ], [ 135.573524721388821, 34.617322495037172 ], [ 135.576286108617069, 34.611954721433278 ], [ 135.586929728024643, 34.609139721121267 ], [ 135.587319442038734, 34.604737775328147 ], [ 135.579973891082318, 34.600878332968762 ], [ 135.579916393826579, 34.594090558632445 ], [ 135.571770830259652, 34.594032494803855 ], [ 135.569382775894496, 34.58699972086049 ], [ 135.567159999834189, 34.595535558719121 ], [ 135.543578339568739, 34.595195278639267 ], [ 135.543462775786566, 34.599424161595834 ], [ 135.536939441701975, 34.599424161595834 ], [ 135.531498611671623, 34.598308612852236 ], [ 135.530524721438837, 34.590918333214574 ], [ 135.52636834002692, 34.596399720870465 ], [ 135.502226394032959, 34.586170559423806 ], [ 135.494440272400766, 34.594627224566807 ], [ 135.437554681603388, 34.60817075737458 ], [ 135.437503528165394, 34.610765386913101 ], [ 135.423405473383923, 34.610771414169506 ], [ 135.4234251361612, 34.618984225441693 ], [ 135.426617497399661, 34.613026829324781 ], [ 135.432960998551266, 34.613024919164729 ], [ 135.430987690829284, 34.622578440642599 ], [ 135.441299169920853, 34.62617591858384 ], [ 135.447160584093695, 34.614704000189533 ], [ 135.44814530486201, 34.630707891955694 ], [ 135.453574253948773, 34.629224559166119 ], [ 135.45306988266907, 34.632738197809658 ], [ 135.448244669156225, 34.634876864775549 ], [ 135.449921167328057, 34.646679721092312 ], [ 135.4441218936106, 34.644460134927328 ], [ 135.446828079552347, 34.646782558568248 ], [ 135.435409248138399, 34.648048494642353 ], [ 135.440622360833345, 34.649454197952934 ], [ 135.437593969386285, 34.650870864898536 ], [ 135.426116718911544, 34.649920224838581 ], [ 135.428007172992693, 34.654887945822111 ], [ 135.423382866226348, 34.657462306440323 ], [ 135.419205771629095, 34.653363162380117 ], [ 135.420461854730888, 34.660200224960477 ], [ 135.414313942634408, 34.651667387240195 ], [ 135.416457445254991, 34.661429639566279 ], [ 135.426268171039283, 34.667822973051841 ], [ 135.417281582179385, 34.663712135107005 ], [ 135.416666667133086, 34.673210135139698 ], [ 135.409970972582414, 34.67072655928331 ], [ 135.408900855789966, 34.675456441061954 ], [ 135.406773721729905, 34.673821053598772 ], [ 135.422259728103995, 34.679632972683578 ], [ 135.417768002991011, 34.688051946340295 ], [ 135.410269585273227, 34.69212735998974 ], [ 135.408577782438783, 34.698781666840489 ], [ 135.446170272240352, 34.718339720701579 ], [ 135.448113060569312, 34.733858612584982 ], [ 135.469879441982698, 34.730974440917748 ], [ 135.481360830238145, 34.73841582902736 ], [ 135.484564163205619, 34.747307775033846 ], [ 135.490552218110452, 34.751335828585695 ], [ 135.507450271612811, 34.744590000428218 ], [ 135.517122217616361, 34.749991666782023 ], [ 135.527577224009747, 34.748512225358979 ], [ 135.532364720855298, 34.759417224625281 ], [ 135.546449728272364, 34.768206945594102 ], [ 135.546609727556984, 34.768172774953655 ] ] ] ] } },
{ "type": "Feature", "properties": { "regioncode": "2714000", "regionname": "大阪府堺市", "name": "堺市", "namekana": "さかいし", "PrefCode": "27" }, "geometry": { "type": "MultiPolygon", "coordinates": [ [ [ [ 135.41236569362195, 34.543829972974947 ], [ 135.405261907411159, 34.547233936596967 ], [ 135.409274500717743, 34.555043505353524 ], [ 135.415876523682641, 34.549987197551161 ], [ 135.41238639421681, 34.543862279320763 ], [ 135.41236569362195, 34.543829972974947 ] ] ], [ [ [ 135.437669300198081, 34.555625586151905 ], [ 135.440958664111122, 34.55425855908527 ], [ 135.44075897504672, 34.548708386782664 ], [ 135.436363346091639, 34.542582937052941 ], [ 135.426247522605195, 34.547090458757737 ], [ 135.430662891679162, 34.553816107927105 ], [ 135.4374074194169, 34.555697864664751 ], [ 135.437669300198081, 34.555625586151905 ] ] ], [ [ [ 135.438920506276418, 34.603993278766836 ], [ 135.44302688718119, 34.602775774782231 ], [ 135.438901413669328, 34.603949197597444 ], [ 135.438920506276418, 34.603993278766836 ] ] ], [ [ [ 135.422452891687612, 34.60075797310202 ], [ 135.422582944447413, 34.604111440690474 ], [ 135.422320610407951, 34.600819162074743 ], [ 135.422452891687612, 34.60075797310202 ] ] ], [ [ [ 135.395561828815403, 34.600000000199884 ], [ 135.396568249325355, 34.595588865134062 ], [ 135.395112477159159, 34.601686161587168 ], [ 135.389424448679392, 34.604444054049907 ], [ 135.395187860131728, 34.60174100044685 ], [ 135.395561828815403, 34.600000000199884 ] ] ], [ [ [ 135.459091672942463, 34.604882225334507 ], [ 135.495251388041197, 34.594310828681841 ], [ 135.502226394032959, 34.586170559423806 ], [ 135.52198999963889, 34.594335279449638 ], [ 135.522424721124025, 34.576655558607172 ], [ 135.531760272118959, 34.576641108300578 ], [ 135.53726055812831, 34.565588333334972 ], [ 135.548037496633242, 34.565910278936258 ], [ 135.54811778181022, 34.55757166689898 ], [ 135.553185550572721, 34.553897494773594 ], [ 135.561547782404318, 34.554422494702408 ], [ 135.561057497205752, 34.560029441205813 ], [ 135.567202217608269, 34.560009441182842 ], [ 135.567404449056198, 34.548709161998261 ], [ 135.572587497415157, 34.548437775383093 ], [ 135.582009441782361, 34.537717495066374 ], [ 135.58153360599124, 34.533884999992779 ], [ 135.587615551016938, 34.531350829177484 ], [ 135.58434277599838, 34.526513053934366 ], [ 135.585474721181527, 34.519125829293614 ], [ 135.580767496922476, 34.517359999664279 ], [ 135.581885006188145, 34.510458613074604 ], [ 135.566536938728859, 34.513542224693992 ], [ 135.558566108938862, 34.529421667376084 ], [ 135.555048339709174, 34.527957775231187 ], [ 135.555019727778244, 34.5179905593169 ], [ 135.546383890704078, 34.51800805382868 ], [ 135.542851387881342, 34.510012224684488 ], [ 135.532643891102794, 34.514611107616588 ], [ 135.540037223938839, 34.498694720784783 ], [ 135.53386000023886, 34.491040559374369 ], [ 135.536200557809593, 34.475086667215976 ], [ 135.545379169912849, 34.462104720556454 ], [ 135.522036393864596, 34.440147225114401 ], [ 135.518918340009463, 34.43021416185411 ], [ 135.50042472102416, 34.433851387131881 ], [ 135.494515837036261, 34.455917494596747 ], [ 135.478513332924081, 34.464898891670543 ], [ 135.471768054252379, 34.480998892185198 ], [ 135.466136939368312, 34.483072225203102 ], [ 135.466014720602971, 34.503274720651916 ], [ 135.461082503055081, 34.496656107893102 ], [ 135.46330083016926, 34.506591945561865 ], [ 135.454289170009247, 34.515783891913145 ], [ 135.459661945642324, 34.519642225408404 ], [ 135.456043061138416, 34.524502224697983 ], [ 135.445738612047421, 34.526003332587777 ], [ 135.4513186121643, 34.530406387245023 ], [ 135.446309169832375, 34.530896945837412 ], [ 135.446089169579523, 34.536879162343496 ], [ 135.437696757399522, 34.541060485553032 ], [ 135.444786031250374, 34.55722078381217 ], [ 135.431110168599503, 34.560764279048271 ], [ 135.410539040144613, 34.560747315136553 ], [ 135.409239053039983, 34.557818090132798 ], [ 135.402133191193911, 34.600000973266333 ], [ 135.415748248882664, 34.593758721387928 ], [ 135.42081710762352, 34.569679054344931 ], [ 135.429429493976045, 34.570704161867639 ], [ 135.426189883256598, 34.58962369437802 ], [ 135.433759273671626, 34.586682865421949 ], [ 135.434392697664975, 34.582662413839387 ], [ 135.44150936396602, 34.58294925170668 ], [ 135.444966030557907, 34.567009531964402 ], [ 135.452368248695734, 34.564797386790019 ], [ 135.449425356694974, 34.568046532121798 ], [ 135.451399688744687, 34.574981720629978 ], [ 135.455505305225756, 34.575819494873826 ], [ 135.456692139630604, 34.572686828834151 ], [ 135.457613995089901, 34.575716667290408 ], [ 135.451752192409799, 34.577139667261861 ], [ 135.45011208800247, 34.583734585582704 ], [ 135.463637562423628, 34.581411197868533 ], [ 135.46640822256154, 34.584587026869826 ], [ 135.44929688674199, 34.587102134755753 ], [ 135.452495616079887, 34.589975440813987 ], [ 135.462331530076085, 34.587376919009671 ], [ 135.460596834976059, 34.594861134633732 ], [ 135.459056252244295, 34.590058414064629 ], [ 135.451774695246058, 34.59190297304383 ], [ 135.437703695669029, 34.588655918635766 ], [ 135.425549363612276, 34.593344775141304 ], [ 135.423543476150599, 34.604973693581144 ], [ 135.444682943762928, 34.597502413805387 ], [ 135.446565837243611, 34.60186116156342 ], [ 135.436973799601219, 34.604709972787077 ], [ 135.437554681603388, 34.60817075737458 ], [ 135.459088885044025, 34.604883053610081 ], [ 135.459091672942463, 34.604882225334507 ] ], [ [ 135.579644721226941, 34.536208332848332 ], [ 135.57772027187309, 34.53431166714978 ], [ 135.579702502668397, 34.536363332801614 ], [ 135.579644721226941, 34.536208332848332 ] ] ] ] } },
{ "type": "Feature", "properties": { "regioncode": "2720200", "regionname": "大阪府岸和田市", "name": "岸和田市", "namekana": "きしわだし", "PrefCode": "27" }, "geometry": { "type": "MultiPolygon", "coordinates": [ [ [ [ 135.354780117308678, 34.4887038652912 ], [ 135.355941803071801, 34.482633775128647 ], [ 135.352945188269928, 34.48016610827932 ], [ 135.359629558557344, 34.473686323864797 ], [ 135.358129027132918, 34.486414387414072 ], [ 135.361265913691, 34.476222531644567 ], [ 135.35106418876137, 34.465631251880836 ], [ 135.34780311302336, 34.469519225232091 ], [ 135.351610829975925, 34.468896063402667 ], [ 135.353052230975777, 34.479236242558613 ], [ 135.345551218713808, 34.471196387103646 ], [ 135.354743410579999, 34.482712197809747 ], [ 135.354807885675427, 34.488704919296651 ], [ 135.354780117308678, 34.4887038652912 ] ] ], [ [ [ 135.366973800100823, 34.492317135327596 ], [ 135.364696056577827, 34.480148720786872 ], [ 135.366977223819845, 34.492327694267715 ], [ 135.366973800100823, 34.492317135327596 ] ] ], [ [ [ 135.380996393668738, 34.495346945904885 ], [ 135.424253891104286, 34.466304720886228 ], [ 135.429236666738802, 34.470512494955756 ], [ 135.442201115289322, 34.460458053796174 ], [ 135.440151387676451, 34.450853612704122 ], [ 135.443824163154659, 34.435411945604869 ], [ 135.448810830155708, 34.432357224706209 ], [ 135.451571673294097, 34.423795559217751 ], [ 135.449609441622442, 34.414916108391765 ], [ 135.455478339953515, 34.405690828668867 ], [ 135.449810557910951, 34.391018054039989 ], [ 135.461201388033714, 34.383483053700047 ], [ 135.463656666721818, 34.377684720673358 ], [ 135.456310272201335, 34.367166386719418 ], [ 135.454341673329623, 34.358506386660451 ], [ 135.456897223727992, 34.353180559235454 ], [ 135.452265005625577, 34.349275279330755 ], [ 135.433331387933322, 34.348962495123089 ], [ 135.427092775611186, 34.374361946047031 ], [ 135.416463605610943, 34.379413332759157 ], [ 135.405576939024627, 34.401454720558945 ], [ 135.405215005967761, 34.404851945560893 ], [ 135.411085005968289, 34.408940829255926 ], [ 135.409259169974803, 34.413552225354977 ], [ 135.400642776243217, 34.411126666562438 ], [ 135.396980271922075, 34.419081667385115 ], [ 135.394747223805439, 34.416350000052489 ], [ 135.392229442235021, 34.419916386631996 ], [ 135.387855810697147, 34.417655892105813 ], [ 135.377794720849806, 34.438134721340361 ], [ 135.381212502555059, 34.445399999710276 ], [ 135.361274137091868, 34.456553747857242 ], [ 135.360804863653584, 34.461546864796048 ], [ 135.352911219077555, 34.462433829257861 ], [ 135.362659831386168, 34.472336278696332 ], [ 135.36495280223005, 34.470167026686966 ], [ 135.362092165820854, 34.466580559145541 ], [ 135.366660610298936, 34.471263053846883 ], [ 135.370169273892884, 34.467753134799409 ], [ 135.372223995441118, 34.471673386617567 ], [ 135.367783968755248, 34.471064306372682 ], [ 135.363804358084735, 34.47761510755123 ], [ 135.366143696174731, 34.480702197748258 ], [ 135.375883333249249, 34.473208135447123 ], [ 135.377064188961185, 34.475222413583595 ], [ 135.371797976695348, 34.481284306425664 ], [ 135.377372114131845, 34.486511613120513 ], [ 135.369748106090242, 34.490021026749048 ], [ 135.370873041957339, 34.500399586271953 ], [ 135.38099444933448, 34.495348053869634 ], [ 135.380996393668738, 34.495346945904885 ] ] ] ] } },
{ "type": "Feature", "properties": { "regioncode": "2720300", "regionname": "大阪府豊中市", "name": "豊中市", "namekana": "とよなかし", "PrefCode": "27" }, "geometry": { "type": "Polygon", "coordinates": [ [ [ 135.498983061019544, 34.822731387043916 ], [ 135.508293606364873, 34.810629441395633 ], [ 135.503794720849783, 34.807535000140206 ], [ 135.504897367019908, 34.800258494633852 ], [ 135.496448053834683, 34.796446666880229 ], [ 135.496715550882072, 34.792496946077279 ], [ 135.491299999895091, 34.789266946412511 ], [ 135.492044721286902, 34.781448612863244 ], [ 135.499939728335903, 34.776563892110005 ], [ 135.488564163305568, 34.767374161688281 ], [ 135.487912217774692, 34.749810000131447 ], [ 135.481656939216464, 34.738726107723721 ], [ 135.469879441982698, 34.730974440917748 ], [ 135.460295006309593, 34.733135558559241 ], [ 135.456447223660462, 34.760149440944019 ], [ 135.451920558087295, 34.758183612883499 ], [ 135.450408884962144, 34.76632249538693 ], [ 135.444486939220951, 34.769131667192767 ], [ 135.442859999989082, 34.799945278751693 ], [ 135.44797496787055, 34.799561494867135 ], [ 135.44654055820024, 34.804281666665645 ], [ 135.452122217566398, 34.805343333428141 ], [ 135.448106938884166, 34.808426667156994 ], [ 135.453518054414758, 34.807219161834894 ], [ 135.475773060878169, 34.821071386934989 ], [ 135.489836667128543, 34.816383332624753 ], [ 135.498586394346717, 34.823556387317467 ], [ 135.498983061019544, 34.822731387043916 ] ] ] } },
{ "type": "Feature", "properties": { "regioncode": "2720400", "regionname": "大阪府池田市", "name": "池田市", "namekana": "いけだし", "PrefCode": "27" }, "geometry": { "type": "Polygon", "coordinates": [ [ [ 135.439208053708739, 34.873714999747506 ], [ 135.443543606152616, 34.874347775329625 ], [ 135.449741114960602, 34.86666222488185 ], [ 135.456273333447598, 34.864732494708903 ], [ 135.460808340232802, 34.851324162380251 ], [ 135.45965333283516, 34.844011666904976 ], [ 135.453733605721368, 34.84277666660995 ], [ 135.451986550339143, 34.81898049465417 ], [ 135.447836394034425, 34.815926387093157 ], [ 135.44810194584818, 34.806077225183856 ], [ 135.452404449106098, 34.806035558694134 ], [ 135.44654055820024, 34.804281666665645 ], [ 135.44797496787055, 34.799561494867135 ], [ 135.442859999989082, 34.799945278751693 ], [ 135.440582217795168, 34.791773613261682 ], [ 135.428636939443209, 34.803181107821899 ], [ 135.423691387647523, 34.80207444078286 ], [ 135.415990557718146, 34.817692775201465 ], [ 135.423336667153535, 34.828572495424396 ], [ 135.424329999829638, 34.837122774596423 ], [ 135.416878339663754, 34.852224720994116 ], [ 135.431010830385617, 34.856021387077419 ], [ 135.434012776368604, 34.872212495210533 ], [ 135.437489169589526, 34.877124720829272 ], [ 135.43910666683928, 34.873804720611417 ], [ 135.439208053708739, 34.873714999747506 ] ] ] } },
{ "type": "Feature", "properties": { "regioncode": "2720500", "regionname": "大阪府吹田市", "name": "吹田市", "namekana": "すいたし", "PrefCode": "27" }, "geometry": { "type": "Polygon", "coordinates": [ [ [ 135.506779169623087, 34.830025558832517 ], [ 135.523435006020804, 34.826615558960953 ], [ 135.529994162800449, 34.81634444144288 ], [ 135.555190557598166, 34.806021108387483 ], [ 135.55193360615101, 34.793562225416395 ], [ 135.536696393623743, 34.786079440613719 ], [ 135.551308612402636, 34.768788892393502 ], [ 135.544124163299557, 34.768458891564649 ], [ 135.539436394074414, 34.761341666784574 ], [ 135.532561114803684, 34.75959110764353 ], [ 135.527801114729755, 34.748595559237742 ], [ 135.517122217616361, 34.749991666782023 ], [ 135.50779666708263, 34.744571945638825 ], [ 135.499965278974514, 34.749928054136433 ], [ 135.486802217848094, 34.751841666659629 ], [ 135.488564163305568, 34.767374161688281 ], [ 135.499939728335903, 34.776563892110005 ], [ 135.492044721286902, 34.781448612863244 ], [ 135.491336108574615, 34.789380278976751 ], [ 135.496715550882072, 34.792496946077279 ], [ 135.496448053834683, 34.796446666880229 ], [ 135.504897367019908, 34.800258494633852 ], [ 135.503794720849783, 34.807535000140206 ], [ 135.508293606364873, 34.810629441395633 ], [ 135.497561672633196, 34.825650278837372 ], [ 135.500341114650837, 34.830241945609373 ], [ 135.506587782200427, 34.830107225368181 ], [ 135.506779169623087, 34.830025558832517 ] ], [ [ 135.543792529301868, 34.807505639973385 ], [ 135.546209170417001, 34.805091107768476 ], [ 135.54393014266202, 34.807593251927074 ], [ 135.543792529301868, 34.807505639973385 ] ] ] } },
{ "type": "Feature", "properties": { "regioncode": "2720600", "regionname": "大阪府泉大津市", "name": "泉大津市", "namekana": "いずみおおつし", "PrefCode": "27" }, "geometry": { "type": "MultiPolygon", "coordinates": [ [ [ [ 135.398033890651618, 34.526524162360261 ], [ 135.402694941918071, 34.525562693563529 ], [ 135.40111752295536, 34.520529585571978 ], [ 135.395043256341296, 34.517322586068531 ], [ 135.395313943283895, 34.522517000059565 ], [ 135.390651414431318, 34.521646108281345 ], [ 135.392715914308042, 34.525082468181438 ], [ 135.387079611235094, 34.524834251699417 ], [ 135.393845291926709, 34.531428955082276 ], [ 135.396949442263008, 34.527799440591764 ], [ 135.398033890651618, 34.526524162360261 ] ] ], [ [ [ 135.380839143611638, 34.529881414295858 ], [ 135.3860199220818, 34.517465080948796 ], [ 135.381743113354105, 34.511680864580285 ], [ 135.389063411347365, 34.513234161927073 ], [ 135.386216057025422, 34.50836361269063 ], [ 135.390089300380964, 34.505483162418045 ], [ 135.392693942971164, 34.51221666716549 ], [ 135.395880271557303, 34.513276973253767 ], [ 135.393146938680388, 34.512057999776914 ], [ 135.396466550391096, 34.512718306304862 ], [ 135.397015771760493, 34.509029279177923 ], [ 135.400494475339883, 34.510819054156059 ], [ 135.397312724302878, 34.513937027072188 ], [ 135.402041167166203, 34.518566162298612 ], [ 135.405271335903535, 34.51035253174399 ], [ 135.409915084213822, 34.513620278652979 ], [ 135.406475305091362, 34.516985774673799 ], [ 135.410364332448012, 34.522912494915772 ], [ 135.426817496730109, 34.512736666863759 ], [ 135.433288054100444, 34.515466387164111 ], [ 135.431987781910721, 34.511223613279185 ], [ 135.435066939188005, 34.50894249460049 ], [ 135.423936939438249, 34.500677775359122 ], [ 135.428107224369001, 34.497794440960718 ], [ 135.429029169760383, 34.491006666624401 ], [ 135.416331114789159, 34.488048053574857 ], [ 135.417004162911894, 34.482713613342639 ], [ 135.41140472125096, 34.482102774923192 ], [ 135.404000557879499, 34.494521108362505 ], [ 135.385735278560333, 34.501388612994162 ], [ 135.377830000354265, 34.507844999746965 ], [ 135.378646860864023, 34.510885162420379 ], [ 135.367161387887791, 34.517044639798314 ], [ 135.378991296711092, 34.532937801638298 ], [ 135.380851725127059, 34.529886278728839 ], [ 135.380839143611638, 34.529881414295858 ] ] ] ] } },
{ "type": "Feature", "properties": { "regioncode": "2720700", "regionname": "大阪府高槻市", "name": "高槻市", "namekana": "たかつきし", "PrefCode": "27" }, "geometry": { "type": "Polygon", "coordinates": [ [ [ 135.58383416261654, 34.976201386684693 ], [ 135.592364720555452, 34.966040278735932 ], [ 135.594761387727885, 34.969711108081242 ], [ 135.613263606030614, 34.971195279038966 ], [ 135.618705551220273, 34.958136387284469 ], [ 135.613148612418627, 34.941703613331129 ], [ 135.603439441676983, 34.936033612661163 ], [ 135.599321672657084, 34.92829166662716 ], [ 135.615199441700952, 34.927624721303914 ], [ 135.623750272157395, 34.934908053563845 ], [ 135.628108340027893, 34.933733333026964 ], [ 135.628301387598981, 34.926229162346033 ], [ 135.632843891132779, 34.923753891728779 ], [ 135.629075006006815, 34.917930829144495 ], [ 135.630096393933513, 34.906914721337387 ], [ 135.636501388028705, 34.91024889217266 ], [ 135.634667224313034, 34.892307775283655 ], [ 135.646377497223739, 34.887142775418795 ], [ 135.644836108699565, 34.882657225050934 ], [ 135.6502716731992, 34.88089777521219 ], [ 135.655070558159764, 34.872476108085948 ], [ 135.661066393998908, 34.875178053724255 ], [ 135.672755550828128, 34.870031107749469 ], [ 135.664401946192925, 34.854553892248362 ], [ 135.650093333140831, 34.847599441161321 ], [ 135.640325836867987, 34.816128332556559 ], [ 135.620583606348418, 34.806361107878899 ], [ 135.611923606289452, 34.787614161564363 ], [ 135.602274720701871, 34.780508332993236 ], [ 135.598068339682186, 34.785784441398903 ], [ 135.598411946354304, 34.812521107762961 ], [ 135.606302502658423, 34.818444162368223 ], [ 135.58655360636385, 34.823654720988657 ], [ 135.582971945698773, 34.835923891974062 ], [ 135.585638611832564, 34.8414916667071 ], [ 135.581867497287249, 34.84716972080605 ], [ 135.569719170003737, 34.851344162403223 ], [ 135.56670083027916, 34.856760000273823 ], [ 135.568691115402771, 34.868558333000692 ], [ 135.562647781869714, 34.871862495258029 ], [ 135.573768612131857, 34.880905000365544 ], [ 135.56644360618759, 34.885474161603327 ], [ 135.570992503001662, 34.897839161648051 ], [ 135.565781387700895, 34.900034162146937 ], [ 135.57525888498958, 34.905706946218629 ], [ 135.576561672583239, 34.912607775228707 ], [ 135.573116394106364, 34.91683082877978 ], [ 135.581258053716283, 34.922451667110806 ], [ 135.581741673139732, 34.935556387417421 ], [ 135.57191555096199, 34.939081666885443 ], [ 135.562800000219909, 34.933418054099945 ], [ 135.566016667435292, 34.940127775376595 ], [ 135.563082503354963, 34.942191667311647 ], [ 135.558370557655167, 34.932771386690206 ], [ 135.557186666731354, 34.938691666886996 ], [ 135.562382502550463, 34.943755558672137 ], [ 135.563131387803423, 34.953663892374777 ], [ 135.578577781739341, 34.955885000192666 ], [ 135.578287781855693, 34.960587225120378 ], [ 135.571339727646432, 34.963647225039438 ], [ 135.570926667232015, 34.969788332865335 ], [ 135.583580558296148, 34.976273053658531 ], [ 135.58383416261654, 34.976201386684693 ] ] ] } },
{ "type": "Feature", "properties": { "regioncode": "2720800", "regionname": "大阪府貝塚市", "name": "貝塚市", "namekana": "かいづかし", "PrefCode": "27" }, "geometry": { "type": "MultiPolygon", "coordinates": [ [ [ [ 135.376339728395806, 34.399222224626044 ], [ 135.371701946187954, 34.406224721094077 ], [ 135.376121945871205, 34.3993344411316 ], [ 135.376339728395806, 34.399222224626044 ] ] ], [ [ [ 135.35149163383187, 34.462423162399091 ], [ 135.353444188798335, 34.450844197701599 ], [ 135.359418002938583, 34.459799224854407 ], [ 135.381212502555059, 34.445399999710276 ], [ 135.377794720849806, 34.438134721340361 ], [ 135.387855810697147, 34.417655892105813 ], [ 135.392229442235021, 34.419916386631996 ], [ 135.394747223805439, 34.416350000052489 ], [ 135.396980271922075, 34.419081667385115 ], [ 135.400642776243217, 34.411126666562438 ], [ 135.409259169974803, 34.413552225354977 ], [ 135.41102693944174, 34.408783053994796 ], [ 135.405182502670414, 34.404272774968661 ], [ 135.408580830241135, 34.393413053869381 ], [ 135.416463605610943, 34.379413332759157 ], [ 135.427092775611186, 34.374361946047031 ], [ 135.434290272078442, 34.348226387437876 ], [ 135.426823333330276, 34.340931667062819 ], [ 135.409221387656999, 34.341938054297827 ], [ 135.404505550590784, 34.348467775367567 ], [ 135.391727223932321, 34.34769916168699 ], [ 135.387609999901656, 34.361597774717609 ], [ 135.381991945871619, 34.367148892207638 ], [ 135.386968053932605, 34.369571387009955 ], [ 135.387973890782519, 34.385565828700067 ], [ 135.38392861161617, 34.385207224933538 ], [ 135.379390830422494, 34.391113053924357 ], [ 135.37685555074313, 34.403212774649887 ], [ 135.36665834041014, 34.411619441084383 ], [ 135.368860000388736, 34.414274999691543 ], [ 135.362349728057552, 34.415741667144289 ], [ 135.368542776228196, 34.415704440607499 ], [ 135.354600271785216, 34.418784721138024 ], [ 135.337804721211, 34.43209416221589 ], [ 135.329049909226001, 34.434326909958997 ], [ 135.334815472755963, 34.438632333315581 ], [ 135.334065966071535, 34.44229505437329 ], [ 135.338123061430224, 34.441962585804731 ], [ 135.33715522723196, 34.445763919369426 ], [ 135.35021749684006, 34.451884865294346 ], [ 135.351506978064663, 34.462424864815716 ], [ 135.35149163383187, 34.462423162399091 ] ] ], [ [ [ 135.339074669160709, 34.469298332851849 ], [ 135.347207756432908, 34.458686026938665 ], [ 135.332467470597408, 34.444737891840305 ], [ 135.327072891800526, 34.448426134758392 ], [ 135.340786719331732, 34.466929161551604 ], [ 135.339012309270743, 34.475593667214014 ], [ 135.339066719153834, 34.470275198042032 ], [ 135.339074669160709, 34.469298332851849 ] ] ] ] } },
{ "type": "Feature", "properties": { "regioncode": "2720900", "regionname": "大阪府守口市", "name": "守口市", "namekana": "もりぐちし", "PrefCode": "27" }, "geometry": { "type": "Polygon", "coordinates": [ [ [ 135.594613890818437, 34.76323361284102 ], [ 135.597189442139097, 34.76306916191237 ], [ 135.597182502970213, 34.756797774697588 ], [ 135.604503333362231, 34.755804720811284 ], [ 135.606870557630145, 34.748890559351878 ], [ 135.598666666733379, 34.744750828887675 ], [ 135.58139561581504, 34.747866495042786 ], [ 135.57548027199698, 34.740178054173896 ], [ 135.571716939285352, 34.740345278611755 ], [ 135.58425999969927, 34.722371386830105 ], [ 135.582306394324746, 34.717030558713361 ], [ 135.575052218085489, 34.717406108405214 ], [ 135.57761221832925, 34.712763612850495 ], [ 135.57429360576532, 34.708929441440603 ], [ 135.569900830359074, 34.708901666778559 ], [ 135.564442775613657, 34.724066107964575 ], [ 135.555117781760259, 34.724813054279082 ], [ 135.553400557789587, 34.733095000034268 ], [ 135.561037223788958, 34.738969440887047 ], [ 135.556844162628067, 34.750774720876734 ], [ 135.576386108731981, 34.758898054101962 ], [ 135.587006109244612, 34.76752222517058 ], [ 135.594580558346138, 34.763246946189668 ], [ 135.594613890818437, 34.76323361284102 ] ] ] } },
{ "type": "Feature", "properties": { "regioncode": "2721000", "regionname": "大阪府枚方市", "name": "枚方市", "namekana": "ひらかたし", "PrefCode": "27" }, "geometry": { "type": "Polygon", "coordinates": [ [ [ 135.688657497245799, 34.869011666854988 ], [ 135.691381945720309, 34.861380829361849 ], [ 135.694848885267902, 34.860886107807687 ], [ 135.690651387751359, 34.856519161829908 ], [ 135.694914449442308, 34.848282225344462 ], [ 135.702256666611902, 34.851730000339273 ], [ 135.7077213880317, 34.849272494929721 ], [ 135.724167782217478, 34.823283613048375 ], [ 135.732493333400726, 34.822418892418 ], [ 135.745829728059562, 34.803982224799881 ], [ 135.740775550751096, 34.788468612836255 ], [ 135.727282775679669, 34.776232494633973 ], [ 135.720717497214764, 34.774460829303905 ], [ 135.711968885156011, 34.781331945612862 ], [ 135.716693060736247, 34.788909440718157 ], [ 135.708609169977308, 34.798076667404302 ], [ 135.676308053673779, 34.803420278922772 ], [ 135.664237223669033, 34.795510828761792 ], [ 135.671973605597486, 34.785705559164285 ], [ 135.671764163385546, 34.778571946038539 ], [ 135.653033332922064, 34.773088613149014 ], [ 135.648018884963676, 34.783783054144692 ], [ 135.631862775746526, 34.785417224825096 ], [ 135.629953890959314, 34.790355829358077 ], [ 135.614258053866138, 34.791506666599446 ], [ 135.620583606348418, 34.806361107878899 ], [ 135.640325836867987, 34.816128332556559 ], [ 135.650093333140831, 34.847599441161321 ], [ 135.665230558143776, 34.85544277496416 ], [ 135.679922217636317, 34.881341387395139 ], [ 135.683518611894442, 34.877632774832762 ], [ 135.682411114781189, 34.87225277494565 ], [ 135.688494163275095, 34.86907444133243 ], [ 135.688657497245799, 34.869011666854988 ] ] ] } },
{ "type": "Feature", "properties": { "regioncode": "2721100", "regionname": "大阪府茨木市", "name": "茨木市", "namekana": "いばらきし", "PrefCode": "27" }, "geometry": { "type": "MultiPolygon", "coordinates": [ [ [ [ 135.545953605574482, 34.804966666778284 ], [ 135.543530830183727, 34.807311107621558 ], [ 135.546078053759288, 34.804999161981812 ], [ 135.545953605574482, 34.804966666778284 ] ] ], [ [ [ 135.530067782202423, 34.927329999979577 ], [ 135.538145837260686, 34.925399721220231 ], [ 135.536065005695491, 34.920468892225642 ], [ 135.541313605638493, 34.915226108198397 ], [ 135.562375550791103, 34.917850559255953 ], [ 135.573116394106364, 34.91683082877978 ], [ 135.576402218287853, 34.912995559297656 ], [ 135.57516834034675, 34.905581667060346 ], [ 135.565781387700895, 34.900034162146937 ], [ 135.570992503001662, 34.897839161648051 ], [ 135.56644360618759, 34.885474161603327 ], [ 135.573768612131857, 34.880905000365544 ], [ 135.562655006123691, 34.871945829136735 ], [ 135.569661115168401, 34.865492224886339 ], [ 135.566751672551732, 34.856587225220323 ], [ 135.571999169925789, 34.84869027923304 ], [ 135.581867497287249, 34.84716972080605 ], [ 135.585638611832564, 34.8414916667071 ], [ 135.582971945698773, 34.835923891974062 ], [ 135.58655360636385, 34.823654720988657 ], [ 135.606302502658423, 34.818444162368223 ], [ 135.598603061282347, 34.813126386573515 ], [ 135.597620829837524, 34.798661386813592 ], [ 135.566879727917126, 34.775443612932463 ], [ 135.568280000221876, 34.785613332789126 ], [ 135.562694448590037, 34.783321666861468 ], [ 135.562849999827677, 34.792801666963385 ], [ 135.55193360615101, 34.793562225416395 ], [ 135.554673060713299, 34.807413053869368 ], [ 135.529994162800449, 34.81634444144288 ], [ 135.522779441618013, 34.824503892340829 ], [ 135.526209999991579, 34.834290000083513 ], [ 135.518573890672542, 34.838920828733308 ], [ 135.524939442301502, 34.840859440610757 ], [ 135.525285914213669, 34.847608386717752 ], [ 135.514385836936867, 34.860166667257943 ], [ 135.511725836578194, 34.874362224736956 ], [ 135.503254162649569, 34.870031945917617 ], [ 135.495901388338439, 34.881148332629493 ], [ 135.500626667386882, 34.887929162400951 ], [ 135.500598053657313, 34.895958054220898 ], [ 135.511791114768243, 34.898248891872925 ], [ 135.518113332564326, 34.904470828965657 ], [ 135.516803605801783, 34.911228892399492 ], [ 135.52487083032463, 34.920136107995063 ], [ 135.525376666599982, 34.928801666763547 ], [ 135.529727224232033, 34.927526946111698 ], [ 135.530067782202423, 34.927329999979577 ] ] ] ] } },
{ "type": "Feature", "properties": { "regioncode": "2721200", "regionname": "大阪府八尾市", "name": "八尾市", "namekana": "やおし", "PrefCode": "27" }, "geometry": { "type": "Polygon", "coordinates": [ [ [ 135.600549169908277, 34.650591108293042 ], [ 135.617925278728649, 34.647925279428136 ], [ 135.625532217637783, 34.650305559154276 ], [ 135.625481946434775, 34.644656946161206 ], [ 135.631803060762763, 34.644361946047013 ], [ 135.631355550917988, 34.640458053796181 ], [ 135.634963605785856, 34.644594440581045 ], [ 135.664287224176064, 34.643275829416041 ], [ 135.659097496552249, 34.614817775220217 ], [ 135.650734720630908, 34.609715000347023 ], [ 135.648790829733116, 34.599790558887207 ], [ 135.620668053587906, 34.598689721253663 ], [ 135.622445006032308, 34.595393332736194 ], [ 135.618969170390983, 34.592921666601683 ], [ 135.607676394250234, 34.59119166686196 ], [ 135.605023890640155, 34.583331666823028 ], [ 135.587347497289215, 34.585996386823865 ], [ 135.585755550678186, 34.590018612768802 ], [ 135.57683444865097, 34.593072494599994 ], [ 135.579916393826579, 34.594090558632445 ], [ 135.581380830061335, 34.602703613181234 ], [ 135.587319442038734, 34.604737775328147 ], [ 135.586929728024643, 34.609139721121267 ], [ 135.576286108617069, 34.611954721433278 ], [ 135.573524721388821, 34.617322495037172 ], [ 135.572519442118619, 34.613756107558345 ], [ 135.561955006218682, 34.616994720929654 ], [ 135.56225805436577, 34.622858333045713 ], [ 135.5751819461899, 34.61823582942003 ], [ 135.574684163343477, 34.632181387061394 ], [ 135.588874163012292, 34.632433892410234 ], [ 135.585208340192821, 34.639347224694689 ], [ 135.595916666720882, 34.64172138723228 ], [ 135.594495005839917, 34.650621107877896 ], [ 135.599999999800161, 34.650700107923683 ], [ 135.600549169908277, 34.650591108293042 ] ] ] } },
{ "type": "Feature", "properties": { "regioncode": "2721300", "regionname": "大阪府泉佐野市", "name": "泉佐野市", "namekana": "いずみさのし", "PrefCode": "27" }, "geometry": { "type": "MultiPolygon", "coordinates": [ [ [ [ 135.317885667789369, 34.435881918715609 ], [ 135.316837977390833, 34.431082198284855 ], [ 135.317783333034413, 34.435944748051725 ], [ 135.317885667789369, 34.435881918715609 ] ] ], [ [ [ 135.325000000349746, 34.436867775327642 ], [ 135.357174448941691, 34.418274441312462 ], [ 135.353710829691067, 34.406003612876475 ], [ 135.347406666684378, 34.410473891856668 ], [ 135.337890271918582, 34.406702494924275 ], [ 135.335458339630691, 34.399028332591513 ], [ 135.342677497168779, 34.387079161973816 ], [ 135.35479389132513, 34.37903666700862 ], [ 135.355453061109984, 34.372874441302486 ], [ 135.360458053596403, 34.369319441039409 ], [ 135.381141115270339, 34.363338333397394 ], [ 135.380630557554241, 34.35665249541637 ], [ 135.388313606088104, 34.355427775271664 ], [ 135.392272502673904, 34.347275559419586 ], [ 135.407543606152558, 34.347112225448882 ], [ 135.409221387656999, 34.341938054297827 ], [ 135.405573332743188, 34.33387722485412 ], [ 135.380344720632365, 34.32844416226834 ], [ 135.374984720768339, 34.331068892115752 ], [ 135.362534721300449, 34.328939161712981 ], [ 135.357580000017037, 34.333365559173274 ], [ 135.345900000084953, 34.330525278918515 ], [ 135.338894162635597, 34.334961666947436 ], [ 135.339142503224025, 34.341024441125114 ], [ 135.329666666983144, 34.339889440945001 ], [ 135.321980272071983, 34.3553722250482 ], [ 135.325156666746807, 34.363494721004599 ], [ 135.309674449216573, 34.380031387338704 ], [ 135.289627224416904, 34.378949720553237 ], [ 135.289351114562351, 34.384215829397078 ], [ 135.297052502970701, 34.384577495355188 ], [ 135.297204162841922, 34.38924555863565 ], [ 135.300381387591074, 34.390014162423711 ], [ 135.296663333046467, 34.39913999961135 ], [ 135.288817976668383, 34.403623882636111 ], [ 135.292954746564419, 34.407098972739448 ], [ 135.293383799622688, 34.414051666551245 ], [ 135.302102633329923, 34.415816747944632 ], [ 135.310309921865496, 34.423038467651224 ], [ 135.306440532104943, 34.419471973153065 ], [ 135.30954191972387, 34.417068865036128 ], [ 135.314864059928482, 34.42229830582221 ], [ 135.319654332081768, 34.420936332945473 ], [ 135.313766354633572, 34.426647251869213 ], [ 135.318420116894913, 34.431002000342119 ], [ 135.323419415773515, 34.428634613296822 ], [ 135.320632022849622, 34.425795387047515 ], [ 135.322797056139279, 34.424400865007954 ], [ 135.325457197691549, 34.426747305943479 ], [ 135.328392581252729, 34.429875693908173 ], [ 135.321024968127858, 34.43300433278381 ], [ 135.324899831162384, 34.436937279431959 ], [ 135.325000000349746, 34.436867775327642 ] ] ], [ [ [ 135.256045746014479, 34.44624461329829 ], [ 135.251832672240084, 34.444147279173649 ], [ 135.259593747753343, 34.443453026835755 ], [ 135.265134423215159, 34.437458720743393 ], [ 135.25199990926842, 34.429854828737405 ], [ 135.241604241042978, 34.437300090227041 ], [ 135.255970506034146, 34.446252081268597 ], [ 135.256045746014479, 34.44624461329829 ] ] ], [ [ [ 135.241666666583455, 34.43967133266591 ], [ 135.229325162226473, 34.446049305730924 ], [ 135.24158255479108, 34.455224414075474 ], [ 135.245459442199603, 34.451268774834148 ], [ 135.254213878267933, 34.451140179875438 ], [ 135.242951529789366, 34.44053035968841 ], [ 135.241666666583455, 34.43967133266591 ] ] ] ] } },
{ "type": "Feature", "properties": { "regioncode": "2721400", "regionname": "大阪府富田林市", "name": "富田林市", "namekana": "とんだばやしし", "PrefCode": "27" }, "geometry": { "type": "Polygon", "coordinates": [ [ [ 135.589965550569787, 34.532058892403995 ], [ 135.627136666623983, 34.525451108382015 ], [ 135.627245006152179, 34.521997225191853 ], [ 135.621382502900246, 34.522553613258708 ], [ 135.617468340391611, 34.510203053628061 ], [ 135.621932503082576, 34.500129440721139 ], [ 135.627703061447164, 34.497941667174246 ], [ 135.627069728285392, 34.486239721086292 ], [ 135.621320000018045, 34.493865829044807 ], [ 135.612980830401057, 34.490339161922861 ], [ 135.612636393654725, 34.482505828581168 ], [ 135.617413890938337, 34.477365278584784 ], [ 135.616111115036006, 34.452022775430805 ], [ 135.602526666672361, 34.43919861302561 ], [ 135.582518054264824, 34.449708891751982 ], [ 135.577884449407861, 34.459973053913359 ], [ 135.582520557977432, 34.468605828796001 ], [ 135.574650558376675, 34.476146386946255 ], [ 135.561776938654816, 34.476852495046671 ], [ 135.558228053781704, 34.484889720883984 ], [ 135.558367497262225, 34.489688053660814 ], [ 135.563988885079084, 34.4930786128877 ], [ 135.559584449063095, 34.497344440893301 ], [ 135.560338053958048, 34.511728891974826 ], [ 135.582057782140964, 34.510554162444691 ], [ 135.580767496922476, 34.517359999664279 ], [ 135.585474721181527, 34.519125829293614 ], [ 135.58434277599838, 34.526513053934366 ], [ 135.589843061108468, 34.532228892149703 ], [ 135.589965550569787, 34.532058892403995 ] ] ] } },
{ "type": "Feature", "properties": { "regioncode": "2721500", "regionname": "大阪府寝屋川市", "name": "寝屋川市", "namekana": "ねやがわし", "PrefCode": "27" }, "geometry": { "type": "Polygon", "coordinates": [ [ [ 135.616666666733295, 34.791072278762726 ], [ 135.629953890959314, 34.790355829358077 ], [ 135.631862775746526, 34.785417224825096 ], [ 135.648018884963676, 34.783783054144692 ], [ 135.651732218067423, 34.773541667314134 ], [ 135.658376667449261, 34.776196386853826 ], [ 135.661750557742153, 34.770716386851802 ], [ 135.657461946311855, 34.746404162322278 ], [ 135.65083444915058, 34.749761387278227 ], [ 135.63051500586289, 34.749655829353117 ], [ 135.626669441841386, 34.745206386765403 ], [ 135.624594448674884, 34.734335828835469 ], [ 135.630646394115843, 34.734127775176717 ], [ 135.633607497388198, 34.728212225413927 ], [ 135.620765279294233, 34.729108333283023 ], [ 135.623404721151019, 34.736323612944432 ], [ 135.620381672576173, 34.742893612850025 ], [ 135.608418340334197, 34.746599162321559 ], [ 135.604503333362231, 34.755804720811284 ], [ 135.596961672643147, 34.757021107837886 ], [ 135.597189442139097, 34.76306916191237 ], [ 135.587006109244612, 34.76752222517058 ], [ 135.615726108972808, 34.791202495199059 ], [ 135.616666666733295, 34.791072278762726 ] ], [ [ 135.626243890743012, 34.733779440768615 ], [ 135.629530271604835, 34.73368749498195 ], [ 135.6261558372222, 34.73382777483198 ], [ 135.626243890743012, 34.733779440768615 ] ] ] } },
{ "type": "Feature", "properties": { "regioncode": "2721600", "regionname": "大阪府河内長野市", "name": "河内長野市", "namekana": "かわちながのし", "PrefCode": "27" }, "geometry": { "type": "Polygon", "coordinates": [ [ [ 135.559472218168366, 34.479535559418593 ], [ 135.563001388103658, 34.476094999684562 ], [ 135.574650558376675, 34.476146386946255 ], [ 135.582434162806408, 34.468729721199736 ], [ 135.577884449407861, 34.454816945645575 ], [ 135.583158885074567, 34.453334162341775 ], [ 135.58339666672282, 34.448963054301544 ], [ 135.602006666974148, 34.4397066670291 ], [ 135.60825027233227, 34.431698054022036 ], [ 135.615470271635786, 34.430671108285082 ], [ 135.626094162615573, 34.421027775111781 ], [ 135.637087496890558, 34.420066945733026 ], [ 135.651541114830593, 34.400858613034643 ], [ 135.656208612437581, 34.399168892130717 ], [ 135.655534449155539, 34.395919441029434 ], [ 135.66338194592015, 34.396541386975457 ], [ 135.662651673036294, 34.393288612879246 ], [ 135.653831387708465, 34.383346667015132 ], [ 135.636357781586412, 34.381485279022456 ], [ 135.619911114906131, 34.3844824945715 ], [ 135.613702503068112, 34.376630829449255 ], [ 135.597677497018935, 34.380397225251784 ], [ 135.593138884851669, 34.374834162066975 ], [ 135.57712082966259, 34.376049441128885 ], [ 135.563403061302324, 34.369329161811436 ], [ 135.554671673059374, 34.359531108374028 ], [ 135.539704721196017, 34.357505279345219 ], [ 135.512040000345792, 34.33832889236453 ], [ 135.503651115306752, 34.336458612774834 ], [ 135.501745005827388, 34.350202224952795 ], [ 135.489922776315098, 34.355345559250225 ], [ 135.485376108920377, 34.36283249532346 ], [ 135.491013061303761, 34.373136108045003 ], [ 135.500343333278238, 34.375376107921113 ], [ 135.503668611617172, 34.381585000347513 ], [ 135.511792503321431, 34.381611945834663 ], [ 135.519690829768024, 34.388276387145595 ], [ 135.519311946289349, 34.396592495447351 ], [ 135.526956939111528, 34.413928892004833 ], [ 135.526503332762672, 34.425137774888469 ], [ 135.518909999696803, 34.435297495183306 ], [ 135.545313060749208, 34.461962775162021 ], [ 135.542061388322509, 34.466504161737703 ], [ 135.553084721282971, 34.471927775146753 ], [ 135.559256666861756, 34.479702495174081 ], [ 135.559472218168366, 34.479535559418593 ] ] ] } },
{ "type": "Feature", "properties": { "regioncode": "2721700", "regionname": "大阪府松原市", "name": "松原市", "namekana": "まつばらし", "PrefCode": "27" }, "geometry": { "type": "Polygon", "coordinates": [ [ [ 135.53850666684923, 34.599378054253862 ], [ 135.543462775786566, 34.599424161595834 ], [ 135.543578339568739, 34.595195278639267 ], [ 135.567159999834189, 34.595535558719121 ], [ 135.569382775894496, 34.58699972086049 ], [ 135.571770830259652, 34.594032494803855 ], [ 135.585755550678186, 34.590018612768802 ], [ 135.57650444872138, 34.577410829046585 ], [ 135.567194449264434, 34.576687224635748 ], [ 135.569775837185148, 34.564960279193599 ], [ 135.567202217608269, 34.560009441182842 ], [ 135.561057497205752, 34.560029441205813 ], [ 135.561547782404318, 34.554422494702408 ], [ 135.553185550572721, 34.553897494773594 ], [ 135.548240272170915, 34.557404721250919 ], [ 135.548037496633242, 34.565910278936258 ], [ 135.53726055812831, 34.565588333334972 ], [ 135.531760272118959, 34.576641108300578 ], [ 135.522424721124025, 34.576655558607172 ], [ 135.52198999963889, 34.594335279449638 ], [ 135.52636834002692, 34.596399720870465 ], [ 135.530524721438837, 34.590918333214574 ], [ 135.531498611671623, 34.598308612852236 ], [ 135.538452218295333, 34.599401945643308 ], [ 135.53850666684923, 34.599378054253862 ] ] ] } },
{ "type": "Feature", "properties": { "regioncode": "2721800", "regionname": "大阪府大東市", "name": "大東市", "namekana": "だいとうし", "PrefCode": "27" }, "geometry": { "type": "Polygon", "coordinates": [ [ [ 135.63973861194745, 34.731844161778668 ], [ 135.656766666948215, 34.727886946025762 ], [ 135.657179728261895, 34.722168891880926 ], [ 135.673589441799322, 34.714917224750195 ], [ 135.673438054422718, 34.700369999975578 ], [ 135.663372503038659, 34.69887833316858 ], [ 135.651997497386674, 34.702627224566811 ], [ 135.633855278598276, 34.698722774736325 ], [ 135.627041114555823, 34.704444999936868 ], [ 135.62655027177766, 34.701132775257406 ], [ 135.617835836654649, 34.700983612803554 ], [ 135.618785837296628, 34.695964440706405 ], [ 135.605596393658743, 34.701505558634665 ], [ 135.596770000135507, 34.700579720977373 ], [ 135.590431115203842, 34.707402774818263 ], [ 135.5970391699218, 34.706931945552924 ], [ 135.599350000402296, 34.714692225166118 ], [ 135.608942776388062, 34.722085828698084 ], [ 135.619645278906546, 34.718890279362938 ], [ 135.623922775615711, 34.721678053599362 ], [ 135.620765279294233, 34.729108333283023 ], [ 135.633607497388198, 34.728212225413927 ], [ 135.631944162593072, 34.73218777474608 ], [ 135.63948583680201, 34.731858891774493 ], [ 135.63973861194745, 34.731844161778668 ] ] ] } },
{ "type": "Feature", "properties": { "regioncode": "2721900", "regionname": "大阪府和泉市", "name": "和泉市", "namekana": "いずみし", "PrefCode": "27" }, "geometry": { "type": "Polygon", "coordinates": [ [ [ 135.456882776119301, 34.515247225079406 ], [ 135.46330083016926, 34.506591945561865 ], [ 135.461082503055081, 34.496656107893102 ], [ 135.466014720602971, 34.503274720651916 ], [ 135.466136939368312, 34.483072225203102 ], [ 135.471768054252379, 34.480998892185198 ], [ 135.478513332924081, 34.464898891670543 ], [ 135.494515837036261, 34.455917494596747 ], [ 135.499769441706462, 34.434608612697389 ], [ 135.52310444941088, 34.430254440689964 ], [ 135.526539169846842, 34.424888892008823 ], [ 135.526956939111528, 34.413928892004833 ], [ 135.519311946289349, 34.396592495447351 ], [ 135.519690829768024, 34.388276387145595 ], [ 135.511792503321431, 34.381611945834663 ], [ 135.503668611617172, 34.381585000347513 ], [ 135.500343333278238, 34.375376107921113 ], [ 135.491013061303761, 34.373136108045003 ], [ 135.489391672687589, 34.365618613008621 ], [ 135.477662503222064, 34.3534347211355 ], [ 135.465543891337575, 34.347319440939486 ], [ 135.453127781921694, 34.349861107604056 ], [ 135.456897223727992, 34.353180559235454 ], [ 135.454341673329623, 34.358506386660451 ], [ 135.456310272201335, 34.367166386719418 ], [ 135.463656666721818, 34.377684720673358 ], [ 135.461201388033714, 34.383483053700047 ], [ 135.449810557910951, 34.391018054039989 ], [ 135.455478339953515, 34.405690828668867 ], [ 135.449609441622442, 34.414916108391765 ], [ 135.451571673294097, 34.423795559217751 ], [ 135.448810830155708, 34.432357224706209 ], [ 135.443824163154659, 34.435411945604869 ], [ 135.440151387676451, 34.450853612704122 ], [ 135.442201115289322, 34.460458053796174 ], [ 135.429593890945398, 34.470361387268269 ], [ 135.424253891104286, 34.466304720886228 ], [ 135.415081114701707, 34.473540559049638 ], [ 135.418680830156291, 34.477941386985492 ], [ 135.415294163195085, 34.481191107883376 ], [ 135.416196938637881, 34.48793694593337 ], [ 135.429467496627694, 34.491561387348213 ], [ 135.423936939438249, 34.500677775359122 ], [ 135.435066939188005, 34.50894249460049 ], [ 135.432020000122975, 34.512712774574936 ], [ 135.447752502576009, 34.511287494822056 ], [ 135.45663722432846, 34.515376667199462 ], [ 135.456882776119301, 34.515247225079406 ] ] ] } },
{ "type": "Feature", "properties": { "regioncode": "2722000", "regionname": "大阪府箕面市", "name": "箕面市", "namekana": "みのおし", "PrefCode": "27" }, "geometry": { "type": "Polygon", "coordinates": [ [ [ 135.473445279076486, 34.910430279134118 ], [ 135.475800557649677, 34.903322495436839 ], [ 135.486929442240012, 34.898415558731131 ], [ 135.477701673193678, 34.889955000422958 ], [ 135.481984721417803, 34.874789441379676 ], [ 135.487022218100947, 34.873763332911551 ], [ 135.494045550961459, 34.87952277475631 ], [ 135.49952639362823, 34.877517495236248 ], [ 135.503384163248597, 34.869990279427896 ], [ 135.511725836578194, 34.874362224736956 ], [ 135.514385836936867, 34.860166667257943 ], [ 135.525285914213669, 34.847608386717752 ], [ 135.524939442301502, 34.840859440610757 ], [ 135.518573890672542, 34.838920828733308 ], [ 135.52607944181284, 34.834726945592138 ], [ 135.526182218134977, 34.830603332777628 ], [ 135.522088053620791, 34.825896107619315 ], [ 135.500341114650837, 34.830241945609373 ], [ 135.491398339861576, 34.816783054294547 ], [ 135.475773060878169, 34.821071386934989 ], [ 135.450040000145918, 34.807490829038557 ], [ 135.447836394034425, 34.815926387093157 ], [ 135.451986550339143, 34.81898049465417 ], [ 135.453733605721368, 34.84277666660995 ], [ 135.459935550885007, 34.844458891664544 ], [ 135.459517781620434, 34.860193612745093 ], [ 135.443543606152616, 34.874347775329625 ], [ 135.43837111493508, 34.87433249494876 ], [ 135.437799999570416, 34.88172972094992 ], [ 135.444753891279106, 34.895422775041084 ], [ 135.457726666652434, 34.896998053617324 ], [ 135.46570972812151, 34.909521107712976 ], [ 135.4733802715823, 34.91047194562384 ], [ 135.473445279076486, 34.910430279134118 ] ] ] } },
{ "type": "Feature", "properties": { "regioncode": "2722100", "regionname": "大阪府柏原市", "name": "柏原市", "namekana": "かしわらし", "PrefCode": "27" }, "geometry": { "type": "Polygon", "coordinates": [ [ [ 135.654054163269052, 34.603075829086322 ], [ 135.675693891360083, 34.601738892436003 ], [ 135.681009442232039, 34.582815829187211 ], [ 135.671544720712404, 34.579911108011288 ], [ 135.672993890955354, 34.570629721384591 ], [ 135.656922775765565, 34.562279721232187 ], [ 135.654393061091014, 34.54750555883453 ], [ 135.638550272077509, 34.549438054422751 ], [ 135.636553332870108, 34.557436945758468 ], [ 135.629784448793316, 34.551728613284922 ], [ 135.62249666668788, 34.551597225031969 ], [ 135.621955550907956, 34.569531945942629 ], [ 135.627593060871163, 34.577684721173 ], [ 135.607676394250234, 34.59119166686196 ], [ 135.618969170390983, 34.592921666601683 ], [ 135.622445006032308, 34.595393332736194 ], [ 135.620668053587906, 34.598689721253663 ], [ 135.624531114819206, 34.599716387301498 ], [ 135.64770861166312, 34.599220829377828 ], [ 135.651792503221486, 34.606810000381245 ], [ 135.653736666613895, 34.603177224949036 ], [ 135.654054163269052, 34.603075829086322 ] ] ] } },
{ "type": "Feature", "properties": { "regioncode": "2722200", "regionname": "大阪府羽曳野市", "name": "羽曳野市", "namekana": "はびきのし", "PrefCode": "27" }, "geometry": { "type": "MultiPolygon", "coordinates": [ [ [ [ 135.580156666596963, 34.534657495147314 ], [ 135.577691388346921, 34.5343711078404 ], [ 135.57952221827577, 34.538519720908425 ], [ 135.580381388290448, 34.534804721360842 ], [ 135.580156666596963, 34.534657495147314 ] ] ], [ [ [ 135.581226108897908, 34.581124162150388 ], [ 135.585118884628855, 34.581383612963407 ], [ 135.587591673117231, 34.576838333222554 ], [ 135.590936667293477, 34.563020559351401 ], [ 135.596371945808755, 34.563805000200659 ], [ 135.592443606387405, 34.561950000092509 ], [ 135.597669727775724, 34.554426946346553 ], [ 135.601591387932217, 34.553541107835883 ], [ 135.60505888505952, 34.558423332970506 ], [ 135.604215006217601, 34.565945278751656 ], [ 135.621638885226389, 34.564278333178606 ], [ 135.62249666668788, 34.551597225031969 ], [ 135.629784448793316, 34.551728613284922 ], [ 135.636553332870108, 34.557436945758468 ], [ 135.636164162945875, 34.550785828802987 ], [ 135.651316667430365, 34.548620558991672 ], [ 135.651668611717128, 34.542418054449683 ], [ 135.659496666937684, 34.54389082919846 ], [ 135.660142775868508, 34.541070828655847 ], [ 135.651486667175959, 34.533651107912362 ], [ 135.647104162926894, 34.534641387390195 ], [ 135.62831861231416, 34.525407775448514 ], [ 135.581757224216631, 34.533759720834496 ], [ 135.575759169749972, 34.54543889159163 ], [ 135.567404449056198, 34.548709161998261 ], [ 135.566481387606018, 34.560958054170897 ], [ 135.569775837185148, 34.564960279193599 ], [ 135.567194449264434, 34.576687224635748 ], [ 135.581233333151886, 34.58129110779845 ], [ 135.581226108897908, 34.581124162150388 ] ] ] ] } },
{ "type": "Feature", "properties": { "regioncode": "2722300", "regionname": "大阪府門真市", "name": "門真市", "namekana": "かどまし", "PrefCode": "27" }, "geometry": { "type": "Polygon", "coordinates": [ [ [ 135.608356666626946, 34.746733333076918 ], [ 135.620381672576173, 34.742893612850025 ], [ 135.623922775615711, 34.721678053599362 ], [ 135.619645278906546, 34.718890279362938 ], [ 135.608942776388062, 34.722085828698084 ], [ 135.602076394110327, 34.71581444058404 ], [ 135.586981115286335, 34.710903613411062 ], [ 135.587235278984963, 34.718253613313664 ], [ 135.571615836601609, 34.740208053758749 ], [ 135.57548027199698, 34.740178054173896 ], [ 135.58139561581504, 34.747866495042786 ], [ 135.604501388128597, 34.745293612909961 ], [ 135.606407781793791, 34.750389441419657 ], [ 135.608333332817097, 34.746783748171481 ], [ 135.608356666626946, 34.746733333076918 ] ] ] } },
{ "type": "Feature", "properties": { "regioncode": "2722400", "regionname": "大阪府摂津市", "name": "摂津市", "namekana": "せっつし", "PrefCode": "27" }, "geometry": { "type": "Polygon", "coordinates": [ [ [ 135.598532218087485, 34.793884721402833 ], [ 135.598068339682186, 34.785784441398903 ], [ 135.602274720701871, 34.780508332993236 ], [ 135.576749170437893, 34.759114440878818 ], [ 135.560528612205758, 34.753991945671828 ], [ 135.550763606155556, 34.757152225394918 ], [ 135.548772502648944, 34.768453054065219 ], [ 135.551308612402636, 34.768938892116239 ], [ 135.536696393623743, 34.786079440613719 ], [ 135.55193360615101, 34.793562225416395 ], [ 135.562849999827677, 34.792801666963385 ], [ 135.562694448590037, 34.783321666861468 ], [ 135.568280000221876, 34.785613332789126 ], [ 135.566879727917126, 34.775443612932463 ], [ 135.597620829837524, 34.798661386813592 ], [ 135.598545837420488, 34.794156386807856 ], [ 135.598532218087485, 34.793884721402833 ] ] ] } },
{ "type": "Feature", "properties": { "regioncode": "2722500", "regionname": "大阪府高石市", "name": "高石市", "namekana": "たかいしし", "PrefCode": "27" }, "geometry": { "type": "MultiPolygon", "coordinates": [ [ [ [ 135.396925641705025, 34.531936080985417 ], [ 135.401108858886801, 34.527420288215808 ], [ 135.39839722395277, 34.526109162108185 ], [ 135.393845291926709, 34.531428955082276 ], [ 135.396473890657603, 34.532462865169123 ], [ 135.396925641705025, 34.531936080985417 ] ] ], [ [ [ 135.439005836650153, 34.539525278968483 ], [ 135.446089169579523, 34.536879162343496 ], [ 135.446309169832375, 34.530896945837412 ], [ 135.4513186121643, 34.530406387245023 ], [ 135.445738612047421, 34.526003332587777 ], [ 135.456043061138416, 34.524502224697983 ], [ 135.459661945642324, 34.519642225408404 ], [ 135.453029727939679, 34.512114162438706 ], [ 135.444674448766818, 34.511238333382437 ], [ 135.431742218428667, 34.516651666641167 ], [ 135.426817496730109, 34.512736666863759 ], [ 135.418876173696503, 34.519482234217776 ], [ 135.438619442033655, 34.539539999971055 ], [ 135.439005836650153, 34.539525278968483 ] ] ], [ [ [ 135.41772571956642, 34.539123559005077 ], [ 135.42023167325317, 34.537978197735697 ], [ 135.426247522605195, 34.547090458757737 ], [ 135.436363346091639, 34.542582937052941 ], [ 135.421468586406149, 34.52481399986624 ], [ 135.404598586355746, 34.530136414364108 ], [ 135.407385642033773, 34.535038224934169 ], [ 135.399165862814357, 34.536489558946016 ], [ 135.405261907411159, 34.547233936596967 ], [ 135.417709883404427, 34.539130775165177 ], [ 135.41772571956642, 34.539123559005077 ] ] ] ] } },
{ "type": "Feature", "properties": { "regioncode": "2722600", "regionname": "大阪府藤井寺市", "name": "藤井寺市", "namekana": "ふじいでらし", "PrefCode": "27" }, "geometry": { "type": "Polygon", "coordinates": [ [ [ 135.586446938675294, 34.588060559347412 ], [ 135.605023890640155, 34.583331666823028 ], [ 135.608436939213448, 34.588716107562391 ], [ 135.61446666690324, 34.587952774700852 ], [ 135.614343332978478, 34.584885829317614 ], [ 135.627614721042619, 34.577189441139865 ], [ 135.621638885226389, 34.564278333178606 ], [ 135.604215006217601, 34.565945278751656 ], [ 135.60505888505952, 34.558423332970506 ], [ 135.601591387932217, 34.553541107835883 ], [ 135.597669727775724, 34.554426946346553 ], [ 135.592443606387405, 34.561950000092509 ], [ 135.596371945808755, 34.563805000200659 ], [ 135.590936667293477, 34.563020559351401 ], [ 135.585118884628855, 34.581383612963407 ], [ 135.581226108897908, 34.58082582914875 ], [ 135.582306394324746, 34.586880828687356 ], [ 135.586496666687935, 34.588221946285842 ], [ 135.586446938675294, 34.588060559347412 ] ] ] } },
{ "type": "Feature", "properties": { "regioncode": "2722700", "regionname": "大阪府東大阪市", "name": "東大阪市", "namekana": "ひがしおおさかし", "PrefCode": "27" }, "geometry": { "type": "Polygon", "coordinates": [ [ [ 135.628767782307364, 34.701919720718593 ], [ 135.633855278598276, 34.698722774736325 ], [ 135.639051946290351, 34.702027775161753 ], [ 135.652791114918045, 34.702584999598116 ], [ 135.663372503038659, 34.69887833316858 ], [ 135.672865837388599, 34.701147495360658 ], [ 135.673098054032039, 34.690146107656801 ], [ 135.678704720846213, 34.677759441145326 ], [ 135.664321387621953, 34.651294999564641 ], [ 135.665309999756801, 34.643842225138656 ], [ 135.632560830418015, 34.644379721147288 ], [ 135.631355550917988, 34.640458053796181 ], [ 135.631803060762763, 34.644361946047013 ], [ 135.625481946434775, 34.644656946161206 ], [ 135.625532217637783, 34.650305559154276 ], [ 135.617925278728649, 34.647925279428136 ], [ 135.594495005839917, 34.650621107877896 ], [ 135.595916666720882, 34.64172138723228 ], [ 135.585208340192821, 34.639347224694689 ], [ 135.588874163012292, 34.632433892410234 ], [ 135.574684163343477, 34.632181387061394 ], [ 135.561290558312635, 34.640842225288509 ], [ 135.561964720695414, 34.652793054256108 ], [ 135.558558884684885, 34.655829161886345 ], [ 135.56389861203138, 34.65820916192331 ], [ 135.557036109428964, 34.663344720682346 ], [ 135.557418340184313, 34.668063054266611 ], [ 135.562202775737546, 34.667913891812702 ], [ 135.565637782157978, 34.687751667205703 ], [ 135.578754720653933, 34.689163612710615 ], [ 135.581961673392584, 34.696806108115425 ], [ 135.594993891255172, 34.703499441046404 ], [ 135.618785837296628, 34.695964440706405 ], [ 135.617835836654649, 34.700983612803554 ], [ 135.62655027177766, 34.701132775257406 ], [ 135.627041114555823, 34.704444999936868 ], [ 135.628624163274594, 34.702133612776038 ], [ 135.628767782307364, 34.701919720718593 ] ] ] } },
{ "type": "Feature", "properties": { "regioncode": "2722800", "regionname": "大阪府泉南市", "name": "泉南市", "namekana": "せんなんし", "PrefCode": "27" }, "geometry": { "type": "MultiPolygon", "coordinates": [ [ [ [ 135.279246589258719, 34.395761126175103 ], [ 135.285248053954547, 34.383818613238475 ], [ 135.290384449083149, 34.382711667409581 ], [ 135.289627224416904, 34.378949720553237 ], [ 135.305647223940241, 34.382087224945508 ], [ 135.313575914197145, 34.376506919059125 ], [ 135.325156666746807, 34.363494721004599 ], [ 135.321980272071983, 34.3553722250482 ], [ 135.329666666983144, 34.339889440945001 ], [ 135.339142503224025, 34.341024441125114 ], [ 135.34036749676261, 34.336902494754383 ], [ 135.337528884750327, 34.334970559443832 ], [ 135.339135550565288, 34.329429721204747 ], [ 135.328028053651792, 34.324028613329915 ], [ 135.330506938644362, 34.316746387236037 ], [ 135.324198611776524, 34.319131945982576 ], [ 135.303967497202279, 34.313714721357371 ], [ 135.302536666833817, 34.30466389212495 ], [ 135.293373060818112, 34.299292774841717 ], [ 135.259694163354993, 34.356952494861787 ], [ 135.249396666922735, 34.365573054253105 ], [ 135.250323606249481, 34.374300278635019 ], [ 135.253589999678752, 34.374540829295881 ], [ 135.250704228117684, 34.376963189199898 ], [ 135.259327055599215, 34.38316147682076 ], [ 135.256936173765439, 34.381031613318328 ], [ 135.263790415195558, 34.381079081334576 ], [ 135.279201815611373, 34.395758171002853 ], [ 135.279246589258719, 34.395761126175103 ] ] ], [ [ [ 135.232145278781672, 34.428657224950996 ], [ 135.240340038861746, 34.422894783867207 ], [ 135.227687173024719, 34.413475828846458 ], [ 135.219122750214865, 34.422223721447665 ], [ 135.232024162585049, 34.428743333238288 ], [ 135.232145278781672, 34.428657224950996 ] ] ], [ [ [ 135.224999999650322, 34.43364761334675 ], [ 135.228890699746103, 34.430925720745449 ], [ 135.226847393292587, 34.428655748264248 ], [ 135.22162594028498, 34.433487224655721 ], [ 135.206170947031637, 34.423106720798557 ], [ 135.209012827180345, 34.42008225219422 ], [ 135.201164501240783, 34.428091802294887 ], [ 135.218048832887348, 34.438495864792401 ], [ 135.22346596578177, 34.434720802223296 ], [ 135.224999999650322, 34.43364761334675 ] ] ] ] } },
{ "type": "Feature", "properties": { "regioncode": "2722900", "regionname": "大阪府四條畷市", "name": "四條畷市", "namekana": "しじょうなわてし", "PrefCode": "27" }, "geometry": { "type": "MultiPolygon", "coordinates": [ [ [ [ 135.629530271604835, 34.733822774601435 ], [ 135.626108885416784, 34.733905279305247 ], [ 135.629483605783889, 34.733992224861368 ], [ 135.629530271604835, 34.733822774601435 ] ] ], [ [ [ 135.660981673365541, 34.749060828894187 ], [ 135.668546666995098, 34.744519721108304 ], [ 135.682586109361523, 34.745474441392389 ], [ 135.684378885377328, 34.742050278997226 ], [ 135.696827782276387, 34.743882224984759 ], [ 135.704135550914998, 34.723781108311528 ], [ 135.67308194627492, 34.701771387439635 ], [ 135.673589441799322, 34.714917224750195 ], [ 135.657179728261895, 34.722168891880926 ], [ 135.656766666948215, 34.727886946025762 ], [ 135.624594448674884, 34.734335828835469 ], [ 135.63051500586289, 34.749655829353117 ], [ 135.65083444915058, 34.749761387278227 ], [ 135.6557819461799, 34.746357224906035 ], [ 135.660753606194021, 34.749205278900547 ], [ 135.660981673365541, 34.749060828894187 ] ] ] ] } },
{ "type": "Feature", "properties": { "regioncode": "2723000", "regionname": "大阪府交野市", "name": "交野市", "namekana": "かたのし", "PrefCode": "27" }, "geometry": { "type": "Polygon", "coordinates": [ [ [ 135.677334720620934, 34.801875559309678 ], [ 135.708045278866621, 34.798273332947986 ], [ 135.716693060736247, 34.788909440718157 ], [ 135.706593333315709, 34.772451108032271 ], [ 135.710042218074022, 34.771514440738883 ], [ 135.710100557994451, 34.753555278953002 ], [ 135.706657782330808, 34.7485488916181 ], [ 135.697978884817758, 34.749661387163314 ], [ 135.699058340170382, 34.745290558812314 ], [ 135.695268339862082, 34.742952495061672 ], [ 135.684378885377328, 34.742050278997226 ], [ 135.682586109361523, 34.745474441392389 ], [ 135.679221672742074, 34.743355000133192 ], [ 135.672001673438558, 34.746643613112326 ], [ 135.668546666995098, 34.744519721108304 ], [ 135.658876667124559, 34.751837224908058 ], [ 135.66207583713026, 34.7667261084232 ], [ 135.659537782143047, 34.774974999596623 ], [ 135.671800272064957, 34.778715000297098 ], [ 135.671973605597486, 34.785705559164285 ], [ 135.664237223669033, 34.795510828761792 ], [ 135.676763606155532, 34.802072494649963 ], [ 135.677334720620934, 34.801875559309678 ] ] ] } },
{ "type": "Feature", "properties": { "regioncode": "2723100", "regionname": "大阪府大阪狭山市", "name": "大阪狭山市", "namekana": "おおさかさやまし", "PrefCode": "27" }, "geometry": { "type": "Polygon", "coordinates": [ [ [ 135.559164448580532, 34.52874777479002 ], [ 135.566536938728859, 34.513542224693992 ], [ 135.560301946177901, 34.511627225416191 ], [ 135.559584449063095, 34.497344440893301 ], [ 135.563988885079084, 34.4930786128877 ], [ 135.558331387683438, 34.489604440992196 ], [ 135.560925551373202, 34.48162805429132 ], [ 135.553084721282971, 34.471927775146753 ], [ 135.542061388322509, 34.466504161737703 ], [ 135.533571945588847, 34.487719161610073 ], [ 135.539705837254701, 34.501086667415848 ], [ 135.532643891102794, 34.514611107616588 ], [ 135.542851387881342, 34.510012224684488 ], [ 135.546383890704078, 34.51800805382868 ], [ 135.555019727778244, 34.5179905593169 ], [ 135.555048339709174, 34.527957775231187 ], [ 135.559380558366115, 34.529111666570202 ], [ 135.559164448580532, 34.52874777479002 ] ] ] } },
{ "type": "Feature", "properties": { "regioncode": "2723200", "regionname": "大阪府阪南市", "name": "阪南市", "namekana": "はんなんし", "PrefCode": "27" }, "geometry": { "type": "Polygon", "coordinates": [ [ [ 135.250704228117684, 34.376963189199898 ], [ 135.253589999678752, 34.374540829295881 ], [ 135.250323606249481, 34.374300278635019 ], [ 135.250213060684246, 34.362874161813181 ], [ 135.259694163354993, 34.356952494861787 ], [ 135.282244162738039, 34.31738582859316 ], [ 135.27228250283531, 34.311983612753579 ], [ 135.248959441724878, 34.314372775083541 ], [ 135.235523332935486, 34.303635558734072 ], [ 135.225005551165282, 34.300861386743634 ], [ 135.203608612147832, 34.308688333100122 ], [ 135.201797782241897, 34.312379441258258 ], [ 135.191814162693504, 34.31227889165757 ], [ 135.188499442395369, 34.319519161680034 ], [ 135.19361555061721, 34.321194161581332 ], [ 135.193884721302879, 34.325080278731946 ], [ 135.188131672738564, 34.331888892158702 ], [ 135.193123877764833, 34.338131676435751 ], [ 135.222879611405006, 34.347280360000639 ], [ 135.250690466691708, 34.376965279224294 ], [ 135.250704228117684, 34.376963189199898 ] ] ] } },
{ "type": "Feature", "properties": { "regioncode": "2730100", "regionname": "大阪府島本町", "name": "島本町", "namekana": "しまもとちょう", "PrefCode": "27" }, "geometry": { "type": "Polygon", "coordinates": [ [ [ 135.631147497259235, 34.934926387143094 ], [ 135.64947000044026, 34.925133333036968 ], [ 135.653514162648548, 34.917289721343593 ], [ 135.648248612283737, 34.916854441379428 ], [ 135.648502218402768, 34.909547494721153 ], [ 135.675770000085549, 34.899301387349226 ], [ 135.675140272305839, 34.894923332945496 ], [ 135.68269444888972, 34.887842224938765 ], [ 135.672755550828128, 34.870031107749469 ], [ 135.661066393998908, 34.875178053724255 ], [ 135.655070558159764, 34.872476108085948 ], [ 135.6502716731992, 34.88089777521219 ], [ 135.644836108699565, 34.882657225050934 ], [ 135.646377497223739, 34.887142775418795 ], [ 135.634667224313034, 34.892307775283655 ], [ 135.636501388028705, 34.91024889217266 ], [ 135.630211946024588, 34.906813053879375 ], [ 135.629245550741643, 34.91502638675837 ], [ 135.632836666878688, 34.92364666735989 ], [ 135.628301387598981, 34.926229162346033 ], [ 135.628108340027893, 34.933733333026964 ], [ 135.631011387565536, 34.934935829125266 ], [ 135.631147497259235, 34.934926387143094 ] ] ] } },
{ "type": "Feature", "properties": { "regioncode": "2732100", "regionname": "大阪府豊能町", "name": "豊能町", "namekana": "とよのちょう", "PrefCode": "27" }, "geometry": { "type": "Polygon", "coordinates": [ [ [ 135.48694389074808, 34.946562494763384 ], [ 135.494355005878901, 34.940854720768812 ], [ 135.504198340181347, 34.94639805372725 ], [ 135.514593606409903, 34.94411972114824 ], [ 135.516956939311399, 34.933833054352021 ], [ 135.525832775762069, 34.927312775264397 ], [ 135.52487083032463, 34.920136107995063 ], [ 135.516803605801783, 34.911228892399492 ], [ 135.518113332564326, 34.904470828965657 ], [ 135.511791114768243, 34.898248891872925 ], [ 135.500598053657313, 34.895958054220898 ], [ 135.500626667386882, 34.887929162400951 ], [ 135.495776394265249, 34.882050000107483 ], [ 135.49952639362823, 34.877517495236248 ], [ 135.494045550961459, 34.87952277475631 ], [ 135.487022218100947, 34.873763332911551 ], [ 135.481984721417803, 34.874789441379676 ], [ 135.477701673193678, 34.889955000422958 ], [ 135.486929442240012, 34.898415558731131 ], [ 135.475800557649677, 34.903322495436839 ], [ 135.4733802715823, 34.91047194562384 ], [ 135.46570972812151, 34.909521107712976 ], [ 135.457726666652434, 34.896998053617324 ], [ 135.44620333311741, 34.895034999965333 ], [ 135.443579169842906, 34.898938892216165 ], [ 135.432609170277033, 34.891738613246446 ], [ 135.427204448926204, 34.906045828752042 ], [ 135.4197588852644, 34.906639440657727 ], [ 135.419310271951531, 34.909932224692454 ], [ 135.439302775702572, 34.920504440627496 ], [ 135.46372639385811, 34.918371108439942 ], [ 135.468588054195379, 34.925538332827841 ], [ 135.466907781568921, 34.929120559166506 ], [ 135.475153332660284, 34.930540828796268 ], [ 135.479034448680977, 34.944271107625582 ], [ 135.486658612305177, 34.946609441172825 ], [ 135.48694389074808, 34.946562494763384 ] ] ] } },
{ "type": "Feature", "properties": { "regioncode": "2732200", "regionname": "大阪府能勢町", "name": "能勢町", "namekana": "のせちょう", "PrefCode": "27" }, "geometry": { "type": "Polygon", "coordinates": [ [ [ 135.357251672826465, 35.049974721156502 ], [ 135.366937497167783, 35.044194999599597 ], [ 135.37597527903597, 35.044135000430003 ], [ 135.380044448692388, 35.039106387250001 ], [ 135.382046939414749, 35.027640279375419 ], [ 135.377650000147469, 35.02033694619314 ], [ 135.381693333180806, 35.010247505218217 ], [ 135.397473890907349, 35.010641667279174 ], [ 135.403247223680523, 35.006691945576904 ], [ 135.409767223978292, 35.011525558757569 ], [ 135.421013333398719, 35.002156386608021 ], [ 135.440184162569153, 35.007693332581312 ], [ 135.493383605868758, 34.988773891801713 ], [ 135.483162775741562, 34.981868333257012 ], [ 135.48826277620617, 34.967293892299324 ], [ 135.490916394076407, 34.968021945656346 ], [ 135.486251672676644, 34.963923333095408 ], [ 135.487121673226738, 34.966771387089921 ], [ 135.481936393649676, 34.965229720675097 ], [ 135.487328885120064, 34.957167494584269 ], [ 135.480873606331897, 34.950397224652249 ], [ 135.484910557776061, 34.946400559238498 ], [ 135.479034448680977, 34.944271107625582 ], [ 135.475018339924532, 34.930376667449309 ], [ 135.461012218339306, 34.926274721101549 ], [ 135.441656939116456, 34.939394999679564 ], [ 135.418484721292884, 34.933894441175596 ], [ 135.417455005644115, 34.9417741624477 ], [ 135.410284720863274, 34.939961945787218 ], [ 135.412118884578945, 34.943003613026349 ], [ 135.409100272359751, 34.945494441015683 ], [ 135.410690000343266, 34.94267499985142 ], [ 135.395956667166502, 34.944439440927511 ], [ 135.392351946085455, 34.941365828869948 ], [ 135.382632218202389, 34.955991387292727 ], [ 135.360384721078049, 34.954469720900931 ], [ 135.35424805410446, 34.962617225204838 ], [ 135.346481388405437, 34.964496107709238 ], [ 135.349592503091571, 34.97897833308366 ], [ 135.359532776216724, 34.982515559145781 ], [ 135.352562775851538, 34.990388891634097 ], [ 135.35469749659228, 35.024790279248066 ], [ 135.339802775577709, 35.025877225053932 ], [ 135.336484720593489, 35.032718613373333 ], [ 135.330203891396536, 35.035223612879463 ], [ 135.338086939260847, 35.043603892305839 ], [ 135.348824448789401, 35.04593638655507 ], [ 135.349839441636959, 35.051137504991914 ], [ 135.357141218992183, 35.050000000199873 ], [ 135.357251672826465, 35.049974721156502 ] ] ] } },
{ "type": "Feature", "properties": { "regioncode": "2734100", "regionname": "大阪府忠岡町", "name": "忠岡町", "namekana": "ただおかちょう", "PrefCode": "27" }, "geometry": { "type": "Polygon", "coordinates": [ [ [ 135.377830000354265, 34.507844999746965 ], [ 135.389745550716611, 34.498928054386226 ], [ 135.404000557879499, 34.494521108362505 ], [ 135.406316393986458, 34.487315829162242 ], [ 135.418500272369783, 34.477476108335793 ], [ 135.413538340322248, 34.473858892074247 ], [ 135.394725006054273, 34.488844441018216 ], [ 135.370873041957339, 34.500399586271953 ], [ 135.373746355210187, 34.507274387103337 ], [ 135.377209104816416, 34.507270422891736 ], [ 135.377830000354265, 34.507844999746965 ] ] ] } },
{ "type": "Feature", "properties": { "regioncode": "2736100", "regionname": "大阪府熊取町", "name": "熊取町", "namekana": "くまとりちょう", "PrefCode": "27" }, "geometry": { "type": "Polygon", "coordinates": [ [ [ 135.359963891420534, 34.419261666692591 ], [ 135.367504162687055, 34.41713666672382 ], [ 135.362362776321106, 34.415560828769287 ], [ 135.368860000388736, 34.414274999691543 ], [ 135.36665834041014, 34.411619441084383 ], [ 135.37685555074313, 34.403212774649887 ], [ 135.379390830422494, 34.391113053924357 ], [ 135.38392861161617, 34.385207224933538 ], [ 135.387927496556813, 34.385671667213728 ], [ 135.386968053932605, 34.369571387009955 ], [ 135.381991945871619, 34.367148892207638 ], [ 135.387609999901656, 34.361597774717609 ], [ 135.388313606088104, 34.355427775271664 ], [ 135.380630557554241, 34.35665249541637 ], [ 135.381141115270339, 34.363338333397394 ], [ 135.370382218064947, 34.364419162014769 ], [ 135.355600829614673, 34.372710000266352 ], [ 135.35479389132513, 34.37903666700862 ], [ 135.34831500623261, 34.380880829386797 ], [ 135.336755551427586, 34.395604162102472 ], [ 135.337890271918582, 34.406702494924275 ], [ 135.347406666684378, 34.410473891856668 ], [ 135.353710829691067, 34.406003612876475 ], [ 135.354908339947997, 34.416141108225588 ], [ 135.359653606428878, 34.419292775141514 ], [ 135.359963891420534, 34.419261666692591 ] ], [ [ 135.371701946187954, 34.406224721094077 ], [ 135.377359170189607, 34.397896107719248 ], [ 135.371761672862931, 34.406246667249945 ], [ 135.371701946187954, 34.406224721094077 ] ] ] } },
{ "type": "Feature", "properties": { "regioncode": "2736200", "regionname": "大阪府田尻町", "name": "田尻町", "namekana": "たじりちょう", "PrefCode": "27" }, "geometry": { "type": "MultiPolygon", "coordinates": [ [ [ [ 135.291666667382856, 34.401574414028062 ], [ 135.296663333046467, 34.39913999961135 ], [ 135.300381387591074, 34.390014162423711 ], [ 135.297204162841922, 34.38924555863565 ], [ 135.297052502970701, 34.384577495355188 ], [ 135.285248053954547, 34.383818613238475 ], [ 135.279801297392055, 34.395392756670446 ], [ 135.282424967838097, 34.398881639676006 ], [ 135.287797951214543, 34.395857198051317 ], [ 135.28574488981485, 34.401570892282905 ], [ 135.291341114600868, 34.401796945872434 ], [ 135.291666667382856, 34.401574414028062 ] ] ], [ [ [ 135.232031946217376, 34.432639801585651 ], [ 135.241604241042978, 34.437300090227041 ], [ 135.25199990926842, 34.429854828737405 ], [ 135.240340038861746, 34.422894783867207 ], [ 135.218048832887348, 34.438495864792401 ], [ 135.229325162226473, 34.446049305730924 ], [ 135.239919559040459, 34.438503278803353 ], [ 135.232115966278911, 34.433275494568477 ], [ 135.232031946217376, 34.432639801585651 ] ] ] ] } },
{ "type": "Feature", "properties": { "regioncode": "2736600", "regionname": "大阪府岬町", "name": "岬町", "namekana": "みさきちょう", "PrefCode": "27" }, "geometry": { "type": "Polygon", "coordinates": [ [ [ 135.180579105041716, 34.340697468313579 ], [ 135.183378300668096, 34.338779135248956 ], [ 135.180373554196194, 34.340677532142422 ], [ 135.176703384953271, 34.337572252257701 ], [ 135.193913890813519, 34.336357585634119 ], [ 135.188131672738564, 34.331888892158702 ], [ 135.193884721302879, 34.325080278731946 ], [ 135.19361555061721, 34.321194161581332 ], [ 135.188499442395369, 34.319519161680034 ], [ 135.191624721403855, 34.312453891633822 ], [ 135.207679170357437, 34.309200559058581 ], [ 135.205181387910784, 34.288345558700598 ], [ 135.19179527872916, 34.286595558937961 ], [ 135.184321673306613, 34.278828892339561 ], [ 135.166853332715164, 34.27992777484701 ], [ 135.153598340191365, 34.274256667111558 ], [ 135.154802502733332, 34.28103805356335 ], [ 135.146764721115005, 34.28380777480902 ], [ 135.143379727792308, 34.280411945554874 ], [ 135.139643605867832, 34.281892774631899 ], [ 135.136615550767146, 34.273506387010229 ], [ 135.131201945913176, 34.272491108178144 ], [ 135.125674163132203, 34.277451945750727 ], [ 135.110636939143546, 34.272372224998264 ], [ 135.108639728340904, 34.283986667051067 ], [ 135.101387223941288, 34.285812494950733 ], [ 135.096764162736008, 34.296641945769238 ], [ 135.106072502943675, 34.308598891925385 ], [ 135.103534721350343, 34.311139440732632 ], [ 135.097082502955232, 34.307944720572436 ], [ 135.091924890121618, 34.315060332868143 ], [ 135.098158781003008, 34.314563107601373 ], [ 135.102063333356227, 34.319779946187623 ], [ 135.116041414080087, 34.322823973247807 ], [ 135.122660311024561, 34.319923918653956 ], [ 135.120551828903899, 34.32373327866793 ], [ 135.13055658881558, 34.32617369426066 ], [ 135.133186640850909, 34.323002973408563 ], [ 135.130139053374705, 34.320480332801196 ], [ 135.141463800414158, 34.320407054242196 ], [ 135.140154162684553, 34.3176984949896 ], [ 135.152940895306187, 34.331147305803597 ], [ 135.163817717014126, 34.331512613116672 ], [ 135.180470337436191, 34.340739945991743 ], [ 135.180579105041716, 34.340697468313579 ] ] ] } },
{ "type": "Feature", "properties": { "regioncode": "2738100", "regionname": "大阪府太子町", "name": "太子町", "namekana": "たいしちょう", "PrefCode": "27" }, "geometry": { "type": "Polygon", "coordinates": [ [ [ 135.661322502931284, 34.533143332698671 ], [ 135.662834721045556, 34.529629441345719 ], [ 135.669988884579425, 34.530648892132717 ], [ 135.677042776403027, 34.525370279115123 ], [ 135.677526108942857, 34.509743053998818 ], [ 135.65960693910904, 34.498391386653225 ], [ 135.648374163037261, 34.497666387393906 ], [ 135.649314720797747, 34.500326108063462 ], [ 135.642629999774726, 34.503981108441451 ], [ 135.640183606388405, 34.501936945833449 ], [ 135.630536109354011, 34.514182225429408 ], [ 135.620397782132045, 34.514816946245105 ], [ 135.621483333089373, 34.522684720923166 ], [ 135.627245006152179, 34.521997225191853 ], [ 135.627136666623983, 34.525451108382015 ], [ 135.647104162926894, 34.534641387390195 ], [ 135.651486667175959, 34.533651107912362 ], [ 135.660142775868508, 34.541070828655847 ], [ 135.661281115231304, 34.53333333336667 ], [ 135.661322502931284, 34.533143332698671 ] ] ] } },
{ "type": "Feature", "properties": { "regioncode": "2738200", "regionname": "大阪府河南町", "name": "河南町", "namekana": "かなんちょう", "PrefCode": "27" }, "geometry": { "type": "MultiPolygon", "coordinates": [ [ [ [ 135.641333332966951, 34.459320828693365 ], [ 135.639698885295388, 34.461706667129022 ], [ 135.641477496988955, 34.459446107851647 ], [ 135.641333332966951, 34.459320828693365 ] ] ], [ [ [ 135.62499999975023, 34.514842306227479 ], [ 135.630536109354011, 34.514182225429408 ], [ 135.640183606388405, 34.501936945833449 ], [ 135.642629999774726, 34.503981108441451 ], [ 135.649314720797747, 34.500326108063462 ], [ 135.648374163037261, 34.497666387393906 ], [ 135.659354720643933, 34.498307774883983 ], [ 135.664270271955502, 34.503786108442227 ], [ 135.675316667130573, 34.50573499957062 ], [ 135.673062776326105, 34.502645000066764 ], [ 135.678301388398381, 34.499499721035363 ], [ 135.680489727618919, 34.488956386827851 ], [ 135.684726109122721, 34.485416107567346 ], [ 135.681211946174471, 34.480234999945367 ], [ 135.682278053789219, 34.465463891645356 ], [ 135.675378612433065, 34.469412494590983 ], [ 135.666611945584918, 34.469040278685952 ], [ 135.666957781676388, 34.465950828667872 ], [ 135.657929727774786, 34.46671055884525 ], [ 135.65917778172934, 34.461668613215977 ], [ 135.653920558187224, 34.459818613338371 ], [ 135.659933891236165, 34.457540000170923 ], [ 135.659615837001297, 34.453738332957755 ], [ 135.668540271916072, 34.446696946207169 ], [ 135.65427778239382, 34.456032495403406 ], [ 135.647141387664988, 34.454747494601236 ], [ 135.633908611992865, 34.468441946238897 ], [ 135.628003333387142, 34.467451666761065 ], [ 135.627066666993187, 34.476261667442031 ], [ 135.616848339679223, 34.474319999668296 ], [ 135.613038340247272, 34.490416667295392 ], [ 135.621320000018045, 34.493865829044807 ], [ 135.627069728285392, 34.486239721086292 ], [ 135.627703061447164, 34.497941667174246 ], [ 135.621932503082576, 34.500129440721139 ], [ 135.617627223617546, 34.507370000325295 ], [ 135.618297223937816, 34.513450829292367 ], [ 135.62489167281251, 34.514856108122956 ], [ 135.62499999975023, 34.514842306227479 ] ] ] ] } },
{ "type": "Feature", "properties": { "regioncode": "2738300", "regionname": "大阪府千早赤阪村", "name": "千早赤阪村", "namekana": "ちはやあかさかむら", "PrefCode": "27" }, "geometry": { "type": "Polygon", "coordinates": [ [ [ 135.6257777820191, 34.476619441134346 ], [ 135.628003333387142, 34.467451666761065 ], [ 135.634088612199776, 34.468346386976236 ], [ 135.647141387664988, 34.454747494601236 ], [ 135.65427778239382, 34.456032495403406 ], [ 135.665774720826789, 34.44634500012171 ], [ 135.668662503272003, 34.447150279162088 ], [ 135.660004720941174, 34.453273054308056 ], [ 135.659933891236165, 34.457540000170923 ], [ 135.653927782441315, 34.45973499977049 ], [ 135.65917778172934, 34.461668613215977 ], [ 135.657929727774786, 34.46671055884525 ], [ 135.675378612433065, 34.469412494590983 ], [ 135.682167497432147, 34.465245279046428 ], [ 135.686736109184153, 34.448757495362145 ], [ 135.678979169653076, 34.432761108438456 ], [ 135.664285278942543, 34.423226666977143 ], [ 135.669421945666272, 34.413675278691187 ], [ 135.677305006121173, 34.413828053721772 ], [ 135.680093060946092, 34.409198612725845 ], [ 135.675552776039808, 34.399458053846161 ], [ 135.655534449155539, 34.395919441029434 ], [ 135.656208612437581, 34.399168892130717 ], [ 135.651541114830593, 34.400858613034643 ], [ 135.637087496890558, 34.420066945733026 ], [ 135.626094162615573, 34.421027775111781 ], [ 135.602289170109202, 34.437388891983858 ], [ 135.616111115036006, 34.452022775430805 ], [ 135.615511387740412, 34.472709161898365 ], [ 135.62538888458937, 34.476595558738097 ], [ 135.6257777820191, 34.476619441134346 ] ], [ [ 135.641052502571029, 34.459475828646646 ], [ 135.639698885295388, 34.461706667129022 ], [ 135.640908611942905, 34.459547494721164 ], [ 135.641052502571029, 34.459475828646646 ] ] ] } }
]
}
