{
"type": "FeatureCollection",
"name": "31_tottori_region",
"crs": { "type": "name", "properties": { "name": "urn:ogc:def:crs:OGC:1.3:CRS84" } },
"features": [
{ "type": "Feature", "properties": { "regioncode": "3139000", "regionname": "鳥取県伯耆町", "name": "伯耆町", "namekana": "ほうきちょう", "PrefCode": "31" }, "geometry": { "type": "Polygon", "coordinates": [ [ [ 133.402133606180996, 35.402028054351263 ], [ 133.406563061336328, 35.394518612743809 ], [ 133.419317781690324, 35.388589171153399 ], [ 133.440435551359656, 35.390378054004032 ], [ 133.445913891213195, 35.392873613326628 ], [ 133.44567693873978, 35.397765278644727 ], [ 133.491139170036718, 35.400143053758995 ], [ 133.513602776047378, 35.397244440778366 ], [ 133.523533606290925, 35.387404720851237 ], [ 133.520825279063388, 35.384822504654892 ], [ 133.524818884983574, 35.382845278586785 ], [ 133.521116939095577, 35.369961386808598 ], [ 133.527485837101722, 35.359668333027173 ], [ 133.519459727784238, 35.352074999961303 ], [ 133.519008885052017, 35.347039441317236 ], [ 133.513818884933698, 35.344806386905304 ], [ 133.508530829933875, 35.334456945631587 ], [ 133.514049442327973, 35.334513612813055 ], [ 133.507060000418733, 35.332028613329896 ], [ 133.508100272309775, 35.327180558835778 ], [ 133.484752503225536, 35.322553612559204 ], [ 133.475939169657067, 35.313760000223908 ], [ 133.445160557913482, 35.29637444132743 ], [ 133.443794994043856, 35.291140000310804 ], [ 133.449403332697671, 35.279680559110545 ], [ 133.444616939320326, 35.270609720861955 ], [ 133.430012503274497, 35.265327505160315 ], [ 133.423959170179614, 35.257839721026357 ], [ 133.41237499391093, 35.254713891632832 ], [ 133.397421945566407, 35.238125838037035 ], [ 133.380310000006602, 35.234932504631445 ], [ 133.374843060858666, 35.245463612555739 ], [ 133.369355279023011, 35.248284999852899 ], [ 133.369964163215627, 35.252519721208216 ], [ 133.362075551245766, 35.254273332648211 ], [ 133.358075837130286, 35.261030279124157 ], [ 133.386308612052858, 35.27488638659753 ], [ 133.381576938824765, 35.290759721084328 ], [ 133.384996394168297, 35.294919170983007 ], [ 133.379513606268006, 35.306381667180233 ], [ 133.38400722355459, 35.31459361330468 ], [ 133.383609170127215, 35.322556666656908 ], [ 133.397053060750181, 35.324794721299384 ], [ 133.40830805367375, 35.32019361344453 ], [ 133.4121108297511, 35.324187775145731 ], [ 133.408159170009753, 35.332030000084501 ], [ 133.415425279353258, 35.333891666866975 ], [ 133.427786939315865, 35.345476387225517 ], [ 133.422094449299493, 35.353724171333511 ], [ 133.406729728194478, 35.354458054095971 ], [ 133.401640829860526, 35.366358892449 ], [ 133.39471416332799, 35.368551107747464 ], [ 133.391646939154953, 35.37434638667645 ], [ 133.382146667434768, 35.372231666857999 ], [ 133.374206938899192, 35.374949440564308 ], [ 133.372992218316313, 35.378761108238621 ], [ 133.380584721307855, 35.38118917074371 ], [ 133.38239555121379, 35.388407224813648 ], [ 133.388749999812717, 35.38346166672261 ], [ 133.386224720594441, 35.386386108232387 ], [ 133.389311945689769, 35.396875838349331 ], [ 133.397814720872702, 35.394722505239486 ], [ 133.396161388337418, 35.399106945728988 ], [ 133.400215836991379, 35.404787505339129 ], [ 133.402277224314503, 35.402211387445618 ], [ 133.402133606180996, 35.402028054351263 ] ] ] } },
{ "type": "Feature", "properties": { "regioncode": "3120200", "regionname": "鳥取県米子市", "name": "米子市", "namekana": "よなごし", "PrefCode": "31" }, "geometry": { "type": "Polygon", "coordinates": [ [ [ 133.266437055625715, 35.497314306210342 ], [ 133.288780389003819, 35.480636693628583 ], [ 133.307907664906907, 35.471480748038118 ], [ 133.374054253800864, 35.456292332725013 ], [ 133.367558611640675, 35.434360837582631 ], [ 133.376451387721431, 35.433901667128282 ], [ 133.377136394129366, 35.430564170600064 ], [ 133.384523606179528, 35.431995000069264 ], [ 133.384118611784515, 35.438630000274372 ], [ 133.390452502780818, 35.445828612800312 ], [ 133.391613410630498, 35.453925559017364 ], [ 133.402041504811677, 35.452786198024683 ], [ 133.423486446042716, 35.4587042523994 ], [ 133.427699105229635, 35.462932864660047 ], [ 133.42324641968662, 35.464255225098611 ], [ 133.42829916977098, 35.465663198297989 ], [ 133.429315382998539, 35.469894657812233 ], [ 133.434596393608786, 35.468754440664952 ], [ 133.434023890590197, 35.459620559041639 ], [ 133.454434721185521, 35.461501107989818 ], [ 133.458305279165415, 35.447263892114961 ], [ 133.464290830357641, 35.447747224654734 ], [ 133.471210271736709, 35.439964720995135 ], [ 133.480245550791551, 35.437201667323166 ], [ 133.479680000431699, 35.429659440930493 ], [ 133.468720829602717, 35.422802505131585 ], [ 133.465810000231386, 35.415987775415545 ], [ 133.441834993590192, 35.41456277535184 ], [ 133.446759727879225, 35.394619999613326 ], [ 133.440435551359656, 35.390378054004032 ], [ 133.415005837349554, 35.389545558780583 ], [ 133.403287496620692, 35.397638892421014 ], [ 133.400215836991379, 35.404787505339129 ], [ 133.396144721201949, 35.399066108414218 ], [ 133.397814720872702, 35.394722505239486 ], [ 133.389311945689769, 35.396875838349331 ], [ 133.386224720594441, 35.386386108232387 ], [ 133.388693606025186, 35.383416107967037 ], [ 133.382446109300531, 35.388421107648071 ], [ 133.380455550783154, 35.381075000011322 ], [ 133.370038611792552, 35.378725558937447 ], [ 133.359266393829103, 35.381380837855431 ], [ 133.355761115283258, 35.386310837675069 ], [ 133.351748885302868, 35.384997775327122 ], [ 133.351761115183422, 35.38813417085538 ], [ 133.347492776270656, 35.385324721159009 ], [ 133.342985837326637, 35.388664171014739 ], [ 133.328843332653719, 35.374671666963934 ], [ 133.324433891011381, 35.374278612867727 ], [ 133.313653606129037, 35.386923053855924 ], [ 133.321230272059438, 35.395747504843541 ], [ 133.321614162963328, 35.407681386986496 ], [ 133.308690000443221, 35.43087666702462 ], [ 133.272021660271434, 35.446012505272961 ], [ 133.22685277613482, 35.477163332921521 ], [ 133.245600000339778, 35.49474777508982 ], [ 133.262828417997184, 35.500983333314252 ], [ 133.266399026893623, 35.49736525190491 ], [ 133.266437055625715, 35.497314306210342 ] ] ] } },
{ "type": "Feature", "properties": { "regioncode": "3120300", "regionname": "鳥取県倉吉市", "name": "倉吉市", "namekana": "くらよしし", "PrefCode": "31" }, "geometry": { "type": "Polygon", "coordinates": [ [ [ 133.830236394094413, 35.480608053818685 ], [ 133.85247277559813, 35.476027775161754 ], [ 133.855874993636121, 35.481116107822174 ], [ 133.864601115449204, 35.473595000209173 ], [ 133.866699442425443, 35.46356750543606 ], [ 133.862837497252713, 35.459120559366397 ], [ 133.860388885238876, 35.44338666656148 ], [ 133.867772217613833, 35.440646387320953 ], [ 133.870834162766414, 35.435176946259105 ], [ 133.881243890992891, 35.432546666695373 ], [ 133.887477224294571, 35.423455278938036 ], [ 133.874685836781964, 35.419169720706122 ], [ 133.866967782137522, 35.421801666713577 ], [ 133.859740000100942, 35.410055559416605 ], [ 133.845206667154002, 35.403210559419847 ], [ 133.832260557578707, 35.377458891714525 ], [ 133.830658884799732, 35.372002505211526 ], [ 133.834517782169996, 35.367173892261349 ], [ 133.829224720644447, 35.355548332789397 ], [ 133.819868885440769, 35.348460559007663 ], [ 133.80762861237065, 35.347303612671624 ], [ 133.7982872238764, 35.336892774681871 ], [ 133.786443060798661, 35.334161666727596 ], [ 133.782042502659465, 35.325684441284011 ], [ 133.775444163317502, 35.326520837766509 ], [ 133.759006667024096, 35.308573054203123 ], [ 133.750569170031213, 35.311485837801229 ], [ 133.745012502824807, 35.319602224663015 ], [ 133.742308611952922, 35.316523332685733 ], [ 133.737586109111703, 35.318981946060035 ], [ 133.728901660083579, 35.316724440880307 ], [ 133.697269169936362, 35.327144441163057 ], [ 133.691239728230926, 35.320140279150621 ], [ 133.677987496625747, 35.319019170798128 ], [ 133.649628327385471, 35.336215279411647 ], [ 133.632836393884531, 35.339824170649024 ], [ 133.62219138772241, 35.336709440688196 ], [ 133.616157497070844, 35.340868054217367 ], [ 133.605356667176466, 35.341064440971252 ], [ 133.576560830318158, 35.359927774846994 ], [ 133.576350829627131, 35.365972505027116 ], [ 133.600855837327117, 35.370316386991703 ], [ 133.636575837005353, 35.384829171329272 ], [ 133.645298053962051, 35.402313613382603 ], [ 133.666675278941057, 35.419192505030139 ], [ 133.68673138814313, 35.42164861289325 ], [ 133.730983060919584, 35.440832775412332 ], [ 133.750873890917433, 35.454219170578313 ], [ 133.746985550642762, 35.46053138701393 ], [ 133.760980272421648, 35.47107555938959 ], [ 133.765273606192068, 35.467534171265072 ], [ 133.775797497056942, 35.471919440929526 ], [ 133.784464162890913, 35.463253892053501 ], [ 133.796604449335973, 35.469894720764785 ], [ 133.804243060568865, 35.465203613256222 ], [ 133.803969170241089, 35.46059555903787 ], [ 133.818491387567519, 35.457890559301916 ], [ 133.821147224065157, 35.463403333297265 ], [ 133.825410558250724, 35.463902504696875 ], [ 133.828234163276079, 35.481192224641518 ], [ 133.830236394094413, 35.480608053818685 ] ] ] } },
{ "type": "Feature", "properties": { "regioncode": "3120400", "regionname": "鳥取県境港市", "name": "境港市", "namekana": "さかいみなとし", "PrefCode": "31" }, "geometry": { "type": "MultiPolygon", "coordinates": [ [ [ [ 133.274786860625227, 35.548717279079199 ], [ 133.260747302246273, 35.536131999991881 ], [ 133.266907081796489, 35.52178522510809 ], [ 133.260632943555606, 35.536165667011971 ], [ 133.274657587577622, 35.548718135233798 ], [ 133.274786860625227, 35.548717279079199 ] ] ], [ [ [ 133.271752672148182, 35.552290225313698 ], [ 133.250369052989413, 35.5372075046227 ], [ 133.249545524906125, 35.531216694195109 ], [ 133.24454924774966, 35.535121558613071 ], [ 133.246289078877908, 35.527692171056913 ], [ 133.255776886893841, 35.528284053566267 ], [ 133.260584968321723, 35.519732586389807 ], [ 133.251038663903273, 35.515316360261863 ], [ 133.262828417997184, 35.500983333314252 ], [ 133.24480749706845, 35.494255279357731 ], [ 133.22685277613482, 35.477163332921521 ], [ 133.198631946007595, 35.526015558671133 ], [ 133.201021114632795, 35.535242504837754 ], [ 133.221927781941645, 35.547633053722507 ], [ 133.244605279110374, 35.549115837925626 ], [ 133.249857497025914, 35.546365170616184 ], [ 133.271828366286172, 35.552337559330965 ], [ 133.271752672148182, 35.552290225313698 ] ] ] ] } },
{ "type": "Feature", "properties": { "regioncode": "3130200", "regionname": "鳥取県岩美町", "name": "岩美町", "namekana": "いわみちょう", "PrefCode": "31" }, "geometry": { "type": "Polygon", "coordinates": [ [ [ 134.37000250291328, 35.614329721039837 ], [ 134.371522776255233, 35.608570279195078 ], [ 134.392948884783323, 35.601457224571334 ], [ 134.393131946282324, 35.598140559039621 ], [ 134.408303606326399, 35.589065000249605 ], [ 134.405040272390693, 35.570497775352123 ], [ 134.410037497432654, 35.562821666886464 ], [ 134.421799170195641, 35.562549441203828 ], [ 134.425076666654945, 35.551860837707522 ], [ 134.420933332607319, 35.544736666563949 ], [ 134.425600557719576, 35.54180638665548 ], [ 134.412702218332811, 35.51490444108714 ], [ 134.427632217952578, 35.508654721238429 ], [ 134.430876393630683, 35.502469170715699 ], [ 134.427467782312419, 35.49639805442672 ], [ 134.43814083023517, 35.476073054228095 ], [ 134.434437496693135, 35.470830558883222 ], [ 134.425967223908287, 35.487278892007339 ], [ 134.403479999902174, 35.487959721064328 ], [ 134.393293890800464, 35.500630558953162 ], [ 134.387293061025957, 35.49811972104834 ], [ 134.376410829895917, 35.500359441235275 ], [ 134.37202639390307, 35.492477504932936 ], [ 134.350430558123776, 35.477892225345954 ], [ 134.335915836646564, 35.478164999615103 ], [ 134.328209441712374, 35.485207225433157 ], [ 134.319878053929074, 35.486333333116875 ], [ 134.318737224343522, 35.491222224925764 ], [ 134.324331946362349, 35.497639171010974 ], [ 134.326683061074505, 35.509957775031353 ], [ 134.323050272152386, 35.513006946213636 ], [ 134.328781659645983, 35.527826946156665 ], [ 134.327489441784337, 35.533462224901825 ], [ 134.307953333179853, 35.538981107991788 ], [ 134.306075551445588, 35.54714472095219 ], [ 134.297460000378805, 35.55105417101322 ], [ 134.295208612387569, 35.561602224862838 ], [ 134.278273060753236, 35.571504721066049 ], [ 134.289773554206249, 35.574406891764681 ], [ 134.285866277806576, 35.579086026598873 ], [ 134.287754383757829, 35.581313107713811 ], [ 134.289655499301944, 35.577521585752606 ], [ 134.289470894566193, 35.581187000279897 ], [ 134.296754008290918, 35.580141026687102 ], [ 134.291998885240446, 35.584626891817663 ], [ 134.285724746999563, 35.582457414078476 ], [ 134.294112775883946, 35.589486999925157 ], [ 134.310425252923096, 35.591781279282657 ], [ 134.316590077669957, 35.596464360341997 ], [ 134.319143021833042, 35.596028054251349 ], [ 134.312853501587938, 35.593246972769634 ], [ 134.31899111464827, 35.592178667211783 ], [ 134.318750583772498, 35.594837973293863 ], [ 134.324382606971767, 35.59052077511376 ], [ 134.336979300254598, 35.593323639974074 ], [ 134.340722166195064, 35.598126892042501 ], [ 134.337387977373282, 35.600541801962663 ], [ 134.340699585117818, 35.602592197771742 ], [ 134.339680310597942, 35.60823291921389 ], [ 134.345438327017291, 35.609125413606989 ], [ 134.345044332230259, 35.603652135137963 ], [ 134.349712970177507, 35.600706135080145 ], [ 134.36636525335382, 35.602052558678679 ], [ 134.371034721375395, 35.605992027210334 ], [ 134.369959169979779, 35.614457774606649 ], [ 134.37000250291328, 35.614329721039837 ] ] ] } },
{ "type": "Feature", "properties": { "regioncode": "3132500", "regionname": "鳥取県若桜町", "name": "若桜町", "namekana": "わかさちょう", "PrefCode": "31" }, "geometry": { "type": "Polygon", "coordinates": [ [ [ 134.441972503328429, 35.442871107715519 ], [ 134.452258326560582, 35.43645138722178 ], [ 134.46273472063092, 35.436799441041444 ], [ 134.480006108794896, 35.427190837886883 ], [ 134.475882218089964, 35.423550278822347 ], [ 134.476666393639221, 35.414342775099044 ], [ 134.481433891361007, 35.410498333431406 ], [ 134.480480271847114, 35.403139441032408 ], [ 134.471458327040182, 35.37981194626434 ], [ 134.474858612435128, 35.374618892048261 ], [ 134.488951945775739, 35.367907505227208 ], [ 134.502867781722784, 35.365961386708705 ], [ 134.504165278604773, 35.359760559402332 ], [ 134.513881946095012, 35.35359027936795 ], [ 134.501920558187294, 35.326543333408154 ], [ 134.503428327355437, 35.31850777491394 ], [ 134.514802217848114, 35.307672224893338 ], [ 134.509274162572638, 35.294028054351259 ], [ 134.515408054238378, 35.277674441422391 ], [ 134.490013061253876, 35.261401387064438 ], [ 134.486393060691285, 35.262737505331643 ], [ 134.477458611825568, 35.24947944072369 ], [ 134.461767223678521, 35.244029171409181 ], [ 134.463472217768754, 35.236823054040769 ], [ 134.447766108619135, 35.237920000307838 ], [ 134.435319170443449, 35.229172505206975 ], [ 134.422846938835278, 35.23716638731895 ], [ 134.40281444942741, 35.241024441125091 ], [ 134.393466939247901, 35.252619721323128 ], [ 134.381382775894508, 35.248853053925359 ], [ 134.387708885057009, 35.259152775280427 ], [ 134.387620829737557, 35.278599171114934 ], [ 134.382144448607505, 35.28644917069272 ], [ 134.383552502745829, 35.291945837830212 ], [ 134.375946108825929, 35.296126386723415 ], [ 134.369164720575441, 35.294938054048032 ], [ 134.354132503112623, 35.30726110791386 ], [ 134.361350272097411, 35.331620559441319 ], [ 134.358049727812727, 35.337262774657404 ], [ 134.375421946165943, 35.342567504886517 ], [ 134.374973061257833, 35.361044721137034 ], [ 134.386994449234521, 35.353055838356283 ], [ 134.390308054373236, 35.35509666717752 ], [ 134.387293332621311, 35.363309440678222 ], [ 134.391927496856511, 35.372461108193647 ], [ 134.388289442403902, 35.377164441086165 ], [ 134.407748053729733, 35.387846946279581 ], [ 134.426222776160216, 35.391173613171759 ], [ 134.434058327230105, 35.396356387237518 ], [ 134.445705837354581, 35.418975279185815 ], [ 134.447225551318184, 35.432186107802693 ], [ 134.440768327296496, 35.439859720649622 ], [ 134.441820829967355, 35.443052504569494 ], [ 134.441972503328429, 35.442871107715519 ] ] ] } },
{ "type": "Feature", "properties": { "regioncode": "3132800", "regionname": "鳥取県智頭町", "name": "智頭町", "namekana": "ちづちょう", "PrefCode": "31" }, "geometry": { "type": "Polygon", "coordinates": [ [ [ 134.325737496788065, 35.311987774616171 ], [ 134.339311945589884, 35.306791667201708 ], [ 134.358744993686628, 35.305765279044465 ], [ 134.360539728425806, 35.30022861276035 ], [ 134.369164720575441, 35.294938054048032 ], [ 134.375946108825929, 35.296126386723415 ], [ 134.383552502745829, 35.291945837830212 ], [ 134.382144448607505, 35.28644917069272 ], [ 134.387620829737557, 35.278599171114934 ], [ 134.387080558421076, 35.255726666752309 ], [ 134.380282217950025, 35.247603332627762 ], [ 134.372818612089304, 35.245628612970165 ], [ 134.374821387896759, 35.237672225392942 ], [ 134.371921659756822, 35.234165278604792 ], [ 134.336654721438322, 35.219602775247949 ], [ 134.335014993846926, 35.213171386950023 ], [ 134.320100557894534, 35.201463613255214 ], [ 134.29899610898326, 35.201860279028722 ], [ 134.278460830203244, 35.196870837619088 ], [ 134.270463606210569, 35.201353612679156 ], [ 134.267973333102873, 35.208418891718509 ], [ 134.260471659839254, 35.210976107661281 ], [ 134.254099169940787, 35.208292504595477 ], [ 134.249758885264441, 35.200680559160503 ], [ 134.227825279413196, 35.197227224556798 ], [ 134.221795550824027, 35.190451386922007 ], [ 134.193473891407052, 35.189123054085712 ], [ 134.190118611684625, 35.176073613306642 ], [ 134.177598326601583, 35.169171386750122 ], [ 134.167534448855804, 35.171825838291852 ], [ 134.168893605955191, 35.18016694594786 ], [ 134.165554449278488, 35.187271946243357 ], [ 134.152948054109515, 35.196284440974239 ], [ 134.16418416306874, 35.227975558825051 ], [ 134.158246393756144, 35.234563054141688 ], [ 134.143968612161757, 35.231492224586532 ], [ 134.137304721235978, 35.238775838334334 ], [ 134.14552000024787, 35.242960559182507 ], [ 134.143043332983439, 35.250723332615735 ], [ 134.150578884607853, 35.257956387377419 ], [ 134.137698885095574, 35.269346107736737 ], [ 134.141292218061494, 35.274730559267937 ], [ 134.139885279082478, 35.281513333373709 ], [ 134.148300829919435, 35.281639440807623 ], [ 134.148117224330463, 35.277838054182894 ], [ 134.160096938622928, 35.271943613307144 ], [ 134.197224720844247, 35.279785838245914 ], [ 134.199238053793238, 35.287288613178987 ], [ 134.207604162602138, 35.289401108074742 ], [ 134.219775278706265, 35.301416108166904 ], [ 134.223517782219915, 35.297367774902966 ], [ 134.244679728386814, 35.29829638696873 ], [ 134.249608327062674, 35.295565000224656 ], [ 134.270537223813903, 35.3090138919776 ], [ 134.274688612189721, 35.30328083804028 ], [ 134.283489727568963, 35.302041387000486 ], [ 134.288434163306079, 35.303601386994444 ], [ 134.291094448749845, 35.309517225439663 ], [ 134.304349169678517, 35.310260278589055 ], [ 134.307669728375345, 35.313944720972131 ], [ 134.325598054206921, 35.312095278674235 ], [ 134.325737496788065, 35.311987774616171 ] ] ] } },
{ "type": "Feature", "properties": { "regioncode": "3132900", "regionname": "鳥取県八頭町", "name": "八頭町", "namekana": "やずちょう", "PrefCode": "31" }, "geometry": { "type": "Polygon", "coordinates": [ [ [ 134.277700557734647, 35.449981946409764 ], [ 134.282356108747535, 35.442492225136107 ], [ 134.296853061419711, 35.445080000042026 ], [ 134.325648884788279, 35.429646666960139 ], [ 134.340948054309365, 35.430330837897884 ], [ 134.349003333137375, 35.424456945631562 ], [ 134.377295551448583, 35.43159472081976 ], [ 134.380029170310081, 35.440094441005726 ], [ 134.384522503410835, 35.435726946441491 ], [ 134.399800000169989, 35.440555559391612 ], [ 134.415340557620652, 35.433871108165135 ], [ 134.440768327296496, 35.439859720649622 ], [ 134.447225551318184, 35.432186107802693 ], [ 134.445705837354581, 35.418975279185815 ], [ 134.433996109432996, 35.396264721140028 ], [ 134.426222776160216, 35.391173613171759 ], [ 134.407748053729733, 35.387846946279581 ], [ 134.388289442403902, 35.377164441086165 ], [ 134.391927496856511, 35.372461108193647 ], [ 134.387293332621311, 35.363309440678222 ], [ 134.389324162779985, 35.354096666927717 ], [ 134.374973061257833, 35.361044721137034 ], [ 134.375421946165943, 35.342567504886517 ], [ 134.358049727812727, 35.337262774657404 ], [ 134.361350272097411, 35.331620559441319 ], [ 134.354132503112623, 35.30726110791386 ], [ 134.339311945589884, 35.306791667201708 ], [ 134.319955278713223, 35.314099720925412 ], [ 134.307922776015403, 35.313980558955677 ], [ 134.304349169678517, 35.310260278589055 ], [ 134.290954721083608, 35.309445838154943 ], [ 134.28829444912958, 35.303480000101956 ], [ 134.277775278806189, 35.302363332601772 ], [ 134.269264449294951, 35.312327224621754 ], [ 134.25737333261327, 35.315374721266437 ], [ 134.254125550653725, 35.327409440793133 ], [ 134.245009442331934, 35.328099720825492 ], [ 134.23826416276097, 35.344588332785406 ], [ 134.242096394333203, 35.354098891850413 ], [ 134.23104221822382, 35.369131108413967 ], [ 134.235794720649892, 35.386803333407158 ], [ 134.219018611619731, 35.397596108073969 ], [ 134.214406394439607, 35.412447774944894 ], [ 134.229822776200194, 35.41550638721003 ], [ 134.244878054078981, 35.429758333080656 ], [ 134.26209389112023, 35.431361666907435 ], [ 134.265059728423807, 35.440087505434064 ], [ 134.277660531608262, 35.450000000299838 ], [ 134.277700557734647, 35.449981946409764 ] ] ] } },
{ "type": "Feature", "properties": { "regioncode": "3136400", "regionname": "鳥取県三朝町", "name": "三朝町", "namekana": "みささちょう", "PrefCode": "31" }, "geometry": { "type": "Polygon", "coordinates": [ [ [ 133.943843605897769, 35.431718053845145 ], [ 133.9709574973906, 35.422043891912153 ], [ 133.978104163276612, 35.425174440947728 ], [ 133.988968327026782, 35.420417774660621 ], [ 133.995765278944532, 35.42297610756134 ], [ 133.994266939168028, 35.415134171304999 ], [ 134.000871660099051, 35.406538333377455 ], [ 133.995081660190522, 35.403198333136629 ], [ 133.991846939085008, 35.393045278616739 ], [ 134.042298054211869, 35.377525559357139 ], [ 134.041618326824391, 35.373703892121 ], [ 134.032978326788452, 35.366095838052559 ], [ 134.024269999860621, 35.368405279080434 ], [ 134.024206394409589, 35.36437750521776 ], [ 134.017764993959418, 35.361086386727436 ], [ 134.019413332559338, 35.355102224987718 ], [ 134.012818612089291, 35.349354441054686 ], [ 133.997667782142457, 35.352900279024709 ], [ 133.979688884734287, 35.343375559234744 ], [ 133.96963277623172, 35.347834441106613 ], [ 133.95570333264277, 35.342020837591633 ], [ 133.945321388071648, 35.332615558561258 ], [ 133.934100000114995, 35.335126945951856 ], [ 133.928007223654504, 35.324521386752622 ], [ 133.931943333218328, 35.316333054127199 ], [ 133.925221659951717, 35.306898891570654 ], [ 133.908168326806845, 35.307201946013038 ], [ 133.898040830120294, 35.304265558808538 ], [ 133.886049727712816, 35.294247774914936 ], [ 133.862139441681961, 35.292504440927246 ], [ 133.860960829778492, 35.286880278701972 ], [ 133.866343333378154, 35.284887224565807 ], [ 133.863463061171387, 35.277095278924037 ], [ 133.865943332918505, 35.272258892234163 ], [ 133.853366939133025, 35.265859440660734 ], [ 133.843765837223714, 35.253693612570203 ], [ 133.844573333092967, 35.249494441415379 ], [ 133.818022502636495, 35.252711667109793 ], [ 133.818153605804355, 35.259236108259813 ], [ 133.8074974966122, 35.270416666995629 ], [ 133.809279169598085, 35.276916946060282 ], [ 133.801478053569326, 35.284653891863684 ], [ 133.800006938969091, 35.292648891832926 ], [ 133.789559441914776, 35.293533892175446 ], [ 133.789741388254583, 35.297583333404191 ], [ 133.783573060648337, 35.294765278994475 ], [ 133.775704993690624, 35.299557775171252 ], [ 133.763053332944992, 35.309400559088601 ], [ 133.763872776307608, 35.316622505424334 ], [ 133.773175836595669, 35.32085389209351 ], [ 133.775444163317502, 35.326520837766509 ], [ 133.782042502659465, 35.325684441284011 ], [ 133.786624721153999, 35.33426917078566 ], [ 133.798498612221238, 35.337018053840154 ], [ 133.80762861237065, 35.347303612671624 ], [ 133.819868885440769, 35.348460559007663 ], [ 133.829137223803855, 35.355452775325375 ], [ 133.834517782169996, 35.367173892261349 ], [ 133.830666109053709, 35.372121667181261 ], [ 133.837962217982067, 35.390621387167357 ], [ 133.841719170003785, 35.391882775369822 ], [ 133.845206667154002, 35.403210559419847 ], [ 133.859740000100942, 35.410055559416605 ], [ 133.866967782137522, 35.421801666713577 ], [ 133.874685836781964, 35.419169720706122 ], [ 133.883929999569887, 35.423458612724858 ], [ 133.898457496816036, 35.422152504834287 ], [ 133.909164720775266, 35.428633333361688 ], [ 133.92138861179501, 35.426696666717874 ], [ 133.943648612193783, 35.43170805428332 ], [ 133.943843605897769, 35.431718053845145 ] ] ] } },
{ "type": "Feature", "properties": { "regioncode": "3137000", "regionname": "鳥取県湯梨浜町", "name": "湯梨浜町", "namekana": "ゆりはまちょう", "PrefCode": "31" }, "geometry": { "type": "MultiPolygon", "coordinates": [ [ [ [ 133.934964772906028, 35.515284440624498 ], [ 133.933679363811621, 35.518841837580794 ], [ 133.93495014273492, 35.515302053846767 ], [ 133.934964772906028, 35.515284440624498 ] ] ], [ [ [ 133.961332282858621, 35.525389108020988 ], [ 133.970599999790238, 35.518255000268084 ], [ 133.971126393668214, 35.512677225073958 ], [ 133.95622472089417, 35.497427225086426 ], [ 133.955874994335545, 35.486034440736887 ], [ 133.946037496633267, 35.461827224646754 ], [ 133.953691114853086, 35.450803612896493 ], [ 133.947417782404841, 35.441291945866681 ], [ 133.951706393835025, 35.435948613138009 ], [ 133.951384163148646, 35.428148332579553 ], [ 133.943648612193783, 35.43170805428332 ], [ 133.92138861179501, 35.426696666717874 ], [ 133.909303605776813, 35.428659170884089 ], [ 133.898571115364803, 35.422167504626714 ], [ 133.890464449274987, 35.422903892001045 ], [ 133.881243890992891, 35.432546666695373 ], [ 133.870834162766414, 35.435176946259105 ], [ 133.867772217613833, 35.440646387320953 ], [ 133.860493890980365, 35.443167505376152 ], [ 133.862837497252713, 35.459120559366397 ], [ 133.866699442425443, 35.46356750543606 ], [ 133.865804162831864, 35.471737505381611 ], [ 133.856048612253744, 35.481059440640706 ], [ 133.854579170392412, 35.476469171415204 ], [ 133.846634993809971, 35.478431386899047 ], [ 133.853393890915413, 35.489928333425894 ], [ 133.855594720819795, 35.50451380187053 ], [ 133.874051167227663, 35.505967467824405 ], [ 133.87573494181413, 35.509381747569648 ], [ 133.875217523170249, 35.506554198117783 ], [ 133.906229442434892, 35.510617891802326 ], [ 133.907951413926639, 35.507651279283152 ], [ 133.926379273584644, 35.508855838426257 ], [ 133.936886498213426, 35.512868559436527 ], [ 133.936659053372637, 35.516680864730176 ], [ 133.939310362683159, 35.514448586433161 ], [ 133.939538028757056, 35.518441613189964 ], [ 133.948702386605873, 35.51953022543961 ], [ 133.951442282735229, 35.516375053865715 ], [ 133.9595673282696, 35.518842441025868 ], [ 133.961310726109218, 35.525423918978731 ], [ 133.961332282858621, 35.525389108020988 ] ] ] ] } },
{ "type": "Feature", "properties": { "regioncode": "3137100", "regionname": "鳥取県琴浦町", "name": "琴浦町", "namekana": "ことうらちょう", "PrefCode": "31" }, "geometry": { "type": "Polygon", "coordinates": [ [ [ 133.61139641960915, 35.521131505214839 ], [ 133.650537249694366, 35.515684027395992 ], [ 133.658200946616489, 35.512006532275677 ], [ 133.655604306193823, 35.511966134729391 ], [ 133.657071154410346, 35.509129567775403 ], [ 133.662446199932219, 35.511560775209659 ], [ 133.66142447475977, 35.508868107876935 ], [ 133.668787004017076, 35.506599666941156 ], [ 133.7048599219479, 35.508339918952174 ], [ 133.717432918094801, 35.50401395508004 ], [ 133.722000000100024, 35.49538472082827 ], [ 133.718160830258171, 35.477437775433032 ], [ 133.725198327440921, 35.46607861313754 ], [ 133.711018884913642, 35.450170278835344 ], [ 133.648283332809569, 35.405542774879223 ], [ 133.636575837005353, 35.384829171329272 ], [ 133.600855837327117, 35.370316386991703 ], [ 133.576350829627131, 35.365972505027116 ], [ 133.576560830318158, 35.359927774846994 ], [ 133.571703061347307, 35.355134170705469 ], [ 133.566819442263522, 35.361301946127981 ], [ 133.558939728185919, 35.3636491712723 ], [ 133.560842776373079, 35.381051667100792 ], [ 133.578500829849531, 35.378946667154992 ], [ 133.576572502619001, 35.382271387014953 ], [ 133.582633333361741, 35.388186666981142 ], [ 133.583669728275368, 35.408606667064078 ], [ 133.574763606255488, 35.429741945634362 ], [ 133.583565550809567, 35.427321387072425 ], [ 133.589354994037762, 35.440039441167301 ], [ 133.59857917029251, 35.449182225179584 ], [ 133.597587224370955, 35.474504441426859 ], [ 133.603168053662785, 35.504510558915229 ], [ 133.598309170431889, 35.511410838439474 ], [ 133.606650000197419, 35.516966108099439 ], [ 133.608164695044707, 35.522167170778346 ], [ 133.611173475875262, 35.521148387288292 ], [ 133.61139641960915, 35.521131505214839 ] ] ] } },
{ "type": "Feature", "properties": { "regioncode": "3137200", "regionname": "鳥取県北栄町", "name": "北栄町", "namekana": "ほくえいちょう", "PrefCode": "31" }, "geometry": { "type": "Polygon", "coordinates": [ [ [ 133.855149804619828, 35.504517694136325 ], [ 133.85004666731993, 35.481741667244194 ], [ 133.838724994163158, 35.477265558858505 ], [ 133.827561946126934, 35.481395278968989 ], [ 133.825410558250724, 35.463902504696875 ], [ 133.821147224065157, 35.463403333297265 ], [ 133.818657781931165, 35.457959999554362 ], [ 133.803969170241089, 35.46059555903787 ], [ 133.804243060568865, 35.465203613256222 ], [ 133.796604449335973, 35.469894720764785 ], [ 133.784464162890913, 35.463253892053501 ], [ 133.775797497056942, 35.471919440929526 ], [ 133.765273606192068, 35.467534171265072 ], [ 133.761069170405904, 35.471113613302691 ], [ 133.746985550642762, 35.46053138701393 ], [ 133.750873890917433, 35.454219170578313 ], [ 133.730983060919584, 35.440832775412332 ], [ 133.68673138814313, 35.42164861289325 ], [ 133.670589728333312, 35.420213892057518 ], [ 133.723951387746411, 35.462032504796298 ], [ 133.725048885297838, 35.466918891993316 ], [ 133.718160830258171, 35.477437775433032 ], [ 133.722000000100024, 35.49538472082827 ], [ 133.717432918094801, 35.50401395508004 ], [ 133.781118003193342, 35.500590801724172 ], [ 133.855146744226886, 35.504621639577067 ], [ 133.855149804619828, 35.504517694136325 ] ] ] } },
{ "type": "Feature", "properties": { "regioncode": "3138400", "regionname": "鳥取県日吉津村", "name": "日吉津村", "namekana": "ひえづそん", "PrefCode": "31" }, "geometry": { "type": "Polygon", "coordinates": [ [ [ 133.378258003404198, 35.456323532005456 ], [ 133.391608015597512, 35.453822351020733 ], [ 133.390452502780818, 35.445828612800312 ], [ 133.384118611784515, 35.438630000274372 ], [ 133.384523606179528, 35.431995000069264 ], [ 133.379817497079898, 35.429988892273627 ], [ 133.376451387721431, 35.433901667128282 ], [ 133.367558611640675, 35.434360837582631 ], [ 133.374054253800864, 35.456292332725013 ], [ 133.378172334885448, 35.456395225059623 ], [ 133.378258003404198, 35.456323532005456 ] ] ] } },
{ "type": "Feature", "properties": { "regioncode": "3138600", "regionname": "鳥取県大山町", "name": "大山町", "namekana": "だいせんちょう", "PrefCode": "31" }, "geometry": { "type": "Polygon", "coordinates": [ [ [ 133.591666667183063, 35.531533667444876 ], [ 133.594190271863567, 35.52698555933614 ], [ 133.608164695044707, 35.522167170778346 ], [ 133.606650000197419, 35.516966108099439 ], [ 133.598309170431889, 35.511410838439474 ], [ 133.603168053662785, 35.504510558915229 ], [ 133.597587224370955, 35.474504441426859 ], [ 133.598653061289838, 35.449444721097052 ], [ 133.589354994037762, 35.440039441167301 ], [ 133.583565550809567, 35.427321387072425 ], [ 133.574763606255488, 35.429741945634362 ], [ 133.583669728275368, 35.408606667064078 ], [ 133.582633333361741, 35.388186666981142 ], [ 133.576572502619001, 35.382271387014953 ], [ 133.578500829849531, 35.378946667154992 ], [ 133.560842776373079, 35.381051667100792 ], [ 133.558865837188705, 35.363327505360132 ], [ 133.550121945671322, 35.346430279234028 ], [ 133.54526972821543, 35.352674441272484 ], [ 133.542591114588276, 35.349550558911233 ], [ 133.526199442350503, 35.361079170567336 ], [ 133.521116939095577, 35.369961386808598 ], [ 133.524818884983574, 35.382845278586785 ], [ 133.520825279063388, 35.384822504654892 ], [ 133.523650000147427, 35.387028892369528 ], [ 133.515623890829943, 35.393230838432487 ], [ 133.51632499420316, 35.396206945993811 ], [ 133.491139170036718, 35.400143053758995 ], [ 133.44567693873978, 35.397765278644727 ], [ 133.441834993590192, 35.41456277535184 ], [ 133.466013333348769, 35.416102504626963 ], [ 133.468720829602717, 35.422802505131585 ], [ 133.479601945573449, 35.429497224817112 ], [ 133.48055000008253, 35.43680222534249 ], [ 133.471210271736709, 35.439964720995135 ], [ 133.464290830357641, 35.447747224654734 ], [ 133.458305279165415, 35.447263892114961 ], [ 133.454434721185521, 35.461501107989818 ], [ 133.434023890590197, 35.459620559041639 ], [ 133.434596393608786, 35.468754440664952 ], [ 133.429315382998539, 35.469894657812233 ], [ 133.434539169746927, 35.478413612698091 ], [ 133.431509027319862, 35.480892945553023 ], [ 133.442756938981574, 35.487375559234749 ], [ 133.44735444864898, 35.494897505015899 ], [ 133.472577250239965, 35.498931918573248 ], [ 133.497747497249293, 35.515798612715855 ], [ 133.519644968340685, 35.52079980196936 ], [ 133.531103890632153, 35.519526666822287 ], [ 133.536111115235826, 35.52403472092567 ], [ 133.546085836891962, 35.521476666814749 ], [ 133.556894448620028, 35.524138332717939 ], [ 133.565997392665622, 35.529733945964892 ], [ 133.563866056972984, 35.530681801723802 ], [ 133.591004162712011, 35.531619720873493 ], [ 133.591666667183063, 35.531533667444876 ] ] ] } },
{ "type": "Feature", "properties": { "regioncode": "3138900", "regionname": "鳥取県南部町", "name": "南部町", "namekana": "なんぶちょう", "PrefCode": "31" }, "geometry": { "type": "Polygon", "coordinates": [ [ [ 133.347291388386907, 35.385339720951436 ], [ 133.351761115183422, 35.38813417085538 ], [ 133.351748885302868, 35.384997775327122 ], [ 133.355761115283258, 35.386310837675069 ], [ 133.359266393829103, 35.381380837855431 ], [ 133.372992218316313, 35.378761108238621 ], [ 133.374588612074831, 35.374407224913568 ], [ 133.382047224000303, 35.372241946109 ], [ 133.391646939154953, 35.37434638667645 ], [ 133.39471416332799, 35.368551107747464 ], [ 133.401640829860526, 35.366358892449 ], [ 133.406729728194478, 35.354458054095971 ], [ 133.421998884640857, 35.353764441176054 ], [ 133.427826939361807, 35.34595861269986 ], [ 133.415425279353258, 35.333891666866975 ], [ 133.408159170009753, 35.332030000084501 ], [ 133.4121108297511, 35.324187775145731 ], [ 133.40830805367375, 35.32019361344453 ], [ 133.397053060750181, 35.324794721299384 ], [ 133.383609170127215, 35.322556666656908 ], [ 133.38400722355459, 35.31459361330468 ], [ 133.379513606268006, 35.306381667180233 ], [ 133.384996394168297, 35.294919170983007 ], [ 133.381576938824765, 35.290759721084328 ], [ 133.386308612052858, 35.27488638659753 ], [ 133.35511250263994, 35.260370837744006 ], [ 133.352565550659733, 35.257070279070149 ], [ 133.360284721362859, 35.247233613240724 ], [ 133.355827496941515, 35.245166945997823 ], [ 133.357253890954325, 35.240040000046008 ], [ 133.351957497440594, 35.236300838413001 ], [ 133.34665639417733, 35.238231666658123 ], [ 133.340199727735353, 35.232156107718254 ], [ 133.330207223784441, 35.244731387243803 ], [ 133.333687496680682, 35.249315279376674 ], [ 133.332261115258348, 35.257465558988429 ], [ 133.327450829592181, 35.262749171337248 ], [ 133.30984277572361, 35.268774720776776 ], [ 133.307412502684883, 35.28170055873386 ], [ 133.29950111538426, 35.291881666705592 ], [ 133.306950830316623, 35.303370000425218 ], [ 133.29252472083931, 35.32064333292351 ], [ 133.298559169969735, 35.325103613241197 ], [ 133.295752217690733, 35.327687774671119 ], [ 133.295141114870603, 35.346783891763266 ], [ 133.307664993644607, 35.365821945926143 ], [ 133.315973606097145, 35.365489999863655 ], [ 133.31850306086767, 35.373339171165867 ], [ 133.328843332653719, 35.374671666963934 ], [ 133.342985837326637, 35.388664171014739 ], [ 133.346601114649729, 35.385502775232965 ], [ 133.347291388386907, 35.385339720951436 ] ] ] } },
{ "type": "Feature", "properties": { "regioncode": "3140100", "regionname": "鳥取県日南町", "name": "日南町", "namekana": "にちなんちょう", "PrefCode": "31" }, "geometry": { "type": "Polygon", "coordinates": [ [ [ 133.315597497026943, 35.26655222530502 ], [ 133.327450829592181, 35.262749171337248 ], [ 133.33255972794916, 35.25701000021138 ], [ 133.333687496680682, 35.249315279376674 ], [ 133.330207223784441, 35.244731387243803 ], [ 133.336191945801716, 35.234447775444551 ], [ 133.343097782236896, 35.23235333264023 ], [ 133.346399441681001, 35.238108892111711 ], [ 133.351755551077872, 35.2369891714132 ], [ 133.353792776315686, 35.218910279286035 ], [ 133.345307224049179, 35.213533332597251 ], [ 133.334724449174018, 35.21505805398607 ], [ 133.327318884658894, 35.206808053948578 ], [ 133.311666108903864, 35.202684171337467 ], [ 133.306889727678822, 35.203614721442307 ], [ 133.307236938833739, 35.211107225218313 ], [ 133.303582218144925, 35.213100837833451 ], [ 133.293811945664856, 35.203067224972528 ], [ 133.295767497172278, 35.19310222498774 ], [ 133.329119727593365, 35.176642224958755 ], [ 133.334800830394101, 35.165796946072248 ], [ 133.344769728040546, 35.162635278695234 ], [ 133.356811387635503, 35.166890000073522 ], [ 133.365269442231011, 35.158751667055867 ], [ 133.369801660218513, 35.160770558714376 ], [ 133.374953333029907, 35.175776387370433 ], [ 133.38647972785725, 35.174344171146629 ], [ 133.394639169761945, 35.177329720690125 ], [ 133.396946667354882, 35.172461107694005 ], [ 133.393216938710793, 35.167690000093501 ], [ 133.398047781979585, 35.164758613119545 ], [ 133.40487693861985, 35.143286107667791 ], [ 133.4112241629648, 35.13875250472438 ], [ 133.411825837292668, 35.121146108306277 ], [ 133.403362776171207, 35.114320837636626 ], [ 133.37295221827037, 35.112979441248285 ], [ 133.354873890917361, 35.100771107600565 ], [ 133.338222502566509, 35.10656277485225 ], [ 133.325516939155477, 35.093469171065465 ], [ 133.313065551134287, 35.09814277506905 ], [ 133.310436393924533, 35.096210837959859 ], [ 133.298854448873726, 35.103918892143213 ], [ 133.293135551164823, 35.101595838077515 ], [ 133.287743605583046, 35.094093054151188 ], [ 133.290823890610113, 35.070943892246873 ], [ 133.284264993734496, 35.065413053569614 ], [ 133.2769119460296, 35.066109171101402 ], [ 133.26913917033653, 35.057678332688965 ], [ 133.249577224209588, 35.079035559443582 ], [ 133.232344720932133, 35.077415838170452 ], [ 133.233428885135027, 35.069892504735378 ], [ 133.230073061322742, 35.068023333110375 ], [ 133.210920000057968, 35.07421444144336 ], [ 133.178253332725149, 35.067217775280142 ], [ 133.167839442436389, 35.067574441007707 ], [ 133.161040271891125, 35.074175278666246 ], [ 133.142139441681934, 35.064725279048446 ], [ 133.136468054257307, 35.069352505014137 ], [ 133.142256939006643, 35.081175837994579 ], [ 133.136672775927877, 35.090725279248318 ], [ 133.145585837116755, 35.105337505221769 ], [ 133.14022277596041, 35.118059721379097 ], [ 133.146624721353874, 35.123621666706583 ], [ 133.145141660159538, 35.131274721051568 ], [ 133.148450558246736, 35.139982774585405 ], [ 133.157455279237865, 35.148905838034068 ], [ 133.183912217774719, 35.156727505370156 ], [ 133.194899728040127, 35.169832505365889 ], [ 133.189355836602658, 35.184582225089684 ], [ 133.182084163153718, 35.188146107956584 ], [ 133.18465832682034, 35.195371666868994 ], [ 133.182028612030877, 35.20135972087445 ], [ 133.168819441763844, 35.209353891668798 ], [ 133.152742502564479, 35.203811946364283 ], [ 133.152648612443613, 35.219071667123785 ], [ 133.181623891029858, 35.234439999906101 ], [ 133.212022503235971, 35.241696946057289 ], [ 133.222616108646548, 35.249053332945039 ], [ 133.232229999814649, 35.246576386890808 ], [ 133.243356939171463, 35.250412505332918 ], [ 133.253282502985144, 35.260027505365144 ], [ 133.27521111490114, 35.257805559379108 ], [ 133.282130829674088, 35.262406107855668 ], [ 133.30253722391376, 35.263120558966648 ], [ 133.311587497365167, 35.268991107553632 ], [ 133.31538360586876, 35.266613333338739 ], [ 133.315597497026943, 35.26655222530502 ] ] ] } },
{ "type": "Feature", "properties": { "regioncode": "3140200", "regionname": "鳥取県日野町", "name": "日野町", "namekana": "ひのちょう", "PrefCode": "31" }, "geometry": { "type": "Polygon", "coordinates": [ [ [ 133.443543060663728, 35.27063694603828 ], [ 133.455215278762125, 35.254480279241534 ], [ 133.460799170245537, 35.257551667275663 ], [ 133.467983605858763, 35.24881305387936 ], [ 133.469474993875906, 35.245312774664853 ], [ 133.4656902716888, 35.242970558744332 ], [ 133.470006666774339, 35.229840278805852 ], [ 133.48742999989463, 35.232254441389387 ], [ 133.495418054399806, 35.239786386732419 ], [ 133.505978327337971, 35.235951946425246 ], [ 133.505688611640153, 35.227450000417264 ], [ 133.515625279383244, 35.220317505148785 ], [ 133.522403606341413, 35.208357504894991 ], [ 133.52303221806244, 35.196450838035787 ], [ 133.529105551180351, 35.187233612641137 ], [ 133.526192218096412, 35.182925837557434 ], [ 133.519181946090043, 35.182910558975152 ], [ 133.51597805374422, 35.190822225065688 ], [ 133.501136109443905, 35.192768332792355 ], [ 133.496039441866856, 35.186666667432803 ], [ 133.489742503114144, 35.187680558610964 ], [ 133.482562217872101, 35.182412505432808 ], [ 133.474586939135975, 35.181929440891054 ], [ 133.472077223585075, 35.176999720760534 ], [ 133.460009728266414, 35.177848892112706 ], [ 133.456515279356722, 35.17310861327195 ], [ 133.447556394112326, 35.171296107929095 ], [ 133.428335279349767, 35.177392505060141 ], [ 133.422179728411834, 35.176113332764146 ], [ 133.415893333310692, 35.184606666864227 ], [ 133.407439170081716, 35.185882224784905 ], [ 133.392490558092845, 35.17593583806854 ], [ 133.374953333029907, 35.175776387370433 ], [ 133.369801660218513, 35.160770558714376 ], [ 133.365269442231011, 35.158751667055867 ], [ 133.356811387635503, 35.166890000073522 ], [ 133.344769728040546, 35.162635278695234 ], [ 133.334800830394101, 35.165796946072248 ], [ 133.329119727593365, 35.176642224958755 ], [ 133.295767497172278, 35.19310222498774 ], [ 133.293811945664856, 35.203067224972528 ], [ 133.303582218144925, 35.213100837833451 ], [ 133.307236938833739, 35.211107225218313 ], [ 133.306889727678822, 35.203614721442307 ], [ 133.311666108903864, 35.202684171337467 ], [ 133.327318884658894, 35.206808053948578 ], [ 133.334724449174018, 35.21505805398607 ], [ 133.350590271623787, 35.214980559405319 ], [ 133.354031388038152, 35.22072389169432 ], [ 133.351468884981159, 35.235563054391491 ], [ 133.357253890954325, 35.240040000046008 ], [ 133.355864163200636, 35.245228332821341 ], [ 133.360284721362859, 35.247233613240724 ], [ 133.352565550659733, 35.257070279070149 ], [ 133.355227782236398, 35.260457224821096 ], [ 133.369964163215627, 35.252519721208216 ], [ 133.369355279023011, 35.248284999852899 ], [ 133.374843060858666, 35.245463612555739 ], [ 133.380140271856135, 35.23498805395559 ], [ 133.391696108688507, 35.236194170724445 ], [ 133.399581387770922, 35.239861386593759 ], [ 133.399801388023661, 35.244015278682241 ], [ 133.41237499391093, 35.254713891632832 ], [ 133.423959170179614, 35.257839721026357 ], [ 133.430012503274497, 35.265327505160315 ], [ 133.443135279269768, 35.270678054049029 ], [ 133.443543060663728, 35.27063694603828 ] ] ] } },
{ "type": "Feature", "properties": { "regioncode": "3140300", "regionname": "鳥取県江府町", "name": "江府町", "namekana": "こうふちょう", "PrefCode": "31" }, "geometry": { "type": "Polygon", "coordinates": [ [ [ 133.561298053662313, 35.362027774562193 ], [ 133.566819442263522, 35.361301946127981 ], [ 133.571703061347307, 35.355134170705469 ], [ 133.576394721039605, 35.359973613291686 ], [ 133.580388326959792, 35.358970558944179 ], [ 133.585665837408555, 35.351724170833847 ], [ 133.593721660326423, 35.351269171435149 ], [ 133.596414449067652, 35.34489555918276 ], [ 133.588366109408526, 35.336963613380078 ], [ 133.592396109093215, 35.330630279064167 ], [ 133.57678639377707, 35.314413613097827 ], [ 133.577552776239713, 35.297261108113673 ], [ 133.570463890895894, 35.286912774804762 ], [ 133.572267781632831, 35.281214440993722 ], [ 133.568674448666911, 35.276846387051194 ], [ 133.571915551361712, 35.272569440727182 ], [ 133.56686972785576, 35.266266386584505 ], [ 133.568131115158849, 35.256844721007099 ], [ 133.562414162683581, 35.254403053558121 ], [ 133.560926939426736, 35.246962224826859 ], [ 133.55491000009647, 35.241809999831673 ], [ 133.544399727665336, 35.243334721220435 ], [ 133.534830829579164, 35.236716945730507 ], [ 133.517012218339232, 35.24074472139182 ], [ 133.514492503226506, 35.235488613009124 ], [ 133.508086938961128, 35.233030559013116 ], [ 133.495418054399806, 35.239786386732419 ], [ 133.48742999989463, 35.232254441389387 ], [ 133.469849170303064, 35.229940278920765 ], [ 133.4656902716888, 35.242970558744332 ], [ 133.469474993875906, 35.245312774664853 ], [ 133.467916109041312, 35.24891389216242 ], [ 133.460799170245537, 35.257551667275663 ], [ 133.455215278762125, 35.254480279241534 ], [ 133.444824993878456, 35.266672505132078 ], [ 133.449403332697671, 35.279680559110545 ], [ 133.443794994043856, 35.291140000310804 ], [ 133.445160557913482, 35.29637444132743 ], [ 133.475939169657067, 35.313760000223908 ], [ 133.484752503225536, 35.322553612559204 ], [ 133.508100272309775, 35.327180558835778 ], [ 133.507060000418733, 35.332028613329896 ], [ 133.514049442327973, 35.334513612813055 ], [ 133.508530829933875, 35.334456945631587 ], [ 133.513818884933698, 35.344806386905304 ], [ 133.519008885052017, 35.347039441317236 ], [ 133.519459727784238, 35.352074999961303 ], [ 133.527276938979639, 35.359577505097832 ], [ 133.542591114588276, 35.349550558911233 ], [ 133.54526972821543, 35.352674441272484 ], [ 133.549408053938578, 35.345989440560288 ], [ 133.552954448589048, 35.356212504603434 ], [ 133.558939728185919, 35.3636491712723 ], [ 133.561123060880618, 35.362086946355532 ], [ 133.561298053662313, 35.362027774562193 ] ] ] } },
{ "type": "Feature", "properties": { "regioncode": "3120102", "regionname": "気象庁予報警報規程別表第四の二に示す「鳥取市南部」の区域", "name": "鳥取市南部", "namekana": "とっとりしなんぶ", "PrefCode": "31" }, "geometry": { "type": "Polygon", "coordinates": [ [ [ 134.229896312864639, 35.416878466667981 ], [ 134.214415551336742, 35.412356946116233 ], [ 134.219018611619731, 35.397596108073969 ], [ 134.235794720649892, 35.386803333407158 ], [ 134.230776393915562, 35.371633891990598 ], [ 134.234292502996709, 35.360868053817683 ], [ 134.242096394333203, 35.354098891850413 ], [ 134.238566666818315, 35.342288892218676 ], [ 134.245009442331934, 35.328099720825492 ], [ 134.254125550653725, 35.327409440793133 ], [ 134.25737333261327, 35.315374721266437 ], [ 134.269020000073056, 35.312463053727015 ], [ 134.270556393762604, 35.309076667354361 ], [ 134.256188327429413, 35.302391666642166 ], [ 134.25234917017815, 35.29605166655125 ], [ 134.223517782219915, 35.297367774902966 ], [ 134.219775278706265, 35.301416108166904 ], [ 134.207604162602138, 35.289401108074742 ], [ 134.199238053793238, 35.287288613178987 ], [ 134.197224720844247, 35.279785838245914 ], [ 134.156561659592967, 35.271713612593203 ], [ 134.148039441966716, 35.277918892442983 ], [ 134.148300829919435, 35.281639440807623 ], [ 134.139240000225868, 35.279047225049453 ], [ 134.134299999945142, 35.283191387372653 ], [ 134.127125278808649, 35.280148891857948 ], [ 134.11570805358383, 35.283546386656496 ], [ 134.09775944174487, 35.305697505235742 ], [ 134.08642250259652, 35.30741166701489 ], [ 134.084040272240827, 35.302781666640669 ], [ 134.07515888517446, 35.302613053649566 ], [ 134.070216393771602, 35.297273613186746 ], [ 134.062018611969393, 35.303063333406158 ], [ 134.052045837345531, 35.298090837921904 ], [ 134.028241114635762, 35.30782027938244 ], [ 134.012268885300841, 35.30678361287346 ], [ 133.999433332981994, 35.314728332646496 ], [ 134.004180558186249, 35.325324440870304 ], [ 134.015509169612528, 35.334078054058978 ], [ 134.010821660291413, 35.340396107994025 ], [ 134.019839728121042, 35.355958892189165 ], [ 134.019005278670761, 35.363685279052447 ], [ 134.027324720759339, 35.369026386858309 ], [ 134.033339169866849, 35.366259720609662 ], [ 134.042263767558893, 35.377478482545996 ], [ 134.046117147588348, 35.377234402945419 ], [ 134.044486739671356, 35.379725819990654 ], [ 134.048621504978541, 35.385172772605415 ], [ 134.064435072320748, 35.385585717007302 ], [ 134.074876400025914, 35.396155743093118 ], [ 134.107818538694687, 35.393501428248385 ], [ 134.118114369582599, 35.397178366688308 ], [ 134.1346589490513, 35.392303194936574 ], [ 134.147031567253066, 35.398540018507106 ], [ 134.15158678450257, 35.395707999424701 ], [ 134.185708856178849, 35.414675523356777 ], [ 134.192631394823024, 35.422523962610853 ], [ 134.203502242334707, 35.423637107466561 ], [ 134.203006911939497, 35.429698042530674 ], [ 134.212067988946615, 35.431556725362611 ], [ 134.213844721956434, 35.427162609966501 ], [ 134.221739546443018, 35.429548681326651 ], [ 134.229369806571412, 35.417625593746209 ], [ 134.229896312864639, 35.416878466667981 ] ] ] } },
{ "type": "Feature", "properties": { "regioncode": "3120101", "regionname": "気象庁予報警報規程別表第四の二に示す「鳥取市北部」の区域", "name": "鳥取市北部", "namekana": "とっとりしほくぶ", "PrefCode": "31" }, "geometry": { "type": "MultiPolygon", "coordinates": [ [ [ [ 134.184908301277119, 35.545640135384019 ], [ 134.183734916233448, 35.54331913536987 ], [ 134.184887639353178, 35.545655639696065 ], [ 134.184908301277119, 35.545640135384019 ] ] ], [ [ [ 134.189796277576193, 35.549179694287488 ], [ 134.183244357641001, 35.54699369420365 ], [ 134.189821413627442, 35.549189918679872 ], [ 134.189796277576193, 35.549179694287488 ] ] ], [ [ [ 134.277534526697082, 35.57271602692316 ], [ 134.295208612387569, 35.561602224862838 ], [ 134.297460000378805, 35.55105417101322 ], [ 134.306075551445588, 35.54714472095219 ], [ 134.307953333179853, 35.538981107991788 ], [ 134.327489441784337, 35.533462224901825 ], [ 134.328781659645983, 35.527826946156665 ], [ 134.323050272152386, 35.513006946213636 ], [ 134.326683061074505, 35.509957775031353 ], [ 134.324331946362349, 35.497639171010974 ], [ 134.318737224343522, 35.491222224925764 ], [ 134.319878053929074, 35.486333333116875 ], [ 134.328209441712374, 35.485207225433157 ], [ 134.335915836646564, 35.478164999615103 ], [ 134.350430558123776, 35.477892225345954 ], [ 134.37202639390307, 35.492477504932936 ], [ 134.376410829895917, 35.500359441235275 ], [ 134.387293061025957, 35.49811972104834 ], [ 134.393743060793668, 35.50051138709091 ], [ 134.402581659915768, 35.488331945962614 ], [ 134.413569170181177, 35.489816386716939 ], [ 134.427063606300408, 35.48614361303737 ], [ 134.434344163252604, 35.471577224609291 ], [ 134.434429442364944, 35.463906387070153 ], [ 134.438181946339796, 35.461229440786099 ], [ 134.440739170376446, 35.439764171279535 ], [ 134.415340557620652, 35.433871108165135 ], [ 134.399800000169989, 35.440555559391612 ], [ 134.384522503410835, 35.435726946441491 ], [ 134.380029170310081, 35.440094441005726 ], [ 134.377295551448583, 35.43159472081976 ], [ 134.349003333137375, 35.424456945631562 ], [ 134.340948054309365, 35.430330837897884 ], [ 134.325648884788279, 35.429646666960139 ], [ 134.296853061419711, 35.445080000042026 ], [ 134.282356108747535, 35.442492225136107 ], [ 134.276596939397336, 35.450315837705773 ], [ 134.272865836589176, 35.443358613109581 ], [ 134.265059728423807, 35.440087505434064 ], [ 134.26209389112023, 35.431361666907435 ], [ 134.240766109068772, 35.428062504880756 ], [ 134.238159442104688, 35.421116108121964 ], [ 134.229896312864639, 35.416878466667981 ], [ 134.221739546443018, 35.429548681326651 ], [ 134.216451293592399, 35.426665568161468 ], [ 134.212067988946615, 35.431556725362611 ], [ 134.203006911939497, 35.429698042530674 ], [ 134.203502242334707, 35.423637107466561 ], [ 134.192631394823024, 35.422523962610853 ], [ 134.185708856178849, 35.414675523356777 ], [ 134.15158678450257, 35.395707999424701 ], [ 134.147031567253066, 35.398540018507106 ], [ 134.1346589490513, 35.392303194936574 ], [ 134.118114369582599, 35.397178366688308 ], [ 134.107818538694687, 35.393501428248385 ], [ 134.074876400025914, 35.396155743093118 ], [ 134.064435072320748, 35.385585717007302 ], [ 134.048621504978541, 35.385172772605415 ], [ 134.044734344614426, 35.377193686139776 ], [ 133.991846939085008, 35.393045278616739 ], [ 133.995081660190522, 35.403198333136629 ], [ 134.000871660099051, 35.406538333377455 ], [ 133.994266939168028, 35.415134171304999 ], [ 133.995765278944532, 35.42297610756134 ], [ 133.988968327026782, 35.420417774660621 ], [ 133.978104163276612, 35.425174440947728 ], [ 133.9709574973906, 35.422043891912153 ], [ 133.949984163338513, 35.430722224650992 ], [ 133.951706393835025, 35.435948613138009 ], [ 133.947417782404841, 35.441291945866681 ], [ 133.953691114853086, 35.450803612896493 ], [ 133.946037496633267, 35.461827224646754 ], [ 133.955874994335545, 35.486034440736887 ], [ 133.95622472089417, 35.497427225086426 ], [ 133.971103890831955, 35.512498054041998 ], [ 133.970599999790238, 35.518255000268084 ], [ 133.965200492708618, 35.522837350963016 ], [ 133.979757950868816, 35.522102639924924 ], [ 133.982534228172199, 35.525449666568932 ], [ 133.983914915940659, 35.522405694367365 ], [ 133.991509222072978, 35.525445053946157 ], [ 133.995121115247343, 35.523207332952097 ], [ 134.001289584946448, 35.526645081405434 ], [ 134.002630117086255, 35.530687360433376 ], [ 133.999350363328631, 35.530046972989453 ], [ 134.007784332281176, 35.537906170833196 ], [ 134.019711336409159, 35.52389658595871 ], [ 134.017820856247567, 35.52164291908548 ], [ 134.020675641667594, 35.52363377527854 ], [ 134.021749999662802, 35.519703081432112 ], [ 134.033756252049443, 35.518485251892912 ], [ 134.1615927755862, 35.532176748358324 ], [ 134.177846641109682, 35.535947504973421 ], [ 134.17801511020923, 35.540146945924846 ], [ 134.183772528579425, 35.541597081140424 ], [ 134.179259857356556, 35.538133026617913 ], [ 134.186707367151371, 35.538980694303632 ], [ 134.196103061207396, 35.532712026638762 ], [ 134.194460078070165, 35.537196198345953 ], [ 134.187289299561598, 35.53978653182304 ], [ 134.187295550749127, 35.543395000379007 ], [ 134.191677912006071, 35.540974135148247 ], [ 134.191621335656123, 35.547052667246874 ], [ 134.194579676211106, 35.539941540769519 ], [ 134.195910052307113, 35.542868973424447 ], [ 134.205087911677879, 35.541303639551359 ], [ 134.230959663158046, 35.54639817123865 ], [ 134.271339610634641, 35.559879279405266 ], [ 134.277529001262451, 35.572738559437028 ], [ 134.277534526697082, 35.57271602692316 ] ] ] ] } }
]
}
