{
"type": "FeatureCollection",
"name": "37_kagawa_region",
"crs": { "type": "name", "properties": { "name": "urn:ogc:def:crs:OGC:1.3:CRS84" } },
"features": [
{ "type": "Feature", "properties": { "regioncode": "3720100", "regionname": "香川県高松市", "name": "高松市", "namekana": "たかまつし", "PrefCode": "37" }, "geometry": { "type": "MultiPolygon", "coordinates": [ [ [ [ 133.999914553014264, 34.358333332817097 ], [ 133.992995357150107, 34.358066441013477 ], [ 133.993142166078201, 34.362881081196974 ], [ 133.999992554812593, 34.358694495154907 ], [ 133.999914553014264, 34.358333332817097 ] ] ], [ [ [ 134.061079415782501, 34.366768306312338 ], [ 134.055124279661868, 34.361061946052018 ], [ 134.060999441770832, 34.366824639845277 ], [ 134.061079415782501, 34.366768306312338 ] ] ], [ [ [ 134.12165144006201, 34.38195961294582 ], [ 134.122715668093633, 34.385067892069628 ], [ 134.121662361428889, 34.381963972859126 ], [ 134.12165144006201, 34.38195961294582 ] ] ], [ [ [ 133.922562606579049, 34.396508333293013 ], [ 133.924410725974326, 34.391860829413815 ], [ 133.921151751052548, 34.39361453168533 ], [ 133.922537276274397, 34.396509414278114 ], [ 133.922562606579049, 34.396508333293013 ] ] ], [ [ [ 134.17545085617212, 34.395744945572858 ], [ 134.175816912620462, 34.39012461266077 ], [ 134.172414577670679, 34.392947332753238 ], [ 134.173679389592166, 34.39785908083195 ], [ 134.17543985656414, 34.395782414027224 ], [ 134.17545085617212, 34.395744945572858 ] ] ], [ [ [ 134.136397327774489, 34.400254945809138 ], [ 134.159610635622357, 34.389040333344781 ], [ 134.163763086996937, 34.382407585941394 ], [ 134.164138327322007, 34.375369252389135 ], [ 134.157152113978896, 34.365511332881738 ], [ 134.159376226431732, 34.351181027282621 ], [ 134.156738754989647, 34.342819441164352 ], [ 134.156041310058527, 34.345500413713182 ], [ 134.153277885865805, 34.343511413720819 ], [ 134.165722022653313, 34.32605849470383 ], [ 134.155434720935659, 34.310621666856491 ], [ 134.13021221791962, 34.317308612802265 ], [ 134.124260000098957, 34.311127225241307 ], [ 134.126365837313642, 34.299254162449699 ], [ 134.119142503323928, 34.29032082874329 ], [ 134.10937805395406, 34.251758892259147 ], [ 134.114619728217917, 34.238251945670811 ], [ 134.110692503056612, 34.234376945939346 ], [ 134.114383333324213, 34.226393333185854 ], [ 134.105973605597455, 34.215746945665046 ], [ 134.105000829624601, 34.203227774841992 ], [ 134.109320000018101, 34.198270000360253 ], [ 134.107920830282183, 34.187277774949393 ], [ 134.114373332863124, 34.180667224612762 ], [ 134.112568326966766, 34.177341946273827 ], [ 134.122166393664202, 34.167783892212924 ], [ 134.128206939298821, 34.15268944076513 ], [ 134.136164449230023, 34.150624720554447 ], [ 134.139313891223196, 34.134082224814847 ], [ 134.122311115265802, 34.118773053933353 ], [ 134.094484448998173, 34.114590558907196 ], [ 134.079556393712664, 34.121136946213142 ], [ 134.070917497144819, 34.112713332954002 ], [ 134.061352217930562, 34.111030829109552 ], [ 134.036063605750883, 34.127123892253849 ], [ 134.02968693940079, 34.139771387339692 ], [ 134.024584448713426, 34.139662494728384 ], [ 134.023294162595562, 34.155344440893259 ], [ 134.018212502904703, 34.159096387288514 ], [ 134.025610558080871, 34.161024720814282 ], [ 134.02873472103056, 34.16911500035701 ], [ 134.022663890725994, 34.178469440712149 ], [ 134.025588054345349, 34.187528053576841 ], [ 134.017138054078032, 34.189793333395698 ], [ 134.0129433327686, 34.211585558626666 ], [ 133.984498885315361, 34.24219305366654 ], [ 133.995281660420346, 34.263043053793922 ], [ 133.989244721067053, 34.266838333122621 ], [ 133.987725837177663, 34.261970828990627 ], [ 133.983861659887793, 34.266131667442551 ], [ 133.97191639412631, 34.265212224864342 ], [ 133.973051945590896, 34.260949441063929 ], [ 133.969092503116599, 34.260216107787187 ], [ 133.970384163398535, 34.26342916242595 ], [ 133.96578165979588, 34.265741667444047 ], [ 133.943949170118117, 34.271982494796362 ], [ 133.939419169858866, 34.300430829119534 ], [ 133.925254994222655, 34.315686108127466 ], [ 133.930656939366372, 34.320814162043973 ], [ 133.941188053585847, 34.321935559078838 ], [ 133.942637782307884, 34.325421108297576 ], [ 133.953608611947971, 34.323847774954913 ], [ 133.951248054354323, 34.326889999773698 ], [ 133.953566939163011, 34.332044440698439 ], [ 133.946859170314497, 34.337148613118075 ], [ 133.943509999686853, 34.3463386133364 ], [ 133.937225550718608, 34.348539161752967 ], [ 133.935587224271103, 34.370377774914459 ], [ 133.928781387950721, 34.377455559026885 ], [ 133.92760725017456, 34.389653829260851 ], [ 133.938331310341709, 34.381491306278804 ], [ 133.939228223104124, 34.375204612602829 ], [ 133.945314967811555, 34.375430801989978 ], [ 133.944025057610361, 34.379467891929721 ], [ 133.948518833177673, 34.381084828901805 ], [ 133.959206445621021, 34.377628666829537 ], [ 133.965506445666051, 34.362426440627758 ], [ 133.976730856244103, 34.373193440724776 ], [ 133.992683865268191, 34.356662000351093 ], [ 134.000442023380742, 34.355447332828192 ], [ 134.000400584419481, 34.351359333166727 ], [ 134.003407523438568, 34.359243251574867 ], [ 134.018051724807265, 34.357025080942776 ], [ 134.009578975289514, 34.356132946278478 ], [ 134.015285887733626, 34.354367360365416 ], [ 134.014488754752279, 34.351717332588862 ], [ 134.019182802144655, 34.352928053886615 ], [ 134.019133138883262, 34.356440278795901 ], [ 134.033245473100123, 34.353407360161611 ], [ 134.029317782090061, 34.348533198348491 ], [ 134.03778557724263, 34.34941886508858 ], [ 134.033737029940085, 34.352857000250424 ], [ 134.042891530319935, 34.352527973387339 ], [ 134.051729248106426, 34.361540864719188 ], [ 134.047292826802618, 34.355509558719234 ], [ 134.057368301306155, 34.351874918992394 ], [ 134.056389105073208, 34.348140279150641 ], [ 134.059749105337005, 34.351320612856057 ], [ 134.059752826731597, 34.347742667290333 ], [ 134.063972697582017, 34.35359305397634 ], [ 134.054962672389479, 34.35633466691138 ], [ 134.058804383715369, 34.360475134819694 ], [ 134.056753333199822, 34.356535134788714 ], [ 134.064166160639843, 34.357625613131574 ], [ 134.063341660389369, 34.362576774898287 ], [ 134.069543566882203, 34.364579873562377 ], [ 134.069482762819348, 34.351336117168103 ], [ 134.074658859418946, 34.351263774803442 ], [ 134.074998520765234, 34.361781586251254 ], [ 134.079828495288893, 34.361451278753577 ], [ 134.078671802561757, 34.349999999800218 ], [ 134.085660635629893, 34.351737802057983 ], [ 134.091689169919277, 34.365524359561618 ], [ 134.091640441053528, 34.384818359879432 ], [ 134.108083385439954, 34.372263054296582 ], [ 134.114058974841896, 34.361037333406273 ], [ 134.118021660271438, 34.362030999730905 ], [ 134.115287716754779, 34.358901467828503 ], [ 134.122345615957443, 34.360670386629067 ], [ 134.116388807097792, 34.376195973065762 ], [ 134.12403306067722, 34.379579135368829 ], [ 134.124998275150347, 34.387431919247717 ], [ 134.129022633387876, 34.387074559243558 ], [ 134.126162387284353, 34.391767531946073 ], [ 134.122464721269921, 34.388172558616759 ], [ 134.119418418025589, 34.397056134632976 ], [ 134.127113864613193, 34.396024251617973 ], [ 134.136382944017669, 34.400261946131934 ], [ 134.136397327774489, 34.400254945809138 ] ] ], [ [ [ 134.05383832737698, 34.409223225371591 ], [ 134.057049663411249, 34.398263864785577 ], [ 134.054653216572774, 34.389695612662422 ], [ 134.048747859726063, 34.389550224663196 ], [ 134.03786185504066, 34.379412224794407 ], [ 134.03729513556209, 34.386920107876733 ], [ 134.053832140041322, 34.409223252351239 ], [ 134.05383832737698, 34.409223225371591 ] ] ], [ [ [ 134.136767664995773, 34.412338973364967 ], [ 134.137994137019859, 34.409903027402834 ], [ 134.133977056096342, 34.409850613115339 ], [ 134.136736472010625, 34.412343108447772 ], [ 134.136767664995773, 34.412338973364967 ] ] ], [ [ [ 134.121023994761572, 34.412624748233611 ], [ 134.122587690969226, 34.410198891765504 ], [ 134.119713969424197, 34.410028918999444 ], [ 134.120980440594963, 34.412617134573168 ], [ 134.121023994761572, 34.412624748233611 ] ] ], [ [ [ 134.105399467611392, 34.414604531973623 ], [ 134.111832166221575, 34.404808440856925 ], [ 134.100610026431582, 34.400303892310831 ], [ 134.10572189435004, 34.406060720725748 ], [ 134.105398715778165, 34.4146061624445 ], [ 134.105399467611392, 34.414604531973623 ] ] ], [ [ [ 133.9250000004497, 34.418826640337215 ], [ 133.92009827531524, 34.418501494948089 ], [ 133.92376055840316, 34.418860278579018 ], [ 133.9250000004497, 34.418826640337215 ] ] ], [ [ [ 134.126240168748836, 34.421153973377216 ], [ 134.126642802423476, 34.416106891719721 ], [ 134.122571659654454, 34.416270829135499 ], [ 134.126299856753008, 34.421190531717741 ], [ 134.126240168748836, 34.421153973377216 ] ] ], [ [ [ 134.062604059829596, 34.433223946328098 ], [ 134.064964449249942, 34.422121386692709 ], [ 134.055109805073471, 34.416282945701425 ], [ 134.05298202260235, 34.422835198385769 ], [ 134.057553333219857, 34.431653532184839 ], [ 134.062485473425909, 34.433259305872298 ], [ 134.062604059829596, 34.433223946328098 ] ] ] ] } },
{ "type": "Feature", "properties": { "regioncode": "3720200", "regionname": "香川県丸亀市", "name": "丸亀市", "namekana": "まるがめし", "PrefCode": "37" }, "geometry": { "type": "MultiPolygon", "coordinates": [ [ [ [ 133.786085550607709, 34.304945666809147 ], [ 133.789881245423203, 34.298916946360066 ], [ 133.787906614798544, 34.29456494621536 ], [ 133.792940777694753, 34.293986720810551 ], [ 133.791566692748688, 34.299696865418071 ], [ 133.796684811854675, 34.301714667098281 ], [ 133.788940077922348, 34.308068333286997 ], [ 133.792508079684239, 34.309960828829219 ], [ 133.796970921271054, 34.305995000269093 ], [ 133.806299830772673, 34.310632027046438 ], [ 133.81016277599133, 34.300996386673944 ], [ 133.815656109342058, 34.3047083330232 ], [ 133.821915836846415, 34.301264161611812 ], [ 133.825628053891592, 34.292191945601871 ], [ 133.838832776111758, 34.286674999651552 ], [ 133.845762503037122, 34.274322775375822 ], [ 133.853410558050882, 34.281392224571562 ], [ 133.870450830341611, 34.282740559229467 ], [ 133.889969170141171, 34.289731386993992 ], [ 133.894515279056918, 34.274129440921001 ], [ 133.905114448573045, 34.268563332631743 ], [ 133.902737223843815, 34.25696582930965 ], [ 133.893238884766788, 34.245398332766911 ], [ 133.900593891195172, 34.240793053856407 ], [ 133.897539441891809, 34.237215558851005 ], [ 133.898803606301499, 34.220848054094461 ], [ 133.895526108942818, 34.213532494628964 ], [ 133.900291659632444, 34.207926666882202 ], [ 133.868662775766552, 34.202627775051837 ], [ 133.855348327263528, 34.204681946214919 ], [ 133.85377083005983, 34.200902774643396 ], [ 133.844528327420448, 34.216225278873594 ], [ 133.825221115162435, 34.220720559006622 ], [ 133.81659527944862, 34.241261945982046 ], [ 133.808420829657621, 34.237628891759982 ], [ 133.795488885303826, 34.258853332715205 ], [ 133.786202502943183, 34.254444721147024 ], [ 133.781199999780256, 34.259109721336642 ], [ 133.775778884687838, 34.256657774636665 ], [ 133.772646108930871, 34.27220472087123 ], [ 133.764228366445991, 34.284390342140625 ], [ 133.766992969649891, 34.288681198278709 ], [ 133.772648625233955, 34.288418161868719 ], [ 133.76187741900776, 34.299917999715944 ], [ 133.76849219166138, 34.304904440987229 ], [ 133.777532477242062, 34.289277332782717 ], [ 133.77533775643235, 34.2964979463232 ], [ 133.783311724856276, 34.30000944098299 ], [ 133.772141504726733, 34.305976027271868 ], [ 133.782723450426943, 34.310767080936103 ], [ 133.785719948317023, 34.305582332858421 ], [ 133.786085550607709, 34.304945666809147 ] ] ], [ [ [ 133.77966972777574, 34.365502667014539 ], [ 133.785474721181458, 34.364042224668992 ], [ 133.786634111874832, 34.357679135383819 ], [ 133.774164941558865, 34.357050829432296 ], [ 133.779741855202474, 34.366529467960618 ], [ 133.77966972777574, 34.365502667014539 ] ] ], [ [ [ 133.649462412360549, 34.38328405441564 ], [ 133.654097912089014, 34.37628955921582 ], [ 133.651984383872332, 34.373161891608049 ], [ 133.64225143955241, 34.377865107588718 ], [ 133.649424616552892, 34.383333332767165 ], [ 133.649462412360549, 34.38328405441564 ] ] ], [ [ [ 133.710496939082532, 34.399096666677849 ], [ 133.71889299621489, 34.396403865346144 ], [ 133.71774610879595, 34.392571107670562 ], [ 133.730579947906335, 34.370529972580243 ], [ 133.722601893862361, 34.362460972795702 ], [ 133.711925279228353, 34.363346667414817 ], [ 133.709070245595399, 34.353350414190288 ], [ 133.699527223702489, 34.351631108289041 ], [ 133.684445887967399, 34.361709558649238 ], [ 133.688766809340791, 34.365749693693488 ], [ 133.691251387941293, 34.379570829230431 ], [ 133.697337691081657, 34.37866025216897 ], [ 133.699583333304304, 34.38681566690957 ], [ 133.709150311337908, 34.387249053800872 ], [ 133.710313605988176, 34.399158612879717 ], [ 133.710496939082532, 34.399096666677849 ] ] ], [ [ [ 133.777662776416037, 34.401003054047749 ], [ 133.790395279018981, 34.395462494598519 ], [ 133.795174720636965, 34.387980558755828 ], [ 133.788849728432297, 34.387329721189758 ], [ 133.788799441940796, 34.383800559348401 ], [ 133.783680116843925, 34.387031053640271 ], [ 133.787632529317875, 34.383420360161551 ], [ 133.772774863968834, 34.377842108326718 ], [ 133.76450055795442, 34.369035278655247 ], [ 133.755220558082328, 34.370013332749181 ], [ 133.760255837037334, 34.378781666940426 ], [ 133.752734448835781, 34.388221666996401 ], [ 133.752707497053393, 34.398607494840064 ], [ 133.761461854880736, 34.389992612868866 ], [ 133.7775841630787, 34.400998053817204 ], [ 133.777662776416037, 34.401003054047749 ] ] ], [ [ [ 133.783965279274298, 34.407234162426732 ], [ 133.78946472082032, 34.403611667144787 ], [ 133.779175837195226, 34.401381945620358 ], [ 133.783927496956494, 34.407288054300295 ], [ 133.783965279274298, 34.407234162426732 ] ] ], [ [ [ 133.671749494043979, 34.410822107554282 ], [ 133.676041659594944, 34.409299495075686 ], [ 133.671202191827774, 34.398781775358714 ], [ 133.67730141372931, 34.400198359566673 ], [ 133.678005771748985, 34.394879919172979 ], [ 133.666130271794714, 34.382628613219993 ], [ 133.661195551433593, 34.391264720990137 ], [ 133.661779170072691, 34.398354332986116 ], [ 133.650848884568404, 34.40864333262374 ], [ 133.65917083036959, 34.40649110837802 ], [ 133.671668716038425, 34.410836973347671 ], [ 133.671749494043979, 34.410822107554282 ] ] ], [ [ [ 133.780236497616329, 34.415174586138278 ], [ 133.783945836830981, 34.412310586264596 ], [ 133.775016861239237, 34.414073774585063 ], [ 133.780190246382858, 34.415176613210178 ], [ 133.780236497616329, 34.415174586138278 ] ] ] ] } },
{ "type": "Feature", "properties": { "regioncode": "3720300", "regionname": "香川県坂出市", "name": "坂出市", "namekana": "さかいでし", "PrefCode": "37" }, "geometry": { "type": "MultiPolygon", "coordinates": [ [ [ [ 133.852480558331195, 34.373793134745426 ], [ 133.854813864668131, 34.370674945991993 ], [ 133.849986978416382, 34.372938386697228 ], [ 133.852454085887416, 34.373795802134623 ], [ 133.852480558331195, 34.373793134745426 ] ] ], [ [ [ 133.927614449247471, 34.389645828891958 ], [ 133.928781387950721, 34.377455559026885 ], [ 133.935587224271103, 34.370377774914459 ], [ 133.937225550718608, 34.348539161752967 ], [ 133.943509999686853, 34.3463386133364 ], [ 133.946859170314497, 34.337148613118075 ], [ 133.953566939163011, 34.332044440698439 ], [ 133.951248054354323, 34.326889999773698 ], [ 133.953608611947971, 34.323847774954913 ], [ 133.942637782307884, 34.325421108297576 ], [ 133.941188053585847, 34.321935559078838 ], [ 133.930656939366372, 34.320814162043973 ], [ 133.925254994222655, 34.315686108127466 ], [ 133.939502776232189, 34.300231107679508 ], [ 133.943980272271801, 34.278487774990879 ], [ 133.940951387996279, 34.272833613180751 ], [ 133.93391639362676, 34.266476386576016 ], [ 133.930213060983988, 34.269890829098529 ], [ 133.923105550680702, 34.265404721151015 ], [ 133.905133891016362, 34.263413053769455 ], [ 133.904213890858387, 34.271234441416368 ], [ 133.894409442341953, 34.274297224737211 ], [ 133.888919170283543, 34.289931387223817 ], [ 133.870450830341611, 34.282740559229467 ], [ 133.853410558050882, 34.281392224571562 ], [ 133.844464162591066, 34.274911108261108 ], [ 133.836220000053004, 34.288249720648139 ], [ 133.841911945979632, 34.294705000335568 ], [ 133.839372503338382, 34.300989999688795 ], [ 133.843704993590677, 34.306448333224068 ], [ 133.828823333430137, 34.322894441425376 ], [ 133.825848885118035, 34.337508612632405 ], [ 133.820937444607466, 34.337944972682408 ], [ 133.819205966382356, 34.353124251782845 ], [ 133.822837497152818, 34.348502559345661 ], [ 133.824306004618506, 34.352585865445405 ], [ 133.840676847658415, 34.360588658040172 ], [ 133.840615616417608, 34.355943720826133 ], [ 133.829391581756113, 34.347648224985619 ], [ 133.828918975430383, 34.342146197888781 ], [ 133.847002528743815, 34.355343269576281 ], [ 133.847781025074255, 34.351702440715144 ], [ 133.847857859552619, 34.357771279021335 ], [ 133.853724773079875, 34.360507864746239 ], [ 133.859413631633856, 34.354233251663288 ], [ 133.857618106390532, 34.34580437826952 ], [ 133.848692244251765, 34.339204359893358 ], [ 133.838458053796217, 34.338656224904923 ], [ 133.842405836560147, 34.334920027437363 ], [ 133.830833527745199, 34.33146255865023 ], [ 133.834068949422544, 34.331835774601359 ], [ 133.836577108246956, 34.323721558703028 ], [ 133.850535745628235, 34.330210134889853 ], [ 133.848013605943265, 34.324875774697318 ], [ 133.854849843845273, 34.328244422841919 ], [ 133.857760738867114, 34.326227819957978 ], [ 133.859583839122934, 34.331498694309346 ], [ 133.864244553143635, 34.326887468182179 ], [ 133.861990467186388, 34.331886332688157 ], [ 133.867897301619223, 34.33743815344809 ], [ 133.873814942305785, 34.338664423124669 ], [ 133.878393995186798, 34.344768999589689 ], [ 133.884199558762703, 34.341687198305635 ], [ 133.882038495080565, 34.344027612884076 ], [ 133.890543022142765, 34.351692531984838 ], [ 133.889845396447981, 34.35759030574809 ], [ 133.889756886970872, 34.352563332931538 ], [ 133.894278637749039, 34.354064531652853 ], [ 133.891660856063709, 34.356732865129686 ], [ 133.894945110028857, 34.354586946030793 ], [ 133.890592918328593, 34.359648828730485 ], [ 133.892714942440648, 34.364470251600892 ], [ 133.88804858607341, 34.375158532240505 ], [ 133.890841633934315, 34.379833918700456 ], [ 133.895975590101443, 34.382849901301938 ], [ 133.90045805399609, 34.377696613308103 ], [ 133.907432451146747, 34.378319053881285 ], [ 133.909606667413868, 34.382036945648565 ], [ 133.920904085854886, 34.377725000408475 ], [ 133.92760725017456, 34.389653829260851 ], [ 133.927614449247471, 34.389645828891958 ] ] ], [ [ [ 133.829464033838121, 34.394957251875724 ], [ 133.831597393005381, 34.386937640159999 ], [ 133.827354668583098, 34.391032748062912 ], [ 133.829365615630763, 34.395014413684294 ], [ 133.829464033838121, 34.394957251875724 ] ] ], [ [ [ 133.820477716573464, 34.39536916205725 ], [ 133.824561166564649, 34.390193414394616 ], [ 133.823923281034695, 34.382008586427162 ], [ 133.815664941583805, 34.38394086527876 ], [ 133.812346329019988, 34.390331107794452 ], [ 133.820463917375946, 34.395370639643374 ], [ 133.820477716573464, 34.39536916205725 ] ] ], [ [ [ 133.811867056019878, 34.397160559412328 ], [ 133.811098365896896, 34.393741080686368 ], [ 133.811804890383428, 34.397171468188731 ], [ 133.811867056019878, 34.397160559412328 ] ] ], [ [ [ 133.812070726383013, 34.408684440634488 ], [ 133.811291776794178, 34.404268441135684 ], [ 133.807874552668522, 34.404633162090818 ], [ 133.811992723685307, 34.408701278641161 ], [ 133.812070726383013, 34.408684440634488 ] ] ], [ [ [ 133.836813554402056, 34.415813108388306 ], [ 133.840214357806417, 34.413261864843264 ], [ 133.836778145395101, 34.415826467817283 ], [ 133.836813554402056, 34.415813108388306 ] ] ], [ [ [ 133.804600389096777, 34.4273651078135 ], [ 133.809148638399051, 34.420782946375937 ], [ 133.806191751148503, 34.414790721314773 ], [ 133.810241971190067, 34.414670640237887 ], [ 133.806868392062711, 34.412708801569977 ], [ 133.795602476872887, 34.425286306018279 ], [ 133.804586719401641, 34.427376306171652 ], [ 133.804600389096777, 34.4273651078135 ] ] ] ] } },
{ "type": "Feature", "properties": { "regioncode": "3720400", "regionname": "香川県善通寺市", "name": "善通寺市", "namekana": "ぜんつうじし", "PrefCode": "37" }, "geometry": { "type": "Polygon", "coordinates": [ [ [ 133.781633606106084, 34.258272775368368 ], [ 133.786202502943183, 34.254444721147024 ], [ 133.795488885303826, 34.258853332715205 ], [ 133.808420829657621, 34.237628891759982 ], [ 133.81659527944862, 34.241261945982046 ], [ 133.822842217694301, 34.226375828781499 ], [ 133.80543138784833, 34.220310279296029 ], [ 133.803988054205433, 34.217007225003499 ], [ 133.814993333275766, 34.195971387169834 ], [ 133.799532775916987, 34.187745279421165 ], [ 133.785481946334812, 34.198537775298121 ], [ 133.756039999646305, 34.19776305432157 ], [ 133.750022217651235, 34.211475828746529 ], [ 133.737888612269671, 34.213633332912025 ], [ 133.726338053558379, 34.227983892142959 ], [ 133.74119083019275, 34.243801667413095 ], [ 133.750483333339275, 34.237485829407547 ], [ 133.756680000381721, 34.239928333226032 ], [ 133.75349306115595, 34.246109441097872 ], [ 133.764161660132572, 34.250833891870684 ], [ 133.769083605624019, 34.246873333337703 ], [ 133.773539999971035, 34.251051667200727 ], [ 133.775022502686397, 34.248281107786966 ], [ 133.773846393596273, 34.255711667159744 ], [ 133.78160428011347, 34.258333333016935 ], [ 133.781633606106084, 34.258272775368368 ] ] ] } },
{ "type": "Feature", "properties": { "regioncode": "3720500", "regionname": "香川県観音寺市", "name": "観音寺市", "namekana": "かんおんじし", "PrefCode": "37" }, "geometry": { "type": "MultiPolygon", "coordinates": [ [ [ [ 133.448499442095681, 34.110286387406916 ], [ 133.448513606417919, 34.106547278833887 ], [ 133.448400558039339, 34.110330559407828 ], [ 133.448499442095681, 34.110286387406916 ] ] ], [ [ [ 133.52716547340799, 34.136606108285321 ], [ 133.535952088118393, 34.131152495291474 ], [ 133.540770661037186, 34.132816251868576 ], [ 133.541829532706856, 34.128672585971117 ], [ 133.532000895125293, 34.123949162224108 ], [ 133.525747951206995, 34.133573332643266 ], [ 133.527099636738853, 34.136620558591972 ], [ 133.52716547340799, 34.136606108285321 ] ] ], [ [ [ 133.452967223658561, 34.155885026972442 ], [ 133.456429441765408, 34.153454198152758 ], [ 133.452903605616939, 34.155885026972442 ], [ 133.452967223658561, 34.155885026972442 ] ] ], [ [ [ 133.665523891314592, 34.162033612661162 ], [ 133.669085837041848, 34.143437225447656 ], [ 133.712197781902205, 34.128763054171657 ], [ 133.712988884929132, 34.114770559114049 ], [ 133.709784449392941, 34.116296946047271 ], [ 133.712879170337487, 34.111064161581851 ], [ 133.708490000313304, 34.104921945791205 ], [ 133.716664994194161, 34.102331667172734 ], [ 133.71695472068393, 34.087835828760547 ], [ 133.72660360627151, 34.088219162084727 ], [ 133.732367223668462, 34.083716946380036 ], [ 133.733806666844316, 34.063177775334111 ], [ 133.740451387821395, 34.050191946301311 ], [ 133.728994162550634, 34.044159721194205 ], [ 133.72313083012375, 34.036567225397164 ], [ 133.721791946441272, 34.022630278764382 ], [ 133.709168326557119, 34.015376386710955 ], [ 133.700633333161818, 34.017919441029449 ], [ 133.691651945980539, 34.012765558583737 ], [ 133.679548611779069, 34.012519999598339 ], [ 133.678232218342259, 34.018188054135464 ], [ 133.665203060872614, 34.027239162157684 ], [ 133.656779442217498, 34.030031108349021 ], [ 133.639459999679275, 34.025932225092163 ], [ 133.6267249942631, 34.037806946233616 ], [ 133.613310272251283, 34.032320559246443 ], [ 133.604171387699466, 34.035903053583127 ], [ 133.59849518800263, 34.043630945911502 ], [ 133.611287911907652, 34.044682532173169 ], [ 133.627838807315129, 34.053108414421843 ], [ 133.63381461705103, 34.070510558615467 ], [ 133.630517833731119, 34.081450640434753 ], [ 133.636778637723978, 34.078041413980145 ], [ 133.632281894393941, 34.083754892374429 ], [ 133.63764533056758, 34.086794892270518 ], [ 133.638045135874336, 34.09223455857807 ], [ 133.633144228223614, 34.094768802238491 ], [ 133.639127249622902, 34.092979333029859 ], [ 133.634670635841189, 34.09480905409464 ], [ 133.637116200052674, 34.113449161849417 ], [ 133.627971414149556, 34.118953531680177 ], [ 133.632940895106344, 34.119346946404505 ], [ 133.631672438232499, 34.123832054305922 ], [ 133.63915591371449, 34.124791081443334 ], [ 133.630956445683523, 34.124568161991135 ], [ 133.638630635895197, 34.127313694171676 ], [ 133.633563385142224, 34.127441225232417 ], [ 133.639879974081623, 34.131291865027606 ], [ 133.642672476953294, 34.148915720883849 ], [ 133.639104553432503, 34.156179413748987 ], [ 133.64512258094237, 34.154837440895221 ], [ 133.641976109409939, 34.156021865117054 ], [ 133.646012412442929, 34.16435141378679 ], [ 133.655811660180007, 34.161868053767705 ], [ 133.66183639393455, 34.165508891622096 ], [ 133.665073606162082, 34.162842774974138 ], [ 133.665523891314592, 34.162033612661162 ] ] ] ] } },
{ "type": "Feature", "properties": { "regioncode": "3720600", "regionname": "香川県さぬき市", "name": "さぬき市", "namekana": "さぬきし", "PrefCode": "37" }, "geometry": { "type": "MultiPolygon", "coordinates": [ [ [ [ 134.273557223687021, 34.323314000340872 ], [ 134.275149663126513, 34.321587468387008 ], [ 134.27354530497189, 34.323319306340977 ], [ 134.273557223687021, 34.323314000340872 ] ] ], [ [ [ 134.206824695003775, 34.369685305932194 ], [ 134.215119001041103, 34.365217775280144 ], [ 134.219223255948577, 34.348448558654127 ], [ 134.223701387808887, 34.347912972805489 ], [ 134.233682970392806, 34.337212359762646 ], [ 134.238456886576159, 34.337874440652968 ], [ 134.235095031910305, 34.338676108016045 ], [ 134.241331141419096, 34.340782748325239 ], [ 134.250228521129429, 34.3515932252472 ], [ 134.257149805219456, 34.346430774960368 ], [ 134.258198106257623, 34.336825467821143 ], [ 134.266294085703521, 34.336217721270884 ], [ 134.261827588372626, 34.3293818017288 ], [ 134.265607976726756, 34.319165891792522 ], [ 134.260565667771402, 34.318586251754141 ], [ 134.246348417745367, 34.305605252080795 ], [ 134.252312244014888, 34.296733666725402 ], [ 134.248900505753795, 34.299593829191906 ], [ 134.247385720074931, 34.296947387012381 ], [ 134.250155551037892, 34.297872586150959 ], [ 134.257661582416176, 34.285419359915579 ], [ 134.268247522904971, 34.28295063996012 ], [ 134.267686861259676, 34.288036891589343 ], [ 134.2709683273265, 34.290212559362203 ], [ 134.275677275585849, 34.287756053998748 ], [ 134.276829363784145, 34.281957747951765 ], [ 134.288104837867991, 34.27530113523926 ], [ 134.28296360618549, 34.265048333313985 ], [ 134.276321114627763, 34.263383612663631 ], [ 134.274283061114488, 34.256416386706917 ], [ 134.28192194574126, 34.244263332586797 ], [ 134.272723332715714, 34.235148891608105 ], [ 134.276040830120223, 34.215070559258947 ], [ 134.253120829862496, 34.221356946266098 ], [ 134.22887583685042, 34.208087495341715 ], [ 134.217101659913737, 34.209247494876024 ], [ 134.217048327418411, 34.203707494805087 ], [ 134.206837224358537, 34.200210829066577 ], [ 134.216088884794317, 34.191028613379842 ], [ 134.212467496577801, 34.186512774744813 ], [ 134.214505836974809, 34.180651667240681 ], [ 134.208726394207815, 34.174725559437093 ], [ 134.186416939190508, 34.17238555944607 ], [ 134.173745550916465, 34.177001667093293 ], [ 134.155439169881902, 34.16674777518972 ], [ 134.160893333260788, 34.182677495370172 ], [ 134.164398054226922, 34.183335558988915 ], [ 134.163555837332069, 34.215110278716452 ], [ 134.168957223996699, 34.227794720649911 ], [ 134.165040271791213, 34.232661945992049 ], [ 134.169592775785986, 34.237701387009452 ], [ 134.167877497048948, 34.244744162313282 ], [ 134.162726057161876, 34.248043080623745 ], [ 134.167028054101479, 34.255325559427092 ], [ 134.162065550984494, 34.264581945800217 ], [ 134.168922776365093, 34.278825278863565 ], [ 134.155400829984387, 34.28137222544791 ], [ 134.154737782322854, 34.294435558953921 ], [ 134.161659169834934, 34.302605558899472 ], [ 134.155434720935659, 34.310621666856491 ], [ 134.165722022653313, 34.32605849470383 ], [ 134.179835694161966, 34.325168333152078 ], [ 134.179260388855937, 34.333092918903162 ], [ 134.190525745566788, 34.331173720690686 ], [ 134.184881166932428, 34.333523468433384 ], [ 134.187401698629515, 34.344854413600387 ], [ 134.183068638207146, 34.347183306064778 ], [ 134.182388884739339, 34.3525796133585 ], [ 134.18962688667159, 34.350132441159303 ], [ 134.192211504957072, 34.343886386947247 ], [ 134.198901854836777, 34.346781468290203 ], [ 134.204707393231729, 34.343227828701401 ], [ 134.211958444326797, 34.348015721248601 ], [ 134.213555109680669, 34.350855134556866 ], [ 134.204344773092885, 34.366460999875301 ], [ 134.206817561581261, 34.369688413989138 ], [ 134.206824695003775, 34.369685305932194 ] ] ] ] } },
{ "type": "Feature", "properties": { "regioncode": "3720700", "regionname": "香川県東かがわ市", "name": "東かがわ市", "namekana": "ひがしかがわし", "PrefCode": "37" }, "geometry": { "type": "MultiPolygon", "coordinates": [ [ [ [ 134.306392529191953, 34.278082748220299 ], [ 134.333531051316982, 34.258715251707542 ], [ 134.341791725407916, 34.257248333343966 ], [ 134.343215110289179, 34.252333414255702 ], [ 134.342587612828083, 34.255986559332314 ], [ 134.348001750980075, 34.252175081414919 ], [ 134.356024837676159, 34.253921586412162 ], [ 134.369977523344119, 34.250034613106948 ], [ 134.377883385210112, 34.255033946159756 ], [ 134.375389558881125, 34.259458613324398 ], [ 134.378119196443777, 34.261824494904545 ], [ 134.390224501059947, 34.254951251698969 ], [ 134.39877749708387, 34.242314559269573 ], [ 134.396894721414355, 34.237837279067207 ], [ 134.412084162853944, 34.235053774811888 ], [ 134.404525331378977, 34.230601946322793 ], [ 134.411381504552878, 34.224522198340821 ], [ 134.40601769066393, 34.227491053769143 ], [ 134.408037392611618, 34.224618585879114 ], [ 134.430318327428949, 34.210035134613804 ], [ 134.440206692584866, 34.207853882950417 ], [ 134.439060557898529, 34.191076945644568 ], [ 134.429195836818508, 34.183193333005988 ], [ 134.433888054090517, 34.17805444135945 ], [ 134.433208885182012, 34.168220279242519 ], [ 134.42519360639983, 34.165708053683773 ], [ 134.41941416273346, 34.157804441022165 ], [ 134.412931945652872, 34.1568827753199 ], [ 134.402498885415298, 34.16788638704719 ], [ 134.393651659996181, 34.163549161864353 ], [ 134.385487224156122, 34.165096666677869 ], [ 134.382973333052973, 34.172234440966747 ], [ 134.375658326670532, 34.171785828553197 ], [ 134.363190272413249, 34.18178694621065 ], [ 134.351285279192325, 34.185506107820686 ], [ 134.344193332556301, 34.172379721047321 ], [ 134.314563060636829, 34.177256107783194 ], [ 134.308495279033991, 34.17088110787688 ], [ 134.297905550600717, 34.168638613281416 ], [ 134.292233060607373, 34.17914277481924 ], [ 134.277248327348502, 34.176464162091463 ], [ 134.266076667404377, 34.183212775449306 ], [ 134.247427782266413, 34.178730000389237 ], [ 134.220879999612407, 34.179921108372525 ], [ 134.208726394207815, 34.174725559437093 ], [ 134.214505836974809, 34.180651667240681 ], [ 134.212467496577801, 34.186512774744813 ], [ 134.216088884794317, 34.191028613379842 ], [ 134.206837224358537, 34.200210829066577 ], [ 134.217048327418411, 34.203707494805087 ], [ 134.217030271729755, 34.209208892376523 ], [ 134.22887583685042, 34.208087495341715 ], [ 134.253120829862496, 34.221356946266098 ], [ 134.276009999561893, 34.215009161643536 ], [ 134.272723332715714, 34.235148891608105 ], [ 134.28192194574126, 34.244263332586797 ], [ 134.274856394207291, 34.252186946170696 ], [ 134.276267497047456, 34.263282224894795 ], [ 134.28296360618549, 34.265048333313985 ], [ 134.288104837867991, 34.27530113523926 ], [ 134.296070440798303, 34.274022414402964 ], [ 134.30635658868573, 34.278085054082055 ], [ 134.306392529191953, 34.278082748220299 ] ] ], [ [ [ 134.307821659841807, 34.282415000152184 ], [ 134.308696497845176, 34.279934224784711 ], [ 134.307882775969347, 34.282584161729744 ], [ 134.307821659841807, 34.282415000152184 ] ] ] ] } },
{ "type": "Feature", "properties": { "regioncode": "3720800", "regionname": "香川県三豊市", "name": "三豊市", "namekana": "みとよし", "PrefCode": "37" }, "geometry": { "type": "MultiPolygon", "coordinates": [ [ [ [ 133.633333333166888, 34.194788802061623 ], [ 133.636485304952885, 34.194266919183008 ], [ 133.630981388380405, 34.192531108024241 ], [ 133.633406109004795, 34.194812107992448 ], [ 133.633333333166888, 34.194788802061623 ] ] ], [ [ [ 133.627977782248877, 34.203436386979718 ], [ 133.629774448731837, 34.195901386639719 ], [ 133.621908612092852, 34.201253333074931 ], [ 133.628036031337842, 34.203837107796346 ], [ 133.627977782248877, 34.203436386979718 ] ] ], [ [ [ 133.630391607586716, 34.204933027037612 ], [ 133.62826822280033, 34.203847333087992 ], [ 133.630341336383594, 34.204990440656388 ], [ 133.630391607586716, 34.204933027037612 ] ] ], [ [ [ 133.609459727784269, 34.220995279408669 ], [ 133.60899221791658, 34.216196387253547 ], [ 133.609405550825613, 34.220944440733433 ], [ 133.609459727784269, 34.220995279408669 ] ] ], [ [ [ 133.606477172983205, 34.229003774604564 ], [ 133.604322192315408, 34.232014251556507 ], [ 133.606424112083118, 34.229489775432853 ], [ 133.606477172983205, 34.229003774604564 ] ] ], [ [ [ 133.67509555121876, 34.240031053790176 ], [ 133.675678715700201, 34.237561027119739 ], [ 133.675051140897494, 34.240050387415522 ], [ 133.67509555121876, 34.240031053790176 ] ] ], [ [ [ 133.572267497447115, 34.265552225255021 ], [ 133.580874863783947, 34.260643864922486 ], [ 133.591557781766255, 34.260632494793867 ], [ 133.588646393916065, 34.259082495260998 ], [ 133.591666667183063, 34.255244999956858 ], [ 133.613355357064165, 34.250077694230242 ], [ 133.618280272116976, 34.244470558869239 ], [ 133.617203890647147, 34.236418891718529 ], [ 133.634232606649562, 34.239511585591231 ], [ 133.650732087815641, 34.232814360394457 ], [ 133.672852865967002, 34.246959640375167 ], [ 133.67238316535088, 34.240577305598208 ], [ 133.675065576814973, 34.240494360226592 ], [ 133.67032486360165, 34.240539532273658 ], [ 133.667006615263176, 34.234368828658546 ], [ 133.671738365832994, 34.226553306390031 ], [ 133.675352633217472, 34.237185161765865 ], [ 133.678503060867683, 34.236322441227742 ], [ 133.674418054149896, 34.224466693982777 ], [ 133.671028559720298, 34.223243278754353 ], [ 133.67400189377247, 34.221990945825553 ], [ 133.681576549718102, 34.233985134706245 ], [ 133.688054059747174, 34.233333333066923 ], [ 133.688120506156451, 34.237154865404761 ], [ 133.698381803077837, 34.234332828797051 ], [ 133.708876135025662, 34.240881135256245 ], [ 133.719250830161741, 34.230117225229833 ], [ 133.728614720592986, 34.232809441102859 ], [ 133.726329170055237, 34.228045278966476 ], [ 133.729538884611884, 34.223137225302764 ], [ 133.737888612269671, 34.213633332912025 ], [ 133.750022217651235, 34.211475828746529 ], [ 133.756039999646305, 34.19776305432157 ], [ 133.785481946334812, 34.198537775298121 ], [ 133.800462218056964, 34.187970829390338 ], [ 133.80713749709787, 34.181769440907033 ], [ 133.80072172462792, 34.156176053881836 ], [ 133.802541660169595, 34.152933053617573 ], [ 133.812176108940321, 34.157604162002542 ], [ 133.811272775917928, 34.152138613206489 ], [ 133.817235550880014, 34.146673053618599 ], [ 133.815706939024039, 34.120687494732124 ], [ 133.823577223710004, 34.086092494772856 ], [ 133.818466109423525, 34.079492224586545 ], [ 133.820015278882124, 34.073663053806968 ], [ 133.797828054321258, 34.069759720934428 ], [ 133.790131659848271, 34.075585558826504 ], [ 133.791841114575845, 34.078121666781556 ], [ 133.778469169716459, 34.07945972128914 ], [ 133.772574994140768, 34.072625279333238 ], [ 133.764280557701682, 34.070722775235936 ], [ 133.756991660436825, 34.059586107912594 ], [ 133.740451387821395, 34.050191946301311 ], [ 133.733806666844316, 34.063177775334111 ], [ 133.732244163137693, 34.084011666805054 ], [ 133.721965836654135, 34.089395558957904 ], [ 133.717064448765314, 34.08773861294668 ], [ 133.716664994194161, 34.102331667172734 ], [ 133.708490000313304, 34.104921945791205 ], [ 133.712879170337487, 34.111064161581851 ], [ 133.709784449392941, 34.116296946047271 ], [ 133.712988884929132, 34.114770559114049 ], [ 133.712197781902205, 34.128763054171657 ], [ 133.669085837041848, 34.143437225447656 ], [ 133.66572277638511, 34.155012494830828 ], [ 133.668302218172926, 34.158471666933906 ], [ 133.66183639393455, 34.165508891622096 ], [ 133.655811660180007, 34.161868053767705 ], [ 133.646012412442929, 34.16435141378679 ], [ 133.645073411408816, 34.181806919253972 ], [ 133.64929160772158, 34.18607422484564 ], [ 133.648403865346154, 34.193514054430125 ], [ 133.643740169173498, 34.191438359792528 ], [ 133.637985837276688, 34.199948666797582 ], [ 133.63447255476467, 34.199999531553203 ], [ 133.638924189000136, 34.204325721155158 ], [ 133.634568560090997, 34.202423414009388 ], [ 133.634625382855234, 34.210285360181274 ], [ 133.625995357200054, 34.213885081031719 ], [ 133.623206472300922, 34.211792613138641 ], [ 133.618146393641268, 34.220480829426776 ], [ 133.609748054029524, 34.222606946353551 ], [ 133.605705278575783, 34.233481667245201 ], [ 133.583514721127585, 34.243577774894447 ], [ 133.573040829870479, 34.243052774965633 ], [ 133.579731388392929, 34.248703333192339 ], [ 133.573555551447612, 34.252058612914709 ], [ 133.574494720654911, 34.257983333064431 ], [ 133.556884994047323, 34.261629162156169 ], [ 133.572228885055097, 34.2655663868793 ], [ 133.572267497447115, 34.265552225255021 ] ] ], [ [ [ 133.674846939035092, 34.274428612990164 ], [ 133.684283891288601, 34.270291666827006 ], [ 133.680879442032733, 34.267412495390374 ], [ 133.671395837448017, 34.268589440850064 ], [ 133.670190830442493, 34.271968333172083 ], [ 133.674711115325749, 34.274434161807164 ], [ 133.674846939035092, 34.274428612990164 ] ] ], [ [ [ 133.626704449250951, 34.287016946175186 ], [ 133.630953060635306, 34.2856530541452 ], [ 133.628598053657356, 34.278344720732321 ], [ 133.635285550887488, 34.272670000420248 ], [ 133.641324162979799, 34.272580829042056 ], [ 133.647544448917301, 34.281093333090894 ], [ 133.656334162691564, 34.28121749529123 ], [ 133.652301115204409, 34.275495558773059 ], [ 133.655011115170851, 34.270497494663687 ], [ 133.651077224234541, 34.267610278791381 ], [ 133.641263332836616, 34.271887494911994 ], [ 133.63361221832929, 34.269733613215749 ], [ 133.620278884962659, 34.255838612761806 ], [ 133.617808326792897, 34.265800278959773 ], [ 133.627172218123405, 34.271451946050547 ], [ 133.628000830074257, 34.275978892212152 ], [ 133.620800558299152, 34.281336945943337 ], [ 133.62662306060588, 34.287048053724732 ], [ 133.626704449250951, 34.287016946175186 ] ] ] ] } },
{ "type": "Feature", "properties": { "regioncode": "3732200", "regionname": "香川県土庄町", "name": "土庄町", "namekana": "とのしょうちょう", "PrefCode": "37" }, "geometry": { "type": "MultiPolygon", "coordinates": [ [ [ [ 134.189467782212432, 34.472822224666004 ], [ 134.185035279254748, 34.46683055898319 ], [ 134.188575837305166, 34.473149999672785 ], [ 134.189467782212432, 34.472822224666004 ] ] ], [ [ [ 134.127074994115787, 34.482220559131576 ], [ 134.125550830306679, 34.476193333355695 ], [ 134.116868884991163, 34.472166666558451 ], [ 134.108366667387827, 34.474454441119633 ], [ 134.109517224040701, 34.479200278669964 ], [ 134.126992502901771, 34.482272774668843 ], [ 134.127074994115787, 34.482220559131576 ] ] ], [ [ [ 134.085540272165872, 34.499444721196994 ], [ 134.093525057635361, 34.490451891941291 ], [ 134.103840830090348, 34.492064720810276 ], [ 134.104575551020957, 34.486741387205313 ], [ 134.102700829679634, 34.479090000203371 ], [ 134.091434162656583, 34.471124999818926 ], [ 134.085009727916713, 34.459921666651667 ], [ 134.078107224368978, 34.460374162337757 ], [ 134.065135550665218, 34.470693333330701 ], [ 134.043915278967006, 34.475099720875448 ], [ 134.042458611975462, 34.479358613309387 ], [ 134.03774805392959, 34.477621945996077 ], [ 134.035974422681534, 34.481200081318775 ], [ 134.041302776302132, 34.483272774918703 ], [ 134.043191660167054, 34.489431387148841 ], [ 134.058664577808031, 34.488928360355601 ], [ 134.057410000171444, 34.48671194609949 ], [ 134.069068948773065, 34.498025081092692 ], [ 134.085522218275855, 34.49945889181447 ], [ 134.085540272165872, 34.499444721196994 ] ] ], [ [ [ 134.151185278577827, 34.520706666579429 ], [ 134.152791946191428, 34.518384721377856 ], [ 134.149489999863704, 34.516073891796736 ], [ 134.144903060827687, 34.517300558973659 ], [ 134.144963890970871, 34.520516108331776 ], [ 134.151103605746925, 34.520757495362147 ], [ 134.151185278577827, 34.520706666579429 ] ] ], [ [ [ 134.164692217971492, 34.522104440567546 ], [ 134.163173554416062, 34.51631049533313 ], [ 134.155848884818283, 34.517764440976237 ], [ 134.164603605971706, 34.522160828959159 ], [ 134.164692217971492, 34.522104440567546 ] ] ], [ [ [ 134.162386108931855, 34.530667224812646 ], [ 134.158655551112815, 34.528711387320698 ], [ 134.162345278811586, 34.530740559129526 ], [ 134.162386108931855, 34.530667224812646 ] ] ], [ [ [ 134.331487224156149, 34.564031107749486 ], [ 134.329490272358271, 34.556785558706622 ], [ 134.319324994253179, 34.547787224700699 ], [ 134.31188306115439, 34.5228436131423 ], [ 134.305196108913378, 34.522861667032373 ], [ 134.302237781848248, 34.517957494842562 ], [ 134.279259170074738, 34.519448613063105 ], [ 134.278119169664024, 34.513239162157674 ], [ 134.274713061158877, 34.515474440593039 ], [ 134.265186666831255, 34.511728891974826 ], [ 134.258937781553414, 34.512778891832454 ], [ 134.261060829993426, 34.516878332668966 ], [ 134.257220557582741, 34.518199441251284 ], [ 134.252261388252577, 34.511970558694372 ], [ 134.259258326910299, 34.509628892259627 ], [ 134.257338054008073, 34.506803612696615 ], [ 134.236714720807754, 34.510608612797284 ], [ 134.223482502715342, 34.494883332799645 ], [ 134.201778054014085, 34.488532225182098 ], [ 134.199798029255703, 34.482708774990044 ], [ 134.192182776114237, 34.48398177523876 ], [ 134.191514331621192, 34.479638252103712 ], [ 134.188842749793139, 34.483363333051443 ], [ 134.188341581898499, 34.479687441422357 ], [ 134.191623994951442, 34.479261026974882 ], [ 134.188504449121069, 34.474387224890563 ], [ 134.187238365558187, 34.479397829146535 ], [ 134.18215411222252, 34.475032892254205 ], [ 134.172683385030268, 34.475246694379507 ], [ 134.168268053727729, 34.464753054010259 ], [ 134.163408054438264, 34.462455000198133 ], [ 134.151448885157947, 34.459755559171754 ], [ 134.148742387151515, 34.467248865143063 ], [ 134.140908755234932, 34.469572332896917 ], [ 134.14499344988792, 34.479574332789298 ], [ 134.157052503270506, 34.49294972115274 ], [ 134.16671946792917, 34.493756440907077 ], [ 134.180964086123709, 34.487477279053223 ], [ 134.165316497658296, 34.50015025193261 ], [ 134.164948885382842, 34.507122225410399 ], [ 134.155953332979948, 34.504907775273637 ], [ 134.1663936957126, 34.51305282892497 ], [ 134.163500895050333, 34.515851386932013 ], [ 134.167160856088685, 34.51392561287679 ], [ 134.16519316463291, 34.518998360286162 ], [ 134.171604695000724, 34.528877494800611 ], [ 134.177998495234419, 34.51813480157989 ], [ 134.186838560251431, 34.515822161663493 ], [ 134.193243721620547, 34.521568774679281 ], [ 134.208698884845717, 34.520995559397591 ], [ 134.222284033781193, 34.529311918610233 ], [ 134.228601945623382, 34.526844440618504 ], [ 134.238939468182025, 34.52960053173922 ], [ 134.241165720121899, 34.535026468097101 ], [ 134.256313060699199, 34.543084441293956 ], [ 134.255777782418818, 34.547281386626764 ], [ 134.264373060968069, 34.55327472055194 ], [ 134.269642776093292, 34.552925558767583 ], [ 134.268161115143357, 34.549545278791641 ], [ 134.271644720927156, 34.547627774901969 ], [ 134.295221114762739, 34.546715559275697 ], [ 134.305057223911831, 34.54935027879236 ], [ 134.313452503130634, 34.55869833306167 ], [ 134.331337224433469, 34.564087495241779 ], [ 134.331487224156149, 34.564031107749486 ] ] ] ] } },
{ "type": "Feature", "properties": { "regioncode": "3732400", "regionname": "香川県小豆島町", "name": "小豆島町", "namekana": "しょうどしまちょう", "PrefCode": "37" }, "geometry": { "type": "MultiPolygon", "coordinates": [ [ [ [ 134.289521854649934, 34.426372053927196 ], [ 134.287127133610397, 34.425838559002329 ], [ 134.289508715554803, 34.426384666918921 ], [ 134.289521854649934, 34.426372053927196 ] ] ], [ [ [ 134.347125811307251, 34.440528972933805 ], [ 134.350207912065571, 34.437460252288872 ], [ 134.347091946436194, 34.440536585694929 ], [ 134.347125811307251, 34.440528972933805 ] ] ], [ [ [ 134.325347198214672, 34.447317802174894 ], [ 134.31973961139397, 34.445832305616477 ], [ 134.32529044110106, 34.447423387079709 ], [ 134.325347198214672, 34.447317802174894 ] ] ], [ [ [ 134.301033255980087, 34.474170973012065 ], [ 134.297583579818365, 34.475356828954546 ], [ 134.298994072918163, 34.477867558940773 ], [ 134.301146614624599, 34.474185801933288 ], [ 134.301033255980087, 34.474170973012065 ] ] ], [ [ [ 134.346822139929827, 34.564794946029963 ], [ 134.351530026089904, 34.563018945967656 ], [ 134.346001478885228, 34.560458559015331 ], [ 134.347395383090543, 34.55580555937911 ], [ 134.35629783407785, 34.560951332637956 ], [ 134.366914331731095, 34.561245224787342 ], [ 134.362860725741939, 34.557586892421227 ], [ 134.354666693213403, 34.557526135123112 ], [ 134.347780532145862, 34.550840747702409 ], [ 134.348437781878147, 34.544177559147101 ], [ 134.343558275394116, 34.545024494784684 ], [ 134.344897976560446, 34.540701360179696 ], [ 134.351628418217047, 34.538334332863201 ], [ 134.362210194844693, 34.541614135184261 ], [ 134.355313865142875, 34.539114775326652 ], [ 134.360145720148921, 34.533666414373556 ], [ 134.35461834026421, 34.523409323581461 ], [ 134.356385356998658, 34.511060747855254 ], [ 134.347336225686377, 34.501040972862654 ], [ 134.351955304693661, 34.491722026950015 ], [ 134.342756743828772, 34.488338693775745 ], [ 134.343946394010914, 34.482571774967482 ], [ 134.353847977402324, 34.47630600042163 ], [ 134.348800363346186, 34.4598381619017 ], [ 134.33548869015101, 34.448108252294048 ], [ 134.3404066669342, 34.43783633258073 ], [ 134.338327197841977, 34.433360386972311 ], [ 134.332854915821827, 34.435528801712906 ], [ 134.329987134298904, 34.445792828975925 ], [ 134.319631996719295, 34.458011135205766 ], [ 134.31400805392866, 34.454479612644036 ], [ 134.303065615885544, 34.457815027241793 ], [ 134.298218223292452, 34.450242440636202 ], [ 134.284194838321241, 34.441883279090121 ], [ 134.280675694028105, 34.443906559440222 ], [ 134.278327690970173, 34.448165198265315 ], [ 134.284355667679961, 34.445645666614269 ], [ 134.287163696447465, 34.44951833260501 ], [ 134.284249196043675, 34.460797558660431 ], [ 134.296334163390952, 34.463343306448508 ], [ 134.30131089468216, 34.45964286512617 ], [ 134.307801750650356, 34.46310072062181 ], [ 134.316851802868428, 34.460070721186867 ], [ 134.314793968766708, 34.462715162374877 ], [ 134.318182191554911, 34.466366694067744 ], [ 134.314996640882327, 34.470443721100878 ], [ 134.31781224374015, 34.471270162088388 ], [ 134.312996251875575, 34.472959667154953 ], [ 134.314225785191866, 34.475177414206371 ], [ 134.296344358105671, 34.479749467663851 ], [ 134.282822243551777, 34.470948559128772 ], [ 134.267784526734545, 34.46813094628618 ], [ 134.259595551093867, 34.454767413685261 ], [ 134.262606082904426, 34.449208613286942 ], [ 134.24663533115563, 34.430026279089532 ], [ 134.250746860679101, 34.423615026612254 ], [ 134.23931927436513, 34.415454467749555 ], [ 134.231246667399887, 34.415375413744414 ], [ 134.224627418820432, 34.425574748276063 ], [ 134.232870077692041, 34.428260972865644 ], [ 134.23265691318602, 34.432273162376589 ], [ 134.237748521177423, 34.430288748027351 ], [ 134.237884254055189, 34.435990108057069 ], [ 134.223473747815319, 34.438403413586741 ], [ 134.234872438012644, 34.44423244137414 ], [ 134.239157951278457, 34.450194387161275 ], [ 134.237716393796632, 34.455575918593809 ], [ 134.242947613441629, 34.458820864990969 ], [ 134.24088213959908, 34.463220468050224 ], [ 134.236338326652572, 34.463101892438431 ], [ 134.236143449860378, 34.470533081336669 ], [ 134.229267030249275, 34.4690335859313 ], [ 134.233359856572179, 34.47589980183443 ], [ 134.231396082563265, 34.47861777519023 ], [ 134.226783385145154, 34.480994134771549 ], [ 134.216306977584964, 34.473204135262677 ], [ 134.212409584734587, 34.48146046832602 ], [ 134.200724916421791, 34.48081049500837 ], [ 134.201778054014085, 34.488532225182098 ], [ 134.223482502715342, 34.494883332799645 ], [ 134.227145551126341, 34.502747225104429 ], [ 134.231311945589937, 34.503058612664915 ], [ 134.237060830293103, 34.510728891725023 ], [ 134.25753027240421, 34.506856667301406 ], [ 134.259258326910299, 34.509628892259627 ], [ 134.252261388252577, 34.511970558694372 ], [ 134.257220557582741, 34.518199441251284 ], [ 134.261060829993426, 34.516878332668966 ], [ 134.258937781553414, 34.512778891832454 ], [ 134.265186666831255, 34.511728891974826 ], [ 134.274713061158877, 34.515474440593039 ], [ 134.278119169664024, 34.513239162157674 ], [ 134.279259170074738, 34.519448613063105 ], [ 134.299948884933201, 34.517709720826986 ], [ 134.30542055811236, 34.52296722495754 ], [ 134.31188306115439, 34.5228436131423 ], [ 134.322855279347777, 34.553156386857836 ], [ 134.328888053940545, 34.555993053636541 ], [ 134.332459170054676, 34.563196386703908 ], [ 134.346824642743172, 34.564805639868439 ], [ 134.346822139929827, 34.564794946029963 ] ] ] ] } },
{ "type": "Feature", "properties": { "regioncode": "3734100", "regionname": "香川県三木町", "name": "三木町", "namekana": "みきちょう", "PrefCode": "37" }, "geometry": { "type": "Polygon", "coordinates": [ [ [ 134.13345250313057, 34.314365828720099 ], [ 134.149405279230336, 34.313453613093827 ], [ 134.161616393581767, 34.302862495208046 ], [ 134.154737782322854, 34.294435558953921 ], [ 134.155379442307435, 34.281448612963175 ], [ 134.168922776365093, 34.278825278863565 ], [ 134.162065550984494, 34.264581945800217 ], [ 134.167028054101479, 34.255325559427092 ], [ 134.162726057161876, 34.248043080623745 ], [ 134.167877497048948, 34.244744162313282 ], [ 134.169592775785986, 34.23769638677885 ], [ 134.165040271791213, 34.232661945992049 ], [ 134.168957223996699, 34.227794720649911 ], [ 134.163555837332069, 34.215110278716452 ], [ 134.164373332763148, 34.183275000440972 ], [ 134.160893333260788, 34.182677495370172 ], [ 134.155439169881902, 34.16674777518972 ], [ 134.146316108901374, 34.165285000002825 ], [ 134.14069749729174, 34.155162775142003 ], [ 134.131155836972312, 34.150886107607846 ], [ 134.120573606187008, 34.170110000376269 ], [ 134.112568326966766, 34.177341946273827 ], [ 134.114373332863124, 34.180667224612762 ], [ 134.107920830282183, 34.187277774949393 ], [ 134.109320000018101, 34.198270000360253 ], [ 134.105000829624601, 34.203227774841992 ], [ 134.105973605597455, 34.215746945665046 ], [ 134.114383333324213, 34.226393333185854 ], [ 134.110692503056612, 34.234376945939346 ], [ 134.114619728217917, 34.238251945670811 ], [ 134.10937805395406, 34.251758892259147 ], [ 134.119142503323928, 34.29032082874329 ], [ 134.126365837313642, 34.299254162449699 ], [ 134.124260000098957, 34.311127225241307 ], [ 134.129814721172465, 34.31728194610497 ], [ 134.133435550910008, 34.314451946000531 ], [ 134.13345250313057, 34.314365828720099 ] ] ] } },
{ "type": "Feature", "properties": { "regioncode": "3736400", "regionname": "香川県直島町", "name": "直島町", "namekana": "なおしまちょう", "PrefCode": "37" }, "geometry": { "type": "MultiPolygon", "coordinates": [ [ [ [ 134.013633605606515, 34.442290829358342 ], [ 134.010109999776773, 34.435870829175485 ], [ 134.004297497031871, 34.438198891565662 ], [ 134.004192217896616, 34.440770558714348 ], [ 134.013476913129125, 34.442359532166734 ], [ 134.013633605606515, 34.442290829358342 ] ] ], [ [ [ 134.016810271876579, 34.450919999758241 ], [ 134.014233671047123, 34.450654558561098 ], [ 134.016770830309611, 34.451011108276077 ], [ 134.016810271876579, 34.450919999758241 ] ] ], [ [ [ 133.972197444856306, 34.453706612969881 ], [ 133.970460051790042, 34.456787945707163 ], [ 133.971431970708977, 34.454087054074364 ], [ 133.972197444856306, 34.453706612969881 ] ] ], [ [ [ 133.965471114900083, 34.461836387139613 ], [ 133.967652503260524, 34.454473613266714 ], [ 133.956694720984615, 34.456146945824969 ], [ 133.956446108800947, 34.460632224597532 ], [ 133.961540000170885, 34.458708332823335 ], [ 133.965425836733061, 34.461846946079731 ], [ 133.965471114900083, 34.461836387139613 ] ] ], [ [ [ 134.004351945585881, 34.473180000156958 ], [ 134.004157224376513, 34.469182494776362 ], [ 134.010073606012156, 34.470159440905547 ], [ 134.001577224109724, 34.46060361266666 ], [ 133.998418326644469, 34.469658612954674 ], [ 134.004323891234662, 34.473197224872081 ], [ 134.004351945585881, 34.473180000156958 ] ] ], [ [ [ 133.953702502968213, 34.477819440714654 ], [ 133.958729727594914, 34.46846638711412 ], [ 133.95073333277719, 34.473455279037921 ], [ 133.953641946218909, 34.477814721072548 ], [ 133.953702502968213, 34.477819440714654 ] ] ], [ [ [ 133.995938053998088, 34.477762494743388 ], [ 134.000185551122399, 34.475757225115899 ], [ 133.997531140949491, 34.470581640230591 ], [ 133.991751946395311, 34.47699194572175 ], [ 133.995903890552199, 34.4778241621554 ], [ 133.995938053998088, 34.477762494743388 ] ] ], [ [ [ 133.969814994166654, 34.477985279297229 ], [ 133.972428885384829, 34.473050828732823 ], [ 133.982532775767027, 34.476861107853892 ], [ 133.98312555130326, 34.471974440967756 ], [ 133.999405278630775, 34.461007494600267 ], [ 134.001943061123484, 34.45092638674339 ], [ 134.011089442423895, 34.454376667249448 ], [ 134.012176393625737, 34.451119721198211 ], [ 134.001349442023184, 34.443244440778358 ], [ 133.99471389143298, 34.446508891672067 ], [ 133.991559727999061, 34.442381107801907 ], [ 133.987335551194747, 34.446694721284416 ], [ 133.981607224094205, 34.44759110794331 ], [ 133.984328755168008, 34.445701865248907 ], [ 133.981748885302864, 34.444965279124403 ], [ 133.97330527921531, 34.452498613020623 ], [ 133.975311946389297, 34.456259720809499 ], [ 133.965474162702549, 34.470182495026165 ], [ 133.964955836642616, 34.475591107743469 ], [ 133.969779999747288, 34.478114721417285 ], [ 133.969814994166654, 34.477985279297229 ] ] ], [ [ [ 133.972343891357582, 34.480511946169429 ], [ 133.977535279129938, 34.478311386960968 ], [ 133.972845837165664, 34.473800559348376 ], [ 133.972324993903385, 34.480540279310503 ], [ 133.972343891357582, 34.480511946169429 ] ] ], [ [ [ 133.994083061084439, 34.486820279332505 ], [ 133.989230830138808, 34.479508613032124 ], [ 133.990195550883982, 34.485176666669872 ], [ 133.994079442212524, 34.486871666594197 ], [ 133.994083061084439, 34.486820279332505 ] ] ], [ [ [ 133.979055279077897, 34.495097494653692 ], [ 133.980731115348703, 34.492103891681325 ], [ 133.985438053623284, 34.493285829277625 ], [ 133.981762776231221, 34.487806946233661 ], [ 133.976776394315266, 34.491873053698498 ], [ 133.979036109129197, 34.495118892223161 ], [ 133.979055279077897, 34.495097494653692 ] ] ], [ [ [ 133.976144553128734, 34.497573973060469 ], [ 133.97313000044926, 34.495768891621083 ], [ 133.976074643430138, 34.497603531977461 ], [ 133.976144553128734, 34.497573973060469 ] ] ], [ [ [ 133.971836667428306, 34.502109162407976 ], [ 133.971434449240519, 34.495772225407904 ], [ 133.970550271777711, 34.501723332565803 ], [ 133.971836667428306, 34.502109162407976 ] ] ], [ [ [ 133.977953605974221, 34.504204721270924 ], [ 133.979109441647438, 34.500911667439539 ], [ 133.974186031160457, 34.498199919190995 ], [ 133.973448884758341, 34.50204444089826 ], [ 133.977910829721054, 34.504231946447248 ], [ 133.977953605974221, 34.504204721270924 ] ] ], [ [ [ 134.023844448762361, 34.506333054127197 ], [ 134.020259441719872, 34.478312225129116 ], [ 134.010960830378053, 34.487255559296671 ], [ 134.007558053861203, 34.498035828890465 ], [ 134.016576666679839, 34.495895829129267 ], [ 134.02385944225955, 34.506348053919623 ], [ 134.023844448762361, 34.506333054127197 ] ] ], [ [ [ 133.97362693883224, 34.512516108131933 ], [ 133.976371659824281, 34.506466667302902 ], [ 133.969315551171803, 34.50383582926014 ], [ 133.96911832714909, 34.510293332971003 ], [ 133.973340830315124, 34.512521666841508 ], [ 133.97362693883224, 34.512516108131933 ] ] ] ] } },
{ "type": "Feature", "properties": { "regioncode": "3738600", "regionname": "香川県宇多津町", "name": "宇多津町", "namekana": "うたづちょう", "PrefCode": "37" }, "geometry": { "type": "MultiPolygon", "coordinates": [ [ [ [ 133.82313953266339, 34.32355805386112 ], [ 133.82665234842716, 34.319754377562504 ], [ 133.829290532132404, 34.323473801774583 ], [ 133.843704993590677, 34.306448333224068 ], [ 133.839372503338382, 34.300989999688795 ], [ 133.841911945979632, 34.294705000335568 ], [ 133.835166938903171, 34.286169161577618 ], [ 133.835194994153767, 34.289549440654241 ], [ 133.832970830439535, 34.287081666785525 ], [ 133.825628053891592, 34.292191945601871 ], [ 133.821915836846415, 34.301264161611812 ], [ 133.815656109342058, 34.3047083330232 ], [ 133.810526394377689, 34.300861946121984 ], [ 133.807331114839144, 34.304033053682531 ], [ 133.807148949064867, 34.313364108067162 ], [ 133.815247496974507, 34.317305829400539 ], [ 133.813776666559988, 34.319543532408147 ], [ 133.816498612221267, 34.316867278602103 ], [ 133.820690142735998, 34.318752468052026 ], [ 133.81924902682124, 34.320999387311929 ], [ 133.823182244165309, 34.323582027088946 ], [ 133.82313953266339, 34.32355805386112 ] ] ], [ [ [ 133.828198612176266, 34.326378891672562 ], [ 133.821918470061405, 34.324759441095409 ], [ 133.820937444607466, 34.337944972682408 ], [ 133.825848885118035, 34.337508612632405 ], [ 133.828141114920527, 34.326503332662696 ], [ 133.828198612176266, 34.326378891672562 ] ] ] ] } },
{ "type": "Feature", "properties": { "regioncode": "3738700", "regionname": "香川県綾川町", "name": "綾川町", "namekana": "あやがわちょう", "PrefCode": "37" }, "geometry": { "type": "Polygon", "coordinates": [ [ [ 133.945149999772752, 34.270251828659013 ], [ 133.96578165979588, 34.265741667444047 ], [ 133.970384163398535, 34.26342916242595 ], [ 133.969092503116599, 34.260216107787187 ], [ 133.973051945590896, 34.260949441063929 ], [ 133.97191639412631, 34.265212224864342 ], [ 133.983861659887793, 34.266131667442551 ], [ 133.987725837177663, 34.261970828990627 ], [ 133.989244721067053, 34.266838333122621 ], [ 133.995281660420346, 34.263043053793922 ], [ 133.984498885315361, 34.24219305366654 ], [ 134.0129433327686, 34.211585558626666 ], [ 134.017138054078032, 34.189793333395698 ], [ 134.025588054345349, 34.187528053576841 ], [ 134.022663890725994, 34.178469440712149 ], [ 134.02873472103056, 34.16911500035701 ], [ 134.025610558080871, 34.161024720814282 ], [ 134.018212502904703, 34.159096387288514 ], [ 134.023294162595562, 34.155344440893259 ], [ 134.024584448713426, 34.139662494728384 ], [ 134.016588053895589, 34.138214161754206 ], [ 133.998876393630781, 34.146586386852334 ], [ 133.99012639391799, 34.144378613282413 ], [ 133.982507781808749, 34.154751667155779 ], [ 133.978013891128285, 34.153666386894315 ], [ 133.972444720647445, 34.157875278821109 ], [ 133.950216394371182, 34.157338612886747 ], [ 133.946711945899665, 34.161609162333036 ], [ 133.947184162818871, 34.170246387061184 ], [ 133.934002502813314, 34.181227774742069 ], [ 133.93321722379585, 34.186489720624138 ], [ 133.927112775933892, 34.19018889210372 ], [ 133.928581660215514, 34.192742494570496 ], [ 133.902462503441825, 34.204358333270534 ], [ 133.895600830014359, 34.213248054354267 ], [ 133.898803606301499, 34.220848054094461 ], [ 133.897539441891809, 34.237215558851005 ], [ 133.900618611759569, 34.240503053972816 ], [ 133.893263606230562, 34.245653892213397 ], [ 133.902737223843815, 34.25696582930965 ], [ 133.903665279229358, 34.264056107703254 ], [ 133.923105550680702, 34.265404721151015 ], [ 133.930213060983988, 34.269890829098529 ], [ 133.93391639362676, 34.266476386576016 ], [ 133.943980272271801, 34.278487774990879 ], [ 133.945078144840522, 34.270368027362622 ], [ 133.945149999772752, 34.270251828659013 ] ] ] } },
{ "type": "Feature", "properties": { "regioncode": "3740300", "regionname": "香川県琴平町", "name": "琴平町", "namekana": "ことひらちょう", "PrefCode": "37" }, "geometry": { "type": "Polygon", "coordinates": [ [ [ 133.8001316596484, 34.187985559386107 ], [ 133.814618885253367, 34.194236108409712 ], [ 133.803988054205433, 34.217007225003499 ], [ 133.805773060978026, 34.220686107777681 ], [ 133.814064721210002, 34.222691666986918 ], [ 133.820130271594849, 34.213570278745408 ], [ 133.818109727881733, 34.206954720983617 ], [ 133.832154720863741, 34.202854441079637 ], [ 133.828629999874693, 34.200319162299536 ], [ 133.836079999892149, 34.185178892192198 ], [ 133.824527781931693, 34.180721945661332 ], [ 133.822135837099268, 34.175069161612555 ], [ 133.816123060730774, 34.175103891631352 ], [ 133.800392218426168, 34.187996945702537 ], [ 133.8001316596484, 34.187985559386107 ] ] ] } },
{ "type": "Feature", "properties": { "regioncode": "3740400", "regionname": "香川県多度津町", "name": "多度津町", "namekana": "たどつちょう", "PrefCode": "37" }, "geometry": { "type": "MultiPolygon", "coordinates": [ [ [ [ 133.701645057873179, 34.259432252396607 ], [ 133.702233916861815, 34.255960080593297 ], [ 133.701621698882377, 34.259433224563736 ], [ 133.701645057873179, 34.259432252396607 ] ] ], [ [ [ 133.763213916788914, 34.283847999685463 ], [ 133.776390000098445, 34.262752224735436 ], [ 133.773846393596273, 34.255711667159744 ], [ 133.776388053965547, 34.248966667277898 ], [ 133.773539999971035, 34.251051667200727 ], [ 133.769083605624019, 34.246873333337703 ], [ 133.761404720951191, 34.249877495250246 ], [ 133.753467782112466, 34.246084721432794 ], [ 133.756680000381721, 34.239928333226032 ], [ 133.750442775713623, 34.237473613016903 ], [ 133.743042776203197, 34.24468138693652 ], [ 133.735434721235492, 34.235140000011029 ], [ 133.720606666964159, 34.230024999753994 ], [ 133.710566108639114, 34.237887775100774 ], [ 133.708884526599718, 34.243348495436749 ], [ 133.713230855619599, 34.247969332618652 ], [ 133.737862503152087, 34.263719279221391 ], [ 133.730329610822992, 34.272106999638368 ], [ 133.731314137337677, 34.278688332800357 ], [ 133.736417419428449, 34.282579414208669 ], [ 133.739247030126421, 34.274174198380592 ], [ 133.743647522615106, 34.271727054060364 ], [ 133.741694060232703, 34.275932613099656 ], [ 133.74789033696959, 34.27621130580718 ], [ 133.740399416000287, 34.281937747928794 ], [ 133.74680219236734, 34.285368135431156 ], [ 133.751706161310381, 34.278729973209749 ], [ 133.758275616226797, 34.282093387300051 ], [ 133.756986030680878, 34.285127305980438 ], [ 133.760812139668587, 34.28706643227008 ], [ 133.762745227010669, 34.284480422733395 ], [ 133.763213916788914, 34.283847999685463 ] ] ], [ [ [ 133.622873891317113, 34.301682224954789 ], [ 133.620209727996667, 34.300062775276899 ], [ 133.622839441886754, 34.301698613300402 ], [ 133.622873891317113, 34.301682224954789 ] ] ], [ [ [ 133.664329999929578, 34.325539162302562 ], [ 133.683571608443003, 34.313510225416621 ], [ 133.680134449045681, 34.305817494781593 ], [ 133.669962218281853, 34.308749441133841 ], [ 133.662417223775947, 34.320988054055476 ], [ 133.664194162730496, 34.325556108227886 ], [ 133.664329999929578, 34.325539162302562 ] ] ], [ [ [ 133.646584993702504, 34.334281387376166 ], [ 133.638260000098967, 34.335760559002665 ], [ 133.642596394308271, 34.337565829299649 ], [ 133.646656109391984, 34.334357225405654 ], [ 133.646584993702504, 34.334281387376166 ] ] ], [ [ [ 133.621324994353017, 34.354391946031512 ], [ 133.631746082815539, 34.338890494700649 ], [ 133.626324721308947, 34.330739161982763 ], [ 133.619956109287045, 34.333542775079081 ], [ 133.617357224156649, 34.350929441040932 ], [ 133.621080557721598, 34.354594720669866 ], [ 133.621324994353017, 34.354391946031512 ] ] ] ] } },
{ "type": "Feature", "properties": { "regioncode": "3740600", "regionname": "香川県まんのう町", "name": "まんのう町", "namekana": "まんのうちょう", "PrefCode": "37" }, "geometry": { "type": "Polygon", "coordinates": [ [ [ 133.820602217818191, 34.225251667230737 ], [ 133.825439170181653, 34.220572224828345 ], [ 133.844528327420448, 34.216225278873594 ], [ 133.85377083005983, 34.200902774643396 ], [ 133.855348327263528, 34.204681946214919 ], [ 133.883950558071888, 34.204100279104637 ], [ 133.901414162833362, 34.209428891729999 ], [ 133.902462503441825, 34.204358333270534 ], [ 133.928581660215514, 34.192742494570496 ], [ 133.927112775933892, 34.19018889210372 ], [ 133.93321722379585, 34.186489720624138 ], [ 133.934002502813314, 34.181227774742069 ], [ 133.947184162818871, 34.170246387061184 ], [ 133.946711945899665, 34.161609162333036 ], [ 133.950216394371182, 34.157338612886747 ], [ 133.972444720647445, 34.157875278821109 ], [ 133.978013891128285, 34.153666386894315 ], [ 133.982507781808749, 34.154751667155779 ], [ 133.99012639391799, 34.144378613282413 ], [ 133.998876393630781, 34.146586386852334 ], [ 134.016588053895589, 34.138214161754206 ], [ 134.02961527872219, 34.139822494912266 ], [ 134.035984994212185, 34.127204162142448 ], [ 134.049884993997352, 34.11741555878109 ], [ 134.042168884586431, 34.110261108363488 ], [ 134.040040272040983, 34.100864999719988 ], [ 134.025632218252326, 34.09196000005403 ], [ 134.026257497085908, 34.08508833335992 ], [ 134.010020830197163, 34.086687225435185 ], [ 134.00234389075797, 34.081131667092791 ], [ 134.00150416318661, 34.075225278723678 ], [ 133.993934163031213, 34.072617494801591 ], [ 133.977889689357767, 34.075837162155381 ], [ 133.973048029043412, 34.073021251729415 ], [ 133.968813061273863, 34.081493333050958 ], [ 133.959124720629461, 34.082494999744483 ], [ 133.956478053619321, 34.088099161946843 ], [ 133.945604448786298, 34.092173332733182 ], [ 133.944430829918929, 34.101753892328304 ], [ 133.937668054037545, 34.107821946425759 ], [ 133.93911583662657, 34.115395559157776 ], [ 133.922296108678552, 34.114411946354267 ], [ 133.903093606284983, 34.100070559308904 ], [ 133.892854721368394, 34.108196945732516 ], [ 133.867084449387903, 34.100152775330344 ], [ 133.864329170354949, 34.104610559130037 ], [ 133.85853917044642, 34.10527444136244 ], [ 133.842153061414706, 34.094966386889269 ], [ 133.834132502712919, 34.097740828676365 ], [ 133.822225279173381, 34.092188053735754 ], [ 133.815706939024039, 34.120687494732124 ], [ 133.817235550880014, 34.146673053618599 ], [ 133.811272775917928, 34.152138613206489 ], [ 133.812176108940321, 34.157604162002542 ], [ 133.802541660169595, 34.152933053617573 ], [ 133.800644162598132, 34.156369441396635 ], [ 133.807045837295618, 34.182249440559303 ], [ 133.815318326679517, 34.175339999641324 ], [ 133.821677781804283, 34.17496138685857 ], [ 133.824527781931693, 34.180721945661332 ], [ 133.836079999892149, 34.185178892192198 ], [ 133.828629999874693, 34.200319162299536 ], [ 133.832154720863741, 34.202854441079637 ], [ 133.817868327361452, 34.207428053961564 ], [ 133.820130271594849, 34.213570278745408 ], [ 133.814007782433237, 34.224090000353272 ], [ 133.820370557854972, 34.225340828716298 ], [ 133.820602217818191, 34.225251667230737 ] ] ] } }
]
}
