{
"type": "FeatureCollection",
"name": "41_saga_region",
"crs": { "type": "name", "properties": { "name": "urn:ogc:def:crs:OGC:1.3:CRS84" } },
"features": [
{ "type": "Feature", "properties": { "regioncode": "4120100", "regionname": "佐賀県佐賀市", "name": "佐賀市", "namekana": "さがし", "PrefCode": "41" }, "geometry": { "type": "Polygon", "coordinates": [ [ [ 130.204264994134292, 33.481326667391841 ], [ 130.226802217748173, 33.476695279363696 ], [ 130.233314448802844, 33.478922775066053 ], [ 130.249918326869306, 33.470497224667213 ], [ 130.262634449220513, 33.478004999830944 ], [ 130.274969441586563, 33.47968166707534 ], [ 130.296923605939696, 33.462850559106073 ], [ 130.321226938872201, 33.458256386822825 ], [ 130.339749728267407, 33.444613054448951 ], [ 130.339134993984885, 33.440515279156841 ], [ 130.33298693889617, 33.439860829014094 ], [ 130.327332776186722, 33.422368053842661 ], [ 130.320196939037601, 33.420581386921526 ], [ 130.313011659860308, 33.411806666644395 ], [ 130.299257224341545, 33.409953054190169 ], [ 130.293636109019303, 33.402727495277759 ], [ 130.278698326666472, 33.402767775012876 ], [ 130.273691659642395, 33.387242225448404 ], [ 130.276775550951015, 33.380508612782307 ], [ 130.291821115252333, 33.382065278989501 ], [ 130.293131115408755, 33.371911945679813 ], [ 130.288715551181781, 33.368452775375317 ], [ 130.300826393823058, 33.361928613015152 ], [ 130.297703060947583, 33.35728499960311 ], [ 130.304632502787854, 33.348329162161178 ], [ 130.3074569387868, 33.35663249469394 ], [ 130.314880558091318, 33.360819441364185 ], [ 130.326785278817624, 33.360667494609231 ], [ 130.331140000310825, 33.356489441334702 ], [ 130.343582217945027, 33.2993624949832 ], [ 130.335655551162859, 33.297622775370826 ], [ 130.343626666937212, 33.249898332741907 ], [ 130.350392218126444, 33.250459161661013 ], [ 130.350114163038256, 33.256018332580027 ], [ 130.358874994185726, 33.257144720852239 ], [ 130.373693060586334, 33.25725166733065 ], [ 130.372815550697169, 33.253850559056104 ], [ 130.377151659821266, 33.251109440748166 ], [ 130.369811115390689, 33.238417774560673 ], [ 130.379048327318515, 33.229178612902729 ], [ 130.378385837236692, 33.221305559204268 ], [ 130.339586394296703, 33.204470828765807 ], [ 130.340554993817932, 33.188445829011869 ], [ 130.353120000387776, 33.180462225251574 ], [ 130.355784098957088, 33.140356946016311 ], [ 130.288011945894596, 33.14682291864284 ], [ 130.283966030907663, 33.156056829159411 ], [ 130.285731802980422, 33.161697000216463 ], [ 130.27805105131506, 33.16431430616035 ], [ 130.278584475193384, 33.168888532379924 ], [ 130.259989533190492, 33.179993558855699 ], [ 130.251419611026336, 33.190180532205829 ], [ 130.255382917887459, 33.197323586414427 ], [ 130.259113190621292, 33.197165134863155 ], [ 130.253896692878129, 33.202429440566277 ], [ 130.24642972804952, 33.202901197931965 ], [ 130.247134254242496, 33.191831108319036 ], [ 130.22981583693138, 33.192877775289162 ], [ 130.231102503277953, 33.197883053759995 ], [ 130.234951387596539, 33.198108054243335 ], [ 130.234585550582779, 33.204193892434262 ], [ 130.229332502593024, 33.203980828652391 ], [ 130.22810917010213, 33.207145559120306 ], [ 130.229828054221343, 33.215016386996695 ], [ 130.221406109204622, 33.229265559358112 ], [ 130.223391946281367, 33.240211946324337 ], [ 130.218435837344032, 33.248523054395491 ], [ 130.222448327228562, 33.25508305383994 ], [ 130.229720829852454, 33.256457774606645 ], [ 130.244408327282486, 33.251540802366208 ], [ 130.244698612251227, 33.272863891755264 ], [ 130.237591115437681, 33.294482775359825 ], [ 130.231476108635547, 33.29825389170378 ], [ 130.234047496994435, 33.298858053556387 ], [ 130.232453606049148, 33.308874721391305 ], [ 130.224841388119671, 33.316973054363018 ], [ 130.227484448848259, 33.331301946227882 ], [ 130.208479728057114, 33.340809720991899 ], [ 130.142811387835309, 33.338878333368427 ], [ 130.140918885098586, 33.346682775090073 ], [ 130.146189727973592, 33.355432495113632 ], [ 130.139431660043101, 33.372197225021978 ], [ 130.141031115093938, 33.380555278603254 ], [ 130.153930271964555, 33.391692495412371 ], [ 130.157769727790765, 33.400795828864489 ], [ 130.156351114712265, 33.40927610840572 ], [ 130.164511660085054, 33.409415559080855 ], [ 130.170529999659834, 33.415788333165096 ], [ 130.159530272104462, 33.415850559056082 ], [ 130.156431659793384, 33.419778332803844 ], [ 130.163743605782884, 33.423465278899528 ], [ 130.167943061123424, 33.431594161841133 ], [ 130.170059999569389, 33.449058054385773 ], [ 130.16449250272683, 33.455264720990158 ], [ 130.17000138805372, 33.463372495044666 ], [ 130.168786394076847, 33.467645828792001 ], [ 130.183153606054134, 33.466768053602834 ], [ 130.188788884799237, 33.474892494792869 ], [ 130.20408221772027, 33.481424721373855 ], [ 130.204264994134292, 33.481326667391841 ] ] ] } },
{ "type": "Feature", "properties": { "regioncode": "4120200", "regionname": "佐賀県唐津市", "name": "唐津市", "namekana": "からつし", "PrefCode": "41" }, "geometry": { "type": "MultiPolygon", "coordinates": [ [ [ [ 129.866480829726584, 33.40281638696672 ], [ 129.860140829635611, 33.399432775002595 ], [ 129.866306109439506, 33.403120829063084 ], [ 129.866480829726584, 33.40281638696672 ] ] ], [ [ [ 129.856876667424331, 33.404889720883943 ], [ 129.858844721306923, 33.402121666981373 ], [ 129.856802776427003, 33.404895278694198 ], [ 129.856876667424331, 33.404889720883943 ] ] ], [ [ [ 129.846130000099492, 33.454959161935847 ], [ 129.847057782091042, 33.451802224992718 ], [ 129.846069728435282, 33.454981666570689 ], [ 129.846130000099492, 33.454959161935847 ] ] ], [ [ [ 129.839532996250796, 33.455912829113799 ], [ 129.838120441005572, 33.453654694408669 ], [ 129.839462386879745, 33.455946667005151 ], [ 129.839532996250796, 33.455912829113799 ] ] ], [ [ [ 129.844671660368931, 33.455793332596272 ], [ 129.842842775673603, 33.454107774654119 ], [ 129.844745551366145, 33.45583861256199 ], [ 129.844671660368931, 33.455793332596272 ] ] ], [ [ [ 129.848671114580384, 33.456610828926671 ], [ 129.845847782049532, 33.455376387110618 ], [ 129.84861055783108, 33.456650278587517 ], [ 129.848671114580384, 33.456610828926671 ] ] ], [ [ [ 129.978904280108509, 33.456609333354095 ], [ 129.976170830319575, 33.457829162086227 ], [ 129.978912970257397, 33.45672019817863 ], [ 129.978904280108509, 33.456609333354095 ] ] ], [ [ [ 129.975108832606566, 33.45811553230601 ], [ 129.972216549953828, 33.457895333303043 ], [ 129.975000000249906, 33.458128864755338 ], [ 129.975108832606566, 33.45811553230601 ] ] ], [ [ [ 129.978052775914989, 33.467526585883263 ], [ 129.978272918260586, 33.464208279088837 ], [ 129.975242309085388, 33.464953135378948 ], [ 129.978076277898026, 33.467552559203284 ], [ 129.978052775914989, 33.467526585883263 ] ] ], [ [ [ 129.969873502160453, 33.472281440935774 ], [ 129.973256524169301, 33.470191161992602 ], [ 129.969885226621955, 33.472296531559721 ], [ 129.969873502160453, 33.472281440935774 ] ] ], [ [ [ 129.99166666718304, 33.48034449530229 ], [ 129.994239416216146, 33.47285241420758 ], [ 129.985579830744655, 33.471779891728659 ], [ 129.985695187682836, 33.478919532110751 ], [ 129.991646693240341, 33.480374225090486 ], [ 129.99166666718304, 33.48034449530229 ] ] ], [ [ [ 129.956977664687543, 33.488220864801121 ], [ 129.960679390241694, 33.484902198277894 ], [ 129.956861751069027, 33.488147559262529 ], [ 129.956977664687543, 33.488220864801121 ] ] ], [ [ [ 129.774851660176068, 33.495229721274654 ], [ 129.780631335867497, 33.488805828826003 ], [ 129.773917496595232, 33.488244999906897 ], [ 129.774791115117978, 33.495252225010233 ], [ 129.774851660176068, 33.495229721274654 ] ] ], [ [ [ 129.973756200088587, 33.54356644123834 ], [ 129.977681245293297, 33.539930919276571 ], [ 129.977478054268886, 33.533011585816098 ], [ 129.973958495388274, 33.52779791913872 ], [ 129.967140414798337, 33.527082720691055 ], [ 129.964395162306914, 33.529981080962159 ], [ 129.970134112199617, 33.536244494787638 ], [ 129.966931088598926, 33.537716306362483 ], [ 129.971774695046179, 33.539211440955285 ], [ 129.96385114081761, 33.538297333155469 ], [ 129.97373374761446, 33.543574829215061 ], [ 129.973756200088587, 33.54356644123834 ] ] ], [ [ [ 129.865627029563825, 33.549999999600345 ], [ 129.861283256417209, 33.549824639895292 ], [ 129.866383721831312, 33.550064107772414 ], [ 129.865627029563825, 33.549999999600345 ] ] ], [ [ [ 129.893010920917277, 33.553684225246855 ], [ 129.895597665200171, 33.552715999843542 ], [ 129.892968028651694, 33.553626495066737 ], [ 129.893010920917277, 33.553684225246855 ] ] ], [ [ [ 129.849493605745351, 33.556655829003375 ], [ 129.860802826888971, 33.549771161709771 ], [ 129.859557275747761, 33.545141000356921 ], [ 129.85641492940556, 33.546627189393348 ], [ 129.858853333214824, 33.54339861335535 ], [ 129.869374721266468, 33.537143054208627 ], [ 129.87829450129027, 33.538162396177711 ], [ 129.880642361355967, 33.528229251978473 ], [ 129.874353606433829, 33.515969720825979 ], [ 129.878797224112645, 33.522629721284659 ], [ 129.886645162444324, 33.52221914389844 ], [ 129.882075279050923, 33.523720559356377 ], [ 129.88276688738199, 33.540563441249844 ], [ 129.890600661391431, 33.541790108426824 ], [ 129.891451479402349, 33.536991279224196 ], [ 129.894571698824848, 33.537856945941371 ], [ 129.890120532236892, 33.545665386948087 ], [ 129.895072244388643, 33.55108730603439 ], [ 129.903650246062057, 33.545068252397982 ], [ 129.909211362214705, 33.549370865373191 ], [ 129.911639441806869, 33.543461162103029 ], [ 129.917861089317853, 33.541764585667124 ], [ 129.928303695858972, 33.545831864948639 ], [ 129.928108858636961, 33.550640027315467 ], [ 129.933028715902537, 33.549415945689418 ], [ 129.929510895411568, 33.53683655896009 ], [ 129.945940725883816, 33.528372972634656 ], [ 129.957612335141221, 33.529407639950648 ], [ 129.956562361363922, 33.518227360004687 ], [ 129.969300389401496, 33.511407639950676 ], [ 129.961300506113503, 33.50383666672883 ], [ 129.953355693710364, 33.503512468325823 ], [ 129.944040972812672, 33.493314694117885 ], [ 129.945535771958362, 33.484395666826629 ], [ 129.93734208836679, 33.480080054151244 ], [ 129.947711529663479, 33.472441081390855 ], [ 129.95014533074243, 33.478466999552438 ], [ 129.955813060624337, 33.468777198409043 ], [ 129.953722386878667, 33.474630891902166 ], [ 129.956632412256113, 33.47618322517576 ], [ 129.958286030775753, 33.470689306366467 ], [ 129.960908470049958, 33.473051107722483 ], [ 129.956839169991781, 33.479555135161434 ], [ 129.960022088348751, 33.483533440915608 ], [ 129.965216640835365, 33.48317846771215 ], [ 129.970967250438321, 33.474857612788639 ], [ 129.967045226955747, 33.469999585712344 ], [ 129.959970246030139, 33.468714558829902 ], [ 129.964407588239624, 33.463308000164147 ], [ 129.961301219275924, 33.461444387248719 ], [ 129.958617445338859, 33.465035224595965 ], [ 129.960739274298135, 33.460691586347707 ], [ 129.969257756140564, 33.461394161911073 ], [ 129.96178202292208, 33.458398747704109 ], [ 129.970725383169906, 33.45477555904489 ], [ 129.978823449942297, 33.456374279349575 ], [ 129.994334994364522, 33.447828720718917 ], [ 130.020359779879982, 33.446388639923839 ], [ 130.03498438412214, 33.451102892384654 ], [ 130.041166524415644, 33.455962693823324 ], [ 130.036043528286314, 33.460529306382455 ], [ 130.03902632860229, 33.470014467693602 ], [ 130.044924993593668, 33.467437224748153 ], [ 130.068069169656496, 33.472504161637801 ], [ 130.073554721173537, 33.469153613248693 ], [ 130.090561141183798, 33.468560747780316 ], [ 130.100923606439324, 33.470867224642745 ], [ 130.106926394037941, 33.477828613100087 ], [ 130.129558884634889, 33.475626387447846 ], [ 130.138966393983992, 33.470397774937396 ], [ 130.150741945984123, 33.477620000062984 ], [ 130.16392917009523, 33.472345559000416 ], [ 130.170075279050934, 33.463740558779818 ], [ 130.16449250272683, 33.455264720990158 ], [ 130.170059999569389, 33.449058054385773 ], [ 130.167943061123424, 33.431594161841133 ], [ 130.163743605782884, 33.423465278899528 ], [ 130.156431659793384, 33.419778332803844 ], [ 130.159530272104462, 33.415850559056082 ], [ 130.170529999659834, 33.415788333165096 ], [ 130.164511660085054, 33.409415559080855 ], [ 130.156351114712265, 33.40927610840572 ], [ 130.157769727790765, 33.400795828864489 ], [ 130.153930271964555, 33.391692495412371 ], [ 130.141031115093938, 33.380555278603254 ], [ 130.139431660043101, 33.372197225021978 ], [ 130.146189727973592, 33.355432495113632 ], [ 130.140918885098586, 33.346682775090073 ], [ 130.142964162865837, 33.339008612757311 ], [ 130.127466939247938, 33.339757775001374 ], [ 130.116773332823072, 33.326900828710336 ], [ 130.09778000014694, 33.314440279295525 ], [ 130.086113891143214, 33.312228054081459 ], [ 130.077718326839431, 33.302190828643859 ], [ 130.063317782389845, 33.297215279061959 ], [ 130.055377497173822, 33.288965000234612 ], [ 130.044959728109006, 33.286114721317404 ], [ 130.034508053703803, 33.277587224670754 ], [ 130.011918611854526, 33.297976946379038 ], [ 130.007843605597941, 33.316826667216958 ], [ 129.99096027219889, 33.328264441051147 ], [ 129.989031945867623, 33.325485559311176 ], [ 129.982085550907527, 33.326413891687821 ], [ 129.967802502883274, 33.336164999615107 ], [ 129.959599728045077, 33.347778332803841 ], [ 129.955240830100252, 33.341577775294127 ], [ 129.959797223663031, 33.327787224800659 ], [ 129.954609169677497, 33.3227947211995 ], [ 129.945121946220866, 33.345289720744063 ], [ 129.937962217682298, 33.345874720741847 ], [ 129.93006221759731, 33.357319162149679 ], [ 129.925896109118185, 33.3575472248246 ], [ 129.923117782259851, 33.365596945842412 ], [ 129.919300271690304, 33.364407774998881 ], [ 129.914737497437613, 33.377260559227466 ], [ 129.920266393579254, 33.394449162099193 ], [ 129.90556165974283, 33.406908332853334 ], [ 129.904236938583949, 33.411828612800321 ], [ 129.891061946151922, 33.406289720694133 ], [ 129.881868327061738, 33.407381387041426 ], [ 129.87963082999886, 33.400076387415425 ], [ 129.883674449016667, 33.390261945632346 ], [ 129.876276938829733, 33.387194162080959 ], [ 129.864823695756968, 33.393321468011379 ], [ 129.871825356754925, 33.393630440892196 ], [ 129.870711659715425, 33.396683613158245 ], [ 129.866285836921861, 33.396197224722187 ], [ 129.866574163167115, 33.404151387376658 ], [ 129.87064955883011, 33.404821829264051 ], [ 129.86665472083871, 33.405081387096402 ], [ 129.867789104983217, 33.408256720571273 ], [ 129.863861115398208, 33.406135558908943 ], [ 129.866674720861738, 33.409512225408946 ], [ 129.863888327084737, 33.408222225275551 ], [ 129.862806666594452, 33.412353892418253 ], [ 129.859007173042642, 33.411467532300833 ], [ 129.861403061402257, 33.405932494688955 ], [ 129.853807133792202, 33.403153720867579 ], [ 129.8378261090877, 33.407759161656031 ], [ 129.838302775852526, 33.411169720905946 ], [ 129.833151945705822, 33.41397666688971 ], [ 129.823526108842884, 33.412031107749499 ], [ 129.823577497003953, 33.420887467582588 ], [ 129.831611776662271, 33.422044594682347 ], [ 129.818944967736115, 33.424261449606263 ], [ 129.820027911558896, 33.426957946252287 ], [ 129.813897496672212, 33.428542495040176 ], [ 129.81459639400839, 33.433074999911355 ], [ 129.802754721153519, 33.436117495426117 ], [ 129.801322775625636, 33.440937224873096 ], [ 129.796223332740624, 33.440899161966797 ], [ 129.797352776009916, 33.443554162094983 ], [ 129.789361218645354, 33.442012467801192 ], [ 129.789680310697804, 33.451355009226347 ], [ 129.786171114705212, 33.448174440797857 ], [ 129.782971802606653, 33.451268314581114 ], [ 129.790044993881452, 33.458999720560712 ], [ 129.798783890564209, 33.457229720775047 ], [ 129.798789078753089, 33.452942532072257 ], [ 129.808043644898362, 33.45823810810225 ], [ 129.806430557923932, 33.46198500030755 ], [ 129.798353606333876, 33.46371805414492 ], [ 129.793721659826815, 33.472044162008501 ], [ 129.804118053805155, 33.477593333365689 ], [ 129.806493890880461, 33.485731667282664 ], [ 129.813024720814269, 33.479402774718324 ], [ 129.820167223738395, 33.483832225376943 ], [ 129.826461945662345, 33.47944833257452 ], [ 129.826519001350903, 33.47468849527786 ], [ 129.823551387886255, 33.474313054403979 ], [ 129.826032218112459, 33.468416946185187 ], [ 129.839266394028868, 33.462213892157422 ], [ 129.835000271945091, 33.442301946077976 ], [ 129.838796108853444, 33.450635000305056 ], [ 129.844612776358645, 33.444139440882566 ], [ 129.858329169655462, 33.448760829348828 ], [ 129.863366667237983, 33.445448891553156 ], [ 129.85872666730188, 33.433353612579197 ], [ 129.866393606279985, 33.436509721246694 ], [ 129.872071946363349, 33.43080472076133 ], [ 129.879088054070507, 33.432670829295375 ], [ 129.880706667378831, 33.44105916215068 ], [ 129.891571660303953, 33.44306472135986 ], [ 129.886983061119395, 33.443195829024319 ], [ 129.889005550965521, 33.454535558769066 ], [ 129.892286393802124, 33.452229440736176 ], [ 129.896616938820785, 33.454641107701036 ], [ 129.894303061437199, 33.45826277470735 ], [ 129.898868885290881, 33.463190278908314 ], [ 129.894721388281482, 33.465475279060911 ], [ 129.905067781752791, 33.471097495153344 ], [ 129.897305836595137, 33.489529441330717 ], [ 129.888867782022544, 33.492173054243096 ], [ 129.882946393861062, 33.500778612942668 ], [ 129.876910271991505, 33.501324441170084 ], [ 129.868533891126276, 33.509066108414231 ], [ 129.860465837428478, 33.508869441071909 ], [ 129.857075279100968, 33.513491666807056 ], [ 129.850174163207157, 33.514534161822155 ], [ 129.848571115364734, 33.522144721401844 ], [ 129.839905551200332, 33.522307774784053 ], [ 129.846970830239684, 33.525194441170584 ], [ 129.856971115124907, 33.519336946243129 ], [ 129.852380829711592, 33.526045558655653 ], [ 129.856425837282586, 33.533298613440309 ], [ 129.848794163419939, 33.536773054233095 ], [ 129.851458885219472, 33.541559441315201 ], [ 129.846600271785178, 33.542455559076814 ], [ 129.851392217576858, 33.553636946088261 ], [ 129.845846394395608, 33.556035829190193 ], [ 129.849439728260904, 33.556667225212323 ], [ 129.849493605745351, 33.556655829003375 ] ] ], [ [ [ 129.88189236144342, 33.567754413635328 ], [ 129.890065083636728, 33.559053414383641 ], [ 129.888266328928012, 33.556067161570297 ], [ 129.893687197606141, 33.554461000275012 ], [ 129.880669027153999, 33.547073108337315 ], [ 129.881212438003672, 33.544216386676965 ], [ 129.86833994783035, 33.546626801785521 ], [ 129.876397419205546, 33.549736667313425 ], [ 129.873896719358186, 33.559546919155025 ], [ 129.881890466571804, 33.567759721434072 ], [ 129.88189236144342, 33.567754413635328 ] ] ], [ [ [ 129.760658611805525, 33.582670278610522 ], [ 129.768908326757924, 33.582072775338361 ], [ 129.773517782120052, 33.575392774856709 ], [ 129.771095227063142, 33.568832054156019 ], [ 129.765959662908131, 33.568927081020036 ], [ 129.765562528587907, 33.565435134923575 ], [ 129.761037223688959, 33.567335279199824 ], [ 129.764919416198154, 33.564956162297108 ], [ 129.762926666932231, 33.563689441114889 ], [ 129.755666109103686, 33.563711945749731 ], [ 129.739711946249372, 33.573402225332472 ], [ 129.744886394391642, 33.576006946163659 ], [ 129.742107223969242, 33.579022774981127 ], [ 129.746353060945125, 33.58216861339082 ], [ 129.753963606135585, 33.577810828806776 ], [ 129.760517223990746, 33.582692775151486 ], [ 129.760658611805525, 33.582670278610522 ] ] ], [ [ [ 129.845632775732042, 33.592012224684481 ], [ 129.847801388323433, 33.590315559215753 ], [ 129.844770557915012, 33.585095558613205 ], [ 129.83535749705095, 33.585151946105498 ], [ 129.836560557923463, 33.589458613224451 ], [ 129.845538327132203, 33.5920402790357 ], [ 129.845632775732042, 33.592012224684481 ] ] ], [ [ [ 129.898394422764454, 33.604162441443577 ], [ 129.903363087136881, 33.602413386868363 ], [ 129.901482529195391, 33.591916305693019 ], [ 129.898837665326027, 33.595485278722663 ], [ 129.894842049421072, 33.59300627861694 ], [ 129.898770921241066, 33.592633161591209 ], [ 129.89336747063237, 33.592964414276366 ], [ 129.893955279212832, 33.601252198430245 ], [ 129.898378223276495, 33.604164467616158 ], [ 129.898394422764454, 33.604162441443577 ] ] ], [ [ [ 129.862954448588994, 33.617674161633317 ], [ 129.864874163012246, 33.614562224966733 ], [ 129.858876667024674, 33.609288613079059 ], [ 129.863298326856352, 33.608626107708744 ], [ 129.859526393928036, 33.603073332768133 ], [ 129.862308327067694, 33.596771107800464 ], [ 129.868383891403482, 33.596342495409885 ], [ 129.864274358375042, 33.586352162422429 ], [ 129.857787951352975, 33.587618774786677 ], [ 129.860424500990007, 33.586129946240078 ], [ 129.857448807116839, 33.587766640418181 ], [ 129.858570557585267, 33.592205828935903 ], [ 129.848136667273479, 33.599369440747125 ], [ 129.851953333379697, 33.599390278938301 ], [ 129.85240027215491, 33.607002495069139 ], [ 129.859701387608993, 33.612820278633023 ], [ 129.855936108764467, 33.616738333407397 ], [ 129.862954448588994, 33.617724720619435 ], [ 129.862954448588994, 33.617674161633317 ] ] ] ] } },
{ "type": "Feature", "properties": { "regioncode": "4120300", "regionname": "佐賀県鳥栖市", "name": "鳥栖市", "namekana": "とすし", "PrefCode": "41" }, "geometry": { "type": "Polygon", "coordinates": [ [ [ 130.463888885263941, 33.42751555919574 ], [ 130.477895279343784, 33.423906945848898 ], [ 130.500412502934751, 33.405812224754413 ], [ 130.518055058394339, 33.412252332878893 ], [ 130.526888144672171, 33.411194892030721 ], [ 130.52720416284194, 33.40318889155418 ], [ 130.540686939250918, 33.403542225293506 ], [ 130.542004448746411, 33.36682749539267 ], [ 130.535978612423037, 33.342961946136938 ], [ 130.532802776227186, 33.346131107564588 ], [ 130.526090272448187, 33.340107774953879 ], [ 130.508836666578986, 33.343293054031278 ], [ 130.505497223917814, 33.330687225435156 ], [ 130.499455837417031, 33.325575558964943 ], [ 130.4870511152169, 33.332709162198114 ], [ 130.479945551046399, 33.33087277535833 ], [ 130.479519728352898, 33.336436945608625 ], [ 130.47267165986932, 33.33817582885149 ], [ 130.467050829632171, 33.350069441151845 ], [ 130.457414163133194, 33.347315828562671 ], [ 130.456074163392032, 33.366414720962666 ], [ 130.441980271572334, 33.385544720912208 ], [ 130.441700558134357, 33.397483891968079 ], [ 130.437035836734594, 33.404852224550552 ], [ 130.44221389115819, 33.41563361290099 ], [ 130.458080558071401, 33.419781386901548 ], [ 130.458066938738284, 33.425168891631074 ], [ 130.462858053556374, 33.427686387217022 ], [ 130.463888885263941, 33.42751555919574 ] ] ] } },
{ "type": "Feature", "properties": { "regioncode": "4120400", "regionname": "佐賀県多久市", "name": "多久市", "namekana": "たくし", "PrefCode": "41" }, "geometry": { "type": "Polygon", "coordinates": [ [ [ 130.134611945884672, 33.338905829240673 ], [ 130.142811387835309, 33.338878333368427 ], [ 130.138147497409136, 33.333460559257446 ], [ 130.137291115292783, 33.311523892113996 ], [ 130.152803605801864, 33.307743054098694 ], [ 130.158193332756127, 33.302039441267254 ], [ 130.155578884857732, 33.29950777506383 ], [ 130.157250558166766, 33.292978613372384 ], [ 130.168909999596849, 33.287782774855202 ], [ 130.17183416321609, 33.283200828855229 ], [ 130.163153605554498, 33.279100279154591 ], [ 130.181106393845084, 33.256266666873216 ], [ 130.182798053687293, 33.250452494986689 ], [ 130.179040830070335, 33.248303612621669 ], [ 130.181864993574663, 33.246601386644727 ], [ 130.165705550570806, 33.243716386701919 ], [ 130.158808054448173, 33.254112494695903 ], [ 130.15013250331242, 33.248891108238126 ], [ 130.150143606342453, 33.244608613097057 ], [ 130.135037223589052, 33.24707416204302 ], [ 130.125558053561349, 33.23425749458778 ], [ 130.111718053845152, 33.239284441323946 ], [ 130.104005279120429, 33.235068054447197 ], [ 130.095725551093324, 33.238757224566314 ], [ 130.079073891147232, 33.237096666877733 ], [ 130.064137223953821, 33.243946387415917 ], [ 130.05549306095611, 33.238668892255646 ], [ 130.043907782118481, 33.250693891909634 ], [ 130.027452218445205, 33.249833333341712 ], [ 130.028451115226858, 33.253402495229011 ], [ 130.022210271686731, 33.261904720926168 ], [ 130.027631660173029, 33.280843613142281 ], [ 130.036813061073985, 33.278044720587445 ], [ 130.063317782389845, 33.297215279061959 ], [ 130.077718326839431, 33.302190828643859 ], [ 130.086113891143214, 33.312228054081459 ], [ 130.09778000014694, 33.314440279295525 ], [ 130.116773332823072, 33.326900828710336 ], [ 130.127466939247938, 33.339757775001374 ], [ 130.134278053689286, 33.338954441194574 ], [ 130.134611945884672, 33.338905829240673 ] ] ] } },
{ "type": "Feature", "properties": { "regioncode": "4120500", "regionname": "佐賀県伊万里市", "name": "伊万里市", "namekana": "いまりし", "PrefCode": "41" }, "geometry": { "type": "Polygon", "coordinates": [ [ [ 129.903961945687342, 33.411954441444379 ], [ 129.920266393579254, 33.394449162099193 ], [ 129.914737497437613, 33.377260559227466 ], [ 129.919300271690304, 33.364407774998881 ], [ 129.923117782259851, 33.365596945842412 ], [ 129.925896109118185, 33.3575472248246 ], [ 129.93006221759731, 33.357319162149679 ], [ 129.937962217682298, 33.345874720741847 ], [ 129.945121946220866, 33.345289720744063 ], [ 129.954609169677497, 33.3227947211995 ], [ 129.959797223663031, 33.327787224800659 ], [ 129.955240830100252, 33.341577775294127 ], [ 129.959599728045077, 33.347778332803841 ], [ 129.967802502883274, 33.336164999615107 ], [ 129.982085550907527, 33.326413891687821 ], [ 129.989031945867623, 33.325485559311176 ], [ 129.99096027219889, 33.328264441051147 ], [ 130.007843605597941, 33.316826667216958 ], [ 130.011918611854526, 33.297976946379038 ], [ 130.025417224425382, 33.283031386689174 ], [ 130.002142776168284, 33.280839162397456 ], [ 129.97923444911055, 33.273824161755726 ], [ 129.972444721446777, 33.268579721177218 ], [ 129.971062217947065, 33.261661666552698 ], [ 129.961135550665176, 33.254793332746146 ], [ 129.950649728102576, 33.257019721383074 ], [ 129.931201387933811, 33.229924441359913 ], [ 129.924308327267568, 33.229719440899544 ], [ 129.920951945875686, 33.225925828913944 ], [ 129.879295278554309, 33.225541667314133 ], [ 129.87272555114339, 33.231049999557911 ], [ 129.869464994314058, 33.241084440694408 ], [ 129.854453606049105, 33.238692774651895 ], [ 129.85122722435699, 33.241801387424118 ], [ 129.848971388319001, 33.238101667358137 ], [ 129.836589169854392, 33.235123333075421 ], [ 129.814085837191669, 33.236373054373018 ], [ 129.81434972795762, 33.242433054142168 ], [ 129.790491946146517, 33.257732224562574 ], [ 129.768249728042633, 33.28578944102992 ], [ 129.758967496952437, 33.290851107892365 ], [ 129.769330830053832, 33.319767224577788 ], [ 129.782106667388803, 33.337099999565396 ], [ 129.790814345006083, 33.340399062666677 ], [ 129.79918364460957, 33.334064080792757 ], [ 129.794195939790825, 33.337247494676205 ], [ 129.804154423288082, 33.338359748303787 ], [ 129.811138560096538, 33.332727693628215 ], [ 129.808760311039578, 33.330033640440206 ], [ 129.81097683501298, 33.332708252084217 ], [ 129.807184967712146, 33.335772198228426 ], [ 129.802807977206498, 33.331979694207575 ], [ 129.808625720300824, 33.326635224735867 ], [ 129.807653606228996, 33.322848414322891 ], [ 129.818305109992934, 33.321159134986146 ], [ 129.810614553019263, 33.320159945924843 ], [ 129.812182088432678, 33.314568531612508 ], [ 129.817836913043152, 33.314953332630239 ], [ 129.817870195153432, 33.320382081168191 ], [ 129.820476550052831, 33.316039693876803 ], [ 129.813174772697721, 33.31157444120754 ], [ 129.813701050563054, 33.308728333345982 ], [ 129.821389441969245, 33.310510251846722 ], [ 129.836817198355106, 33.286718613373353 ], [ 129.842379442257538, 33.286738027038382 ], [ 129.844063138603019, 33.293177332967616 ], [ 129.853620245677803, 33.291589694109121 ], [ 129.846546718956006, 33.301605162248507 ], [ 129.831137082110672, 33.304170721201899 ], [ 129.827772140072284, 33.311953332780149 ], [ 129.835880168634958, 33.311555026643191 ], [ 129.839384279860724, 33.317487197676087 ], [ 129.8358123867323, 33.317177667215617 ], [ 129.836056614721087, 33.322906586070133 ], [ 129.842235914056232, 33.317214441393389 ], [ 129.841802243878533, 33.323396864973404 ], [ 129.849242917926404, 33.329537864880592 ], [ 129.841031725433822, 33.332376386960732 ], [ 129.836504280148461, 33.330324305822103 ], [ 129.837984423042712, 33.327848197936021 ], [ 129.833530699682115, 33.328509865138244 ], [ 129.827569494036993, 33.337163667069603 ], [ 129.832842335205669, 33.339423306340564 ], [ 129.8356974713613, 33.334443225074835 ], [ 129.842700921110691, 33.341311198253266 ], [ 129.848642049391174, 33.336665829364563 ], [ 129.843949389652721, 33.342188973442433 ], [ 129.84775491585674, 33.343722278860128 ], [ 129.842220895378091, 33.346937134840971 ], [ 129.84387275032725, 33.351658721272997 ], [ 129.845074526967892, 33.348236639909032 ], [ 129.85052092110368, 33.348072585581406 ], [ 129.850989974208005, 33.351711667059817 ], [ 129.845235913906322, 33.354176278912178 ], [ 129.847941855232534, 33.356880586170178 ], [ 129.850905304836033, 33.354361360288578 ], [ 129.850909727701833, 33.360206946393532 ], [ 129.846794136840003, 33.36260177535172 ], [ 129.858417108063122, 33.367853558894694 ], [ 129.857854527264635, 33.373022747801599 ], [ 129.863016030565404, 33.37616055886275 ], [ 129.868902218362791, 33.372887693911991 ], [ 129.864639389596164, 33.377742441160763 ], [ 129.86755710777436, 33.38339930633299 ], [ 129.864742606586105, 33.384991892361995 ], [ 129.865550220266528, 33.388636973217785 ], [ 129.870968417958238, 33.388227802371262 ], [ 129.865017432208788, 33.393186657838044 ], [ 129.874811114941053, 33.387314162218843 ], [ 129.882030271579879, 33.388673613396577 ], [ 129.879621945596341, 33.400227225306253 ], [ 129.881868327061738, 33.407381387041426 ], [ 129.891061946151922, 33.406289720694133 ], [ 129.903871660049163, 33.412014440613973 ], [ 129.903961945687342, 33.411954441444379 ] ] ] } },
{ "type": "Feature", "properties": { "regioncode": "4120600", "regionname": "佐賀県武雄市", "name": "武雄市", "namekana": "たけおし", "PrefCode": "41" }, "geometry": { "type": "Polygon", "coordinates": [ [ [ 130.027331659828292, 33.281032495053637 ], [ 130.022210271686731, 33.261904720926168 ], [ 130.028451115226858, 33.253402495229011 ], [ 130.027452218445205, 33.249833333341712 ], [ 130.043907782118481, 33.250693891909634 ], [ 130.05549306095611, 33.238668892255646 ], [ 130.064137223953821, 33.243946387415917 ], [ 130.079073891147232, 33.237096666877733 ], [ 130.095725551093324, 33.238757224566314 ], [ 130.103492776170697, 33.23508000014192 ], [ 130.099928054236329, 33.223592494697925 ], [ 130.093338054307878, 33.214651945730736 ], [ 130.088733061381731, 33.214016667335386 ], [ 130.099601659688915, 33.206399999560404 ], [ 130.088569728310404, 33.199307495344669 ], [ 130.084030271679808, 33.18410999957689 ], [ 130.070282502835312, 33.18163138707888 ], [ 130.077347496789571, 33.17350999998655 ], [ 130.071971388269048, 33.166762494593513 ], [ 130.059998612246204, 33.167452494936754 ], [ 130.056024448769335, 33.161491107628592 ], [ 130.033396938617898, 33.157773613361599 ], [ 130.028533890626591, 33.148416386906774 ], [ 130.019557223986794, 33.151537775448048 ], [ 130.00579972807509, 33.146539440642698 ], [ 130.004486939120966, 33.138777224789123 ], [ 129.988246394355656, 33.134210828966616 ], [ 129.995315278777184, 33.125339161772956 ], [ 129.992085550707657, 33.115570559333889 ], [ 129.986632503387341, 33.117339441262232 ], [ 129.97602472106405, 33.11033082940429 ], [ 129.96441221794953, 33.115350279391919 ], [ 129.954112217804663, 33.108306387130142 ], [ 129.951285278992486, 33.109964162316317 ], [ 129.956664721299944, 33.118042774954176 ], [ 129.956460272123877, 33.127873332588308 ], [ 129.948913333283713, 33.133875828806481 ], [ 129.941487782235413, 33.157825828898922 ], [ 129.943357223657017, 33.164444440758359 ], [ 129.928533605741336, 33.173769720596169 ], [ 129.917251115146883, 33.171239162357494 ], [ 129.918221659901747, 33.182558613289416 ], [ 129.912002218427688, 33.186267775337626 ], [ 129.912637224328478, 33.197076108275837 ], [ 129.905590830152732, 33.200129161831399 ], [ 129.906423891049826, 33.206740278740938 ], [ 129.897393333435616, 33.223655558757059 ], [ 129.903810272326268, 33.227776945749497 ], [ 129.920951945875686, 33.225925828913944 ], [ 129.924308327267568, 33.229719440899544 ], [ 129.931201387933811, 33.229924441359913 ], [ 129.950649728102576, 33.257019721383074 ], [ 129.961135550665176, 33.254793332746146 ], [ 129.981427497181357, 33.274927495007944 ], [ 130.002301387798866, 33.280867224842609 ], [ 130.027223332890571, 33.2812916670768 ], [ 130.027331659828292, 33.281032495053637 ] ] ] } },
{ "type": "Feature", "properties": { "regioncode": "4120700", "regionname": "佐賀県鹿島市", "name": "鹿島市", "namekana": "かしまし", "PrefCode": "41" }, "geometry": { "type": "Polygon", "coordinates": [ [ [ 130.111203060672779, 33.130828892439467 ], [ 130.120772217763715, 33.128538053888121 ], [ 130.122702776212236, 33.123301946427716 ], [ 130.128692217871617, 33.123440279245528 ], [ 130.126320558147313, 33.106931640283051 ], [ 130.137706718989989, 33.096779387059144 ], [ 130.129105693772772, 33.091848225315402 ], [ 130.14065891088012, 33.094375829281148 ], [ 130.145822672378472, 33.086649467598875 ], [ 130.142649467598858, 33.080712558937478 ], [ 130.14617944242741, 33.07686777462817 ], [ 130.144718327389, 33.072992225410928 ], [ 130.158941660429377, 33.060862774897203 ], [ 130.158083605574006, 33.057194162380767 ], [ 130.161909389906441, 33.058387134658574 ], [ 130.161121115247283, 33.055159162065706 ], [ 130.170802672305513, 33.051957359744392 ], [ 130.121402775617639, 33.024294162345768 ], [ 130.11528333335923, 33.022692774651887 ], [ 130.11409861236109, 33.026799161851898 ], [ 130.096892775781043, 33.014240559354391 ], [ 130.095514162748486, 33.001403613086325 ], [ 130.088570829979858, 32.994171107810416 ], [ 130.080470558069806, 32.993152225394965 ], [ 130.076060557948495, 32.987560829069082 ], [ 130.061226938672348, 32.985851108142185 ], [ 130.046804720561454, 32.998443613282177 ], [ 130.043997224192594, 33.005622494682427 ], [ 130.047403606091621, 33.007716108311797 ], [ 130.042293332671193, 33.017713892182428 ], [ 130.044708053733757, 33.024415559130773 ], [ 130.037819727998112, 33.029701107719973 ], [ 130.044979442147564, 33.043225000233633 ], [ 130.048038326907317, 33.06248972132363 ], [ 130.041506666899181, 33.069408892006834 ], [ 130.039397224302547, 33.079226386988239 ], [ 130.062896939242364, 33.093901387439132 ], [ 130.061570557934942, 33.099108891961862 ], [ 130.075376666699867, 33.098044440898263 ], [ 130.07085527924778, 33.104036387169572 ], [ 130.075918611654629, 33.103328332936258 ], [ 130.084797496807141, 33.111746386586503 ], [ 130.078501388128643, 33.117275000341067 ], [ 130.083998054366816, 33.122900829010121 ], [ 130.082368612321716, 33.130768054202406 ], [ 130.111154162734465, 33.131080279031721 ], [ 130.111203060672779, 33.130828892439467 ] ] ] } },
{ "type": "Feature", "properties": { "regioncode": "4120800", "regionname": "佐賀県小城市", "name": "小城市", "namekana": "おぎし", "PrefCode": "41" }, "geometry": { "type": "Polygon", "coordinates": [ [ [ 130.191769728190479, 33.342022775130999 ], [ 130.210139442181571, 33.340619440634725 ], [ 130.227484448848259, 33.331301946227882 ], [ 130.224841388119671, 33.316973054363018 ], [ 130.232453606049148, 33.308874721391305 ], [ 130.234047496994435, 33.298858053556387 ], [ 130.231476108635547, 33.29825389170378 ], [ 130.237591115437681, 33.294482775359825 ], [ 130.244698612251227, 33.272863891755264 ], [ 130.244408327282486, 33.251540802366208 ], [ 130.229720829852454, 33.256457774606645 ], [ 130.222448327228562, 33.25508305383994 ], [ 130.218435837344032, 33.248523054395491 ], [ 130.223391946281367, 33.240211946324337 ], [ 130.221406109204622, 33.229265559358112 ], [ 130.229828054221343, 33.215016386996695 ], [ 130.22810917010213, 33.207145559120306 ], [ 130.229332502593024, 33.203980828652391 ], [ 130.234585550582779, 33.204193892434262 ], [ 130.234951387596539, 33.198108054243335 ], [ 130.231102503277953, 33.197883053759995 ], [ 130.22981583693138, 33.192877775289162 ], [ 130.218149727927653, 33.197104161727736 ], [ 130.201325279438151, 33.194597494878565 ], [ 130.190651946430194, 33.206012495180573 ], [ 130.199652217575817, 33.206053053705489 ], [ 130.199182218384749, 33.214296666757832 ], [ 130.192870830224706, 33.214737494639735 ], [ 130.190148612068811, 33.221652774855727 ], [ 130.18457306089806, 33.219889440845066 ], [ 130.178957497090892, 33.227778053714246 ], [ 130.159953606373847, 33.231087225195324 ], [ 130.159811387585478, 33.237439161987766 ], [ 130.165705550570806, 33.243716386701919 ], [ 130.181864993574663, 33.246601386644727 ], [ 130.179040830070335, 33.248303612621669 ], [ 130.182798053687293, 33.250452494986689 ], [ 130.181238327087158, 33.255997224592306 ], [ 130.163153605554498, 33.279100279154591 ], [ 130.17183416321609, 33.283200828855229 ], [ 130.157250558166766, 33.292978613372384 ], [ 130.155578884857732, 33.29950777506383 ], [ 130.158193332756127, 33.302039441267254 ], [ 130.149489442184063, 33.309379440708653 ], [ 130.137053061149913, 33.312315559015872 ], [ 130.138147497409136, 33.333460559257446 ], [ 130.142811387835309, 33.338878333368427 ], [ 130.168257497385639, 33.337852494696904 ], [ 130.191666666783362, 33.342039441367149 ], [ 130.191769728190479, 33.342022775130999 ] ] ] } },
{ "type": "Feature", "properties": { "regioncode": "4120900", "regionname": "佐賀県嬉野市", "name": "嬉野市", "namekana": "うれしのし", "PrefCode": "41" }, "geometry": { "type": "Polygon", "coordinates": [ [ [ 130.079818326554573, 33.16666666733289 ], [ 130.087836109049249, 33.15063389204056 ], [ 130.083838885156524, 33.141598333296486 ], [ 130.070407781993595, 33.134673054417988 ], [ 130.07785527919782, 33.129156387257524 ], [ 130.082368612321716, 33.130768054202406 ], [ 130.083998054366816, 33.122900829010121 ], [ 130.078501388128643, 33.117275000341067 ], [ 130.084615837351066, 33.111017774750565 ], [ 130.075918611654629, 33.103328332936258 ], [ 130.07085527924778, 33.104036387169572 ], [ 130.075376666699867, 33.098044440898263 ], [ 130.061570557934942, 33.099108891961862 ], [ 130.062896939242364, 33.093901387439132 ], [ 130.039397224302547, 33.079226386988239 ], [ 130.041506666899181, 33.069408892006834 ], [ 130.048052776314648, 33.063051667200739 ], [ 130.044979442147564, 33.043225000233633 ], [ 130.037786938716295, 33.030495000443977 ], [ 130.044708053733757, 33.024415559130773 ], [ 130.042714720807794, 33.014423892448747 ], [ 130.047414449217513, 33.007634440876814 ], [ 130.044488611959991, 33.004108333133104 ], [ 130.028013890928378, 33.012445559315154 ], [ 130.027382503000126, 33.020314162268846 ], [ 130.015300558274248, 33.01741082874679 ], [ 130.008347781724865, 33.019678613177518 ], [ 129.993590829653158, 33.038782774705339 ], [ 129.996393606379911, 33.044506107870632 ], [ 129.994326394147834, 33.047914999777447 ], [ 129.982461388382376, 33.057304440847304 ], [ 129.939592775786082, 33.072886386897267 ], [ 129.933334721020628, 33.088104999646077 ], [ 129.922356667126564, 33.090493332801145 ], [ 129.926329999629843, 33.098106666789306 ], [ 129.925272503023621, 33.105900000085001 ], [ 129.933033606415847, 33.111181386611747 ], [ 129.940726667102012, 33.112864721429787 ], [ 129.955192218146408, 33.1082105589702 ], [ 129.96441221794953, 33.115350279391919 ], [ 129.97602472106405, 33.11033082940429 ], [ 129.986632503387341, 33.117339441262232 ], [ 129.992085550707657, 33.115570559333889 ], [ 129.995315278777184, 33.125339161772956 ], [ 129.988246394355656, 33.134210828966616 ], [ 130.004486939120966, 33.138777224789123 ], [ 130.00579972807509, 33.146539440642698 ], [ 130.019557223986794, 33.151537775448048 ], [ 130.028689441864344, 33.148468053857641 ], [ 130.033396938617898, 33.157773613361599 ], [ 130.048514162698552, 33.15877749508536 ], [ 130.056509728341325, 33.161760558902699 ], [ 130.058013891228143, 33.166421387137348 ], [ 130.060302775552714, 33.164636107870137 ], [ 130.059644994321047, 33.16735333298999 ], [ 130.071106394244794, 33.166421387137348 ], [ 130.076708612112839, 33.172044441397929 ], [ 130.079820830267181, 33.166796387343425 ], [ 130.079818326554573, 33.16666666733289 ] ] ] } },
{ "type": "Feature", "properties": { "regioncode": "4121000", "regionname": "佐賀県神埼市", "name": "神埼市", "namekana": "かんざきし", "PrefCode": "41" }, "geometry": { "type": "Polygon", "coordinates": [ [ [ 130.343158612080401, 33.444503892041041 ], [ 130.355267224402951, 33.433466386664463 ], [ 130.368811387635446, 33.436280829396821 ], [ 130.377946666805315, 33.427025559082324 ], [ 130.378001946332802, 33.413526387133118 ], [ 130.383303061287279, 33.409872224923276 ], [ 130.38371055759626, 33.4046388918714 ], [ 130.377508327347527, 33.395149440794114 ], [ 130.366843606247471, 33.393738613146525 ], [ 130.364996394268246, 33.389579162348525 ], [ 130.372318612314189, 33.378214441343459 ], [ 130.377163890601082, 33.377812224954255 ], [ 130.375365551379105, 33.370706667079048 ], [ 130.385588611825028, 33.335513332874086 ], [ 130.382042503159028, 33.323341107905833 ], [ 130.383576667429338, 33.31752110841245 ], [ 130.387254163448915, 33.317782494566529 ], [ 130.396946108576117, 33.282842494885301 ], [ 130.406173891112303, 33.285026386958236 ], [ 130.404241659924764, 33.281678053599364 ], [ 130.406847496814635, 33.281913053644587 ], [ 130.408116109271077, 33.271048333214083 ], [ 130.41746221830681, 33.268344441442878 ], [ 130.419509442207072, 33.261603054137709 ], [ 130.413387782220411, 33.251331108344004 ], [ 130.4020963937337, 33.248651107962303 ], [ 130.400018326684517, 33.259099441386184 ], [ 130.391068611826995, 33.259761387378148 ], [ 130.390308326767922, 33.245303333082404 ], [ 130.385204720921251, 33.240460829203982 ], [ 130.373939728435744, 33.244360829188963 ], [ 130.377151659821266, 33.251109440748166 ], [ 130.372815550697169, 33.253850559056104 ], [ 130.373693060586334, 33.25725166733065 ], [ 130.350114163038256, 33.256018332580027 ], [ 130.350392218126444, 33.250459161661013 ], [ 130.343626666937212, 33.249898332741907 ], [ 130.335655551162859, 33.297622775370826 ], [ 130.343582217945027, 33.2993624949832 ], [ 130.331140000310825, 33.356489441334702 ], [ 130.326785278817624, 33.360667494609231 ], [ 130.314880558091318, 33.360819441364185 ], [ 130.3074569387868, 33.35663249469394 ], [ 130.304632502787854, 33.348329162161178 ], [ 130.297703060947583, 33.35728499960311 ], [ 130.300826393823058, 33.361928613015152 ], [ 130.288715551181781, 33.368452775375317 ], [ 130.293131115408755, 33.371911945679813 ], [ 130.291821115252333, 33.382065278989501 ], [ 130.276775550951015, 33.380508612782307 ], [ 130.273701946087954, 33.387093613379591 ], [ 130.278657781631409, 33.402740558829805 ], [ 130.292911115155903, 33.402494999844407 ], [ 130.299257224341545, 33.409953054190169 ], [ 130.313121660436309, 33.411864720580468 ], [ 130.320196939037601, 33.420581386921526 ], [ 130.327332776186722, 33.422368053842661 ], [ 130.33320277618725, 33.440175829151258 ], [ 130.342930558398621, 33.44460333277766 ], [ 130.343158612080401, 33.444503892041041 ] ] ] } },
{ "type": "Feature", "properties": { "regioncode": "4132700", "regionname": "佐賀県吉野ヶ里町", "name": "吉野ヶ里町", "namekana": "よしのがりちょう", "PrefCode": "41" }, "geometry": { "type": "Polygon", "coordinates": [ [ [ 130.389449727822694, 33.426099162046739 ], [ 130.396719170053757, 33.42743027918408 ], [ 130.404766108569106, 33.416241387330217 ], [ 130.416808885122009, 33.410448891802957 ], [ 130.407555837032305, 33.399002495268974 ], [ 130.41744639383603, 33.388784161659771 ], [ 130.420146109155667, 33.3791030542626 ], [ 130.417796108703556, 33.367456108013016 ], [ 130.410895278794101, 33.359494721104568 ], [ 130.418816394061423, 33.335874441252486 ], [ 130.415483890569135, 33.335571946188395 ], [ 130.413355837402037, 33.314883332999443 ], [ 130.405794449154541, 33.302904721275922 ], [ 130.405404163171625, 33.290313054304079 ], [ 130.400455550982997, 33.289810279320989 ], [ 130.400963890970843, 33.283744162363234 ], [ 130.396946108576117, 33.282842494885301 ], [ 130.387254163448915, 33.317782494566529 ], [ 130.383576667429338, 33.31752110841245 ], [ 130.382042503159028, 33.323341107905833 ], [ 130.385588611825028, 33.335513332874086 ], [ 130.375365551379105, 33.370706667079048 ], [ 130.377163890601082, 33.377812224954255 ], [ 130.372318612314189, 33.378214441343459 ], [ 130.364996394268246, 33.389579162348525 ], [ 130.366753890779478, 33.393694162355757 ], [ 130.380764448720356, 33.398327224921559 ], [ 130.383570829929909, 33.409246946089752 ], [ 130.378001946332802, 33.413526387133118 ], [ 130.376707639346137, 33.421021278609146 ], [ 130.384081387646006, 33.427762225246568 ], [ 130.388932775926946, 33.426243612952419 ], [ 130.389449727822694, 33.426099162046739 ] ] ] } },
{ "type": "Feature", "properties": { "regioncode": "4134100", "regionname": "佐賀県基山町", "name": "基山町", "namekana": "きやまちょう", "PrefCode": "41" }, "geometry": { "type": "Polygon", "coordinates": [ [ [ 130.517305550810534, 33.446090279043176 ], [ 130.537002218077987, 33.438265829204681 ], [ 130.541821388146559, 33.39425305413522 ], [ 130.540686939250918, 33.403542225293506 ], [ 130.527053721552079, 33.403271774872564 ], [ 130.526888144672171, 33.411194892030721 ], [ 130.517239921884993, 33.412192802256072 ], [ 130.500412502934751, 33.405812224754413 ], [ 130.477895279343784, 33.423906945848898 ], [ 130.462372503288407, 33.427924441359949 ], [ 130.476593332616289, 33.438463892294862 ], [ 130.480250000337264, 33.436117495426117 ], [ 130.503535836709602, 33.446925829263648 ], [ 130.509383890554204, 33.443667494659223 ], [ 130.51229250309666, 33.449420829207952 ], [ 130.51697000026536, 33.446719441149355 ], [ 130.517305550810534, 33.446090279043176 ] ] ] } },
{ "type": "Feature", "properties": { "regioncode": "4134500", "regionname": "佐賀県上峰町", "name": "上峰町", "namekana": "かみみねちょう", "PrefCode": "41" }, "geometry": { "type": "Polygon", "coordinates": [ [ [ 130.420700829879479, 33.399328054346256 ], [ 130.429676108865351, 33.354844441018201 ], [ 130.427157497220833, 33.348418613228489 ], [ 130.43069277625068, 33.347875829206203 ], [ 130.429585279137427, 33.34383389192061 ], [ 130.433683060724775, 33.340019440844571 ], [ 130.425334163141201, 33.33639833321655 ], [ 130.427276938879686, 33.324069720641148 ], [ 130.442582502580535, 33.311384441438861 ], [ 130.43374639368119, 33.30716999979569 ], [ 130.431687496580821, 33.298904721175973 ], [ 130.424783332884545, 33.297853892143451 ], [ 130.418564448990196, 33.30356110765905 ], [ 130.416304163106702, 33.296632225197072 ], [ 130.40615194585564, 33.296612225174101 ], [ 130.405794449154541, 33.302904721275922 ], [ 130.413355837402037, 33.314883332999443 ], [ 130.415483890569135, 33.335571946188395 ], [ 130.418816394061423, 33.335874441252486 ], [ 130.410895278794101, 33.359494721104568 ], [ 130.417875278721226, 33.367663333396195 ], [ 130.419682218159892, 33.383605829345584 ], [ 130.410554163244115, 33.394427494733122 ], [ 130.414473333177853, 33.398981666970428 ], [ 130.420567782377361, 33.399422225055673 ], [ 130.420700829879479, 33.399328054346256 ] ] ] } },
{ "type": "Feature", "properties": { "regioncode": "4134600", "regionname": "佐賀県みやき町", "name": "みやき町", "namekana": "みやきちょう", "PrefCode": "41" }, "geometry": { "type": "Polygon", "coordinates": [ [ [ 130.440047223800434, 33.398703333092385 ], [ 130.441980271572334, 33.385544720912208 ], [ 130.456153333409702, 33.366184161769695 ], [ 130.457414163133194, 33.347315828562671 ], [ 130.467050829632171, 33.350069441151845 ], [ 130.47267165986932, 33.33817582885149 ], [ 130.479634721065622, 33.336239720686592 ], [ 130.476991946321277, 33.326003333187316 ], [ 130.489495836763467, 33.316721666871501 ], [ 130.484091115412753, 33.305351108367006 ], [ 130.456488884854252, 33.301997774777533 ], [ 130.455366666738314, 33.294696667417327 ], [ 130.467976667289463, 33.287283053969816 ], [ 130.452954994377592, 33.282947774919933 ], [ 130.44803499411978, 33.276467494978988 ], [ 130.450739170076645, 33.266357224806143 ], [ 130.445867496687697, 33.263748892297599 ], [ 130.436230000114506, 33.269793892274379 ], [ 130.438495279033987, 33.289376558781214 ], [ 130.433780272041986, 33.292449999967573 ], [ 130.426746108646057, 33.289845558825505 ], [ 130.430946394060925, 33.280531945892619 ], [ 130.428169728250396, 33.271697224647255 ], [ 130.420843061258324, 33.271850279366959 ], [ 130.41746221830681, 33.268344441442878 ], [ 130.409681388285549, 33.268937225072932 ], [ 130.406847496814635, 33.281913053644587 ], [ 130.404241659924764, 33.281678053599364 ], [ 130.406173891112303, 33.285026386958236 ], [ 130.401626108558162, 33.285184027321066 ], [ 130.400350000252388, 33.289637224578314 ], [ 130.405404163171625, 33.290313054304079 ], [ 130.40615194585564, 33.296612225174101 ], [ 130.416304163106702, 33.296632225197072 ], [ 130.417471387794421, 33.303408053838666 ], [ 130.422891946206391, 33.302565279364217 ], [ 130.424783332884545, 33.297853892143451 ], [ 130.432433060637322, 33.299265000379535 ], [ 130.43374639368119, 33.30716999979569 ], [ 130.442582502580535, 33.311384441438861 ], [ 130.427276938879686, 33.324069720641148 ], [ 130.425334163141201, 33.33639833321655 ], [ 130.433683060724775, 33.340019440844571 ], [ 130.429585279137427, 33.34383389192061 ], [ 130.43069277625068, 33.347875829206203 ], [ 130.427157497220833, 33.348418613228489 ], [ 130.429676108865351, 33.354844441018201 ], [ 130.422591388282058, 33.398460559307409 ], [ 130.440005551015474, 33.398860279178621 ], [ 130.440047223800434, 33.398703333092385 ] ] ] } },
{ "type": "Feature", "properties": { "regioncode": "4138700", "regionname": "佐賀県玄海町", "name": "玄海町", "namekana": "げんかいちょう", "PrefCode": "41" }, "geometry": { "type": "MultiPolygon", "coordinates": [ [ [ [ 129.848179572129652, 33.472893477252228 ], [ 129.849282775879487, 33.468443333193306 ], [ 129.847969092100016, 33.473061333014186 ], [ 129.848179572129652, 33.472893477252228 ] ] ], [ [ [ 129.830747781784794, 33.519793612984927 ], [ 129.845423450432008, 33.51724549458396 ], [ 129.851101205955956, 33.511388702926354 ], [ 129.850934449165607, 33.506473053588593 ], [ 129.857388443721788, 33.505653864734143 ], [ 129.856855278848116, 33.511409441292756 ], [ 129.868533891126276, 33.509066108414231 ], [ 129.901329728084534, 33.485378332643961 ], [ 129.905046666570456, 33.471026946036773 ], [ 129.894721388281482, 33.465475279060911 ], [ 129.898868885290881, 33.463190278908314 ], [ 129.894303061437199, 33.45826277470735 ], [ 129.896616938820785, 33.454641107701036 ], [ 129.892286393802124, 33.452229440736176 ], [ 129.889005550965521, 33.454535558769066 ], [ 129.886750000012512, 33.444971667208733 ], [ 129.891571660303953, 33.44306472135986 ], [ 129.880537781893167, 33.440925558867491 ], [ 129.877199727785296, 33.431388333105133 ], [ 129.872071946363349, 33.43080472076133 ], [ 129.866393606279985, 33.436509721246694 ], [ 129.85872666730188, 33.433353612579197 ], [ 129.863366667237983, 33.445448891553156 ], [ 129.848704993840443, 33.449631945957606 ], [ 129.854721114787708, 33.457309999656786 ], [ 129.858957497190772, 33.454083054089722 ], [ 129.857217911577436, 33.464794467990373 ], [ 129.852567393170716, 33.46863158557926 ], [ 129.857360220298006, 33.469065693726861 ], [ 129.849723060570795, 33.475416386756876 ], [ 129.840644162598096, 33.469813053729524 ], [ 129.831783890714064, 33.474858054355764 ], [ 129.845499169750951, 33.479618054429693 ], [ 129.834647224190121, 33.489413891937602 ], [ 129.841623748237453, 33.491271973123105 ], [ 129.829637496773103, 33.505209441362695 ], [ 129.836458560414258, 33.513673332558312 ], [ 129.830505551190299, 33.514899999735235 ], [ 129.828096666727902, 33.518181107871897 ], [ 129.830700558384137, 33.519793612984927 ], [ 129.830747781784794, 33.519793612984927 ] ] ] ] } },
{ "type": "Feature", "properties": { "regioncode": "4140100", "regionname": "佐賀県有田町", "name": "有田町", "namekana": "ありたちょう", "PrefCode": "41" }, "geometry": { "type": "Polygon", "coordinates": [ [ [ 129.854453606049105, 33.238692774651895 ], [ 129.869464994314058, 33.241084440694408 ], [ 129.87272555114339, 33.231049999557911 ], [ 129.879256667061554, 33.225556387417384 ], [ 129.897393333435616, 33.223655558757059 ], [ 129.906423891049826, 33.206740278740938 ], [ 129.905590830152732, 33.200129161831399 ], [ 129.912637224328478, 33.197076108275837 ], [ 129.912002218427688, 33.186267775337626 ], [ 129.918221659901747, 33.182558613289416 ], [ 129.917251115146883, 33.171239162357494 ], [ 129.928533605741336, 33.173769720596169 ], [ 129.938615279271744, 33.165374999856397 ], [ 129.887914163408027, 33.156174721286391 ], [ 129.885393060641263, 33.16193472071086 ], [ 129.858022217551365, 33.170790558937199 ], [ 129.852703332892588, 33.176853054325022 ], [ 129.843199728284844, 33.176936387304465 ], [ 129.837800558449089, 33.173254721128501 ], [ 129.817147782344364, 33.184535558769085 ], [ 129.816740557630737, 33.197735829345106 ], [ 129.810058326830358, 33.201796387093623 ], [ 129.806896666647958, 33.211169440717185 ], [ 129.813080000341756, 33.220942775388835 ], [ 129.810401946092952, 33.231155278693222 ], [ 129.814085837191669, 33.236373054373018 ], [ 129.843604720881217, 33.236045559055356 ], [ 129.85122722435699, 33.241801387424118 ], [ 129.854407781993586, 33.238719721038365 ], [ 129.854453606049105, 33.238692774651895 ] ] ] } },
{ "type": "Feature", "properties": { "regioncode": "4142300", "regionname": "佐賀県大町町", "name": "大町町", "namekana": "おおまちちょう", "PrefCode": "41" }, "geometry": { "type": "Polygon", "coordinates": [ [ [ 130.117474448786879, 33.235973332703168 ], [ 130.125558053561349, 33.23425749458778 ], [ 130.124887781645839, 33.226585828773011 ], [ 130.137751114922025, 33.215822774901198 ], [ 130.134138326922312, 33.213734720880723 ], [ 130.134945278701707, 33.208653332785104 ], [ 130.12603944176692, 33.204122495257025 ], [ 130.130620000113026, 33.200959999604322 ], [ 130.128131388053134, 33.196291667426578 ], [ 130.110928885259909, 33.202821667286173 ], [ 130.109794721449248, 33.210613891717799 ], [ 130.105836666628875, 33.202927495007941 ], [ 130.099303890562169, 33.202670000220394 ], [ 130.099280830146313, 33.208036387069683 ], [ 130.088727223882302, 33.213954161755225 ], [ 130.093338054307878, 33.214651945730736 ], [ 130.099928054236329, 33.223592494697925 ], [ 130.103492776170697, 33.23508000014192 ], [ 130.111718053845152, 33.239284441323946 ], [ 130.117107781698792, 33.236207224783641 ], [ 130.117474448786879, 33.235973332703168 ] ] ] } },
{ "type": "Feature", "properties": { "regioncode": "4142400", "regionname": "佐賀県江北町", "name": "江北町", "namekana": "こうほくまち", "PrefCode": "41" }, "geometry": { "type": "Polygon", "coordinates": [ [ [ 130.161472776247706, 33.249393332836121 ], [ 130.165705550570806, 33.243716386701919 ], [ 130.159811387585478, 33.237439161987766 ], [ 130.161863061331246, 33.229042225318494 ], [ 130.178957497090892, 33.227778053714246 ], [ 130.18457306089806, 33.219889440845066 ], [ 130.190148612068811, 33.221652774855727 ], [ 130.191679170057682, 33.215860828814243 ], [ 130.201583332704672, 33.210412225044195 ], [ 130.199404448956216, 33.205826386778369 ], [ 130.19329722398777, 33.20809166659717 ], [ 130.181735278959991, 33.199972775123513 ], [ 130.168099169940774, 33.202506945938865 ], [ 130.167440000155921, 33.192175278866102 ], [ 130.160505550890548, 33.188504721116033 ], [ 130.136330272424175, 33.196726387113131 ], [ 130.135816666905725, 33.20020722478364 ], [ 130.142029441705404, 33.204814721422281 ], [ 130.134945278701707, 33.208653332785104 ], [ 130.136278885162483, 33.218528891595099 ], [ 130.124887781645839, 33.226585828773011 ], [ 130.126299442065715, 33.237672775278384 ], [ 130.13260165983877, 33.24049389187968 ], [ 130.135037223589052, 33.24707416204302 ], [ 130.150143606342453, 33.244608613097057 ], [ 130.15013250331242, 33.248891108238126 ], [ 130.158808054448173, 33.254112494695903 ], [ 130.161216199667933, 33.250000000199918 ], [ 130.161472776247706, 33.249393332836121 ] ] ] } },
{ "type": "Feature", "properties": { "regioncode": "4142500", "regionname": "佐賀県白石町", "name": "白石町", "namekana": "しろいしちょう", "PrefCode": "41" }, "geometry": { "type": "Polygon", "coordinates": [ [ [ 130.110928885259909, 33.202821667286173 ], [ 130.128131388053134, 33.196291667426578 ], [ 130.130620000113026, 33.200959999604322 ], [ 130.12603944176692, 33.204122495257025 ], [ 130.134945278701707, 33.208653332785104 ], [ 130.142029441705404, 33.204814721422281 ], [ 130.135816666905725, 33.20020722478364 ], [ 130.136895278694169, 33.196233892280361 ], [ 130.160505550890548, 33.188504721116033 ], [ 130.167440000155921, 33.192175278866102 ], [ 130.168099169940774, 33.202506945938865 ], [ 130.181735278959991, 33.199972775123513 ], [ 130.190207496978474, 33.206116667250456 ], [ 130.202443891272651, 33.19411082855197 ], [ 130.218149727927653, 33.197104161727736 ], [ 130.23120639386002, 33.192141946393747 ], [ 130.232404410435265, 33.183768532391923 ], [ 130.222810895206749, 33.164767080636295 ], [ 130.19007255460474, 33.146078666697179 ], [ 130.191727173170534, 33.140419585595453 ], [ 130.169957612653775, 33.130236080930445 ], [ 130.171270194763792, 33.128029559216827 ], [ 130.168821115102446, 33.129736252126406 ], [ 130.149089441724414, 33.112402495079152 ], [ 130.129509701611482, 33.117830053813975 ], [ 130.127912502959703, 33.124139162192648 ], [ 130.122702776212236, 33.123301946427716 ], [ 130.120772217763715, 33.128538053888121 ], [ 130.112649999697737, 33.128445829311602 ], [ 130.110760558253219, 33.131559441415163 ], [ 130.07785527919782, 33.129156387257524 ], [ 130.070532776066784, 33.134311386661238 ], [ 130.083838885156524, 33.141598333296486 ], [ 130.088214994326563, 33.152026666697338 ], [ 130.070282502835312, 33.18163138707888 ], [ 130.084030271679808, 33.18410999957689 ], [ 130.088569728310404, 33.199307495344669 ], [ 130.096684721222914, 33.205344440993201 ], [ 130.105636108819454, 33.202821667286173 ], [ 130.109794721449248, 33.210613891717799 ], [ 130.110370272270302, 33.2032619456823 ], [ 130.110928885259909, 33.202821667286173 ] ] ] } },
{ "type": "Feature", "properties": { "regioncode": "4144100", "regionname": "佐賀県太良町", "name": "太良町", "namekana": "たらちょう", "PrefCode": "41" }, "geometry": { "type": "MultiPolygon", "coordinates": [ [ [ [ 130.223975837415082, 32.958272775268426 ], [ 130.224963605985636, 32.955749999762759 ], [ 130.219344994376002, 32.955022225195592 ], [ 130.218106666589506, 32.950524441349955 ], [ 130.212558222783855, 32.954697495293203 ], [ 130.216968002571321, 32.959175198176922 ], [ 130.223950699565194, 32.95833333291705 ], [ 130.223975837415082, 32.958272775268426 ] ] ], [ [ [ 130.169762607258576, 33.046317152714494 ], [ 130.172711283698845, 33.042545693728812 ], [ 130.171338494675865, 33.035646468210018 ], [ 130.176419999683276, 33.030231667257681 ], [ 130.182258520714186, 33.030502495393876 ], [ 130.177676393950492, 33.030185559016388 ], [ 130.182734720730878, 33.024771667278685 ], [ 130.178944721321841, 33.023389721358626 ], [ 130.182289728088563, 33.017820558971664 ], [ 130.179185836757028, 33.01789666679781 ], [ 130.185262995590847, 33.019700667252039 ], [ 130.181242217554313, 33.015106973408137 ], [ 130.187884994197134, 33.011673054268101 ], [ 130.189900440552947, 33.00039822499815 ], [ 130.186836938673878, 32.999873892366281 ], [ 130.192468885430799, 32.999510279375954 ], [ 130.193778884687845, 32.995389440969973 ], [ 130.191203333367184, 32.990154721163492 ], [ 130.205091388357005, 32.990906945599136 ], [ 130.210946108875874, 32.985454721158533 ], [ 130.207326109212659, 32.981793892274368 ], [ 130.209282775879501, 32.979050279247019 ], [ 130.215159662888141, 32.979925585797218 ], [ 130.214487275767283, 32.982514108039709 ], [ 130.22434241187284, 32.97307855872856 ], [ 130.224921283890239, 32.960775639784003 ], [ 130.221930830343581, 32.963264161911582 ], [ 130.211871309813205, 32.955132027021477 ], [ 130.212572165872871, 32.958041494819156 ], [ 130.150091945686768, 32.962590558907209 ], [ 130.144056108902419, 32.9716844413839 ], [ 130.131341387694988, 32.968294721224481 ], [ 130.103026108967811, 32.974739999551389 ], [ 130.088682218209897, 32.974031667427539 ], [ 130.077568327116637, 32.984475559099849 ], [ 130.079801946302837, 32.992668332577523 ], [ 130.08811306066923, 32.993878053829178 ], [ 130.095339728445765, 33.001131107714514 ], [ 130.096892775781043, 33.014240559354391 ], [ 130.11409861236109, 33.026799161851898 ], [ 130.11528333335923, 33.022692774651887 ], [ 130.121148611919011, 33.024185278727657 ], [ 130.170024047371953, 33.049051188861313 ], [ 130.169762607258576, 33.046317152714494 ] ] ] ] } }
]
}
